{
"type": "FeatureCollection",
"name": "anyangshi",
"crs": { "type": "name", "properties": { "name": "urn:ogc:def:crs:OGC:1.3:CRS84" } },
"features": [
{ "type": "Feature", "properties": { "OBJECTID": 1260, "adm_nm": "경기도 안양시만안구 안양1동", "adm_cd": "3104151", "adm_cd2": "4117151000", "sgg": "41171", "sido": "41", "sidonm": "경기도", "sggnm": "안양시만안구" }, "geometry": { "type": "MultiPolygon", "coordinates": [ [ [ [ 126.927839179455134, 37.400833855404471 ], [ 126.927863216805832, 37.400816025444911 ], [ 126.927897702820061, 37.400788844748909 ], [ 126.928501304025247, 37.400294063311883 ], [ 126.929552344157699, 37.399429223743155 ], [ 126.930317236384298, 37.398679602985801 ], [ 126.931463139216703, 37.397442056369577 ], [ 126.92826900102736, 37.39573539891088 ], [ 126.926147627637832, 37.394656985702618 ], [ 126.925288777572149, 37.394226925819723 ], [ 126.925148079724792, 37.394371867365216 ], [ 126.925048226590206, 37.394474751085639 ], [ 126.92391397036873, 37.395802132279769 ], [ 126.923323611435563, 37.396453874850557 ], [ 126.921618902825131, 37.39828830442201 ], [ 126.919875466818823, 37.400507790091723 ], [ 126.92016311340052, 37.40075598073777 ], [ 126.920488092510183, 37.401075396909448 ], [ 126.920549752941923, 37.401165745928139 ], [ 126.920623518120919, 37.401306946403942 ], [ 126.920639852748977, 37.401401255617429 ], [ 126.920649880492689, 37.401459181691045 ], [ 126.920646284484036, 37.401651831806312 ], [ 126.920615547896176, 37.402158701520712 ], [ 126.920598752828354, 37.402413256078212 ], [ 126.920652616109265, 37.402847304020874 ], [ 126.920947365185668, 37.40354845384276 ], [ 126.922342902385267, 37.404540008065133 ], [ 126.923306218471524, 37.403976848023838 ], [ 126.923812254220664, 37.403645808508635 ], [ 126.927839179455134, 37.400833855404471 ] ] ] ] } },
{ "type": "Feature", "properties": { "OBJECTID": 1261, "adm_nm": "경기도 안양시만안구 안양2동", "adm_cd": "3104152", "adm_cd2": "4117152000", "sgg": "41171", "sido": "41", "sidonm": "경기도", "sggnm": "안양시만안구" }, "geometry": { "type": "MultiPolygon", "coordinates": [ [ [ [ 126.92689671889076, 37.415421433186268 ], [ 126.926048728921927, 37.413087256469865 ], [ 126.925641767343308, 37.41148327311889 ], [ 126.92731941034954, 37.410767050189961 ], [ 126.928308513446709, 37.410334385028605 ], [ 126.928024593154504, 37.409437825700252 ], [ 126.927785867749961, 37.408852485383683 ], [ 126.927515567998739, 37.407342510793775 ], [ 126.928237183402715, 37.404943853950286 ], [ 126.927839179455134, 37.400833855404471 ], [ 126.923812254220664, 37.403645808508635 ], [ 126.923306218471524, 37.403976848023838 ], [ 126.922342902385267, 37.404540008065133 ], [ 126.920947365185668, 37.40354845384276 ], [ 126.920652616109265, 37.402847304020874 ], [ 126.920598752828354, 37.402413256078212 ], [ 126.920615547896176, 37.402158701520712 ], [ 126.920646284484036, 37.401651831806312 ], [ 126.920649880492689, 37.401459181691045 ], [ 126.920639852748977, 37.401401255617429 ], [ 126.920623518120919, 37.401306946403942 ], [ 126.920549752941923, 37.401165745928139 ], [ 126.920488092510183, 37.401075396909448 ], [ 126.92016311340052, 37.40075598073777 ], [ 126.919875466818823, 37.400507790091723 ], [ 126.918656803463932, 37.401959756177646 ], [ 126.913355513817436, 37.402620912855127 ], [ 126.913063451617973, 37.404833447071127 ], [ 126.910854586108556, 37.408520324716143 ], [ 126.91121122413837, 37.408611111430474 ], [ 126.912849251312323, 37.409029337688118 ], [ 126.912868002729539, 37.409156791412229 ], [ 126.91297071785489, 37.41038316187737 ], [ 126.913608510039509, 37.413188442914411 ], [ 126.91422253888112, 37.413511483171526 ], [ 126.915314195415789, 37.414087002005537 ], [ 126.91550710913576, 37.414300903971956 ], [ 126.915647616381406, 37.414588476745514 ], [ 126.915651264830714, 37.414616319988802 ], [ 126.915682064898832, 37.414918078740008 ], [ 126.915691383967172, 37.4150814976189 ], [ 126.915709083177404, 37.41540847493976 ], [ 126.915717292065992, 37.415564983843979 ], [ 126.915730974369168, 37.415803913766908 ], [ 126.915831460954053, 37.416035106253325 ], [ 126.915948182313485, 37.416301865676722 ], [ 126.915982371128905, 37.416340631115531 ], [ 126.916049001481753, 37.416416161311204 ], [ 126.91812973988884, 37.417786358380091 ], [ 126.918760155259264, 37.418193948005737 ], [ 126.918912900211595, 37.4182611747121 ], [ 126.919084659945668, 37.418336381620421 ], [ 126.919309223347696, 37.418434381836725 ], [ 126.919992612553088, 37.418567308179782 ], [ 126.920523994763514, 37.418629629636932 ], [ 126.922349852497604, 37.417430733525514 ], [ 126.922431787186611, 37.417337617003433 ], [ 126.922534924468792, 37.417152204836889 ], [ 126.922582960298541, 37.416966541483184 ], [ 126.922603805877344, 37.416552014336489 ], [ 126.922651982101314, 37.416442940804401 ], [ 126.922768963748695, 37.41629029761846 ], [ 126.922987897625475, 37.416109966204104 ], [ 126.923348470631822, 37.415969760164657 ], [ 126.924094801099798, 37.415813405482702 ], [ 126.924891891598222, 37.415648099066217 ], [ 126.925496189903996, 37.415522772622175 ], [ 126.926203574186957, 37.415470999306692 ], [ 126.92689671889076, 37.415421433186268 ] ] ] ] } },
{ "type": "Feature", "properties": { "OBJECTID": 1262, "adm_nm": "경기도 안양시만안구 안양3동", "adm_cd": "3104153", "adm_cd2": "4117153000", "sgg": "41171", "sido": "41", "sidonm": "경기도", "sggnm": "안양시만안구" }, "geometry": { "type": "MultiPolygon", "coordinates": [ [ [ [ 126.919875466818823, 37.400507790091723 ], [ 126.916881563240466, 37.398851473148383 ], [ 126.916805934150844, 37.398791636783741 ], [ 126.916744004922265, 37.398742630305414 ], [ 126.914702787559264, 37.395896459030403 ], [ 126.916499045700192, 37.39327111872435 ], [ 126.915842970765894, 37.391741302696069 ], [ 126.91432736385589, 37.392227339530301 ], [ 126.914178116396059, 37.392276135045357 ], [ 126.914114230548748, 37.392319760342914 ], [ 126.914073590578795, 37.392374727364604 ], [ 126.913439470569557, 37.393738327120488 ], [ 126.913098800251944, 37.394861114201078 ], [ 126.912752787092032, 37.394963035816147 ], [ 126.912703248057682, 37.394977437040865 ], [ 126.90989798211902, 37.394970230805896 ], [ 126.907832073166418, 37.394954269196056 ], [ 126.906346098883517, 37.394813920101491 ], [ 126.905749077504169, 37.395115070444938 ], [ 126.904338311614381, 37.397083224472659 ], [ 126.905063781510947, 37.397840493909627 ], [ 126.906077701526428, 37.397783658066253 ], [ 126.907915052079005, 37.397690341982539 ], [ 126.907968722536609, 37.397695415021609 ], [ 126.90814155406224, 37.397711756775564 ], [ 126.90831676329023, 37.397789250073259 ], [ 126.910259577427311, 37.39946648965774 ], [ 126.910534532208899, 37.400055925818371 ], [ 126.913355513817436, 37.402620912855127 ], [ 126.918656803463932, 37.401959756177646 ], [ 126.919875466818823, 37.400507790091723 ] ] ] ] } },
{ "type": "Feature", "properties": { "OBJECTID": 1263, "adm_nm": "경기도 안양시만안구 안양4동", "adm_cd": "3104154", "adm_cd2": "4117154000", "sgg": "41171", "sido": "41", "sidonm": "경기도", "sggnm": "안양시만안구" }, "geometry": { "type": "MultiPolygon", "coordinates": [ [ [ [ 126.923323611435563, 37.396453874850557 ], [ 126.91885163771633, 37.39446918763845 ], [ 126.918867817756379, 37.394424871956481 ], [ 126.918851407805022, 37.394384831747907 ], [ 126.918834109505923, 37.39435874218934 ], [ 126.918181728182958, 37.393622043684232 ], [ 126.917243690766156, 37.393105923644825 ], [ 126.916719003077091, 37.393221614502558 ], [ 126.916499045700192, 37.39327111872435 ], [ 126.914702787559264, 37.395896459030403 ], [ 126.916744004922265, 37.398742630305414 ], [ 126.916805934150844, 37.398791636783741 ], [ 126.916881563240466, 37.398851473148383 ], [ 126.919875466818823, 37.400507790091723 ], [ 126.921618902825131, 37.39828830442201 ], [ 126.923323611435563, 37.396453874850557 ] ] ] ] } },
{ "type": "Feature", "properties": { "OBJECTID": 1264, "adm_nm": "경기도 안양시만안구 안양5동", "adm_cd": "3104155", "adm_cd2": "4117155000", "sgg": "41171", "sido": "41", "sidonm": "경기도", "sggnm": "안양시만안구" }, "geometry": { "type": "MultiPolygon", "coordinates": [ [ [ [ 126.92826900102736, 37.39573539891088 ], [ 126.930142489831013, 37.394297666735469 ], [ 126.926708232414128, 37.392452163665816 ], [ 126.927135732377408, 37.39192949595941 ], [ 126.927300918948845, 37.391731904291497 ], [ 126.927434851193127, 37.391571478725979 ], [ 126.92635144343096, 37.390983760786668 ], [ 126.926167201559792, 37.390885969427693 ], [ 126.92531350274902, 37.39043339130086 ], [ 126.925225548477712, 37.390392307457518 ], [ 126.924086939505088, 37.389991385492785 ], [ 126.920446147902865, 37.388300427025293 ], [ 126.918811214103386, 37.387267101780168 ], [ 126.918643629132035, 37.387845400225558 ], [ 126.917319915223615, 37.390753694351822 ], [ 126.916956430151927, 37.391009920137584 ], [ 126.915842970765894, 37.391741302696069 ], [ 126.916499045700192, 37.39327111872435 ], [ 126.916719003077091, 37.393221614502558 ], [ 126.917243690766156, 37.393105923644825 ], [ 126.918181728182958, 37.393622043684232 ], [ 126.918834109505923, 37.39435874218934 ], [ 126.918851407805022, 37.394384831747907 ], [ 126.918867817756379, 37.394424871956481 ], [ 126.91885163771633, 37.39446918763845 ], [ 126.923323611435563, 37.396453874850557 ], [ 126.92391397036873, 37.395802132279769 ], [ 126.925048226590206, 37.394474751085639 ], [ 126.925148079724792, 37.394371867365216 ], [ 126.925288777572149, 37.394226925819723 ], [ 126.926147627637832, 37.394656985702618 ], [ 126.92826900102736, 37.39573539891088 ] ] ] ] } },
{ "type": "Feature", "properties": { "OBJECTID": 1265, "adm_nm": "경기도 안양시만안구 안양6동", "adm_cd": "3104156", "adm_cd2": "4117156000", "sgg": "41171", "sido": "41", "sidonm": "경기도", "sggnm": "안양시만안구" }, "geometry": { "type": "MultiPolygon", "coordinates": [ [ [ [ 126.936009490373863, 37.383260523291789 ], [ 126.933824711538733, 37.383895558380132 ], [ 126.93376981552683, 37.383967405361844 ], [ 126.932236649328289, 37.385795457087283 ], [ 126.925789961193942, 37.384247789695713 ], [ 126.925741270270706, 37.384224811635484 ], [ 126.925688662575183, 37.384199974832498 ], [ 126.925436486565545, 37.384031995984927 ], [ 126.924169152605515, 37.383026435953873 ], [ 126.921934103206212, 37.380899559682781 ], [ 126.920582212572427, 37.379335822336692 ], [ 126.919431208463052, 37.377818124322502 ], [ 126.919353657435778, 37.377714085687231 ], [ 126.919285070042349, 37.37754474146579 ], [ 126.919210244062171, 37.37717819028915 ], [ 126.919178246143204, 37.376933536574491 ], [ 126.917530379006422, 37.376781211457292 ], [ 126.917589527207937, 37.377165713044505 ], [ 126.917595583071346, 37.377206376765848 ], [ 126.917613685162692, 37.377328079164535 ], [ 126.917609938084638, 37.377447492641117 ], [ 126.917288484411415, 37.37894106152487 ], [ 126.916633681241137, 37.379629636869439 ], [ 126.914811330490323, 37.381345139220571 ], [ 126.914703360840349, 37.381386789124335 ], [ 126.91459313989175, 37.381489901375645 ], [ 126.914520879342717, 37.381612355623467 ], [ 126.914489922860398, 37.381781456635096 ], [ 126.914501494273821, 37.382108014382183 ], [ 126.914548936391952, 37.382816953112943 ], [ 126.914821319672384, 37.383285892540478 ], [ 126.915054428523518, 37.383542805622774 ], [ 126.916118684696158, 37.384137337018537 ], [ 126.916760338323797, 37.384474056090234 ], [ 126.917562225048925, 37.384894847742878 ], [ 126.918481093696457, 37.38547845621347 ], [ 126.918816141959496, 37.385711124948777 ], [ 126.91891831973247, 37.385827678700252 ], [ 126.918907875385543, 37.386099328783317 ], [ 126.918811214103386, 37.387267101780168 ], [ 126.920446147902865, 37.388300427025293 ], [ 126.924086939505088, 37.389991385492785 ], [ 126.925225548477712, 37.390392307457518 ], [ 126.92531350274902, 37.39043339130086 ], [ 126.926167201559792, 37.390885969427693 ], [ 126.92635144343096, 37.390983760786668 ], [ 126.927434851193127, 37.391571478725979 ], [ 126.927300918948845, 37.391731904291497 ], [ 126.927135732377408, 37.39192949595941 ], [ 126.926708232414128, 37.392452163665816 ], [ 126.930142489831013, 37.394297666735469 ], [ 126.933358485489833, 37.390438333298455 ], [ 126.936009490373863, 37.383260523291789 ] ] ] ] } },
{ "type": "Feature", "properties": { "OBJECTID": 1266, "adm_nm": "경기도 안양시만안구 안양7동", "adm_cd": "3104157", "adm_cd2": "4117157000", "sgg": "41171", "sido": "41", "sidonm": "경기도", "sggnm": "안양시만안구" }, "geometry": { "type": "MultiPolygon", "coordinates": [ [ [ [ 126.931491010399327, 37.397423011014595 ], [ 126.937671851927547, 37.394647002790954 ], [ 126.938051991087193, 37.39443468021107 ], [ 126.938696433166257, 37.39407273977573 ], [ 126.939718185895728, 37.393498454370977 ], [ 126.940164129527204, 37.39306340131153 ], [ 126.940328225420203, 37.392869986599933 ], [ 126.940551630632598, 37.392606662455435 ], [ 126.940822501335447, 37.392167398241959 ], [ 126.94133772344486, 37.391821690386315 ], [ 126.941422373461407, 37.391539274041762 ], [ 126.941651924756258, 37.390671660926579 ], [ 126.941739313741536, 37.390312651413709 ], [ 126.941761514867508, 37.390172110626942 ], [ 126.941771733768803, 37.390035632538677 ], [ 126.941779302062344, 37.389871167848597 ], [ 126.94130079701786, 37.386134971828746 ], [ 126.940659508822677, 37.384739319327586 ], [ 126.940145692599756, 37.383754139004353 ], [ 126.939443404409388, 37.38232351486544 ], [ 126.939082720643157, 37.381460993175274 ], [ 126.939023369054382, 37.381278183548417 ], [ 126.939007710560148, 37.381105721613629 ], [ 126.939007331015063, 37.380967133654607 ], [ 126.939021011491278, 37.38083649940571 ], [ 126.939040493224581, 37.380684485050956 ], [ 126.939079634889382, 37.380548337974922 ], [ 126.939098977726701, 37.380511248062525 ], [ 126.939158403792959, 37.380398858215507 ], [ 126.939409188486209, 37.38008859568081 ], [ 126.939450537318862, 37.380037440427301 ], [ 126.939509604828842, 37.379974624238812 ], [ 126.940659656050983, 37.379206010080836 ], [ 126.940816970646196, 37.379126761608958 ], [ 126.941185375113065, 37.376762397268422 ], [ 126.940956049137355, 37.377128622494126 ], [ 126.940877605116356, 37.377235289826068 ], [ 126.940785300598407, 37.377360405786803 ], [ 126.940739262407078, 37.377422797523998 ], [ 126.940511983040679, 37.377704528605655 ], [ 126.940296998244094, 37.377945755592492 ], [ 126.940214984088271, 37.378032548300972 ], [ 126.940195243287647, 37.378053438842855 ], [ 126.940026624077547, 37.378230661895273 ], [ 126.939684626074595, 37.378558043490884 ], [ 126.9388637232816, 37.379302291471973 ], [ 126.938679524449057, 37.379465548454483 ], [ 126.938376924786056, 37.379733766721337 ], [ 126.937944693353018, 37.380137331346972 ], [ 126.937483681250583, 37.380612867326988 ], [ 126.937138782862334, 37.381042758772992 ], [ 126.936910455721872, 37.381366166204081 ], [ 126.936765359988158, 37.381605465868461 ], [ 126.936743307447699, 37.3816421999596 ], [ 126.93664668960335, 37.381803202718743 ], [ 126.936508446471819, 37.382068449165871 ], [ 126.936444551757162, 37.382211237678995 ], [ 126.936242783045628, 37.382663215953322 ], [ 126.936009490373863, 37.383260523291789 ], [ 126.933358485489833, 37.390438333298455 ], [ 126.930142489831013, 37.394297666735469 ], [ 126.92826900102736, 37.39573539891088 ], [ 126.931463139216703, 37.397442056369577 ], [ 126.931491010399327, 37.397423011014595 ] ] ] ] } },
{ "type": "Feature", "properties": { "OBJECTID": 1267, "adm_nm": "경기도 안양시만안구 안양8동", "adm_cd": "3104158", "adm_cd2": "4117158000", "sgg": "41171", "sido": "41", "sidonm": "경기도", "sggnm": "안양시만안구" }, "geometry": { "type": "MultiPolygon", "coordinates": [ [ [ [ 126.936009490373863, 37.383260523291789 ], [ 126.936242783045628, 37.382663215953322 ], [ 126.936444551757162, 37.382211237678995 ], [ 126.936508446471819, 37.382068449165871 ], [ 126.93664668960335, 37.381803202718743 ], [ 126.936743307447699, 37.3816421999596 ], [ 126.936765359988158, 37.381605465868461 ], [ 126.936910455721872, 37.381366166204081 ], [ 126.937138782862334, 37.381042758772992 ], [ 126.937483681250583, 37.380612867326988 ], [ 126.937944693353018, 37.380137331346972 ], [ 126.938376924786056, 37.379733766721337 ], [ 126.938679524449057, 37.379465548454483 ], [ 126.9388637232816, 37.379302291471973 ], [ 126.939684626074595, 37.378558043490884 ], [ 126.940026624077547, 37.378230661895273 ], [ 126.940195243287647, 37.378053438842855 ], [ 126.940214984088271, 37.378032548300972 ], [ 126.940296998244094, 37.377945755592492 ], [ 126.940511983040679, 37.377704528605655 ], [ 126.940739262407078, 37.377422797523998 ], [ 126.940785300598407, 37.377360405786803 ], [ 126.940877605116356, 37.377235289826068 ], [ 126.940956049137355, 37.377128622494126 ], [ 126.941185375113065, 37.376762397268422 ], [ 126.940555317415615, 37.376242254182237 ], [ 126.940511108141607, 37.376205990078446 ], [ 126.940318167427407, 37.376048476914761 ], [ 126.940076115393083, 37.375851238119886 ], [ 126.939165660792526, 37.376011455542816 ], [ 126.937373770821438, 37.37655554090977 ], [ 126.934893825929208, 37.376996152574037 ], [ 126.932765424432162, 37.37747033441299 ], [ 126.930979992717909, 37.377528666348361 ], [ 126.926947256171701, 37.377638452139792 ], [ 126.924137308879381, 37.377312702496397 ], [ 126.923923136376601, 37.377256450315649 ], [ 126.921417807264717, 37.376518614550996 ], [ 126.919899024074681, 37.376564130195 ], [ 126.919178246143204, 37.376933536574491 ], [ 126.919210244062171, 37.37717819028915 ], [ 126.919285070042349, 37.37754474146579 ], [ 126.919353657435778, 37.377714085687231 ], [ 126.919431208463052, 37.377818124322502 ], [ 126.920582212572427, 37.379335822336692 ], [ 126.921934103206212, 37.380899559682781 ], [ 126.924169152605515, 37.383026435953873 ], [ 126.925436486565545, 37.384031995984927 ], [ 126.925688662575183, 37.384199974832498 ], [ 126.925741270270706, 37.384224811635484 ], [ 126.925789961193942, 37.384247789695713 ], [ 126.932236649328289, 37.385795457087283 ], [ 126.93376981552683, 37.383967405361844 ], [ 126.933824711538733, 37.383895558380132 ], [ 126.936009490373863, 37.383260523291789 ] ] ] ] } },
{ "type": "Feature", "properties": { "OBJECTID": 1268, "adm_nm": "경기도 안양시만안구 안양9동", "adm_cd": "3104159", "adm_cd2": "4117158100", "sgg": "41171", "sido": "41", "sidonm": "경기도", "sggnm": "안양시만안구" }, "geometry": { "type": "MultiPolygon", "coordinates": [ [ [ [ 126.915842970765894, 37.391741302696069 ], [ 126.916956430151927, 37.391009920137584 ], [ 126.917319915223615, 37.390753694351822 ], [ 126.918643629132035, 37.387845400225558 ], [ 126.918811214103386, 37.387267101780168 ], [ 126.918907875385543, 37.386099328783317 ], [ 126.91891831973247, 37.385827678700252 ], [ 126.918816141959496, 37.385711124948777 ], [ 126.918481093696457, 37.38547845621347 ], [ 126.917562225048925, 37.384894847742878 ], [ 126.916760338323797, 37.384474056090234 ], [ 126.916118684696158, 37.384137337018537 ], [ 126.915054428523518, 37.383542805622774 ], [ 126.914821319672384, 37.383285892540478 ], [ 126.914548936391952, 37.382816953112943 ], [ 126.914501494273821, 37.382108014382183 ], [ 126.914489922860398, 37.381781456635096 ], [ 126.914520879342717, 37.381612355623467 ], [ 126.91459313989175, 37.381489901375645 ], [ 126.914703360840349, 37.381386789124335 ], [ 126.914811330490323, 37.381345139220571 ], [ 126.916633681241137, 37.379629636869439 ], [ 126.917288484411415, 37.37894106152487 ], [ 126.917609938084638, 37.377447492641117 ], [ 126.917613685162692, 37.377328079164535 ], [ 126.917595583071346, 37.377206376765848 ], [ 126.917589527207937, 37.377165713044505 ], [ 126.917530379006422, 37.376781211457292 ], [ 126.916897559146108, 37.376091922713954 ], [ 126.916677540886823, 37.375880141726441 ], [ 126.916497365599838, 37.375810523198645 ], [ 126.91584740873958, 37.375604505655659 ], [ 126.915599786483156, 37.375534498518391 ], [ 126.915494514469998, 37.375504737731056 ], [ 126.914826737797185, 37.375412424885994 ], [ 126.913774423842327, 37.372846186300826 ], [ 126.913354323206718, 37.372134270614126 ], [ 126.912803618742345, 37.371152420508729 ], [ 126.912651607494567, 37.370880847939013 ], [ 126.912534205273673, 37.370671101048764 ], [ 126.911705912281093, 37.36908738379794 ], [ 126.911697280624239, 37.369014046533366 ], [ 126.911719958747042, 37.368925752565801 ], [ 126.911777357951294, 37.368702344041012 ], [ 126.911804883860171, 37.368521079392337 ], [ 126.911805237035551, 37.36835722034126 ], [ 126.911805416120529, 37.368272077427498 ], [ 126.911756180641703, 37.368069023368037 ], [ 126.911636592800946, 37.367836324667792 ], [ 126.911536240425036, 37.367671324615721 ], [ 126.910496768299012, 37.36601888664589 ], [ 126.910312741438545, 37.365809499403177 ], [ 126.910192798633275, 37.365717664221911 ], [ 126.908308849834697, 37.363389369289244 ], [ 126.907994365095036, 37.361636634280153 ], [ 126.907919567041745, 37.361377454382911 ], [ 126.90775115242559, 37.360805364768119 ], [ 126.907591821190991, 37.360333598353073 ], [ 126.907433492432602, 37.360095067559961 ], [ 126.907247954289176, 37.359904849117534 ], [ 126.906968748012531, 37.359697263618315 ], [ 126.905540687738679, 37.358751595882588 ], [ 126.905262152556872, 37.358177761066585 ], [ 126.905044350747517, 37.357874704985782 ], [ 126.904342652458666, 37.357093737119776 ], [ 126.904076021719661, 37.356987609231815 ], [ 126.901188697045257, 37.35682768091791 ], [ 126.900968175570739, 37.356869379681228 ], [ 126.897237869765277, 37.358067270826375 ], [ 126.89605387777722, 37.359376046348643 ], [ 126.895686897141488, 37.359980427666436 ], [ 126.895605853310784, 37.360142261030198 ], [ 126.895559036061599, 37.360453771242462 ], [ 126.893869805121156, 37.366353985928392 ], [ 126.891280397877964, 37.374794439010671 ], [ 126.891097252523281, 37.375271248747616 ], [ 126.893445510460481, 37.379866766914198 ], [ 126.895210653407233, 37.381679676940593 ], [ 126.895480779840668, 37.382199635087517 ], [ 126.895598591339507, 37.382426418378493 ], [ 126.895563978289971, 37.382519700156386 ], [ 126.895418223750895, 37.382908856759059 ], [ 126.894716981301869, 37.38328609895985 ], [ 126.894518736552826, 37.383443950767322 ], [ 126.894116667040819, 37.38410327248446 ], [ 126.895099020596874, 37.386525102145612 ], [ 126.895645878884125, 37.387265895454085 ], [ 126.895957096433335, 37.387371143207439 ], [ 126.896607965285, 37.387295037327469 ], [ 126.896928396483631, 37.387218360834154 ], [ 126.897339821231412, 37.387174578559282 ], [ 126.897635732393866, 37.387143096096636 ], [ 126.897923525123602, 37.387176109702011 ], [ 126.897982988354656, 37.387244015244498 ], [ 126.897997076106051, 37.3872735347447 ], [ 126.898019096472638, 37.387319688860153 ], [ 126.898150283477506, 37.38760203495297 ], [ 126.898543942516042, 37.388788213459591 ], [ 126.89854676448104, 37.388819595506291 ], [ 126.898550426549164, 37.388860356078823 ], [ 126.899503887419556, 37.392805316391801 ], [ 126.902234371241548, 37.394127264355781 ], [ 126.904361328682938, 37.394812898376934 ], [ 126.90554739790548, 37.395101671882884 ], [ 126.905715123579043, 37.395112817635614 ], [ 126.905749077504169, 37.395115070444938 ], [ 126.906346098883517, 37.394813920101491 ], [ 126.907832073166418, 37.394954269196056 ], [ 126.90989798211902, 37.394970230805896 ], [ 126.912703248057682, 37.394977437040865 ], [ 126.912752787092032, 37.394963035816147 ], [ 126.913098800251944, 37.394861114201078 ], [ 126.913439470569557, 37.393738327120488 ], [ 126.914073590578795, 37.392374727364604 ], [ 126.914114230548748, 37.392319760342914 ], [ 126.914178116396059, 37.392276135045357 ], [ 126.91432736385589, 37.392227339530301 ], [ 126.915842970765894, 37.391741302696069 ] ] ] ] } },
{ "type": "Feature", "properties": { "OBJECTID": 1269, "adm_nm": "경기도 안양시만안구 석수1동", "adm_cd": "3104160", "adm_cd2": "4117159000", "sgg": "41171", "sido": "41", "sidonm": "경기도", "sggnm": "안양시만안구" }, "geometry": { "type": "MultiPolygon", "coordinates": [ [ [ [ 126.931025717282353, 37.447820681342442 ], [ 126.930914305051999, 37.44769279586086 ], [ 126.930886115435769, 37.447589003377871 ], [ 126.930882501586495, 37.446946764816154 ], [ 126.931005735828066, 37.44578910649745 ], [ 126.931034594981611, 37.445710376144767 ], [ 126.931181141627761, 37.445579257156531 ], [ 126.931552230588181, 37.44537485569262 ], [ 126.931662173865831, 37.445317922517447 ], [ 126.931880615096347, 37.445243979307229 ], [ 126.931921441657934, 37.445230159347794 ], [ 126.933642554383681, 37.444304381444454 ], [ 126.93560290064984, 37.443227575133143 ], [ 126.937237598491009, 37.441937446384784 ], [ 126.937380183155796, 37.441766866019258 ], [ 126.938366738281999, 37.440506268001016 ], [ 126.93846851760793, 37.440311831543404 ], [ 126.938428517462441, 37.440180943661048 ], [ 126.938330498799502, 37.439967530564346 ], [ 126.938183762520637, 37.439842895561753 ], [ 126.938080789504696, 37.439776687572724 ], [ 126.938021343563094, 37.439738466511535 ], [ 126.9379856466295, 37.439692106356929 ], [ 126.937940182667333, 37.439632170265327 ], [ 126.937919325035324, 37.439587002854175 ], [ 126.937887357426845, 37.439515868373746 ], [ 126.937871372399087, 37.438913004817636 ], [ 126.937904394514419, 37.438560502959469 ], [ 126.938282222206183, 37.437530605198894 ], [ 126.939360186080165, 37.436045848901664 ], [ 126.939433567336806, 37.435962820668962 ], [ 126.939493480943725, 37.435959252362963 ], [ 126.939527573670162, 37.435957632929977 ], [ 126.940634656201766, 37.436143150289908 ], [ 126.940895257823513, 37.436250293675101 ], [ 126.941339330703869, 37.436482241497309 ], [ 126.946843402404511, 37.438550575549101 ], [ 126.947903592102492, 37.438945659456522 ], [ 126.947870667423203, 37.437557387204542 ], [ 126.948500271901693, 37.432726753633688 ], [ 126.948501741534898, 37.431082894117687 ], [ 126.948460850702844, 37.428856328413069 ], [ 126.948237817285346, 37.428643610640258 ], [ 126.948028725290541, 37.428444189604889 ], [ 126.947670520985938, 37.428163092784125 ], [ 126.947270556531123, 37.425683591336167 ], [ 126.947319851696619, 37.425039249760786 ], [ 126.947549053984417, 37.424654405322521 ], [ 126.948172286425788, 37.423607935543949 ], [ 126.947978345480024, 37.422318038609298 ], [ 126.947431512345418, 37.421852406255702 ], [ 126.947339304140144, 37.421809160254995 ], [ 126.947001135543701, 37.421651263655683 ], [ 126.945352830684044, 37.420881588517375 ], [ 126.941680653014913, 37.41915733742006 ], [ 126.939365186560366, 37.416901973418668 ], [ 126.938648873087089, 37.416031214885436 ], [ 126.938077599935539, 37.415105517990426 ], [ 126.938064042327909, 37.415070318216635 ], [ 126.937970214724857, 37.41482671009355 ], [ 126.937951790266965, 37.414550578474966 ], [ 126.932159770988804, 37.414901475070934 ], [ 126.929834200212738, 37.41505816189099 ], [ 126.92689671889076, 37.415421433186268 ], [ 126.926203574186957, 37.415470999306692 ], [ 126.925496189903996, 37.415522772622175 ], [ 126.924891891598222, 37.415648099066217 ], [ 126.924094801099798, 37.415813405482702 ], [ 126.923348470631822, 37.415969760164657 ], [ 126.922987897625475, 37.416109966204104 ], [ 126.922768963748695, 37.41629029761846 ], [ 126.922651982101314, 37.416442940804401 ], [ 126.922603805877344, 37.416552014336489 ], [ 126.922582960298541, 37.416966541483184 ], [ 126.922534924468792, 37.417152204836889 ], [ 126.922431787186611, 37.417337617003433 ], [ 126.922349852497604, 37.417430733525514 ], [ 126.920523994763514, 37.418629629636932 ], [ 126.919992612553088, 37.418567308179782 ], [ 126.919309223347696, 37.418434381836725 ], [ 126.919084659945668, 37.418336381620421 ], [ 126.918912900211595, 37.4182611747121 ], [ 126.918760155259264, 37.418193948005737 ], [ 126.91812973988884, 37.417786358380091 ], [ 126.916049001481753, 37.416416161311204 ], [ 126.915982371128905, 37.416340631115531 ], [ 126.915948182313485, 37.416301865676722 ], [ 126.915831460954053, 37.416035106253325 ], [ 126.915730974369168, 37.415803913766908 ], [ 126.915717292065992, 37.415564983843979 ], [ 126.915709083177404, 37.41540847493976 ], [ 126.915691383967172, 37.4150814976189 ], [ 126.915682064898832, 37.414918078740008 ], [ 126.915651264830714, 37.414616319988802 ], [ 126.915647616381406, 37.414588476745514 ], [ 126.91550710913576, 37.414300903971956 ], [ 126.915314195415789, 37.414087002005537 ], [ 126.91422253888112, 37.413511483171526 ], [ 126.913608510039509, 37.413188442914411 ], [ 126.908230430493688, 37.419899372411997 ], [ 126.907756034187244, 37.420495278507154 ], [ 126.907614372918204, 37.420685928741008 ], [ 126.907409075633211, 37.420962250137919 ], [ 126.907191087100713, 37.421285648958538 ], [ 126.90712454503003, 37.421398761172405 ], [ 126.906984896482513, 37.421636147514029 ], [ 126.90695051341973, 37.421696817226945 ], [ 126.906669680750554, 37.422196792784135 ], [ 126.90572915323574, 37.42388442296653 ], [ 126.904346268892596, 37.42641589224958 ], [ 126.904097929527424, 37.426911518079415 ], [ 126.904056669704389, 37.427018689686392 ], [ 126.903838989155645, 37.427586236141067 ], [ 126.903733204782498, 37.427920334285332 ], [ 126.903445442925047, 37.429287830031612 ], [ 126.903343731616687, 37.429820248468012 ], [ 126.903041503854681, 37.431406250559242 ], [ 126.901921856475212, 37.436370485591581 ], [ 126.902790232236555, 37.435512998819732 ], [ 126.904469394323243, 37.43405783101786 ], [ 126.907237696652118, 37.433593393108829 ], [ 126.907394244937379, 37.433598189141641 ], [ 126.908203866987918, 37.433684494006187 ], [ 126.908293411975706, 37.433707476398752 ], [ 126.908734048372878, 37.433821226083623 ], [ 126.908933075164654, 37.433910698490337 ], [ 126.909114193234956, 37.433992132809202 ], [ 126.909335415202364, 37.434159990851811 ], [ 126.910381082649891, 37.435409093963955 ], [ 126.910470992951502, 37.435654037404689 ], [ 126.910820343055391, 37.436599957062491 ], [ 126.911249466930229, 37.437375015657153 ], [ 126.911315219139993, 37.437490789818774 ], [ 126.911345373159762, 37.437543503922846 ], [ 126.912356939210241, 37.438589479988813 ], [ 126.914027377029356, 37.43982362763839 ], [ 126.914119414531129, 37.439890559450774 ], [ 126.914333037205239, 37.44003921643165 ], [ 126.914801025534203, 37.440095616248534 ], [ 126.914874986455956, 37.440088618278274 ], [ 126.9152195932067, 37.440055999842087 ], [ 126.917952918151016, 37.439898232593293 ], [ 126.918054696412256, 37.439893100231998 ], [ 126.918108197757945, 37.43991815113953 ], [ 126.919429127841752, 37.440775308817884 ], [ 126.919512629845627, 37.440848954740034 ], [ 126.91989851603914, 37.441291390740226 ], [ 126.919928524766149, 37.441338859604251 ], [ 126.920960125599052, 37.443623240578631 ], [ 126.921093316316302, 37.444125276278079 ], [ 126.922123930799287, 37.445170267474644 ], [ 126.923730657676913, 37.446645080715292 ], [ 126.925352642463665, 37.447518286538376 ], [ 126.928339839537827, 37.449689284396968 ], [ 126.92874943387082, 37.450192651427088 ], [ 126.931025717282353, 37.447820681342442 ] ] ] ] } },
{ "type": "Feature", "properties": { "OBJECTID": 1270, "adm_nm": "경기도 안양시만안구 석수2동", "adm_cd": "3104161", "adm_cd2": "4117160000", "sgg": "41171", "sido": "41", "sidonm": "경기도", "sggnm": "안양시만안구" }, "geometry": { "type": "MultiPolygon", "coordinates": [ [ [ [ 126.90049098886135, 37.43736038439733 ], [ 126.901921856475212, 37.436370485591581 ], [ 126.903041503854681, 37.431406250559242 ], [ 126.903343731616687, 37.429820248468012 ], [ 126.903445442925047, 37.429287830031612 ], [ 126.903733204782498, 37.427920334285332 ], [ 126.903838989155645, 37.427586236141067 ], [ 126.904056669704389, 37.427018689686392 ], [ 126.904097929527424, 37.426911518079415 ], [ 126.904346268892596, 37.42641589224958 ], [ 126.90572915323574, 37.42388442296653 ], [ 126.906669680750554, 37.422196792784135 ], [ 126.90695051341973, 37.421696817226945 ], [ 126.906984896482513, 37.421636147514029 ], [ 126.90712454503003, 37.421398761172405 ], [ 126.907191087100713, 37.421285648958538 ], [ 126.907409075633211, 37.420962250137919 ], [ 126.907614372918204, 37.420685928741008 ], [ 126.907756034187244, 37.420495278507154 ], [ 126.908230430493688, 37.419899372411997 ], [ 126.913608510039509, 37.413188442914411 ], [ 126.91297071785489, 37.41038316187737 ], [ 126.912868002729539, 37.409156791412229 ], [ 126.912849251312323, 37.409029337688118 ], [ 126.91121122413837, 37.408611111430474 ], [ 126.910854586108556, 37.408520324716143 ], [ 126.90744711222618, 37.407612136809199 ], [ 126.907130665882448, 37.408252706583966 ], [ 126.904892400124851, 37.408284276432113 ], [ 126.902443074011799, 37.408319474024999 ], [ 126.903527960368919, 37.410424908983444 ], [ 126.903348571165211, 37.410693287320051 ], [ 126.902896173187386, 37.410921978736006 ], [ 126.902347305574608, 37.410945759680281 ], [ 126.902340519490181, 37.411346193848317 ], [ 126.902252740182831, 37.411549684408897 ], [ 126.901360704157554, 37.411734530137934 ], [ 126.901120292277355, 37.411749176620134 ], [ 126.8994211233844, 37.411847432235902 ], [ 126.896803395842113, 37.412138354516472 ], [ 126.894510696438616, 37.412807097170358 ], [ 126.894299529034356, 37.41331869930945 ], [ 126.894442848375846, 37.413564587184347 ], [ 126.894541270944373, 37.413733439512498 ], [ 126.8936914377242, 37.415950875632696 ], [ 126.893512859692649, 37.416105501187779 ], [ 126.892931542550429, 37.417566402637604 ], [ 126.889605457911543, 37.417759310437262 ], [ 126.889378933052029, 37.417847539865761 ], [ 126.889017433701682, 37.418179177397185 ], [ 126.888953452906179, 37.418366276678306 ], [ 126.888932060059247, 37.418428865092217 ], [ 126.888913441711892, 37.418483788208505 ], [ 126.888874884586784, 37.418597575585693 ], [ 126.888945431559691, 37.418869476629922 ], [ 126.889860072447789, 37.419918658052026 ], [ 126.890351961274476, 37.420399692809035 ], [ 126.891889376790658, 37.420527395641749 ], [ 126.893958256174542, 37.42167762533149 ], [ 126.896477954882826, 37.425624352954976 ], [ 126.896833602168812, 37.427144025849572 ], [ 126.896772801088318, 37.427330681147303 ], [ 126.896651309966387, 37.427591456831188 ], [ 126.896568744445901, 37.427757787816674 ], [ 126.896271717290105, 37.428151744834857 ], [ 126.896098510491299, 37.428256770398058 ], [ 126.895744917288212, 37.428392421489264 ], [ 126.895649574856847, 37.428428259060418 ], [ 126.895336792162865, 37.428545819867487 ], [ 126.894997400344437, 37.428497888366763 ], [ 126.894611332267615, 37.42845873049594 ], [ 126.894069848931366, 37.429031688990598 ], [ 126.894315339951987, 37.429420547261898 ], [ 126.894473102974075, 37.429591731387248 ], [ 126.894570954562141, 37.429697899526609 ], [ 126.894883071293748, 37.429975540492073 ], [ 126.895832865573283, 37.430630537478216 ], [ 126.897481982385841, 37.430947642405492 ], [ 126.897591257183507, 37.430971851151206 ], [ 126.897809164813097, 37.431021418815597 ], [ 126.898617392481356, 37.432427154613372 ], [ 126.899088290776049, 37.433702725893689 ], [ 126.899169172223793, 37.433923971164056 ], [ 126.899416619124963, 37.435050806547203 ], [ 126.899499471756556, 37.436706356091982 ], [ 126.899647625765482, 37.437454104471804 ], [ 126.90049098886135, 37.43736038439733 ] ] ] ] } },
{ "type": "Feature", "properties": { "OBJECTID": 1271, "adm_nm": "경기도 안양시만안구 석수3동", "adm_cd": "3104162", "adm_cd2": "4117161000", "sgg": "41171", "sido": "41", "sidonm": "경기도", "sggnm": "안양시만안구" }, "geometry": { "type": "MultiPolygon", "coordinates": [ [ [ [ 126.90744711222618, 37.407612136809199 ], [ 126.903250707152537, 37.404867703741004 ], [ 126.897924356580162, 37.403490901648375 ], [ 126.897480161238988, 37.403404135603125 ], [ 126.897396088221726, 37.403408214882404 ], [ 126.897053048823011, 37.403427585080472 ], [ 126.896847148190233, 37.403439217144836 ], [ 126.896705408241928, 37.403488123331826 ], [ 126.896332328685489, 37.403616863398625 ], [ 126.895944543417599, 37.403805296870765 ], [ 126.895758799620822, 37.403895611284852 ], [ 126.895295640919741, 37.404322519912888 ], [ 126.892794068492222, 37.408819917130081 ], [ 126.891077257008945, 37.410212713103562 ], [ 126.890776498234686, 37.41081169935935 ], [ 126.890765725521433, 37.41097403409313 ], [ 126.890755581764807, 37.411127069957281 ], [ 126.89102199487148, 37.41224163043173 ], [ 126.891535653718705, 37.413326933609049 ], [ 126.891844158367007, 37.413978739712384 ], [ 126.892213446623657, 37.414484556697523 ], [ 126.892579029106727, 37.414985287785726 ], [ 126.893512859692649, 37.416105501187779 ], [ 126.8936914377242, 37.415950875632696 ], [ 126.894541270944373, 37.413733439512498 ], [ 126.894442848375846, 37.413564587184347 ], [ 126.894299529034356, 37.41331869930945 ], [ 126.894510696438616, 37.412807097170358 ], [ 126.896803395842113, 37.412138354516472 ], [ 126.8994211233844, 37.411847432235902 ], [ 126.901120292277355, 37.411749176620134 ], [ 126.901360704157554, 37.411734530137934 ], [ 126.902252740182831, 37.411549684408897 ], [ 126.902340519490181, 37.411346193848317 ], [ 126.902347305574608, 37.410945759680281 ], [ 126.902896173187386, 37.410921978736006 ], [ 126.903348571165211, 37.410693287320051 ], [ 126.903527960368919, 37.410424908983444 ], [ 126.902443074011799, 37.408319474024999 ], [ 126.904892400124851, 37.408284276432113 ], [ 126.907130665882448, 37.408252706583966 ], [ 126.90744711222618, 37.407612136809199 ] ] ] ] } },
{ "type": "Feature", "properties": { "OBJECTID": 1272, "adm_nm": "경기도 안양시만안구 박달1동", "adm_cd": "3104163", "adm_cd2": "4117162100", "sgg": "41171", "sido": "41", "sidonm": "경기도", "sggnm": "안양시만안구" }, "geometry": { "type": "MultiPolygon", "coordinates": [ [ [ [ 126.913355513817436, 37.402620912855127 ], [ 126.910534532208899, 37.400055925818371 ], [ 126.910188928763034, 37.400191739580798 ], [ 126.909665976409926, 37.400423485772819 ], [ 126.90948523220122, 37.400510466721045 ], [ 126.909128677284514, 37.400683325723129 ], [ 126.908830255366041, 37.400828306524055 ], [ 126.908339324420183, 37.401117669168443 ], [ 126.906710729611348, 37.40257648630719 ], [ 126.905670431239955, 37.404206540815615 ], [ 126.904564784752253, 37.404617438906477 ], [ 126.903250707152537, 37.404867703741004 ], [ 126.90744711222618, 37.407612136809199 ], [ 126.910854586108556, 37.408520324716143 ], [ 126.913063451617973, 37.404833447071127 ], [ 126.913355513817436, 37.402620912855127 ] ] ] ] } },
{ "type": "Feature", "properties": { "OBJECTID": 1273, "adm_nm": "경기도 안양시만안구 박달2동", "adm_cd": "3104164", "adm_cd2": "4117163000", "sgg": "41171", "sido": "41", "sidonm": "경기도", "sggnm": "안양시만안구" }, "geometry": { "type": "MultiPolygon", "coordinates": [ [ [ [ 126.893512859692649, 37.416105501187779 ], [ 126.892579029106727, 37.414985287785726 ], [ 126.892213446623657, 37.414484556697523 ], [ 126.891844158367007, 37.413978739712384 ], [ 126.891535653718705, 37.413326933609049 ], [ 126.89102199487148, 37.41224163043173 ], [ 126.890755581764807, 37.411127069957281 ], [ 126.890765725521433, 37.41097403409313 ], [ 126.890776498234686, 37.41081169935935 ], [ 126.891077257008945, 37.410212713103562 ], [ 126.892794068492222, 37.408819917130081 ], [ 126.895295640919741, 37.404322519912888 ], [ 126.895758799620822, 37.403895611284852 ], [ 126.895944543417599, 37.403805296870765 ], [ 126.896332328685489, 37.403616863398625 ], [ 126.896705408241928, 37.403488123331826 ], [ 126.896847148190233, 37.403439217144836 ], [ 126.897053048823011, 37.403427585080472 ], [ 126.897396088221726, 37.403408214882404 ], [ 126.897480161238988, 37.403404135603125 ], [ 126.897924356580162, 37.403490901648375 ], [ 126.903250707152537, 37.404867703741004 ], [ 126.904564784752253, 37.404617438906477 ], [ 126.905670431239955, 37.404206540815615 ], [ 126.906710729611348, 37.40257648630719 ], [ 126.908339324420183, 37.401117669168443 ], [ 126.908830255366041, 37.400828306524055 ], [ 126.909128677284514, 37.400683325723129 ], [ 126.90948523220122, 37.400510466721045 ], [ 126.909665976409926, 37.400423485772819 ], [ 126.910188928763034, 37.400191739580798 ], [ 126.910534532208899, 37.400055925818371 ], [ 126.910259577427311, 37.39946648965774 ], [ 126.90831676329023, 37.397789250073259 ], [ 126.90814155406224, 37.397711756775564 ], [ 126.907968722536609, 37.397695415021609 ], [ 126.907915052079005, 37.397690341982539 ], [ 126.906077701526428, 37.397783658066253 ], [ 126.905063781510947, 37.397840493909627 ], [ 126.904338311614381, 37.397083224472659 ], [ 126.905749077504169, 37.395115070444938 ], [ 126.905715123579043, 37.395112817635614 ], [ 126.90554739790548, 37.395101671882884 ], [ 126.904361328682938, 37.394812898376934 ], [ 126.902234371241548, 37.394127264355781 ], [ 126.899503887419556, 37.392805316391801 ], [ 126.898550426549164, 37.388860356078823 ], [ 126.89854676448104, 37.388819595506291 ], [ 126.898543942516042, 37.388788213459591 ], [ 126.898150283477506, 37.38760203495297 ], [ 126.898019096472638, 37.387319688860153 ], [ 126.897997076106051, 37.3872735347447 ], [ 126.897982988354656, 37.387244015244498 ], [ 126.897923525123602, 37.387176109702011 ], [ 126.897635732393866, 37.387143096096636 ], [ 126.897339821231412, 37.387174578559282 ], [ 126.896928396483631, 37.387218360834154 ], [ 126.896607965285, 37.387295037327469 ], [ 126.895957096433335, 37.387371143207439 ], [ 126.895645878884125, 37.387265895454085 ], [ 126.895099020596874, 37.386525102145612 ], [ 126.894116667040819, 37.38410327248446 ], [ 126.894518736552826, 37.383443950767322 ], [ 126.894716981301869, 37.38328609895985 ], [ 126.895418223750895, 37.382908856759059 ], [ 126.895563978289971, 37.382519700156386 ], [ 126.895598591339507, 37.382426418378493 ], [ 126.895480779840668, 37.382199635087517 ], [ 126.895210653407233, 37.381679676940593 ], [ 126.893445510460481, 37.379866766914198 ], [ 126.891097252523281, 37.375271248747616 ], [ 126.886488980538857, 37.376576687788805 ], [ 126.881911925882662, 37.376220717727954 ], [ 126.880727721506403, 37.380215484665094 ], [ 126.880138946481608, 37.382189782322229 ], [ 126.879082647262678, 37.384606673990518 ], [ 126.877925234624058, 37.387290053929739 ], [ 126.876092712518528, 37.394661508947927 ], [ 126.877581917807163, 37.397131265943933 ], [ 126.877742456476412, 37.399066604738046 ], [ 126.877709723153245, 37.399780709796858 ], [ 126.877509992191605, 37.399944178812923 ], [ 126.877274603243933, 37.400136837069617 ], [ 126.877070648562878, 37.4014032434998 ], [ 126.877003777160851, 37.402054116632577 ], [ 126.87728347042983, 37.403359286455341 ], [ 126.877429127367563, 37.404505835536732 ], [ 126.877406114843723, 37.404746437982318 ], [ 126.877310092225315, 37.404895049976744 ], [ 126.875755234835552, 37.406581371113084 ], [ 126.875720800947349, 37.406606495173925 ], [ 126.875572607234091, 37.406714534603388 ], [ 126.87541093565612, 37.406793676934612 ], [ 126.875235477052243, 37.406832184685463 ], [ 126.874924498255695, 37.406862088808737 ], [ 126.87462782065252, 37.406870660299795 ], [ 126.874276037997461, 37.406850501301292 ], [ 126.874216293260574, 37.406847075377506 ], [ 126.873841489121716, 37.406824810226993 ], [ 126.873568571855756, 37.406803777821679 ], [ 126.873386273323305, 37.406789723948307 ], [ 126.872910856922658, 37.406721854235911 ], [ 126.872807915329574, 37.406702154152747 ], [ 126.872386664776599, 37.406660483953665 ], [ 126.871813309302908, 37.406650678724212 ], [ 126.871550625325, 37.406653248744782 ], [ 126.871216512870419, 37.406656519966489 ], [ 126.870943810906212, 37.406688284704757 ], [ 126.870892756306731, 37.406694232482543 ], [ 126.870782197661782, 37.406740965890116 ], [ 126.870614117696377, 37.40691020418847 ], [ 126.87045547977236, 37.407220290466718 ], [ 126.870392138800213, 37.407426500394294 ], [ 126.870332684366474, 37.407628672125611 ], [ 126.870316816250551, 37.407837028588922 ], [ 126.870299700558704, 37.408110727456332 ], [ 126.870714340395608, 37.410463247410277 ], [ 126.871071707111128, 37.412143841115871 ], [ 126.871241429687515, 37.41254820689587 ], [ 126.871863690793987, 37.412457997973583 ], [ 126.875117511568703, 37.411682039021272 ], [ 126.87524294662893, 37.411629746692476 ], [ 126.875409090672022, 37.411523587342444 ], [ 126.876087543768875, 37.411043812128163 ], [ 126.876180762223086, 37.410958674248192 ], [ 126.879935816628063, 37.410193112696909 ], [ 126.88890763641983, 37.412556276879421 ], [ 126.889605457911543, 37.417759310437262 ], [ 126.892931542550429, 37.417566402637604 ], [ 126.893512859692649, 37.416105501187779 ] ] ] ] } },
{ "type": "Feature", "properties": { "OBJECTID": 1274, "adm_nm": "경기도 안양시동안구 비산1동", "adm_cd": "3104251", "adm_cd2": "4117351000", "sgg": "41173", "sido": "41", "sidonm": "경기도", "sggnm": "안양시동안구" }, "geometry": { "type": "MultiPolygon", "coordinates": [ [ [ [ 126.937951790266965, 37.414550578474966 ], [ 126.940081876965493, 37.411807005046725 ], [ 126.940167613908059, 37.411674459169554 ], [ 126.940054549469522, 37.410734246682445 ], [ 126.940042198141469, 37.410685739603096 ], [ 126.940009222203599, 37.410561645184146 ], [ 126.939781142099363, 37.410196402567429 ], [ 126.93969026813204, 37.410050860530959 ], [ 126.939040913554479, 37.408967355253793 ], [ 126.938402057806229, 37.407123185476493 ], [ 126.938325423518805, 37.4068873386748 ], [ 126.939215127036789, 37.406524253912515 ], [ 126.939606414486178, 37.406367341944382 ], [ 126.939968576283519, 37.406370617327106 ], [ 126.941054206220642, 37.40565300039281 ], [ 126.9411433488482, 37.405574921489311 ], [ 126.941201340386101, 37.40552412397534 ], [ 126.941437578893698, 37.405284123841128 ], [ 126.941604963894221, 37.405092246687303 ], [ 126.94169442748003, 37.404932676022142 ], [ 126.941750894648294, 37.404408451716009 ], [ 126.941239080688774, 37.402438236777748 ], [ 126.942901293014216, 37.400723325308689 ], [ 126.942346861865474, 37.400655373167375 ], [ 126.941161617942953, 37.400508938058159 ], [ 126.941314753027285, 37.399950811973383 ], [ 126.941404714568804, 37.399624454096838 ], [ 126.941434496045531, 37.399516466361796 ], [ 126.941494002783131, 37.399300418487293 ], [ 126.941452248335835, 37.398837142024995 ], [ 126.936404764013304, 37.398789439683526 ], [ 126.935785206419524, 37.398792866627211 ], [ 126.935708194885549, 37.398791841120662 ], [ 126.935524835672069, 37.398789118102293 ], [ 126.935373525698196, 37.398786863326677 ], [ 126.934629720818648, 37.398719867071854 ], [ 126.934102790896276, 37.39865347074219 ], [ 126.934023247410238, 37.39863609918693 ], [ 126.933970955425437, 37.39862467187691 ], [ 126.933629887458409, 37.398531774893172 ], [ 126.933322335211585, 37.398396221557164 ], [ 126.933168278592191, 37.398317739920358 ], [ 126.932288384345455, 37.397858326421932 ], [ 126.931491010399327, 37.397423011014595 ], [ 126.931463139216703, 37.397442056369577 ], [ 126.930317236384298, 37.398679602985801 ], [ 126.929552344157699, 37.399429223743155 ], [ 126.928501304025247, 37.400294063311883 ], [ 126.927897702820061, 37.400788844748909 ], [ 126.927863216805832, 37.400816025444911 ], [ 126.927839179455134, 37.400833855404471 ], [ 126.928237183402715, 37.404943853950286 ], [ 126.927515567998739, 37.407342510793775 ], [ 126.927785867749961, 37.408852485383683 ], [ 126.928024593154504, 37.409437825700252 ], [ 126.928308513446709, 37.410334385028605 ], [ 126.92731941034954, 37.410767050189961 ], [ 126.925641767343308, 37.41148327311889 ], [ 126.926048728921927, 37.413087256469865 ], [ 126.92689671889076, 37.415421433186268 ], [ 126.929834200212738, 37.41505816189099 ], [ 126.932159770988804, 37.414901475070934 ], [ 126.937951790266965, 37.414550578474966 ] ] ] ] } },
{ "type": "Feature", "properties": { "OBJECTID": 1275, "adm_nm": "경기도 안양시동안구 비산2동", "adm_cd": "3104252", "adm_cd2": "4117352000", "sgg": "41173", "sido": "41", "sidonm": "경기도", "sggnm": "안양시동안구" }, "geometry": { "type": "MultiPolygon", "coordinates": [ [ [ [ 126.945427345029017, 37.398602322491939 ], [ 126.942904189614211, 37.397196736381886 ], [ 126.942619395912871, 37.397037654295275 ], [ 126.939966249834669, 37.39555475626446 ], [ 126.939940983742289, 37.395536546975777 ], [ 126.940375613941555, 37.395198399328521 ], [ 126.941963591172311, 37.393965391742682 ], [ 126.943300603003536, 37.392958777509051 ], [ 126.944016247957151, 37.392420238914369 ], [ 126.94133772344486, 37.391821690386315 ], [ 126.940822501335447, 37.392167398241959 ], [ 126.940551630632598, 37.392606662455435 ], [ 126.940328225420203, 37.392869986599933 ], [ 126.940164129527204, 37.39306340131153 ], [ 126.939718185895728, 37.393498454370977 ], [ 126.938696433166257, 37.39407273977573 ], [ 126.938051991087193, 37.39443468021107 ], [ 126.937671851927547, 37.394647002790954 ], [ 126.931491010399327, 37.397423011014595 ], [ 126.932288384345455, 37.397858326421932 ], [ 126.933168278592191, 37.398317739920358 ], [ 126.933322335211585, 37.398396221557164 ], [ 126.933629887458409, 37.398531774893172 ], [ 126.933970955425437, 37.39862467187691 ], [ 126.934023247410238, 37.39863609918693 ], [ 126.934102790896276, 37.39865347074219 ], [ 126.934629720818648, 37.398719867071854 ], [ 126.935373525698196, 37.398786863326677 ], [ 126.935524835672069, 37.398789118102293 ], [ 126.935708194885549, 37.398791841120662 ], [ 126.935785206419524, 37.398792866627211 ], [ 126.936404764013304, 37.398789439683526 ], [ 126.941452248335835, 37.398837142024995 ], [ 126.941494002783131, 37.399300418487293 ], [ 126.941434496045531, 37.399516466361796 ], [ 126.941404714568804, 37.399624454096838 ], [ 126.941314753027285, 37.399950811973383 ], [ 126.941161617942953, 37.400508938058159 ], [ 126.942346861865474, 37.400655373167375 ], [ 126.942901293014216, 37.400723325308689 ], [ 126.943875685725956, 37.399026504734294 ], [ 126.945427345029017, 37.398602322491939 ] ] ] ] } },
{ "type": "Feature", "properties": { "OBJECTID": 1276, "adm_nm": "경기도 안양시동안구 비산3동", "adm_cd": "3104253", "adm_cd2": "4117353000", "sgg": "41173", "sido": "41", "sidonm": "경기도", "sggnm": "안양시동안구" }, "geometry": { "type": "MultiPolygon", "coordinates": [ [ [ [ 126.961412127760994, 37.426304180343905 ], [ 126.958947532993747, 37.42611506137753 ], [ 126.957887339687517, 37.424245358633279 ], [ 126.958889354332754, 37.421143752012391 ], [ 126.959693286326555, 37.418178547060876 ], [ 126.959144926263335, 37.416321076844554 ], [ 126.95794370126228, 37.414265357419652 ], [ 126.95396008760558, 37.411375037819788 ], [ 126.953920429674639, 37.41134008883175 ], [ 126.953868858855145, 37.411294619902243 ], [ 126.952803555663081, 37.409293160608662 ], [ 126.952707931853425, 37.408605856245352 ], [ 126.952639799056371, 37.408116115059713 ], [ 126.952681470625109, 37.407533797687563 ], [ 126.952869432779025, 37.405874866799927 ], [ 126.9531831998857, 37.403797686210893 ], [ 126.953192584500727, 37.403758691255646 ], [ 126.953282934671535, 37.403405073249807 ], [ 126.953296577235633, 37.403355412223661 ], [ 126.953568390101211, 37.402391076305307 ], [ 126.953613089758562, 37.402233615104116 ], [ 126.95363579307778, 37.402153651250899 ], [ 126.953757897662769, 37.401772259541836 ], [ 126.954012913179767, 37.400980231004112 ], [ 126.950652798184009, 37.4007235496749 ], [ 126.945427345029017, 37.398602322491939 ], [ 126.943875685725956, 37.399026504734294 ], [ 126.942901293014216, 37.400723325308689 ], [ 126.941239080688774, 37.402438236777748 ], [ 126.941750894648294, 37.404408451716009 ], [ 126.94169442748003, 37.404932676022142 ], [ 126.941604963894221, 37.405092246687303 ], [ 126.941437578893698, 37.405284123841128 ], [ 126.941201340386101, 37.40552412397534 ], [ 126.9411433488482, 37.405574921489311 ], [ 126.941054206220642, 37.40565300039281 ], [ 126.939968576283519, 37.406370617327106 ], [ 126.939606414486178, 37.406367341944382 ], [ 126.939215127036789, 37.406524253912515 ], [ 126.938325423518805, 37.4068873386748 ], [ 126.938402057806229, 37.407123185476493 ], [ 126.939040913554479, 37.408967355253793 ], [ 126.93969026813204, 37.410050860530959 ], [ 126.939781142099363, 37.410196402567429 ], [ 126.940009222203599, 37.410561645184146 ], [ 126.940042198141469, 37.410685739603096 ], [ 126.940054549469522, 37.410734246682445 ], [ 126.940167613908059, 37.411674459169554 ], [ 126.940081876965493, 37.411807005046725 ], [ 126.937951790266965, 37.414550578474966 ], [ 126.937970214724857, 37.41482671009355 ], [ 126.938064042327909, 37.415070318216635 ], [ 126.938077599935539, 37.415105517990426 ], [ 126.938648873087089, 37.416031214885436 ], [ 126.939365186560366, 37.416901973418668 ], [ 126.941680653014913, 37.41915733742006 ], [ 126.945352830684044, 37.420881588517375 ], [ 126.947001135543701, 37.421651263655683 ], [ 126.947339304140144, 37.421809160254995 ], [ 126.947431512345418, 37.421852406255702 ], [ 126.947978345480024, 37.422318038609298 ], [ 126.948172286425788, 37.423607935543949 ], [ 126.947549053984417, 37.424654405322521 ], [ 126.947319851696619, 37.425039249760786 ], [ 126.947270556531123, 37.425683591336167 ], [ 126.947670520985938, 37.428163092784125 ], [ 126.948028725290541, 37.428444189604889 ], [ 126.948237817285346, 37.428643610640258 ], [ 126.948460850702844, 37.428856328413069 ], [ 126.948501741534898, 37.431082894117687 ], [ 126.948500271901693, 37.432726753633688 ], [ 126.947870667423203, 37.437557387204542 ], [ 126.947903592102492, 37.438945659456522 ], [ 126.948323583650335, 37.439089570162224 ], [ 126.951731888544657, 37.43946372181577 ], [ 126.952750221402937, 37.439527029852272 ], [ 126.953176802781115, 37.439548158179434 ], [ 126.953359200530841, 37.439532101293516 ], [ 126.953466695128327, 37.43950827956418 ], [ 126.953757616020837, 37.439443806735461 ], [ 126.954044328413261, 37.439364008568518 ], [ 126.954144263009809, 37.439333552405827 ], [ 126.954222764815185, 37.439309624029505 ], [ 126.954560534607566, 37.439205272811989 ], [ 126.954933346873716, 37.439138263545409 ], [ 126.954980307771223, 37.439134533020308 ], [ 126.955349014897635, 37.439105251785385 ], [ 126.955797566776937, 37.439117458235224 ], [ 126.956274636904766, 37.439184986575164 ], [ 126.958238565812735, 37.439508372115725 ], [ 126.958366968661025, 37.439533748139411 ], [ 126.962266682379095, 37.440655726885147 ], [ 126.9627519187964, 37.440873134468191 ], [ 126.963035419905154, 37.441021176758717 ], [ 126.963106668026967, 37.441060653025978 ], [ 126.963904021118964, 37.440610209512855 ], [ 126.964374991491368, 37.440452352404009 ], [ 126.964570108763596, 37.44016595777682 ], [ 126.964930018467442, 37.439274538105586 ], [ 126.964965037058121, 37.439143808426735 ], [ 126.965047818202521, 37.438834068269436 ], [ 126.965033863181105, 37.43867369091231 ], [ 126.964930041889929, 37.438506790096383 ], [ 126.964312323259307, 37.437638640415145 ], [ 126.963479252848884, 37.43687099489685 ], [ 126.962764168426915, 37.436392276338061 ], [ 126.962284287238191, 37.436120811139183 ], [ 126.962145514429253, 37.436070618140647 ], [ 126.962061506187055, 37.435957551571356 ], [ 126.962002835464205, 37.435762364141645 ], [ 126.961826229145927, 37.434874841288469 ], [ 126.961777872080205, 37.431465202684649 ], [ 126.961778097955971, 37.431433655879879 ], [ 126.961954727048834, 37.431333056243346 ], [ 126.962240583547612, 37.431169857637641 ], [ 126.962316812127014, 37.431081194441298 ], [ 126.962060769148906, 37.429545452433608 ], [ 126.961675307287024, 37.427340981740677 ], [ 126.961412127760994, 37.426304180343905 ] ] ] ] } },
{ "type": "Feature", "properties": { "OBJECTID": 1277, "adm_nm": "경기도 안양시동안구 부흥동", "adm_cd": "3104254", "adm_cd2": "4117354000", "sgg": "41173", "sido": "41", "sidonm": "경기도", "sggnm": "안양시동안구" }, "geometry": { "type": "MultiPolygon", "coordinates": [ [ [ [ 126.950963472449146, 37.391104318980901 ], [ 126.948164989128017, 37.389110915023359 ], [ 126.948116986607246, 37.389072797301843 ], [ 126.944384968912146, 37.392119969161556 ], [ 126.944016247957151, 37.392420238914369 ], [ 126.943300603003536, 37.392958777509051 ], [ 126.941963591172311, 37.393965391742682 ], [ 126.940375613941555, 37.395198399328521 ], [ 126.939940983742289, 37.395536546975777 ], [ 126.939966249834669, 37.39555475626446 ], [ 126.942619395912871, 37.397037654295275 ], [ 126.942904189614211, 37.397196736381886 ], [ 126.945427345029017, 37.398602322491939 ], [ 126.948238488378692, 37.39580884881078 ], [ 126.948690947509277, 37.395337806780987 ], [ 126.948709544449486, 37.395315291593647 ], [ 126.948752296804159, 37.395262535327198 ], [ 126.948934060724042, 37.394934255710588 ], [ 126.949009898333188, 37.394797276126411 ], [ 126.949359821177154, 37.394163439057365 ], [ 126.949652599537899, 37.393617218677178 ], [ 126.949712952788715, 37.393504016835408 ], [ 126.949788620338055, 37.393362087385782 ], [ 126.950963472449146, 37.391104318980901 ] ] ] ] } },
{ "type": "Feature", "properties": { "OBJECTID": 1278, "adm_nm": "경기도 안양시동안구 달안동", "adm_cd": "3104255", "adm_cd2": "4117354600", "sgg": "41173", "sido": "41", "sidonm": "경기도", "sggnm": "안양시동안구" }, "geometry": { "type": "MultiPolygon", "coordinates": [ [ [ [ 126.955167808773396, 37.392540821770503 ], [ 126.950963472449146, 37.391104318980901 ], [ 126.949788620338055, 37.393362087385782 ], [ 126.949712952788715, 37.393504016835408 ], [ 126.949652599537899, 37.393617218677178 ], [ 126.949359821177154, 37.394163439057365 ], [ 126.949009898333188, 37.394797276126411 ], [ 126.948934060724042, 37.394934255710588 ], [ 126.948752296804159, 37.395262535327198 ], [ 126.948709544449486, 37.395315291593647 ], [ 126.948690947509277, 37.395337806780987 ], [ 126.948238488378692, 37.39580884881078 ], [ 126.945427345029017, 37.398602322491939 ], [ 126.950652798184009, 37.4007235496749 ], [ 126.955167808773396, 37.392540821770503 ] ] ] ] } },
{ "type": "Feature", "properties": { "OBJECTID": 1279, "adm_nm": "경기도 안양시동안구 관양1동", "adm_cd": "3104256", "adm_cd2": "4117355000", "sgg": "41173", "sido": "41", "sidonm": "경기도", "sggnm": "안양시동안구" }, "geometry": { "type": "MultiPolygon", "coordinates": [ [ [ [ 126.978542777225584, 37.40319228066285 ], [ 126.976484234613167, 37.402301300003458 ], [ 126.972891846070794, 37.40440423366492 ], [ 126.972659620208546, 37.404504724079857 ], [ 126.972345127114892, 37.404639653368704 ], [ 126.972001606638102, 37.404785719328991 ], [ 126.971410688946889, 37.404863075672054 ], [ 126.967711630301537, 37.404668458746769 ], [ 126.966270146366995, 37.404574698704806 ], [ 126.966049716902944, 37.404558407178506 ], [ 126.965680916838991, 37.404528311850967 ], [ 126.965553176773341, 37.404517882521056 ], [ 126.964978799988103, 37.404453315560652 ], [ 126.964828623522379, 37.404432913908536 ], [ 126.964489880283466, 37.404386879470053 ], [ 126.964553175873917, 37.404026617772907 ], [ 126.96474104728162, 37.403228628387261 ], [ 126.964818943012787, 37.402901107267809 ], [ 126.96484073644703, 37.402815575655104 ], [ 126.964942481196061, 37.402410419106737 ], [ 126.964996955570328, 37.402192208380811 ], [ 126.964421417141594, 37.4020013171302 ], [ 126.964352311642628, 37.401987483514404 ], [ 126.964254992658596, 37.401969015167182 ], [ 126.96387316603672, 37.401939116603117 ], [ 126.963577935787981, 37.401916631393227 ], [ 126.962902720463276, 37.401865982742564 ], [ 126.962598674365722, 37.401843202658355 ], [ 126.962443243881424, 37.401832345766671 ], [ 126.96157086001584, 37.401772040624053 ], [ 126.961400338652624, 37.40177013726688 ], [ 126.960998694833464, 37.401796474847288 ], [ 126.960630568479502, 37.401827470821004 ], [ 126.960522660666982, 37.401842545201575 ], [ 126.960302581027861, 37.40187329614961 ], [ 126.959996434942298, 37.401931496994813 ], [ 126.959852150545217, 37.401956869538232 ], [ 126.959668987705555, 37.401979704451676 ], [ 126.959140418110152, 37.402044879772369 ], [ 126.958779978809133, 37.40208604556296 ], [ 126.957902930739621, 37.402182305211603 ], [ 126.957657818779623, 37.402158714487321 ], [ 126.957460478357817, 37.402139714117567 ], [ 126.957105909851251, 37.40205132966728 ], [ 126.957001254443909, 37.402021076805646 ], [ 126.956907874256089, 37.401994075508725 ], [ 126.956849403558238, 37.401976916133783 ], [ 126.956702835740188, 37.401933427628592 ], [ 126.954012913179767, 37.400980231004112 ], [ 126.953757897662769, 37.401772259541836 ], [ 126.95363579307778, 37.402153651250899 ], [ 126.953613089758562, 37.402233615104116 ], [ 126.953568390101211, 37.402391076305307 ], [ 126.953296577235633, 37.403355412223661 ], [ 126.953282934671535, 37.403405073249807 ], [ 126.953192584500727, 37.403758691255646 ], [ 126.9531831998857, 37.403797686210893 ], [ 126.952869432779025, 37.405874866799927 ], [ 126.952681470625109, 37.407533797687563 ], [ 126.952639799056371, 37.408116115059713 ], [ 126.952707931853425, 37.408605856245352 ], [ 126.952803555663081, 37.409293160608662 ], [ 126.953868858855145, 37.411294619902243 ], [ 126.953920429674639, 37.41134008883175 ], [ 126.95396008760558, 37.411375037819788 ], [ 126.95794370126228, 37.414265357419652 ], [ 126.959144926263335, 37.416321076844554 ], [ 126.959693286326555, 37.418178547060876 ], [ 126.958889354332754, 37.421143752012391 ], [ 126.957887339687517, 37.424245358633279 ], [ 126.958947532993747, 37.42611506137753 ], [ 126.961412127760994, 37.426304180343905 ], [ 126.961398931525935, 37.426212634127978 ], [ 126.96132631409651, 37.425865655338868 ], [ 126.96132741997458, 37.425711301193097 ], [ 126.961389772757087, 37.425381738871884 ], [ 126.962186962799308, 37.422470290839449 ], [ 126.962634952979172, 37.421063940351374 ], [ 126.96284008657625, 37.420726859518631 ], [ 126.963804234897111, 37.419339748972838 ], [ 126.96388872647286, 37.419233488545487 ], [ 126.963926919313167, 37.419200449012564 ], [ 126.964015498043551, 37.419132265511863 ], [ 126.966001854442453, 37.418211718147766 ], [ 126.966556325660903, 37.418011413407889 ], [ 126.967097328894766, 37.417816678897495 ], [ 126.967539894529608, 37.417657553334699 ], [ 126.968193640791867, 37.417466196884192 ], [ 126.968370119666858, 37.417414539968441 ], [ 126.971999192808383, 37.416096777484718 ], [ 126.973764394510269, 37.41496216215215 ], [ 126.975260527257007, 37.412602716411342 ], [ 126.975436059145963, 37.411738180966431 ], [ 126.975748937310115, 37.410114848786229 ], [ 126.975489848727165, 37.409188668172803 ], [ 126.975771819491044, 37.407135920209804 ], [ 126.976154025395459, 37.406099910917057 ], [ 126.97816529114597, 37.403452012981184 ], [ 126.978198906748034, 37.403419198182057 ], [ 126.978264124223074, 37.403355551699548 ], [ 126.978378712891569, 37.40327951281305 ], [ 126.978415944154207, 37.403254817232359 ], [ 126.978542777225584, 37.40319228066285 ] ] ] ] } },
{ "type": "Feature", "properties": { "OBJECTID": 1280, "adm_nm": "경기도 안양시동안구 관양2동", "adm_cd": "3104257", "adm_cd2": "4117356000", "sgg": "41173", "sido": "41", "sidonm": "경기도", "sggnm": "안양시동안구" }, "geometry": { "type": "MultiPolygon", "coordinates": [ [ [ [ 126.978542777225584, 37.40319228066285 ], [ 126.980369395031303, 37.403044602435152 ], [ 126.980454110610253, 37.403029434168168 ], [ 126.980832684849219, 37.40281589457139 ], [ 126.981933287884502, 37.401834846654332 ], [ 126.981990446121543, 37.401738200502137 ], [ 126.982569746822449, 37.400674863707884 ], [ 126.982680053017276, 37.400346346437722 ], [ 126.982561369163562, 37.3999424639523 ], [ 126.982467524799233, 37.399624317711556 ], [ 126.982234153335554, 37.398955153788123 ], [ 126.982190073969122, 37.398838343004364 ], [ 126.981733950152872, 37.398221588810074 ], [ 126.981551955086516, 37.398044032724449 ], [ 126.981364419845065, 37.397897863084729 ], [ 126.980870823556842, 37.397696268364285 ], [ 126.979506300942404, 37.395892049395037 ], [ 126.978340022919852, 37.396277863117021 ], [ 126.977720405378491, 37.396450786492494 ], [ 126.976618107705846, 37.396642070110538 ], [ 126.975844520908311, 37.396596953158976 ], [ 126.973859805597158, 37.396461859868921 ], [ 126.973855490510573, 37.396383057111656 ], [ 126.973839911965797, 37.396085534877308 ], [ 126.973797772654606, 37.395148715809967 ], [ 126.974246801755783, 37.393765814345471 ], [ 126.97448324893594, 37.39233305142406 ], [ 126.974462492167703, 37.392272116491824 ], [ 126.974406448413788, 37.392108493525015 ], [ 126.974313772612703, 37.391882792360811 ], [ 126.9742279365923, 37.391673914111522 ], [ 126.971085821165786, 37.390697686584552 ], [ 126.970872545388488, 37.390707521877019 ], [ 126.970707251804299, 37.390715146871663 ], [ 126.969438996506668, 37.390841176430655 ], [ 126.969339413512515, 37.391746722159333 ], [ 126.968915715913624, 37.395256792430978 ], [ 126.96882203211473, 37.39591694236465 ], [ 126.968811677514609, 37.395989817770726 ], [ 126.968750906808239, 37.395986664869497 ], [ 126.967918152570775, 37.395933971493939 ], [ 126.96407186863766, 37.395546015517404 ], [ 126.960506809149933, 37.400866945894848 ], [ 126.959996434942298, 37.401931496994813 ], [ 126.960302581027861, 37.40187329614961 ], [ 126.960522660666982, 37.401842545201575 ], [ 126.960630568479502, 37.401827470821004 ], [ 126.960998694833464, 37.401796474847288 ], [ 126.961400338652624, 37.40177013726688 ], [ 126.96157086001584, 37.401772040624053 ], [ 126.962443243881424, 37.401832345766671 ], [ 126.962598674365722, 37.401843202658355 ], [ 126.962902720463276, 37.401865982742564 ], [ 126.963577935787981, 37.401916631393227 ], [ 126.96387316603672, 37.401939116603117 ], [ 126.964254992658596, 37.401969015167182 ], [ 126.964352311642628, 37.401987483514404 ], [ 126.964421417141594, 37.4020013171302 ], [ 126.964996955570328, 37.402192208380811 ], [ 126.964942481196061, 37.402410419106737 ], [ 126.96484073644703, 37.402815575655104 ], [ 126.964818943012787, 37.402901107267809 ], [ 126.96474104728162, 37.403228628387261 ], [ 126.964553175873917, 37.404026617772907 ], [ 126.964489880283466, 37.404386879470053 ], [ 126.964828623522379, 37.404432913908536 ], [ 126.964978799988103, 37.404453315560652 ], [ 126.965553176773341, 37.404517882521056 ], [ 126.965680916838991, 37.404528311850967 ], [ 126.966049716902944, 37.404558407178506 ], [ 126.966270146366995, 37.404574698704806 ], [ 126.967711630301537, 37.404668458746769 ], [ 126.971410688946889, 37.404863075672054 ], [ 126.972001606638102, 37.404785719328991 ], [ 126.972345127114892, 37.404639653368704 ], [ 126.972659620208546, 37.404504724079857 ], [ 126.972891846070794, 37.40440423366492 ], [ 126.976484234613167, 37.402301300003458 ], [ 126.978542777225584, 37.40319228066285 ] ] ] ] } },
{ "type": "Feature", "properties": { "OBJECTID": 1281, "adm_nm": "경기도 안양시동안구 부림동", "adm_cd": "3104258", "adm_cd2": "4117356600", "sgg": "41173", "sido": "41", "sidonm": "경기도", "sggnm": "안양시동안구" }, "geometry": { "type": "MultiPolygon", "coordinates": [ [ [ [ 126.959996434942298, 37.401931496994813 ], [ 126.960506809149933, 37.400866945894848 ], [ 126.96407186863766, 37.395546015517404 ], [ 126.964119032361481, 37.395476268367347 ], [ 126.965156751454714, 37.393619630054431 ], [ 126.960685092846703, 37.392068170829894 ], [ 126.959571344734542, 37.391682571484004 ], [ 126.957902917426082, 37.391106700244116 ], [ 126.956385479273408, 37.390585122368748 ], [ 126.956235057079908, 37.390533453625956 ], [ 126.955167808773396, 37.392540821770503 ], [ 126.950652798184009, 37.4007235496749 ], [ 126.954012913179767, 37.400980231004112 ], [ 126.956702835740188, 37.401933427628592 ], [ 126.956849403558238, 37.401976916133783 ], [ 126.956907874256089, 37.401994075508725 ], [ 126.957001254443909, 37.402021076805646 ], [ 126.957105909851251, 37.40205132966728 ], [ 126.957460478357817, 37.402139714117567 ], [ 126.957657818779623, 37.402158714487321 ], [ 126.957902930739621, 37.402182305211603 ], [ 126.958779978809133, 37.40208604556296 ], [ 126.959140418110152, 37.402044879772369 ], [ 126.959668987705555, 37.401979704451676 ], [ 126.959852150545217, 37.401956869538232 ], [ 126.959996434942298, 37.401931496994813 ] ] ] ] } },
{ "type": "Feature", "properties": { "OBJECTID": 1282, "adm_nm": "경기도 안양시동안구 평촌동", "adm_cd": "3104259", "adm_cd2": "4117357000", "sgg": "41173", "sido": "41", "sidonm": "경기도", "sggnm": "안양시동안구" }, "geometry": { "type": "MultiPolygon", "coordinates": [ [ [ [ 126.979506300942404, 37.395892049395037 ], [ 126.981829978956426, 37.394378916777164 ], [ 126.981710810073906, 37.394149670185477 ], [ 126.981502226819501, 37.393823098664548 ], [ 126.981177599142299, 37.393347363197471 ], [ 126.981089194683321, 37.393265851692576 ], [ 126.981009907074153, 37.393193389360697 ], [ 126.980821931999515, 37.393102397117481 ], [ 126.980538477175472, 37.393002598794098 ], [ 126.980140483787892, 37.392920289505184 ], [ 126.979549241127842, 37.392742331054514 ], [ 126.97949281692712, 37.392723572998605 ], [ 126.979441532505049, 37.392706518603632 ], [ 126.978887509119772, 37.392364936668301 ], [ 126.97880531239143, 37.392305985142087 ], [ 126.978773097141698, 37.392271108726199 ], [ 126.978736968360181, 37.392228760692952 ], [ 126.978703733001581, 37.392189485566398 ], [ 126.978416663670686, 37.39169218223428 ], [ 126.974163654335598, 37.388466981541619 ], [ 126.97292657317108, 37.386757888549347 ], [ 126.972900835173661, 37.387205080593382 ], [ 126.969723844517787, 37.388291679420547 ], [ 126.969438996506668, 37.390841176430655 ], [ 126.970707251804299, 37.390715146871663 ], [ 126.970872545388488, 37.390707521877019 ], [ 126.971085821165786, 37.390697686584552 ], [ 126.9742279365923, 37.391673914111522 ], [ 126.974313772612703, 37.391882792360811 ], [ 126.974406448413788, 37.392108493525015 ], [ 126.974462492167703, 37.392272116491824 ], [ 126.97448324893594, 37.39233305142406 ], [ 126.974246801755783, 37.393765814345471 ], [ 126.973797772654606, 37.395148715809967 ], [ 126.973839911965797, 37.396085534877308 ], [ 126.973855490510573, 37.396383057111656 ], [ 126.973859805597158, 37.396461859868921 ], [ 126.975844520908311, 37.396596953158976 ], [ 126.976618107705846, 37.396642070110538 ], [ 126.977720405378491, 37.396450786492494 ], [ 126.978340022919852, 37.396277863117021 ], [ 126.979506300942404, 37.395892049395037 ] ] ] ] } },
{ "type": "Feature", "properties": { "OBJECTID": 1283, "adm_nm": "경기도 안양시동안구 평안동", "adm_cd": "3104260", "adm_cd2": "4117357600", "sgg": "41173", "sido": "41", "sidonm": "경기도", "sggnm": "안양시동안구" }, "geometry": { "type": "MultiPolygon", "coordinates": [ [ [ [ 126.969438996506668, 37.390841176430655 ], [ 126.969723844517787, 37.388291679420547 ], [ 126.959614802710703, 37.385149698094658 ], [ 126.95920488265196, 37.385017134945031 ], [ 126.956235057079908, 37.390533453625956 ], [ 126.956385479273408, 37.390585122368748 ], [ 126.957902917426082, 37.391106700244116 ], [ 126.959571344734542, 37.391682571484004 ], [ 126.960685092846703, 37.392068170829894 ], [ 126.965156751454714, 37.393619630054431 ], [ 126.964119032361481, 37.395476268367347 ], [ 126.96407186863766, 37.395546015517404 ], [ 126.967918152570775, 37.395933971493939 ], [ 126.968750906808239, 37.395986664869497 ], [ 126.968811677514609, 37.395989817770726 ], [ 126.96882203211473, 37.39591694236465 ], [ 126.968915715913624, 37.395256792430978 ], [ 126.969339413512515, 37.391746722159333 ], [ 126.969438996506668, 37.390841176430655 ] ] ] ] } },
{ "type": "Feature", "properties": { "OBJECTID": 1284, "adm_nm": "경기도 안양시동안구 귀인동", "adm_cd": "3104261", "adm_cd2": "4117357800", "sgg": "41173", "sido": "41", "sidonm": "경기도", "sggnm": "안양시동안구" }, "geometry": { "type": "MultiPolygon", "coordinates": [ [ [ [ 126.97292657317108, 37.386757888549347 ], [ 126.972796575932961, 37.386768576237102 ], [ 126.972488002735872, 37.384048872325572 ], [ 126.97244913224624, 37.383687887815505 ], [ 126.972339220318659, 37.382617961797344 ], [ 126.972336601746377, 37.382588655443058 ], [ 126.972227341970665, 37.381255260231939 ], [ 126.971468738166607, 37.380305428842313 ], [ 126.971437798584759, 37.380267032611982 ], [ 126.969326332804769, 37.380980880272659 ], [ 126.967902527506197, 37.381462351573539 ], [ 126.966323870036007, 37.382174084094288 ], [ 126.966108328679994, 37.38230605490314 ], [ 126.964253460848624, 37.382021513252646 ], [ 126.961476851051273, 37.380860892712064 ], [ 126.95920488265196, 37.385017134945031 ], [ 126.959614802710703, 37.385149698094658 ], [ 126.969723844517787, 37.388291679420547 ], [ 126.972900835173661, 37.387205080593382 ], [ 126.97292657317108, 37.386757888549347 ] ] ] ] } },
{ "type": "Feature", "properties": { "OBJECTID": 1285, "adm_nm": "경기도 안양시동안구 호계1동", "adm_cd": "3104262", "adm_cd2": "4117358000", "sgg": "41173", "sido": "41", "sidonm": "경기도", "sggnm": "안양시동안구" }, "geometry": { "type": "MultiPolygon", "coordinates": [ [ [ [ 126.963190516005852, 37.372203089541514 ], [ 126.962952171400559, 37.372069055479294 ], [ 126.962888192873123, 37.372033836636447 ], [ 126.961997995156068, 37.371550934704658 ], [ 126.961306777257306, 37.371178224349052 ], [ 126.960820136690018, 37.371022772952848 ], [ 126.960401022601687, 37.370902285555751 ], [ 126.959705034246014, 37.370702202612627 ], [ 126.959589477527018, 37.370673506671103 ], [ 126.958815069776364, 37.370487437099392 ], [ 126.958247815743988, 37.370351887191724 ], [ 126.957904908514266, 37.370279974426438 ], [ 126.957666688561048, 37.370223498183812 ], [ 126.95763117430495, 37.370214979575707 ], [ 126.9575040811918, 37.370182542068548 ], [ 126.957109793529241, 37.370081888011242 ], [ 126.957013282685523, 37.370054403697779 ], [ 126.956219425280665, 37.369826539227859 ], [ 126.955864407402558, 37.369724628380155 ], [ 126.955824961935875, 37.369713179700277 ], [ 126.953805628280662, 37.369110092006729 ], [ 126.953626772200252, 37.36905067647654 ], [ 126.95290397679841, 37.368760021729763 ], [ 126.950343336286508, 37.367373594479709 ], [ 126.949657378507695, 37.368039632057297 ], [ 126.949387959882358, 37.368300903810194 ], [ 126.948752075436587, 37.368824372250302 ], [ 126.94856989652888, 37.368974251044207 ], [ 126.948122364584364, 37.369266241941027 ], [ 126.947759942258998, 37.369502283561332 ], [ 126.947599083081499, 37.369607389904203 ], [ 126.947342184062094, 37.36977525174018 ], [ 126.947238553349862, 37.369853637804411 ], [ 126.947074584587227, 37.369979063918436 ], [ 126.945551435674986, 37.373034354359518 ], [ 126.94559467322, 37.37377820388943 ], [ 126.945753903102357, 37.374006502257906 ], [ 126.946694085972041, 37.375658189245378 ], [ 126.947796323439647, 37.37532420863559 ], [ 126.951338601668368, 37.374547485172336 ], [ 126.954058445130059, 37.374937522445855 ], [ 126.956423926034958, 37.375727801137508 ], [ 126.955803284496398, 37.376942616801237 ], [ 126.956297205918176, 37.377096551156349 ], [ 126.95919963677936, 37.378076520295942 ], [ 126.960791948224042, 37.375091902203749 ], [ 126.963190516005852, 37.372203089541514 ] ] ] ] } },
{ "type": "Feature", "properties": { "OBJECTID": 1286, "adm_nm": "경기도 안양시동안구 호계2동", "adm_cd": "3104263", "adm_cd2": "4117359000", "sgg": "41173", "sido": "41", "sidonm": "경기도", "sggnm": "안양시동안구" }, "geometry": { "type": "MultiPolygon", "coordinates": [ [ [ [ 126.948116986607246, 37.389072797301843 ], [ 126.949745832303662, 37.387817322345029 ], [ 126.950086178851038, 37.387522578338469 ], [ 126.95017580987178, 37.387430604398432 ], [ 126.950260602775728, 37.387298821297257 ], [ 126.950294399043287, 37.387246254400495 ], [ 126.950522890048433, 37.386889140468568 ], [ 126.950628030592739, 37.386702594072666 ], [ 126.950921560810869, 37.386176509905852 ], [ 126.95131916000301, 37.385451767474308 ], [ 126.952716256565921, 37.382843133489224 ], [ 126.952903495669617, 37.382334721907746 ], [ 126.953807654858323, 37.380707414550564 ], [ 126.954920603531534, 37.378708118575084 ], [ 126.95521138002421, 37.378132578781013 ], [ 126.955369674194671, 37.377817826788714 ], [ 126.955803284496398, 37.376942616801237 ], [ 126.956423926034958, 37.375727801137508 ], [ 126.954058445130059, 37.374937522445855 ], [ 126.951338601668368, 37.374547485172336 ], [ 126.947796323439647, 37.37532420863559 ], [ 126.946694085972041, 37.375658189245378 ], [ 126.946195528036583, 37.376255280525562 ], [ 126.945282824715648, 37.377012673371361 ], [ 126.945236691306107, 37.37704850293089 ], [ 126.945211852559837, 37.377067089027186 ], [ 126.945181323721556, 37.37708993175454 ], [ 126.945086969084272, 37.377152585263417 ], [ 126.944634578386385, 37.377447861116416 ], [ 126.944314402055141, 37.377655989724239 ], [ 126.943798121094559, 37.377989315578681 ], [ 126.943630282634189, 37.378060636025488 ], [ 126.943551254994006, 37.378093795327409 ], [ 126.943269134252532, 37.378212170032896 ], [ 126.942854025143077, 37.378310493008065 ], [ 126.942810183366802, 37.378320426915167 ], [ 126.942464519592775, 37.378430804362367 ], [ 126.94220516917531, 37.378513623704244 ], [ 126.941469571127058, 37.378800844083415 ], [ 126.940816970646196, 37.379126761608958 ], [ 126.940659656050983, 37.379206010080836 ], [ 126.939509604828842, 37.379974624238812 ], [ 126.939450537318862, 37.380037440427301 ], [ 126.939409188486209, 37.38008859568081 ], [ 126.939158403792959, 37.380398858215507 ], [ 126.939098977726701, 37.380511248062525 ], [ 126.939079634889382, 37.380548337974922 ], [ 126.939040493224581, 37.380684485050956 ], [ 126.939021011491278, 37.38083649940571 ], [ 126.939007331015063, 37.380967133654607 ], [ 126.939007710560148, 37.381105721613629 ], [ 126.939023369054382, 37.381278183548417 ], [ 126.939082720643157, 37.381460993175274 ], [ 126.939443404409388, 37.38232351486544 ], [ 126.940145692599756, 37.383754139004353 ], [ 126.940659508822677, 37.384739319327586 ], [ 126.94130079701786, 37.386134971828746 ], [ 126.941779302062344, 37.389871167848597 ], [ 126.941771733768803, 37.390035632538677 ], [ 126.941761514867508, 37.390172110626942 ], [ 126.941739313741536, 37.390312651413709 ], [ 126.941651924756258, 37.390671660926579 ], [ 126.941422373461407, 37.391539274041762 ], [ 126.94133772344486, 37.391821690386315 ], [ 126.944016247957151, 37.392420238914369 ], [ 126.944384968912146, 37.392119969161556 ], [ 126.948116986607246, 37.389072797301843 ] ] ] ] } },
{ "type": "Feature", "properties": { "OBJECTID": 1287, "adm_nm": "경기도 안양시동안구 호계3동", "adm_cd": "3104264", "adm_cd2": "4117360000", "sgg": "41173", "sido": "41", "sidonm": "경기도", "sggnm": "안양시동안구" }, "geometry": { "type": "MultiPolygon", "coordinates": [ [ [ [ 126.965757357904906, 37.37275301377359 ], [ 126.96572943091337, 37.372721610783728 ], [ 126.965366210609901, 37.371978521154091 ], [ 126.965348344180001, 37.371913157343734 ], [ 126.96532701556761, 37.371834189637731 ], [ 126.965320331134834, 37.371766962751423 ], [ 126.965315822439777, 37.371721467055515 ], [ 126.965337928597336, 37.370993706848971 ], [ 126.965445469887285, 37.368770046442314 ], [ 126.965353896435374, 37.367351092310606 ], [ 126.965005101467725, 37.366372648261127 ], [ 126.964607633116884, 37.365689183626856 ], [ 126.964340434548291, 37.365149401210779 ], [ 126.964359065515936, 37.365063980980899 ], [ 126.964417035905484, 37.364798211132992 ], [ 126.964502043970342, 37.364635831704845 ], [ 126.964533446637333, 37.364607195613878 ], [ 126.964827179925294, 37.364392194565383 ], [ 126.965063225361646, 37.36424904204361 ], [ 126.965410164157291, 37.364021361607698 ], [ 126.965707628287376, 37.363767345570999 ], [ 126.965899506204622, 37.36356664712185 ], [ 126.965973518740725, 37.36348867056477 ], [ 126.9661028839637, 37.363352362424074 ], [ 126.966170690974423, 37.363247882478433 ], [ 126.966242491504772, 37.362476403160784 ], [ 126.966125965531603, 37.362187436528401 ], [ 126.966013951465044, 37.362150803686141 ], [ 126.965853449776418, 37.362098321899929 ], [ 126.964442000806741, 37.361783217798646 ], [ 126.964367993002767, 37.361768235300396 ], [ 126.962136276020942, 37.361555267521119 ], [ 126.961653940107226, 37.362009426072191 ], [ 126.961381106447604, 37.362262823027386 ], [ 126.957765220572824, 37.365447658734738 ], [ 126.95772807709379, 37.36547909972127 ], [ 126.957498047117824, 37.365665801589529 ], [ 126.957382366606353, 37.365754280964907 ], [ 126.957019691996038, 37.366030917442586 ], [ 126.956029003682744, 37.36618635958709 ], [ 126.955653198834639, 37.366228571805671 ], [ 126.953896859135071, 37.366277794950179 ], [ 126.953125164661273, 37.366293526952099 ], [ 126.950343336286508, 37.367373594479709 ], [ 126.95290397679841, 37.368760021729763 ], [ 126.953626772200252, 37.36905067647654 ], [ 126.953805628280662, 37.369110092006729 ], [ 126.955824961935875, 37.369713179700277 ], [ 126.955864407402558, 37.369724628380155 ], [ 126.956219425280665, 37.369826539227859 ], [ 126.957013282685523, 37.370054403697779 ], [ 126.957109793529241, 37.370081888011242 ], [ 126.9575040811918, 37.370182542068548 ], [ 126.95763117430495, 37.370214979575707 ], [ 126.957666688561048, 37.370223498183812 ], [ 126.957904908514266, 37.370279974426438 ], [ 126.958247815743988, 37.370351887191724 ], [ 126.958815069776364, 37.370487437099392 ], [ 126.959589477527018, 37.370673506671103 ], [ 126.959705034246014, 37.370702202612627 ], [ 126.960401022601687, 37.370902285555751 ], [ 126.960820136690018, 37.371022772952848 ], [ 126.961306777257306, 37.371178224349052 ], [ 126.961997995156068, 37.371550934704658 ], [ 126.962888192873123, 37.372033836636447 ], [ 126.962952171400559, 37.372069055479294 ], [ 126.963190516005852, 37.372203089541514 ], [ 126.966245553038618, 37.373301947445633 ], [ 126.965757357904906, 37.37275301377359 ] ] ] ] } },
{ "type": "Feature", "properties": { "OBJECTID": 1288, "adm_nm": "경기도 안양시동안구 범계동", "adm_cd": "3104265", "adm_cd2": "4117361000", "sgg": "41173", "sido": "41", "sidonm": "경기도", "sggnm": "안양시동안구" }, "geometry": { "type": "MultiPolygon", "coordinates": [ [ [ [ 126.956235057079908, 37.390533453625956 ], [ 126.95920488265196, 37.385017134945031 ], [ 126.952834119851218, 37.382876982841047 ], [ 126.952716256565921, 37.382843133489224 ], [ 126.95131916000301, 37.385451767474308 ], [ 126.950921560810869, 37.386176509905852 ], [ 126.950628030592739, 37.386702594072666 ], [ 126.950522890048433, 37.386889140468568 ], [ 126.950294399043287, 37.387246254400495 ], [ 126.950260602775728, 37.387298821297257 ], [ 126.95017580987178, 37.387430604398432 ], [ 126.950086178851038, 37.387522578338469 ], [ 126.949745832303662, 37.387817322345029 ], [ 126.948116986607246, 37.389072797301843 ], [ 126.948164989128017, 37.389110915023359 ], [ 126.950963472449146, 37.391104318980901 ], [ 126.955167808773396, 37.392540821770503 ], [ 126.956235057079908, 37.390533453625956 ] ] ] ] } },
{ "type": "Feature", "properties": { "OBJECTID": 1289, "adm_nm": "경기도 안양시동안구 신촌동", "adm_cd": "3104266", "adm_cd2": "4117362000", "sgg": "41173", "sido": "41", "sidonm": "경기도", "sggnm": "안양시동안구" }, "geometry": { "type": "MultiPolygon", "coordinates": [ [ [ [ 126.961476851051273, 37.380860892712064 ], [ 126.95919963677936, 37.378076520295942 ], [ 126.956297205918176, 37.377096551156349 ], [ 126.955803284496398, 37.376942616801237 ], [ 126.955369674194671, 37.377817826788714 ], [ 126.95521138002421, 37.378132578781013 ], [ 126.954920603531534, 37.378708118575084 ], [ 126.953807654858323, 37.380707414550564 ], [ 126.952903495669617, 37.382334721907746 ], [ 126.952716256565921, 37.382843133489224 ], [ 126.952834119851218, 37.382876982841047 ], [ 126.95920488265196, 37.385017134945031 ], [ 126.961476851051273, 37.380860892712064 ] ] ] ] } },
{ "type": "Feature", "properties": { "OBJECTID": 1290, "adm_nm": "경기도 안양시동안구 갈산동", "adm_cd": "3104267", "adm_cd2": "4117363000", "sgg": "41173", "sido": "41", "sidonm": "경기도", "sggnm": "안양시동안구" }, "geometry": { "type": "MultiPolygon", "coordinates": [ [ [ [ 126.971437798584759, 37.380267032611982 ], [ 126.967778717468136, 37.375206251421091 ], [ 126.966245553038618, 37.373301947445633 ], [ 126.963190516005852, 37.372203089541514 ], [ 126.960791948224042, 37.375091902203749 ], [ 126.95919963677936, 37.378076520295942 ], [ 126.961476851051273, 37.380860892712064 ], [ 126.964253460848624, 37.382021513252646 ], [ 126.966108328679994, 37.38230605490314 ], [ 126.966323870036007, 37.382174084094288 ], [ 126.967902527506197, 37.381462351573539 ], [ 126.969326332804769, 37.380980880272659 ], [ 126.971437798584759, 37.380267032611982 ] ] ] ] } }
]
}
