{
"type": "FeatureCollection",
"name": "dongducheonshi",
"crs": { "type": "name", "properties": { "name": "urn:ogc:def:crs:OGC:1.3:CRS84" } },
"features": [
{ "type": "Feature", "properties": { "OBJECTID": 1331, "adm_nm": "경기도 동두천시 생연1동", "adm_cd": "3108051", "adm_cd2": "4125051000", "sgg": "41250", "sido": "41", "sidonm": "경기도", "sggnm": "동두천시" }, "geometry": { "type": "MultiPolygon", "coordinates": [ [ [ [ 127.075256038881449, 37.911233224364423 ], [ 127.075313248924303, 37.910799888663135 ], [ 127.076336784821407, 37.909371433415387 ], [ 127.076452998850073, 37.909230753503273 ], [ 127.076603119775598, 37.909049051202366 ], [ 127.077483680636107, 37.907984218000372 ], [ 127.07605676402558, 37.905157361008008 ], [ 127.07415867553047, 37.903890381108042 ], [ 127.073303907753228, 37.904255173053699 ], [ 127.071706439486434, 37.904900009392897 ], [ 127.071406028550186, 37.90496763987629 ], [ 127.070492161393801, 37.905020639764459 ], [ 127.069949899136532, 37.904987114296453 ], [ 127.068306767761015, 37.904645365666376 ], [ 127.067942426078517, 37.904136672653422 ], [ 127.066433775218883, 37.903376663531965 ], [ 127.064969969377287, 37.902773025580132 ], [ 127.063011542102046, 37.902022199744195 ], [ 127.060981229825217, 37.901848314407395 ], [ 127.06092463531094, 37.901845439969222 ], [ 127.06069449400195, 37.90183556826242 ], [ 127.058042256789307, 37.903192456684309 ], [ 127.05801095412086, 37.903503631323524 ], [ 127.058008094489011, 37.903571902935759 ], [ 127.058345023295431, 37.909081719373994 ], [ 127.057757952233558, 37.913055866193943 ], [ 127.058732929360687, 37.912433124426649 ], [ 127.059394811881504, 37.912444617109564 ], [ 127.061521354144247, 37.913062060934024 ], [ 127.062104652177254, 37.913977922235851 ], [ 127.064149469505367, 37.916287198747732 ], [ 127.064245530511783, 37.91636137063459 ], [ 127.064498424955602, 37.916556626223638 ], [ 127.064701988246966, 37.916644129093314 ], [ 127.065107401652511, 37.916625348722761 ], [ 127.065510722441203, 37.916598672885883 ], [ 127.065579518118952, 37.916531059225932 ], [ 127.066022765180847, 37.916584789449971 ], [ 127.070885370453169, 37.916026916445539 ], [ 127.073186739768232, 37.914726151384045 ], [ 127.072878782074952, 37.913918139031303 ], [ 127.072503027217536, 37.912585342599037 ], [ 127.072503124244179, 37.912322840126748 ], [ 127.072572483295431, 37.912254368118909 ], [ 127.072746267329791, 37.912083747221445 ], [ 127.073278417282182, 37.911903170517881 ], [ 127.074650503063296, 37.911438335949157 ], [ 127.074922649800257, 37.911346152048338 ], [ 127.075256038881449, 37.911233224364423 ] ] ] ] } },
{ "type": "Feature", "properties": { "OBJECTID": 1332, "adm_nm": "경기도 동두천시 생연2동", "adm_cd": "3108052", "adm_cd2": "4125052000", "sgg": "41250", "sido": "41", "sidonm": "경기도", "sggnm": "동두천시" }, "geometry": { "type": "MultiPolygon", "coordinates": [ [ [ [ 127.056529516573576, 37.903435523366774 ], [ 127.055973294322158, 37.896371783678198 ], [ 127.052365999578953, 37.895847731520547 ], [ 127.049590793446356, 37.895964841255527 ], [ 127.048860314122649, 37.897300096096799 ], [ 127.048786460127303, 37.897305435319353 ], [ 127.047592562859847, 37.897388693306659 ], [ 127.047347087824917, 37.897405807107454 ], [ 127.043765884678351, 37.896694620102608 ], [ 127.04365623147666, 37.897285657926261 ], [ 127.043545909084216, 37.897883467149462 ], [ 127.043604436859297, 37.898419966742154 ], [ 127.043763596277032, 37.8991235965618 ], [ 127.043984478682447, 37.899848871066204 ], [ 127.044378072144013, 37.900349489182389 ], [ 127.045379525335434, 37.901306484241026 ], [ 127.046456820797005, 37.902305447985725 ], [ 127.047774516030984, 37.903484242299648 ], [ 127.048471520601765, 37.903360952788553 ], [ 127.048572195621432, 37.903342979511827 ], [ 127.048780400672129, 37.90330580617448 ], [ 127.049115672435207, 37.903701408811337 ], [ 127.049363345432781, 37.904123714062365 ], [ 127.049542058036707, 37.904429712781436 ], [ 127.049609272107617, 37.905092406713649 ], [ 127.050824793946234, 37.904959964302662 ], [ 127.050927635460226, 37.905017390844641 ], [ 127.05303777121307, 37.90489706809818 ], [ 127.055497521052345, 37.903734695689536 ], [ 127.056529516573576, 37.903435523366774 ] ] ] ] } },
{ "type": "Feature", "properties": { "OBJECTID": 1333, "adm_nm": "경기도 동두천시 중앙동", "adm_cd": "3108053", "adm_cd2": "4125053500", "sgg": "41250", "sido": "41", "sidonm": "경기도", "sggnm": "동두천시" }, "geometry": { "type": "MultiPolygon", "coordinates": [ [ [ [ 127.057757952233558, 37.913055866193943 ], [ 127.058345023295431, 37.909081719373994 ], [ 127.058008094489011, 37.903571902935759 ], [ 127.056529516573576, 37.903435523366774 ], [ 127.055497521052345, 37.903734695689536 ], [ 127.05303777121307, 37.90489706809818 ], [ 127.050927635460226, 37.905017390844641 ], [ 127.050824793946234, 37.904959964302662 ], [ 127.049609272107617, 37.905092406713649 ], [ 127.049849193466315, 37.908746976085638 ], [ 127.05008608572561, 37.909327177067631 ], [ 127.050150641692071, 37.909448887121442 ], [ 127.050232595193364, 37.909547567885667 ], [ 127.050338388751612, 37.9096749288166 ], [ 127.050629679037229, 37.909944177190823 ], [ 127.050681286848402, 37.909991692311685 ], [ 127.051204432255687, 37.910367726550412 ], [ 127.05157060845309, 37.910598952989787 ], [ 127.052217283120001, 37.911006998691512 ], [ 127.053425278123882, 37.911770931005606 ], [ 127.055245112574212, 37.914492979937904 ], [ 127.057757952233558, 37.913055866193943 ] ] ] ] } },
{ "type": "Feature", "properties": { "OBJECTID": 1334, "adm_nm": "경기도 동두천시 보산동", "adm_cd": "3108055", "adm_cd2": "4125055000", "sgg": "41250", "sido": "41", "sidonm": "경기도", "sggnm": "동두천시" }, "geometry": { "type": "MultiPolygon", "coordinates": [ [ [ [ 127.120896980816482, 37.917027573300679 ], [ 127.114752508489957, 37.916126862224615 ], [ 127.114192672661915, 37.915550288699677 ], [ 127.113271674956209, 37.914606187384074 ], [ 127.108012393072912, 37.914392140396494 ], [ 127.107091217247927, 37.9143304843547 ], [ 127.098677711767806, 37.912071383482214 ], [ 127.098073525871172, 37.911909341344462 ], [ 127.097362679867317, 37.911878746108933 ], [ 127.093520741480845, 37.912069458710612 ], [ 127.089613151259243, 37.912426557025583 ], [ 127.083363393249073, 37.913546993476629 ], [ 127.083090666852812, 37.913744313125967 ], [ 127.081801652515352, 37.914482183558412 ], [ 127.079972126430889, 37.913737731353294 ], [ 127.077524864168737, 37.912725151271587 ], [ 127.075616707577169, 37.911696440371109 ], [ 127.075256038881449, 37.911233224364423 ], [ 127.074922649800257, 37.911346152048338 ], [ 127.074650503063296, 37.911438335949157 ], [ 127.073278417282182, 37.911903170517881 ], [ 127.072746267329791, 37.912083747221445 ], [ 127.072572483295431, 37.912254368118909 ], [ 127.072503124244179, 37.912322840126748 ], [ 127.072503027217536, 37.912585342599037 ], [ 127.072878782074952, 37.913918139031303 ], [ 127.073186739768232, 37.914726151384045 ], [ 127.070885370453169, 37.916026916445539 ], [ 127.066022765180847, 37.916584789449971 ], [ 127.065579518118952, 37.916531059225932 ], [ 127.065510722441203, 37.916598672885883 ], [ 127.065107401652511, 37.916625348722761 ], [ 127.064701988246966, 37.916644129093314 ], [ 127.064498424955602, 37.916556626223638 ], [ 127.064245530511783, 37.91636137063459 ], [ 127.064149469505367, 37.916287198747732 ], [ 127.062104652177254, 37.913977922235851 ], [ 127.061521354144247, 37.913062060934024 ], [ 127.059394811881504, 37.912444617109564 ], [ 127.058732929360687, 37.912433124426649 ], [ 127.057757952233558, 37.913055866193943 ], [ 127.055245112574212, 37.914492979937904 ], [ 127.05534806477732, 37.914866279432367 ], [ 127.055336198323474, 37.916128049389904 ], [ 127.05520419041882, 37.916440750970651 ], [ 127.054711069793512, 37.9170900726537 ], [ 127.054625788547909, 37.917201285333832 ], [ 127.05447492300047, 37.917338161049123 ], [ 127.05423113553168, 37.917556928799655 ], [ 127.053995427816943, 37.917731788478733 ], [ 127.052683152322189, 37.918954219646565 ], [ 127.051574683503205, 37.920122260499369 ], [ 127.051290093792346, 37.920733634838292 ], [ 127.050904592446045, 37.9215618066806 ], [ 127.050856047297458, 37.921688460692614 ], [ 127.050773084215663, 37.921904923550876 ], [ 127.050628939144062, 37.922437169331971 ], [ 127.054091243110278, 37.923884619486337 ], [ 127.055105026580804, 37.924050689528677 ], [ 127.055231513226573, 37.924039892440412 ], [ 127.055370408310225, 37.924028033505728 ], [ 127.05605203322105, 37.923967517112118 ], [ 127.056128175274324, 37.92395991799642 ], [ 127.059084118007817, 37.924320957846561 ], [ 127.062225819895957, 37.925445110253314 ], [ 127.062595357133532, 37.926309582389116 ], [ 127.061987499988803, 37.926859067105305 ], [ 127.061556593213524, 37.927248588294937 ], [ 127.061303698252942, 37.927732289945375 ], [ 127.060571034868346, 37.92950152824924 ], [ 127.060966138788373, 37.930032513368161 ], [ 127.061677907518458, 37.930771974731229 ], [ 127.062085984030858, 37.931157670661655 ], [ 127.062441851667245, 37.931281236961169 ], [ 127.063046970240393, 37.931491341897654 ], [ 127.063346181012349, 37.931405702999371 ], [ 127.065135182556006, 37.930892109826985 ], [ 127.065705659504701, 37.930728324400249 ], [ 127.067964276105229, 37.932413550331603 ], [ 127.069801300919892, 37.93367708101588 ], [ 127.071013545816967, 37.934479151720694 ], [ 127.072448425986693, 37.934926075584158 ], [ 127.074331919512133, 37.935873561876534 ], [ 127.074463792275893, 37.9359461423455 ], [ 127.074965638162823, 37.937479028657521 ], [ 127.075190295003182, 37.937755563635605 ], [ 127.075320975906763, 37.93791635292439 ], [ 127.076813880270436, 37.938594300120613 ], [ 127.077533354105427, 37.938738756265735 ], [ 127.077901694215953, 37.938602694003087 ], [ 127.07856346884958, 37.9383319651363 ], [ 127.079770798276442, 37.938122685531809 ], [ 127.081739149604687, 37.937814966926048 ], [ 127.085891256214111, 37.937356869950413 ], [ 127.087207811456295, 37.937480926345948 ], [ 127.08745794295551, 37.937522361785653 ], [ 127.092213074153292, 37.940417443941961 ], [ 127.092569532875743, 37.941042824506923 ], [ 127.093335773699181, 37.941866571538625 ], [ 127.093847986945505, 37.942417210308363 ], [ 127.094240491008293, 37.942636713522241 ], [ 127.094650720092304, 37.942866118609764 ], [ 127.095553974271411, 37.943370129562567 ], [ 127.096048427448537, 37.943646024036369 ], [ 127.097942514833164, 37.942632936941628 ], [ 127.102343145697247, 37.940781258466828 ], [ 127.10357427966008, 37.940584703586183 ], [ 127.105863994924619, 37.939895023865503 ], [ 127.105989335032959, 37.93984798600264 ], [ 127.108008543041976, 37.93908990539969 ], [ 127.108138742976067, 37.938151906995117 ], [ 127.108156729603976, 37.938109867435408 ], [ 127.108361998457013, 37.937630972082751 ], [ 127.109477708845617, 37.935523442699299 ], [ 127.111325869927356, 37.932894355462203 ], [ 127.115245137388143, 37.928303845354485 ], [ 127.118197478755079, 37.922608276684208 ], [ 127.120229745300037, 37.917789531574314 ], [ 127.120896980816482, 37.917027573300679 ] ] ] ] } },
{ "type": "Feature", "properties": { "OBJECTID": 1335, "adm_nm": "경기도 동두천시 불현동", "adm_cd": "3108056", "adm_cd2": "4125056500", "sgg": "41250", "sido": "41", "sidonm": "경기도", "sggnm": "동두천시" }, "geometry": { "type": "MultiPolygon", "coordinates": [ [ [ [ 127.155652327647402, 37.895675708128238 ], [ 127.153401049991189, 37.890549801819255 ], [ 127.153114722190281, 37.889896654966662 ], [ 127.149455346867896, 37.884385612323179 ], [ 127.147615292345435, 37.8785095916001 ], [ 127.146963920413341, 37.876025909614178 ], [ 127.145679117734971, 37.875933593199896 ], [ 127.143868594630504, 37.875804354252324 ], [ 127.142086506215719, 37.875677120735425 ], [ 127.140267930604622, 37.87611209077771 ], [ 127.140109273009401, 37.876149911337144 ], [ 127.139837491281526, 37.876212734862662 ], [ 127.136743917345171, 37.875059136917329 ], [ 127.134777704281916, 37.873727009304616 ], [ 127.131695865261221, 37.873110154736722 ], [ 127.129534915763742, 37.873663296106372 ], [ 127.129058128286772, 37.873785739596478 ], [ 127.12872642914293, 37.873870227871585 ], [ 127.128560039663739, 37.873912605150004 ], [ 127.123559383209241, 37.869826128650558 ], [ 127.123162256467509, 37.867157071021055 ], [ 127.120352224583272, 37.866048451025847 ], [ 127.117549902289511, 37.86622865606342 ], [ 127.113676935245508, 37.865476941681962 ], [ 127.111931291463392, 37.86435020140793 ], [ 127.111893444913051, 37.863979415587693 ], [ 127.111252970731698, 37.862137512114124 ], [ 127.109185300669552, 37.859851488629083 ], [ 127.107178232339862, 37.862237777577064 ], [ 127.107051680493768, 37.862384944147657 ], [ 127.103391901802169, 37.865397680380156 ], [ 127.10287005044195, 37.865586322147728 ], [ 127.101875448232732, 37.865945738639034 ], [ 127.098864365568417, 37.866283665817718 ], [ 127.097660443942374, 37.866711039752381 ], [ 127.095977682018301, 37.867395929373131 ], [ 127.09146640088963, 37.871209780588011 ], [ 127.087877870497522, 37.872078270750535 ], [ 127.087792410462413, 37.873513297789735 ], [ 127.087685593055937, 37.874464835510786 ], [ 127.087529190468345, 37.875858018145514 ], [ 127.087261233137596, 37.877010810214408 ], [ 127.087150552849579, 37.877486923036244 ], [ 127.086346941781926, 37.879336315643172 ], [ 127.085089595705398, 37.87963829703871 ], [ 127.084584671140334, 37.879759111624892 ], [ 127.083272701618014, 37.88015870006388 ], [ 127.076585126806748, 37.88277722113407 ], [ 127.075550112923224, 37.883182459712138 ], [ 127.075060239178725, 37.883400222549682 ], [ 127.074431395613061, 37.883679770004768 ], [ 127.073311940408828, 37.884178193540563 ], [ 127.071947349464381, 37.884786133711067 ], [ 127.069955633963133, 37.885673407327012 ], [ 127.0634454692958, 37.885606633504196 ], [ 127.062888569811946, 37.885309390896623 ], [ 127.06195683068519, 37.884829526853224 ], [ 127.061742649593711, 37.884719262162498 ], [ 127.061696630212609, 37.884710100353601 ], [ 127.060809195572972, 37.884541178837082 ], [ 127.060420664752101, 37.884500296770788 ], [ 127.0593529609081, 37.88489355356328 ], [ 127.058936910850605, 37.885046793965344 ], [ 127.058745049134899, 37.885159864225926 ], [ 127.056637872932356, 37.886783301585659 ], [ 127.056887097434199, 37.890739822114782 ], [ 127.056925239306068, 37.891218528981312 ], [ 127.05696376645983, 37.891467910481595 ], [ 127.057164449988576, 37.892615569746063 ], [ 127.057178200556919, 37.892693358583692 ], [ 127.057363201680033, 37.893731675708445 ], [ 127.057383141997207, 37.893843286520401 ], [ 127.057453402679428, 37.894130866983318 ], [ 127.057515671052968, 37.894385691161467 ], [ 127.057530945109235, 37.894446586296446 ], [ 127.057584196534464, 37.894693517200061 ], [ 127.057660967317148, 37.895050945639689 ], [ 127.057676057895662, 37.895121637185255 ], [ 127.057693460766117, 37.895203162023051 ], [ 127.057852350483458, 37.896186361839789 ], [ 127.057796165306783, 37.896216383064896 ], [ 127.057706383134246, 37.896252097717827 ], [ 127.057623909280892, 37.8962753342404 ], [ 127.057361969750005, 37.896311640794877 ], [ 127.057285164670105, 37.896316985073227 ], [ 127.056582599000635, 37.896356025687403 ], [ 127.055973294322158, 37.896371783678198 ], [ 127.056529516573576, 37.903435523366774 ], [ 127.058008094489011, 37.903571902935759 ], [ 127.05801095412086, 37.903503631323524 ], [ 127.058042256789307, 37.903192456684309 ], [ 127.06069449400195, 37.90183556826242 ], [ 127.06092463531094, 37.901845439969222 ], [ 127.060981229825217, 37.901848314407395 ], [ 127.063011542102046, 37.902022199744195 ], [ 127.064969969377287, 37.902773025580132 ], [ 127.066433775218883, 37.903376663531965 ], [ 127.067942426078517, 37.904136672653422 ], [ 127.068306767761015, 37.904645365666376 ], [ 127.069949899136532, 37.904987114296453 ], [ 127.070492161393801, 37.905020639764459 ], [ 127.071406028550186, 37.90496763987629 ], [ 127.071706439486434, 37.904900009392897 ], [ 127.073303907753228, 37.904255173053699 ], [ 127.07415867553047, 37.903890381108042 ], [ 127.07605676402558, 37.905157361008008 ], [ 127.077483680636107, 37.907984218000372 ], [ 127.076603119775598, 37.909049051202366 ], [ 127.076452998850073, 37.909230753503273 ], [ 127.076336784821407, 37.909371433415387 ], [ 127.075313248924303, 37.910799888663135 ], [ 127.075256038881449, 37.911233224364423 ], [ 127.075616707577169, 37.911696440371109 ], [ 127.077524864168737, 37.912725151271587 ], [ 127.079972126430889, 37.913737731353294 ], [ 127.081801652515352, 37.914482183558412 ], [ 127.083090666852812, 37.913744313125967 ], [ 127.083363393249073, 37.913546993476629 ], [ 127.089613151259243, 37.912426557025583 ], [ 127.093520741480845, 37.912069458710612 ], [ 127.097362679867317, 37.911878746108933 ], [ 127.098073525871172, 37.911909341344462 ], [ 127.098677711767806, 37.912071383482214 ], [ 127.107091217247927, 37.9143304843547 ], [ 127.108012393072912, 37.914392140396494 ], [ 127.113271674956209, 37.914606187384074 ], [ 127.114192672661915, 37.915550288699677 ], [ 127.114752508489957, 37.916126862224615 ], [ 127.120896980816482, 37.917027573300679 ], [ 127.1216643829829, 37.916637842057874 ], [ 127.121966404506551, 37.916483762277529 ], [ 127.12623368918446, 37.915745907464206 ], [ 127.127121509332596, 37.915660847090045 ], [ 127.127384446955119, 37.915972627742846 ], [ 127.128041280697587, 37.916150458625026 ], [ 127.129132125510012, 37.916344863706939 ], [ 127.130780726754878, 37.916198516471063 ], [ 127.132841314881873, 37.915922180540775 ], [ 127.133478281593099, 37.91552083491348 ], [ 127.133510732753706, 37.915192007099286 ], [ 127.133514961176047, 37.915149188759884 ], [ 127.134712337281826, 37.913573360118775 ], [ 127.13490694300512, 37.913453476536077 ], [ 127.13512456367809, 37.913320021021157 ], [ 127.135428284488881, 37.913261548607693 ], [ 127.136241935461285, 37.91310491482654 ], [ 127.137205597654344, 37.913347860100522 ], [ 127.13850061764947, 37.91388135797466 ], [ 127.138699206592264, 37.913992926674872 ], [ 127.138760851985296, 37.914027491436599 ], [ 127.139831543757325, 37.91376038321841 ], [ 127.143992060728579, 37.912671203708591 ], [ 127.145959720028699, 37.911865983329598 ], [ 127.146632452197181, 37.910811218000219 ], [ 127.147856043029094, 37.90662842875512 ], [ 127.14746567447169, 37.90546224853238 ], [ 127.14705545703427, 37.904865313709905 ], [ 127.146751150546294, 37.904422484213377 ], [ 127.146636884976928, 37.903487059963744 ], [ 127.146729042257107, 37.902803456705385 ], [ 127.147751785146994, 37.902713011898207 ], [ 127.149601839270673, 37.901465725681881 ], [ 127.149713867247911, 37.901377055651302 ], [ 127.15027359416878, 37.900575435458656 ], [ 127.149894748455068, 37.898934607946885 ], [ 127.149660583333002, 37.897920406776684 ], [ 127.151252554930991, 37.89712485046001 ], [ 127.153457043124874, 37.8960231384835 ], [ 127.155652327647402, 37.895675708128238 ] ] ] ] } },
{ "type": "Feature", "properties": { "OBJECTID": 1336, "adm_nm": "경기도 동두천시 소요동", "adm_cd": "3108058", "adm_cd2": "4125058000", "sgg": "41250", "sido": "41", "sidonm": "경기도", "sggnm": "동두천시" }, "geometry": { "type": "MultiPolygon", "coordinates": [ [ [ [ 127.091712762136353, 37.971441530383423 ], [ 127.092539283208112, 37.970860811651491 ], [ 127.09414464730294, 37.968010401296226 ], [ 127.092694057786829, 37.963839176330019 ], [ 127.092239695454197, 37.960054436512898 ], [ 127.092419194008784, 37.959598951406882 ], [ 127.092565139421367, 37.959228629914499 ], [ 127.094488031790419, 37.957194976335998 ], [ 127.095581966464991, 37.956466442785619 ], [ 127.09681190073573, 37.956034547421908 ], [ 127.098833067497736, 37.955325047137222 ], [ 127.099240487925925, 37.954580616933818 ], [ 127.09911541955411, 37.952461037686909 ], [ 127.099087211239507, 37.952424862854258 ], [ 127.098030992527669, 37.951070465668913 ], [ 127.097131505898332, 37.950731657835156 ], [ 127.096768210828458, 37.950487722376224 ], [ 127.096313514456128, 37.950182360106865 ], [ 127.095576593069708, 37.949018316046129 ], [ 127.095963977913698, 37.948289658720881 ], [ 127.09628859751426, 37.946817159676598 ], [ 127.096409572731773, 37.945248198621201 ], [ 127.096048427448537, 37.943646024036369 ], [ 127.095553974271411, 37.943370129562567 ], [ 127.094650720092304, 37.942866118609764 ], [ 127.094240491008293, 37.942636713522241 ], [ 127.093847986945505, 37.942417210308363 ], [ 127.093335773699181, 37.941866571538625 ], [ 127.092569532875743, 37.941042824506923 ], [ 127.092213074153292, 37.940417443941961 ], [ 127.08745794295551, 37.937522361785653 ], [ 127.087207811456295, 37.937480926345948 ], [ 127.085891256214111, 37.937356869950413 ], [ 127.081739149604687, 37.937814966926048 ], [ 127.079770798276442, 37.938122685531809 ], [ 127.07856346884958, 37.9383319651363 ], [ 127.077901694215953, 37.938602694003087 ], [ 127.077533354105427, 37.938738756265735 ], [ 127.076813880270436, 37.938594300120613 ], [ 127.075320975906763, 37.93791635292439 ], [ 127.075190295003182, 37.937755563635605 ], [ 127.074965638162823, 37.937479028657521 ], [ 127.074463792275893, 37.9359461423455 ], [ 127.074331919512133, 37.935873561876534 ], [ 127.072448425986693, 37.934926075584158 ], [ 127.071013545816967, 37.934479151720694 ], [ 127.069801300919892, 37.93367708101588 ], [ 127.067964276105229, 37.932413550331603 ], [ 127.065705659504701, 37.930728324400249 ], [ 127.065135182556006, 37.930892109826985 ], [ 127.063346181012349, 37.931405702999371 ], [ 127.063046970240393, 37.931491341897654 ], [ 127.062441851667245, 37.931281236961169 ], [ 127.062085984030858, 37.931157670661655 ], [ 127.061677907518458, 37.930771974731229 ], [ 127.060966138788373, 37.930032513368161 ], [ 127.060571034868346, 37.92950152824924 ], [ 127.061303698252942, 37.927732289945375 ], [ 127.061556593213524, 37.927248588294937 ], [ 127.061987499988803, 37.926859067105305 ], [ 127.062595357133532, 37.926309582389116 ], [ 127.062225819895957, 37.925445110253314 ], [ 127.059084118007817, 37.924320957846561 ], [ 127.056128175274324, 37.92395991799642 ], [ 127.05605203322105, 37.923967517112118 ], [ 127.055370408310225, 37.924028033505728 ], [ 127.055231513226573, 37.924039892440412 ], [ 127.055105026580804, 37.924050689528677 ], [ 127.054091243110278, 37.923884619486337 ], [ 127.050628939144062, 37.922437169331971 ], [ 127.050773084215663, 37.921904923550876 ], [ 127.050856047297458, 37.921688460692614 ], [ 127.050904592446045, 37.9215618066806 ], [ 127.051290093792346, 37.920733634838292 ], [ 127.051574683503205, 37.920122260499369 ], [ 127.048796768763992, 37.919600186588035 ], [ 127.048246116269297, 37.919412181947109 ], [ 127.046804364687759, 37.91843099092803 ], [ 127.046612027776106, 37.91825674620948 ], [ 127.046564116961378, 37.918190289360332 ], [ 127.046517548680896, 37.918125694333249 ], [ 127.046455508568471, 37.918038705557812 ], [ 127.045810667803877, 37.916981702771139 ], [ 127.043390072325082, 37.916891219651525 ], [ 127.041041340090587, 37.916906869263698 ], [ 127.039417396092034, 37.917459328322217 ], [ 127.038765974895568, 37.918041492548937 ], [ 127.03710569991263, 37.919277634829392 ], [ 127.036357210216792, 37.919687030940047 ], [ 127.030647193914376, 37.921700196442764 ], [ 127.030022608256431, 37.921737135428017 ], [ 127.026635958319048, 37.919797044797761 ], [ 127.022873573203711, 37.91869917113948 ], [ 127.018165962047647, 37.917762924100096 ], [ 127.015963654777636, 37.917457586267453 ], [ 127.012337218885719, 37.918427279667981 ], [ 127.012785778106604, 37.918555359296768 ], [ 127.012910862532323, 37.919751178180086 ], [ 127.012605385222813, 37.920652009810702 ], [ 127.011033912284731, 37.921206871057535 ], [ 127.009040033409519, 37.925050473549476 ], [ 127.010046043644167, 37.927572627109811 ], [ 127.011287680269945, 37.927345734200301 ], [ 127.012598416703455, 37.928196132561048 ], [ 127.013992800471186, 37.929960583441307 ], [ 127.014158181744932, 37.930331886948295 ], [ 127.016238549713123, 37.935046267677279 ], [ 127.016371572185648, 37.935950422799372 ], [ 127.016756956011562, 37.936618962117507 ], [ 127.020548389030324, 37.940049240637052 ], [ 127.020730697653974, 37.940146727972014 ], [ 127.020998485277929, 37.940289916014542 ], [ 127.022095222243834, 37.940630106648207 ], [ 127.022507234592396, 37.940582550807605 ], [ 127.023707484202902, 37.940443992869874 ], [ 127.024092350888367, 37.940435410598951 ], [ 127.02421918169685, 37.940432759976353 ], [ 127.024950982606413, 37.940417474607557 ], [ 127.025454663632729, 37.940736085684875 ], [ 127.026313066382798, 37.941640835968528 ], [ 127.027572331114598, 37.943154435060343 ], [ 127.027940534171265, 37.944751198082628 ], [ 127.028518895655296, 37.949641892013069 ], [ 127.028721673466819, 37.952085200482152 ], [ 127.028011461198531, 37.95290140056867 ], [ 127.02794381712971, 37.953466688453474 ], [ 127.028726211114162, 37.955160869541693 ], [ 127.029000744439173, 37.955429751015416 ], [ 127.029059534387358, 37.955487218234907 ], [ 127.029303851082716, 37.955725361235956 ], [ 127.032536213798224, 37.956279103713079 ], [ 127.03541876127376, 37.956719679797786 ], [ 127.039209538214592, 37.957825148250535 ], [ 127.040618148330822, 37.959011255745601 ], [ 127.041798441798861, 37.960005073005782 ], [ 127.041680825601532, 37.960849618365508 ], [ 127.044931304436375, 37.970004675756513 ], [ 127.044668071499686, 37.97091846403179 ], [ 127.044555209175314, 37.971557914163036 ], [ 127.044430628202491, 37.972263842743111 ], [ 127.044805040527649, 37.97293675116768 ], [ 127.045790982322941, 37.974146033811614 ], [ 127.04605818797782, 37.974258148896432 ], [ 127.046098162871928, 37.97427489584819 ], [ 127.046280017074707, 37.97435071068783 ], [ 127.046946508579751, 37.974630425315006 ], [ 127.048918601018229, 37.975758979952396 ], [ 127.049088405880724, 37.976269984671319 ], [ 127.048955863821917, 37.977538271900535 ], [ 127.048818539507948, 37.978852262613088 ], [ 127.049721214225571, 37.9792794343184 ], [ 127.052793828948182, 37.980733106339152 ], [ 127.053259164006036, 37.981338730967472 ], [ 127.057054149492188, 37.980340268135727 ], [ 127.062566262671865, 37.979583536464908 ], [ 127.063456073687007, 37.979590762778166 ], [ 127.064101960832559, 37.979595997135263 ], [ 127.06439266905214, 37.979598200691882 ], [ 127.064163687091749, 37.97710078763307 ], [ 127.063862039037602, 37.976485667692621 ], [ 127.063615590216457, 37.976219531870882 ], [ 127.063432816634105, 37.976022165750173 ], [ 127.066098609273396, 37.975278280838985 ], [ 127.067794597422477, 37.975260912657276 ], [ 127.068244385948802, 37.97537409877404 ], [ 127.068612978370851, 37.975633859239068 ], [ 127.069001281153476, 37.975907507501596 ], [ 127.073784438152487, 37.976471341476305 ], [ 127.076175757485458, 37.976679391716281 ], [ 127.080181580797614, 37.976676857595415 ], [ 127.084574054716668, 37.97562217301077 ], [ 127.085533790054726, 37.974780600991195 ], [ 127.086330270318427, 37.973986891216512 ], [ 127.089536565592567, 37.972366790831749 ], [ 127.091712762136353, 37.971441530383423 ] ] ] ] } },
{ "type": "Feature", "properties": { "OBJECTID": 1337, "adm_nm": "경기도 동두천시 상패동", "adm_cd": "3108060", "adm_cd2": "4125060000", "sgg": "41250", "sido": "41", "sidonm": "경기도", "sggnm": "동두천시" }, "geometry": { "type": "MultiPolygon", "coordinates": [ [ [ [ 127.051574683503205, 37.920122260499369 ], [ 127.052683152322189, 37.918954219646565 ], [ 127.053995427816943, 37.917731788478733 ], [ 127.05423113553168, 37.917556928799655 ], [ 127.05447492300047, 37.917338161049123 ], [ 127.054625788547909, 37.917201285333832 ], [ 127.054711069793512, 37.9170900726537 ], [ 127.05520419041882, 37.916440750970651 ], [ 127.055336198323474, 37.916128049389904 ], [ 127.05534806477732, 37.914866279432367 ], [ 127.055245112574212, 37.914492979937904 ], [ 127.053425278123882, 37.911770931005606 ], [ 127.052217283120001, 37.911006998691512 ], [ 127.05157060845309, 37.910598952989787 ], [ 127.051204432255687, 37.910367726550412 ], [ 127.050681286848402, 37.909991692311685 ], [ 127.050629679037229, 37.909944177190823 ], [ 127.050338388751612, 37.9096749288166 ], [ 127.050232595193364, 37.909547567885667 ], [ 127.050150641692071, 37.909448887121442 ], [ 127.05008608572561, 37.909327177067631 ], [ 127.049849193466315, 37.908746976085638 ], [ 127.049609272107617, 37.905092406713649 ], [ 127.049542058036707, 37.904429712781436 ], [ 127.049363345432781, 37.904123714062365 ], [ 127.049115672435207, 37.903701408811337 ], [ 127.048780400672129, 37.90330580617448 ], [ 127.048572195621432, 37.903342979511827 ], [ 127.048471520601765, 37.903360952788553 ], [ 127.047774516030984, 37.903484242299648 ], [ 127.046456820797005, 37.902305447985725 ], [ 127.045379525335434, 37.901306484241026 ], [ 127.044378072144013, 37.900349489182389 ], [ 127.043984478682447, 37.899848871066204 ], [ 127.043763596277032, 37.8991235965618 ], [ 127.043604436859297, 37.898419966742154 ], [ 127.043545909084216, 37.897883467149462 ], [ 127.04365623147666, 37.897285657926261 ], [ 127.043765884678351, 37.896694620102608 ], [ 127.046264280118237, 37.893849447438321 ], [ 127.046032833526681, 37.893873165056377 ], [ 127.045661723716336, 37.893911291290685 ], [ 127.044342381610264, 37.894146162534568 ], [ 127.043675444010915, 37.894287786845084 ], [ 127.036226880672004, 37.895931711987195 ], [ 127.035909918884855, 37.896032985473703 ], [ 127.035336112201335, 37.896507283398563 ], [ 127.029191847632092, 37.898783432041668 ], [ 127.028767906561455, 37.898933829633428 ], [ 127.026865708313125, 37.898468790272375 ], [ 127.024759422685165, 37.897907133471342 ], [ 127.024626715327258, 37.89787279892473 ], [ 127.024428183805256, 37.897894597023949 ], [ 127.022588102998185, 37.898834570051363 ], [ 127.022236453001412, 37.899119376507059 ], [ 127.021382346521335, 37.900057691500585 ], [ 127.020895399993066, 37.900603248710702 ], [ 127.016738840513241, 37.902220984466894 ], [ 127.01481730283659, 37.902967915683334 ], [ 127.013201992423205, 37.903088554340989 ], [ 127.012480419795551, 37.903193723460042 ], [ 127.01071311654978, 37.904472991080112 ], [ 127.010614316083391, 37.904805744581672 ], [ 127.010463330852716, 37.905316277976596 ], [ 127.010374991122632, 37.90561502375482 ], [ 127.010337871683575, 37.906074525953223 ], [ 127.010472296385004, 37.908094074089718 ], [ 127.010555198061866, 37.910336392206524 ], [ 127.009274402000457, 37.913538543830953 ], [ 127.007901102457581, 37.916145438273013 ], [ 127.012337218885719, 37.918427279667981 ], [ 127.015963654777636, 37.917457586267453 ], [ 127.018165962047647, 37.917762924100096 ], [ 127.022873573203711, 37.91869917113948 ], [ 127.026635958319048, 37.919797044797761 ], [ 127.030022608256431, 37.921737135428017 ], [ 127.030647193914376, 37.921700196442764 ], [ 127.036357210216792, 37.919687030940047 ], [ 127.03710569991263, 37.919277634829392 ], [ 127.038765974895568, 37.918041492548937 ], [ 127.039417396092034, 37.917459328322217 ], [ 127.041041340090587, 37.916906869263698 ], [ 127.043390072325082, 37.916891219651525 ], [ 127.045810667803877, 37.916981702771139 ], [ 127.046455508568471, 37.918038705557812 ], [ 127.046517548680896, 37.918125694333249 ], [ 127.046564116961378, 37.918190289360332 ], [ 127.046612027776106, 37.91825674620948 ], [ 127.046804364687759, 37.91843099092803 ], [ 127.048246116269297, 37.919412181947109 ], [ 127.048796768763992, 37.919600186588035 ], [ 127.051574683503205, 37.920122260499369 ] ] ] ] } },
{ "type": "Feature", "properties": { "OBJECTID": 1338, "adm_nm": "경기도 동두천시 송내동", "adm_cd": "3108061", "adm_cd2": "4125056600", "sgg": "41250", "sido": "41", "sidonm": "경기도", "sggnm": "동두천시" }, "geometry": { "type": "MultiPolygon", "coordinates": [ [ [ [ 127.055973294322158, 37.896371783678198 ], [ 127.056582599000635, 37.896356025687403 ], [ 127.057285164670105, 37.896316985073227 ], [ 127.057361969750005, 37.896311640794877 ], [ 127.057623909280892, 37.8962753342404 ], [ 127.057706383134246, 37.896252097717827 ], [ 127.057796165306783, 37.896216383064896 ], [ 127.057852350483458, 37.896186361839789 ], [ 127.057693460766117, 37.895203162023051 ], [ 127.057676057895662, 37.895121637185255 ], [ 127.057660967317148, 37.895050945639689 ], [ 127.057584196534464, 37.894693517200061 ], [ 127.057530945109235, 37.894446586296446 ], [ 127.057515671052968, 37.894385691161467 ], [ 127.057453402679428, 37.894130866983318 ], [ 127.057383141997207, 37.893843286520401 ], [ 127.057363201680033, 37.893731675708445 ], [ 127.057178200556919, 37.892693358583692 ], [ 127.057164449988576, 37.892615569746063 ], [ 127.05696376645983, 37.891467910481595 ], [ 127.056925239306068, 37.891218528981312 ], [ 127.056887097434199, 37.890739822114782 ], [ 127.056637872932356, 37.886783301585659 ], [ 127.058745049134899, 37.885159864225926 ], [ 127.058936910850605, 37.885046793965344 ], [ 127.0593529609081, 37.88489355356328 ], [ 127.060420664752101, 37.884500296770788 ], [ 127.060809195572972, 37.884541178837082 ], [ 127.061696630212609, 37.884710100353601 ], [ 127.061742649593711, 37.884719262162498 ], [ 127.06195683068519, 37.884829526853224 ], [ 127.062888569811946, 37.885309390896623 ], [ 127.0634454692958, 37.885606633504196 ], [ 127.069955633963133, 37.885673407327012 ], [ 127.071947349464381, 37.884786133711067 ], [ 127.073311940408828, 37.884178193540563 ], [ 127.074431395613061, 37.883679770004768 ], [ 127.075060239178725, 37.883400222549682 ], [ 127.075550112923224, 37.883182459712138 ], [ 127.076585126806748, 37.88277722113407 ], [ 127.083272701618014, 37.88015870006388 ], [ 127.084584671140334, 37.879759111624892 ], [ 127.085089595705398, 37.87963829703871 ], [ 127.086346941781926, 37.879336315643172 ], [ 127.087150552849579, 37.877486923036244 ], [ 127.087261233137596, 37.877010810214408 ], [ 127.087529190468345, 37.875858018145514 ], [ 127.087685593055937, 37.874464835510786 ], [ 127.087792410462413, 37.873513297789735 ], [ 127.087877870497522, 37.872078270750535 ], [ 127.087196541561582, 37.872047718114615 ], [ 127.086111848791674, 37.871996852917761 ], [ 127.08569088626939, 37.871977107395402 ], [ 127.083475170126249, 37.871634657955994 ], [ 127.082603423337503, 37.871474969150711 ], [ 127.081723959731761, 37.871227466699942 ], [ 127.081508052344802, 37.871151117926161 ], [ 127.081328144723827, 37.871087044549903 ], [ 127.081204569796427, 37.871043027013378 ], [ 127.077502596532725, 37.871015902628052 ], [ 127.075986226116413, 37.871825364152883 ], [ 127.073730845876099, 37.872786121215753 ], [ 127.073132142606383, 37.872111367914478 ], [ 127.072686849041133, 37.871813435571539 ], [ 127.070061379038634, 37.871029883040329 ], [ 127.068424590356713, 37.870641405750781 ], [ 127.068294718176887, 37.870674163386361 ], [ 127.066291818471726, 37.871535045919934 ], [ 127.066158670316568, 37.871632959658143 ], [ 127.066063349535924, 37.87164950781257 ], [ 127.065192285605264, 37.871371372297943 ], [ 127.064603998250405, 37.871120237543423 ], [ 127.064427719342831, 37.870992727079248 ], [ 127.064301856371387, 37.87090168039029 ], [ 127.063436727732523, 37.86998928590733 ], [ 127.062545989604729, 37.869206352218306 ], [ 127.062377699423834, 37.869152027155387 ], [ 127.062217614017598, 37.869100355153122 ], [ 127.061878094623168, 37.869075433026332 ], [ 127.060733177582335, 37.869218755518681 ], [ 127.060393446049247, 37.86934817654128 ], [ 127.059461627703755, 37.87023361224167 ], [ 127.058997104706577, 37.871019378811958 ], [ 127.057680109529059, 37.873194464979584 ], [ 127.05655662082512, 37.874256029185041 ], [ 127.056257391011684, 37.874501633335768 ], [ 127.055982476915858, 37.874601993384907 ], [ 127.053505202046566, 37.876592389950275 ], [ 127.052810857289913, 37.878000346356565 ], [ 127.052067207322509, 37.87910719307736 ], [ 127.050146048750605, 37.881469164079199 ], [ 127.049806813537757, 37.881738257690039 ], [ 127.048254721708261, 37.882875914537088 ], [ 127.048071762883183, 37.883279594539871 ], [ 127.046898111076587, 37.88772525398462 ], [ 127.046316186590445, 37.892561749239761 ], [ 127.046264280118237, 37.893849447438321 ], [ 127.043765884678351, 37.896694620102608 ], [ 127.047347087824917, 37.897405807107454 ], [ 127.047592562859847, 37.897388693306659 ], [ 127.048786460127303, 37.897305435319353 ], [ 127.048860314122649, 37.897300096096799 ], [ 127.049590793446356, 37.895964841255527 ], [ 127.052365999578953, 37.895847731520547 ], [ 127.055973294322158, 37.896371783678198 ] ] ] ] } }
]
}
