{
"type": "FeatureCollection",
"name": "gimposhi",
"crs": { "type": "name", "properties": { "name": "urn:ogc:def:crs:OGC:1.3:CRS84" } },
"features": [
{ "type": "Feature", "properties": { "OBJECTID": 1563, "adm_nm": "경기도 김포시 통진읍", "adm_cd": "3123011", "adm_cd2": "4157025000", "sgg": "41570", "sido": "41", "sidonm": "경기도", "sggnm": "김포시" }, "geometry": { "type": "MultiPolygon", "coordinates": [ [ [ [ 126.643767286960525, 37.683112573236357 ], [ 126.643352200979919, 37.683017260636561 ], [ 126.64269839817976, 37.682610298557329 ], [ 126.642166325015978, 37.680202131535466 ], [ 126.642063119994518, 37.679734996190085 ], [ 126.639948226795312, 37.679232990489972 ], [ 126.632844907458065, 37.678689649424925 ], [ 126.632982409884036, 37.678263663377081 ], [ 126.633697756808843, 37.676112528436889 ], [ 126.634080358215883, 37.675128287339717 ], [ 126.633753080472175, 37.674950240422163 ], [ 126.628426985838871, 37.677616066109131 ], [ 126.624023895143793, 37.672578902009953 ], [ 126.618883691879205, 37.675392139743792 ], [ 126.614519039914171, 37.676846615686571 ], [ 126.610611291702313, 37.679591826034368 ], [ 126.6075322051353, 37.678312424756349 ], [ 126.606279712188183, 37.675936109908939 ], [ 126.606218092046646, 37.675525745268466 ], [ 126.607339710548686, 37.67216249571063 ], [ 126.60885656587439, 37.671419750401931 ], [ 126.607829145458808, 37.671285798986389 ], [ 126.605275414972297, 37.671606699427812 ], [ 126.603146237058127, 37.672687874023076 ], [ 126.601773075284854, 37.673339175095137 ], [ 126.601702769127257, 37.673278948429683 ], [ 126.601000038801772, 37.672446829434072 ], [ 126.600980134935128, 37.672174848341385 ], [ 126.600944268101173, 37.672024836366937 ], [ 126.600508789523317, 37.671660571948664 ], [ 126.600365854176431, 37.671543626175584 ], [ 126.598402123973855, 37.669987230112895 ], [ 126.595060591771144, 37.669829789815786 ], [ 126.594761106832749, 37.66986467063802 ], [ 126.594495230553264, 37.670049650936754 ], [ 126.594298421850567, 37.670208123487512 ], [ 126.592694997804514, 37.670530411260131 ], [ 126.5923252631368, 37.670572630994549 ], [ 126.592291270123198, 37.670576254929344 ], [ 126.592137926938889, 37.670592595232563 ], [ 126.592011696622549, 37.670599510856896 ], [ 126.591899117834885, 37.670590748592453 ], [ 126.590699140807203, 37.670430541392591 ], [ 126.589717057844794, 37.665827727140325 ], [ 126.584244927565067, 37.661864837384243 ], [ 126.583882673932536, 37.661984324253474 ], [ 126.581419800387934, 37.663517678297865 ], [ 126.581268469154296, 37.663665216091175 ], [ 126.580863117141647, 37.664068775840775 ], [ 126.579989691083085, 37.665996407197547 ], [ 126.579721307204693, 37.667033127998401 ], [ 126.579690960644029, 37.667118461707339 ], [ 126.579609519700284, 37.667343154024572 ], [ 126.579424694159727, 37.667848699133401 ], [ 126.578913963250969, 37.669242014174415 ], [ 126.57887132131043, 37.669332669386847 ], [ 126.578674022549819, 37.669642080561502 ], [ 126.578609767121989, 37.669699631124786 ], [ 126.578557931574124, 37.669745949209215 ], [ 126.578007330678574, 37.670201314689173 ], [ 126.576314028359647, 37.671594109576994 ], [ 126.575914487470683, 37.671917372141969 ], [ 126.575792364157422, 37.67236967875958 ], [ 126.576049407278973, 37.673308469607839 ], [ 126.576452278037635, 37.674306649916005 ], [ 126.57651706062822, 37.675398102822754 ], [ 126.575377081971453, 37.68056494018483 ], [ 126.575280070211207, 37.680849294210276 ], [ 126.573323662454143, 37.681482803640414 ], [ 126.568018533274582, 37.681924322977558 ], [ 126.566534525794054, 37.681737956935329 ], [ 126.565484640413302, 37.68152572074537 ], [ 126.565184341971417, 37.681507567742571 ], [ 126.564357406836194, 37.681602406832631 ], [ 126.563836959010743, 37.681953184500316 ], [ 126.563637988725063, 37.682096654110566 ], [ 126.563105984498847, 37.682480259702096 ], [ 126.562993025078001, 37.682783511281144 ], [ 126.564729078108101, 37.683387692756931 ], [ 126.565353754265175, 37.684213074517729 ], [ 126.565050329986633, 37.685408042170486 ], [ 126.564549064036868, 37.6861643026377 ], [ 126.561958991768577, 37.689921573383934 ], [ 126.560866711282998, 37.691489040015625 ], [ 126.559592528186855, 37.691791016418598 ], [ 126.55913801325957, 37.692311191133498 ], [ 126.560269545327202, 37.697970304571584 ], [ 126.560400155557431, 37.698180875544438 ], [ 126.560442402806444, 37.698204895802519 ], [ 126.566236069245534, 37.700284490290734 ], [ 126.566867115467787, 37.700287314025154 ], [ 126.567544034575349, 37.700290334936838 ], [ 126.568674472597948, 37.700056097199429 ], [ 126.569280790622201, 37.699913674552676 ], [ 126.569544644285088, 37.699787888769677 ], [ 126.570442192757724, 37.699838872676558 ], [ 126.571151561380304, 37.700002907223435 ], [ 126.574154234378028, 37.701732690148376 ], [ 126.574451995054048, 37.703156734069424 ], [ 126.574847585074068, 37.703685113395132 ], [ 126.575544098628185, 37.704565809252912 ], [ 126.578322231661474, 37.705862906807162 ], [ 126.580817803509746, 37.70575617936251 ], [ 126.582709408804462, 37.708241642481632 ], [ 126.585694802342047, 37.714447784271542 ], [ 126.583176086894255, 37.716213542696721 ], [ 126.583091209105305, 37.71619854823647 ], [ 126.582850955307649, 37.716450589399386 ], [ 126.582274192467011, 37.717140892850161 ], [ 126.582110581903862, 37.723503949765188 ], [ 126.582678575953835, 37.723898222501909 ], [ 126.58409154810856, 37.724150237600007 ], [ 126.587789171408971, 37.724373068680883 ], [ 126.589625655883125, 37.724208865316747 ], [ 126.594668861662541, 37.725431842117374 ], [ 126.597715753547106, 37.726238207902973 ], [ 126.598871384699464, 37.727495279364803 ], [ 126.60180977158312, 37.730724165497818 ], [ 126.600778845568939, 37.734274198815463 ], [ 126.599048180920605, 37.736087246322938 ], [ 126.602871766041801, 37.735760395804483 ], [ 126.608557850290865, 37.733844328738066 ], [ 126.61023032679195, 37.730295660833306 ], [ 126.613848033670095, 37.728790238029688 ], [ 126.616759380966243, 37.727453858318185 ], [ 126.618189453910873, 37.726787485724664 ], [ 126.617407377660555, 37.725690721251276 ], [ 126.616147423712519, 37.72392403369674 ], [ 126.61498938198568, 37.722189355770681 ], [ 126.614567669657959, 37.720640119440596 ], [ 126.614118622783536, 37.718723300044253 ], [ 126.613988187862319, 37.717951371616302 ], [ 126.613831708084447, 37.71688875894975 ], [ 126.614418511824169, 37.71533313173186 ], [ 126.61714218482507, 37.714715023910486 ], [ 126.61877604751065, 37.712520793830166 ], [ 126.618782000678934, 37.71248178469412 ], [ 126.618787571105159, 37.712445395500175 ], [ 126.619240739595128, 37.711371794620348 ], [ 126.620101971453863, 37.709347955610632 ], [ 126.621109113265504, 37.707050676785421 ], [ 126.623317206937955, 37.706832469740959 ], [ 126.62554504741324, 37.706641618777674 ], [ 126.625965084277055, 37.706597444424126 ], [ 126.626174836406562, 37.706467249530974 ], [ 126.628783217824719, 37.703939252241788 ], [ 126.62825803827117, 37.702025826457529 ], [ 126.631157863593018, 37.700211762560642 ], [ 126.630258024835086, 37.696996063483653 ], [ 126.630037022782062, 37.696206238338306 ], [ 126.630550218722419, 37.695397456352325 ], [ 126.630711577283165, 37.69514315970855 ], [ 126.631375636150295, 37.694158451491731 ], [ 126.631987716425058, 37.693250795482427 ], [ 126.632263024696329, 37.6930761198117 ], [ 126.632654806176944, 37.692827396839476 ], [ 126.632649785718741, 37.692767833738543 ], [ 126.632518953137762, 37.692091058499592 ], [ 126.631995248876052, 37.689381973418151 ], [ 126.631216875857092, 37.685313578522589 ], [ 126.631062995926953, 37.684407752902516 ], [ 126.635008556207865, 37.684445773049504 ], [ 126.637366374740949, 37.685033124314458 ], [ 126.637634634588792, 37.685127687187915 ], [ 126.637895122961339, 37.68521950762932 ], [ 126.63807230934593, 37.685217251673947 ], [ 126.638119859974992, 37.685216642926683 ], [ 126.641892564116958, 37.684703357960082 ], [ 126.642203035336166, 37.684633522568078 ], [ 126.64231179471409, 37.684602200774179 ], [ 126.642485379457668, 37.684552205504303 ], [ 126.643114800941518, 37.684306665595592 ], [ 126.643345956105478, 37.684176528026811 ], [ 126.643932290081764, 37.683732383673778 ], [ 126.644048668545963, 37.683598035121356 ], [ 126.64409544756063, 37.683473313879908 ], [ 126.643767286960525, 37.683112573236357 ] ] ] ] } },
{ "type": "Feature", "properties": { "OBJECTID": 1564, "adm_nm": "경기도 김포시 고촌읍", "adm_cd": "3123012", "adm_cd2": "4157025300", "sgg": "41570", "sido": "41", "sidonm": "경기도", "sggnm": "김포시" }, "geometry": { "type": "MultiPolygon", "coordinates": [ [ [ [ 126.74092368353017, 37.638925075807698 ], [ 126.742769412913844, 37.637981366478613 ], [ 126.744803313933971, 37.636795171823266 ], [ 126.74882622296812, 37.634449709120865 ], [ 126.75012331579542, 37.633796651053473 ], [ 126.751618464184588, 37.633044485829437 ], [ 126.753206367846062, 37.632246571195878 ], [ 126.755317544386543, 37.631184118539899 ], [ 126.756194645372929, 37.630726035659521 ], [ 126.758458996286905, 37.629538702424888 ], [ 126.758671256478209, 37.629427307260528 ], [ 126.75957471166781, 37.62895308654393 ], [ 126.759719977621359, 37.628875131905041 ], [ 126.760909186276109, 37.628233631357716 ], [ 126.761200690624079, 37.627867724289956 ], [ 126.76143432188168, 37.627579291991978 ], [ 126.763472330190822, 37.626240823624208 ], [ 126.763640572421792, 37.626130335257734 ], [ 126.763856570777108, 37.625988597218615 ], [ 126.7641531253972, 37.625794407255732 ], [ 126.768238496107259, 37.623691553543878 ], [ 126.773999074977141, 37.62219154401614 ], [ 126.774894357479425, 37.621748592698722 ], [ 126.777988616958794, 37.619684305538009 ], [ 126.778868912061128, 37.619085454164399 ], [ 126.780155255727109, 37.618201425154403 ], [ 126.781882670713372, 37.617015407311015 ], [ 126.782130276802249, 37.616845506984134 ], [ 126.782509291522388, 37.616585453749288 ], [ 126.785642308455806, 37.615102619561306 ], [ 126.786702052571044, 37.614641382721864 ], [ 126.787638402923733, 37.614233850769516 ], [ 126.787761444506287, 37.614180298190156 ], [ 126.78840128674392, 37.613902554547082 ], [ 126.788747027324618, 37.613752477108783 ], [ 126.791796559488191, 37.612833433547031 ], [ 126.792103988676004, 37.612740944805068 ], [ 126.793221156953066, 37.612404828745909 ], [ 126.797458985788325, 37.611017295673129 ], [ 126.797946338268147, 37.610856880975739 ], [ 126.798534015072192, 37.610480639038421 ], [ 126.800690416701343, 37.608572472434759 ], [ 126.804219964040186, 37.60473450161814 ], [ 126.80483924542547, 37.604117510854316 ], [ 126.804935933112219, 37.604021186084474 ], [ 126.804321061048043, 37.604294571752177 ], [ 126.803969470323096, 37.604413051102455 ], [ 126.803514002672273, 37.60450838485481 ], [ 126.80289056756088, 37.604619623875571 ], [ 126.802365151968701, 37.604651814378748 ], [ 126.802219648383925, 37.60466072550323 ], [ 126.801852270045757, 37.604648411826865 ], [ 126.801278017615843, 37.604498547479423 ], [ 126.800934699421077, 37.604336526723841 ], [ 126.800599858065567, 37.604103588722289 ], [ 126.800353286261696, 37.60381706876511 ], [ 126.797915833385957, 37.600754864449485 ], [ 126.797614660252137, 37.600261940105959 ], [ 126.797473443885849, 37.599994078513987 ], [ 126.797231061514026, 37.599342549250977 ], [ 126.797139114868926, 37.599036866796055 ], [ 126.797102010362437, 37.598911393736408 ], [ 126.797021709568497, 37.598490667550934 ], [ 126.79706168057831, 37.59793081659879 ], [ 126.797065405598374, 37.597878642522893 ], [ 126.797108147851972, 37.59728001547473 ], [ 126.797254095568164, 37.596592490497393 ], [ 126.797534900406802, 37.595870930507701 ], [ 126.79757912726788, 37.595757311019682 ], [ 126.799063301185896, 37.59210896857013 ], [ 126.800616177458508, 37.589273339655634 ], [ 126.800809090349304, 37.589007462801753 ], [ 126.800820076784859, 37.588968769546042 ], [ 126.800881568426561, 37.588752137212104 ], [ 126.800788047489846, 37.588003506064844 ], [ 126.800677886545657, 37.587898042486984 ], [ 126.79964164603058, 37.588021541079279 ], [ 126.798827897847445, 37.588223941277647 ], [ 126.798692136622805, 37.588104365692146 ], [ 126.798338523282922, 37.587792898627406 ], [ 126.79735831119396, 37.585583301262105 ], [ 126.797025348388331, 37.584180868579743 ], [ 126.79690298688628, 37.584019024120053 ], [ 126.79626418373465, 37.583449629654716 ], [ 126.795948857488412, 37.583184107473663 ], [ 126.795907333028779, 37.583157948168804 ], [ 126.795721800321303, 37.583120639139651 ], [ 126.794815762774959, 37.583312543922197 ], [ 126.793673641834985, 37.581604549950598 ], [ 126.792861996989842, 37.582046873105696 ], [ 126.792132321590728, 37.582481900968375 ], [ 126.787048934749961, 37.585551901564692 ], [ 126.786630889007, 37.585124213953172 ], [ 126.786040703185563, 37.584521015816435 ], [ 126.785849885401973, 37.584326002189727 ], [ 126.785599181042116, 37.584070579726365 ], [ 126.784113431033006, 37.582585135084074 ], [ 126.781926752308465, 37.583912013559981 ], [ 126.780097513132048, 37.584361589637702 ], [ 126.778797040747818, 37.584530582032627 ], [ 126.77767755044934, 37.584638655879395 ], [ 126.776781873709766, 37.584660212273874 ], [ 126.774861737995238, 37.584867381264878 ], [ 126.773361134954882, 37.585117073022474 ], [ 126.773303886844857, 37.585135854116345 ], [ 126.773265732001562, 37.585148373993761 ], [ 126.771594167969511, 37.585696878085336 ], [ 126.771497736401173, 37.585744434052508 ], [ 126.771170909879388, 37.585905619295069 ], [ 126.771011180996339, 37.585984537115166 ], [ 126.770889443018149, 37.58604468926498 ], [ 126.770316336156213, 37.58651845842963 ], [ 126.770124968974216, 37.586676764571678 ], [ 126.769449242968719, 37.587235700053235 ], [ 126.768067923267836, 37.588055228792193 ], [ 126.76731222973504, 37.588025995039892 ], [ 126.764039262630206, 37.585900161813072 ], [ 126.76307854848325, 37.584892059639024 ], [ 126.76155197088714, 37.585309489067903 ], [ 126.759158777796841, 37.585093356074147 ], [ 126.758093522842245, 37.584873277930406 ], [ 126.757704098969739, 37.584792129564242 ], [ 126.755556125294703, 37.582741200780461 ], [ 126.755557850027074, 37.582706643683771 ], [ 126.755565190693034, 37.582567727658478 ], [ 126.755579089650396, 37.582304762679954 ], [ 126.755635259396144, 37.58124223895431 ], [ 126.754735931670083, 37.580433512083552 ], [ 126.751816441365577, 37.579571788781351 ], [ 126.749928566906547, 37.580947666065704 ], [ 126.750002907451389, 37.581973864903723 ], [ 126.750018960520237, 37.582420127291904 ], [ 126.750026109486782, 37.583683166971035 ], [ 126.749596675529844, 37.584375403879477 ], [ 126.749162718684602, 37.58480144110063 ], [ 126.748907245331836, 37.584909932543283 ], [ 126.748468658808449, 37.58522290594582 ], [ 126.746612177442216, 37.586724798148452 ], [ 126.746548737152168, 37.586780895976034 ], [ 126.746463272018019, 37.586856830309671 ], [ 126.7463484990149, 37.587027080431632 ], [ 126.746283796237037, 37.587123191948059 ], [ 126.746151213942298, 37.587332627166646 ], [ 126.74533023532193, 37.588788576810558 ], [ 126.745227864382429, 37.589097751778297 ], [ 126.74493378054369, 37.589986334381003 ], [ 126.744813646538176, 37.590463344185963 ], [ 126.744542100941743, 37.591542746648265 ], [ 126.743624123065132, 37.593349709658874 ], [ 126.739026491552892, 37.593692239816065 ], [ 126.738267627476205, 37.593555202073958 ], [ 126.737983551343447, 37.593503795050253 ], [ 126.737045269547664, 37.59318001392937 ], [ 126.736979162496212, 37.593068046763676 ], [ 126.736637986905549, 37.592473412325226 ], [ 126.736679922101715, 37.592192440958719 ], [ 126.735019269732135, 37.590466282336202 ], [ 126.732218583089306, 37.591670980583899 ], [ 126.729181457366209, 37.59288828807572 ], [ 126.72901216328026, 37.592942865648986 ], [ 126.72859891190096, 37.592843722939705 ], [ 126.727315003434356, 37.592535623666137 ], [ 126.725125922128953, 37.592000968556349 ], [ 126.724509806951346, 37.592942833007037 ], [ 126.725139606566046, 37.593379609310396 ], [ 126.727685072140972, 37.595030514055779 ], [ 126.732628081563504, 37.598236010438455 ], [ 126.733416518153732, 37.598747006189008 ], [ 126.733477986696897, 37.598828525204375 ], [ 126.733982360687421, 37.599501224621335 ], [ 126.74055911418219, 37.609175382245276 ], [ 126.740592402205138, 37.609311868480575 ], [ 126.740411615938584, 37.609404271954972 ], [ 126.738738121239052, 37.610116520159693 ], [ 126.740494850397596, 37.610856901641426 ], [ 126.741337690892649, 37.611303086845062 ], [ 126.741320224623735, 37.611761552843738 ], [ 126.740537759769168, 37.61219702529354 ], [ 126.73989020049089, 37.612557410149094 ], [ 126.738836435766984, 37.614140358099228 ], [ 126.738904128670299, 37.614747985603927 ], [ 126.739453522480133, 37.615183778916403 ], [ 126.740659700543034, 37.615348125676235 ], [ 126.743057228675681, 37.616062964167959 ], [ 126.743232438752287, 37.616471714742147 ], [ 126.742842865849781, 37.616988937915124 ], [ 126.738589016508627, 37.620439435575364 ], [ 126.738477092779263, 37.620510819511338 ], [ 126.737360674352857, 37.621022998202577 ], [ 126.737295618432185, 37.621039784952188 ], [ 126.737262681497981, 37.62104827887179 ], [ 126.737228608525541, 37.621055945230232 ], [ 126.736990627193251, 37.621057786550921 ], [ 126.735959228934703, 37.621012354558047 ], [ 126.735031336718706, 37.620970217412932 ], [ 126.734678698735451, 37.620948174513934 ], [ 126.734600051164719, 37.620951043452024 ], [ 126.73434425596794, 37.620964031375188 ], [ 126.733449569254262, 37.621052861836198 ], [ 126.733207479645884, 37.623039841141683 ], [ 126.733262488707652, 37.624377641659123 ], [ 126.733348514730523, 37.624548226947326 ], [ 126.733716122210367, 37.626201169528763 ], [ 126.733736266973821, 37.62637818570542 ], [ 126.733551841492655, 37.627020400688423 ], [ 126.733536491726369, 37.627049971742622 ], [ 126.733413156917891, 37.62728755330658 ], [ 126.733123051769468, 37.627699403948881 ], [ 126.733070236815252, 37.627774357463053 ], [ 126.732717433769395, 37.628202383900714 ], [ 126.732454745830069, 37.628468819876105 ], [ 126.730164972041109, 37.630717401672655 ], [ 126.730105157260937, 37.630773344231756 ], [ 126.730033418400708, 37.630840430448806 ], [ 126.729717768668934, 37.630884563034876 ], [ 126.72927637307231, 37.630895200358914 ], [ 126.728878457040111, 37.630893726985008 ], [ 126.728228324728036, 37.631350277860214 ], [ 126.728181425377798, 37.631383437283681 ], [ 126.728102057062216, 37.631439561853171 ], [ 126.728131357351259, 37.63161666121092 ], [ 126.728138436398098, 37.631648839777398 ], [ 126.72815841820902, 37.631739643844206 ], [ 126.728230293537877, 37.631982331729688 ], [ 126.728298394068474, 37.63210897626363 ], [ 126.728392608120942, 37.632244791276456 ], [ 126.728417334981245, 37.632265836697805 ], [ 126.728472653143868, 37.632312914151122 ], [ 126.728695990421102, 37.632392001068389 ], [ 126.72907432734354, 37.632489225653622 ], [ 126.72944552969166, 37.632554743375984 ], [ 126.729688202109173, 37.632650967215227 ], [ 126.729802204848212, 37.632791416931305 ], [ 126.730386922452595, 37.633720217745015 ], [ 126.730767861552764, 37.634352503110897 ], [ 126.730930255573384, 37.634647646201998 ], [ 126.73227503845888, 37.636711398922401 ], [ 126.735797072274821, 37.641547355185573 ], [ 126.74092368353017, 37.638925075807698 ] ] ] ] } },
{ "type": "Feature", "properties": { "OBJECTID": 1565, "adm_nm": "경기도 김포시 양촌읍", "adm_cd": "3123013", "adm_cd2": "4157025600", "sgg": "41570", "sido": "41", "sidonm": "경기도", "sggnm": "김포시" }, "geometry": { "type": "MultiPolygon", "coordinates": [ [ [ [ 126.667046410818642, 37.689140199901637 ], [ 126.66632684092707, 37.687759464469373 ], [ 126.666371387437934, 37.686059675487613 ], [ 126.666785375039936, 37.684156322182126 ], [ 126.668324604827561, 37.68050334413897 ], [ 126.668462931224639, 37.680175283780521 ], [ 126.669093882680542, 37.679209746638286 ], [ 126.669948034218379, 37.677922514036361 ], [ 126.670216398977885, 37.67763436381324 ], [ 126.671281628796365, 37.676490774996687 ], [ 126.673464343198717, 37.674914143553003 ], [ 126.670165852271325, 37.672119433954023 ], [ 126.66851427702737, 37.669732382739546 ], [ 126.66816790945029, 37.667621310257886 ], [ 126.667190583808747, 37.664647954151008 ], [ 126.666527633507457, 37.663604503264018 ], [ 126.664943752545682, 37.663107715608447 ], [ 126.664612919961442, 37.662973555264116 ], [ 126.663695122313868, 37.662164878950058 ], [ 126.663596183273, 37.661937752071999 ], [ 126.664342493462343, 37.660357819204165 ], [ 126.664335530664374, 37.658766943231612 ], [ 126.663670752892216, 37.657451942531694 ], [ 126.660952950215176, 37.654146785307304 ], [ 126.660278100085378, 37.653367400039855 ], [ 126.658101475773535, 37.650735824457662 ], [ 126.657066519694482, 37.649446282300254 ], [ 126.656294854447736, 37.648225120885861 ], [ 126.654562053583035, 37.645275541363631 ], [ 126.652530078629383, 37.641066714981115 ], [ 126.651815619544706, 37.642213255906121 ], [ 126.651654431514316, 37.642985506324365 ], [ 126.65149197166842, 37.644029251004845 ], [ 126.650515215964845, 37.645091470315641 ], [ 126.64792469658137, 37.644833459572361 ], [ 126.646604050988941, 37.645152894587092 ], [ 126.646188000678293, 37.645292968427924 ], [ 126.645550677178122, 37.645515936916347 ], [ 126.645051543901502, 37.645735396937837 ], [ 126.644069188976715, 37.646058990275215 ], [ 126.643392636699147, 37.646573981850771 ], [ 126.642876212848122, 37.647001736865342 ], [ 126.642718121741126, 37.647133532532216 ], [ 126.64245486363059, 37.647354695341186 ], [ 126.642280070083942, 37.648074151508858 ], [ 126.641329697378723, 37.649073720264816 ], [ 126.641115954085564, 37.649824910872539 ], [ 126.639665946251469, 37.649575098367663 ], [ 126.639616235365907, 37.650132311258176 ], [ 126.638624218905051, 37.652231667603324 ], [ 126.64029065577472, 37.654947180360246 ], [ 126.639546765831895, 37.655200893907811 ], [ 126.6395083636652, 37.655213005976108 ], [ 126.635308880952863, 37.656491740365517 ], [ 126.634426171546295, 37.654831069212428 ], [ 126.633974824282063, 37.653978265384836 ], [ 126.633648976249162, 37.653361850578754 ], [ 126.633394572555645, 37.652882383056017 ], [ 126.632666719045957, 37.652408248699629 ], [ 126.628876133338792, 37.651622084516632 ], [ 126.624675712573122, 37.650750511400389 ], [ 126.624363787229257, 37.650645671591455 ], [ 126.624184421547554, 37.650584587219882 ], [ 126.623387987761731, 37.650300430373115 ], [ 126.622966292820038, 37.650131678929064 ], [ 126.62183410657579, 37.649230952332921 ], [ 126.621236093189452, 37.648754434319756 ], [ 126.617834123492798, 37.645716994995084 ], [ 126.61909611381725, 37.642547552538375 ], [ 126.621074363462142, 37.637581602118274 ], [ 126.627713144967743, 37.63543573886912 ], [ 126.632256079479745, 37.634722493589123 ], [ 126.634952185609251, 37.634221780849721 ], [ 126.636581068013243, 37.633819104912931 ], [ 126.641630364327852, 37.631702921513714 ], [ 126.644915029469757, 37.628595808670056 ], [ 126.643577367119292, 37.628002665100489 ], [ 126.642272413793663, 37.627731639341789 ], [ 126.639659659900531, 37.627723882852834 ], [ 126.639476884345981, 37.627757845660206 ], [ 126.636952905570652, 37.626033388939021 ], [ 126.63697660742649, 37.623431868687774 ], [ 126.636574299143305, 37.620490285039395 ], [ 126.636495615496003, 37.620366717557943 ], [ 126.636460996016794, 37.620351130911274 ], [ 126.63433944432127, 37.619412226946338 ], [ 126.632809333043184, 37.61691871548215 ], [ 126.632641918869425, 37.616392969539731 ], [ 126.632624855146659, 37.616339386685723 ], [ 126.631418322586228, 37.613464562274054 ], [ 126.629292946507007, 37.610960505350356 ], [ 126.62774963650817, 37.606899591096422 ], [ 126.627694943440304, 37.605968774960736 ], [ 126.62551829046626, 37.604327534918689 ], [ 126.623397948033258, 37.602797210497329 ], [ 126.619584164923054, 37.603888472624099 ], [ 126.615746816758204, 37.605488454425341 ], [ 126.615406228919795, 37.605650319383223 ], [ 126.614747259272079, 37.60586845529339 ], [ 126.613907911519959, 37.605791311903403 ], [ 126.613858159529912, 37.605779571739895 ], [ 126.613143601396089, 37.605610767939069 ], [ 126.612764609640834, 37.605510341955487 ], [ 126.612618063492093, 37.605471508006431 ], [ 126.612463077891505, 37.605430433709564 ], [ 126.611634227209365, 37.605124003469065 ], [ 126.609055352199576, 37.604152708315397 ], [ 126.608605457644359, 37.603790866592178 ], [ 126.608459555640465, 37.603519224321609 ], [ 126.608341830612332, 37.603300049849629 ], [ 126.60818978153948, 37.603017471907862 ], [ 126.607670104901317, 37.602070426464927 ], [ 126.607398757146356, 37.601678299899973 ], [ 126.607114015934073, 37.601267153499606 ], [ 126.606174212543138, 37.600400403381961 ], [ 126.605516466256049, 37.599884973606692 ], [ 126.605312295240481, 37.599725006692637 ], [ 126.604947597922077, 37.599439273643711 ], [ 126.604120224261848, 37.598828082714689 ], [ 126.603701443954691, 37.598581958507339 ], [ 126.602983164152192, 37.598160062885036 ], [ 126.592723731642906, 37.592975778527162 ], [ 126.592571291746893, 37.592928098291175 ], [ 126.59205733253998, 37.592767564051513 ], [ 126.591864447505472, 37.592707314660196 ], [ 126.590206410149761, 37.592189014531023 ], [ 126.579600900463532, 37.589539025633336 ], [ 126.572579069406274, 37.587784222507025 ], [ 126.565749835564532, 37.586077393531376 ], [ 126.563838013509667, 37.586890208854626 ], [ 126.563650415321661, 37.586970001975132 ], [ 126.563055553327246, 37.5894764861035 ], [ 126.56472991194812, 37.592911478018827 ], [ 126.566060597141799, 37.594170421519692 ], [ 126.566377658890033, 37.594470289554359 ], [ 126.566806330378313, 37.594781562225485 ], [ 126.567514953444729, 37.595296104247439 ], [ 126.568653089923529, 37.595886441770432 ], [ 126.570855024486676, 37.597397910060785 ], [ 126.572412268964939, 37.59846678689938 ], [ 126.578821464937789, 37.602952254680773 ], [ 126.58125983795891, 37.604185718249532 ], [ 126.58630279575307, 37.610346385631992 ], [ 126.590395016821702, 37.615459638144692 ], [ 126.590820223829581, 37.616162972887174 ], [ 126.592713079700431, 37.615168548106055 ], [ 126.594301710858957, 37.617124540668968 ], [ 126.597038367896644, 37.620887043841314 ], [ 126.598065662616122, 37.622482306344288 ], [ 126.601581201963171, 37.626070068788401 ], [ 126.603157870112057, 37.627654865320885 ], [ 126.604943474176622, 37.629660339090734 ], [ 126.605282409805682, 37.630987848041357 ], [ 126.605548472761171, 37.631718806648522 ], [ 126.605616590936762, 37.631889419840938 ], [ 126.605977439083517, 37.632510711477764 ], [ 126.606018424480126, 37.632577494264524 ], [ 126.606114477599405, 37.632719053025248 ], [ 126.606160251962422, 37.632765457189151 ], [ 126.60623204885151, 37.632838241767374 ], [ 126.606267075474364, 37.632871729697825 ], [ 126.60632589027658, 37.632927957804974 ], [ 126.606449810786131, 37.633046036229977 ], [ 126.606537802244219, 37.633154892348607 ], [ 126.606601088859108, 37.633252263303092 ], [ 126.606641476148354, 37.633366243370581 ], [ 126.606654754826195, 37.633444199776285 ], [ 126.606717784752888, 37.633622687349344 ], [ 126.606814408892419, 37.633893814322946 ], [ 126.60703120292257, 37.634345762913924 ], [ 126.607129549503881, 37.634550781959327 ], [ 126.607134070165756, 37.634733693584266 ], [ 126.60714243726035, 37.63507251724414 ], [ 126.606760156103206, 37.635703925914669 ], [ 126.606628871986373, 37.635842636096939 ], [ 126.60658554175734, 37.635888194058509 ], [ 126.60647248115292, 37.636007068861048 ], [ 126.605785659010593, 37.636869383200136 ], [ 126.605942369379136, 37.638038907265987 ], [ 126.60655908679324, 37.639777486709328 ], [ 126.60721529787817, 37.641473550714643 ], [ 126.607227605655538, 37.641982917648065 ], [ 126.607205973602291, 37.642060945879848 ], [ 126.604862740796662, 37.642924408120209 ], [ 126.604646448298354, 37.642962660785976 ], [ 126.603599648986147, 37.643118074804669 ], [ 126.603034321951313, 37.643201248690517 ], [ 126.6029006202197, 37.64322091903621 ], [ 126.602171540044665, 37.643347189956494 ], [ 126.602137321690606, 37.643364955850458 ], [ 126.601958376666673, 37.643459358613036 ], [ 126.601785392699753, 37.643587605848623 ], [ 126.601652625011312, 37.643788264385414 ], [ 126.601478645496499, 37.644165409252174 ], [ 126.60143718617023, 37.644382618904594 ], [ 126.601424196554248, 37.644872608786784 ], [ 126.603996417200008, 37.650426252923808 ], [ 126.604493761910973, 37.650841254742772 ], [ 126.604641072217078, 37.650964050543934 ], [ 126.606360905667628, 37.65164061350405 ], [ 126.610338511484102, 37.651017640780822 ], [ 126.610379362489894, 37.651010846506018 ], [ 126.61052891608368, 37.652199953362327 ], [ 126.610633681764341, 37.653032836855274 ], [ 126.610875118353974, 37.654948825315508 ], [ 126.610895516955622, 37.655109151786895 ], [ 126.610900378870994, 37.655147305050598 ], [ 126.611036384419634, 37.65598546344507 ], [ 126.611770435017476, 37.656696236239767 ], [ 126.61318192023019, 37.65752025108371 ], [ 126.614354323467381, 37.658205088385081 ], [ 126.616877219133144, 37.660086346418453 ], [ 126.620566839408596, 37.662838033950472 ], [ 126.621199733267048, 37.663383670614927 ], [ 126.621693549820563, 37.663809813949342 ], [ 126.621860535929713, 37.663954117556443 ], [ 126.619726954562267, 37.665143743636179 ], [ 126.619576998933155, 37.665180930215023 ], [ 126.619250836292608, 37.665077097226749 ], [ 126.61899124234121, 37.664737165630356 ], [ 126.618521958147412, 37.664571422778018 ], [ 126.618147492915554, 37.664544811771485 ], [ 126.617813221601722, 37.664521058147045 ], [ 126.616193793543957, 37.664418802982219 ], [ 126.615768720129253, 37.664409985601466 ], [ 126.613643679440798, 37.665233381938137 ], [ 126.613525886793767, 37.66528689275826 ], [ 126.613258219558105, 37.665408495851025 ], [ 126.612120895749612, 37.666000439864661 ], [ 126.610935017067263, 37.666649938677949 ], [ 126.610360445430459, 37.667166477805928 ], [ 126.609760207856127, 37.668178585812548 ], [ 126.610300889760254, 37.668867547377566 ], [ 126.610870359872834, 37.669843005695959 ], [ 126.609676315057172, 37.670784883850111 ], [ 126.60885656587439, 37.671419750401931 ], [ 126.607339710548686, 37.67216249571063 ], [ 126.606218092046646, 37.675525745268466 ], [ 126.606279712188183, 37.675936109908939 ], [ 126.6075322051353, 37.678312424756349 ], [ 126.610611291702313, 37.679591826034368 ], [ 126.614519039914171, 37.676846615686571 ], [ 126.618883691879205, 37.675392139743792 ], [ 126.624023895143793, 37.672578902009953 ], [ 126.628426985838871, 37.677616066109131 ], [ 126.633753080472175, 37.674950240422163 ], [ 126.634080358215883, 37.675128287339717 ], [ 126.633697756808843, 37.676112528436889 ], [ 126.632982409884036, 37.678263663377081 ], [ 126.632844907458065, 37.678689649424925 ], [ 126.639948226795312, 37.679232990489972 ], [ 126.642063119994518, 37.679734996190085 ], [ 126.642166325015978, 37.680202131535466 ], [ 126.64269839817976, 37.682610298557329 ], [ 126.643352200979919, 37.683017260636561 ], [ 126.643767286960525, 37.683112573236357 ], [ 126.644135182158564, 37.682853949602105 ], [ 126.644195869240406, 37.682828206884409 ], [ 126.644542603137694, 37.682681149742152 ], [ 126.644799722821659, 37.682572604684289 ], [ 126.645641686807039, 37.682457029357394 ], [ 126.646611778552909, 37.682358210445919 ], [ 126.648078324135255, 37.682776624052607 ], [ 126.65084344854445, 37.686736093346383 ], [ 126.654583627118399, 37.692091032357865 ], [ 126.657128744903446, 37.692583707587858 ], [ 126.659722009169442, 37.69168403511717 ], [ 126.667046410818642, 37.689140199901637 ] ] ] ] } },
{ "type": "Feature", "properties": { "OBJECTID": 1566, "adm_nm": "경기도 김포시 대곶면", "adm_cd": "3123034", "adm_cd2": "4157034000", "sgg": "41570", "sido": "41", "sidonm": "경기도", "sggnm": "김포시" }, "geometry": { "type": "MultiPolygon", "coordinates": [ [ [ [ 126.550339238110965, 37.599448301323427 ], [ 126.550376774852808, 37.599421932430346 ], [ 126.550612181332909, 37.599754692714107 ], [ 126.550871029199044, 37.59994379857941 ], [ 126.551329066338923, 37.599836438907708 ], [ 126.551554223847006, 37.59978355658528 ], [ 126.551802188723059, 37.599265154261211 ], [ 126.55066237609374, 37.596248940186541 ], [ 126.550540764363049, 37.596069973706946 ], [ 126.550303354382962, 37.595921598990479 ], [ 126.550238527790825, 37.595909918066539 ], [ 126.549962890414903, 37.595860272967677 ], [ 126.549632478057589, 37.595844092907981 ], [ 126.549591785492808, 37.59588349449831 ], [ 126.54924253473142, 37.59622175982819 ], [ 126.547815400264469, 37.600267283415292 ], [ 126.547781428425552, 37.600376833251971 ], [ 126.547747440690145, 37.600486466770754 ], [ 126.547281194475076, 37.602014946034295 ], [ 126.547196260991512, 37.602400700795876 ], [ 126.547270956900093, 37.602706625611347 ], [ 126.547850618902473, 37.604390010067135 ], [ 126.548047399583652, 37.604726172487688 ], [ 126.54860621422273, 37.60471607225103 ], [ 126.549237861670463, 37.604649065573064 ], [ 126.549244211608112, 37.604320096658135 ], [ 126.549019251885682, 37.604142408803703 ], [ 126.549051302811307, 37.603969554399846 ], [ 126.549087649380795, 37.603773567999184 ], [ 126.549817279262399, 37.60012910271967 ], [ 126.549872609899595, 37.599979180186615 ], [ 126.549915538859764, 37.599862877943998 ], [ 126.550062279025411, 37.599681541116219 ], [ 126.550165965738515, 37.599594218528154 ], [ 126.550339238110965, 37.599448301323427 ] ] ], [ [ [ 126.562993025078001, 37.682783511281144 ], [ 126.563105984498847, 37.682480259702096 ], [ 126.563637988725063, 37.682096654110566 ], [ 126.563836959010743, 37.681953184500316 ], [ 126.564357406836194, 37.681602406832631 ], [ 126.565184341971417, 37.681507567742571 ], [ 126.565484640413302, 37.68152572074537 ], [ 126.566534525794054, 37.681737956935329 ], [ 126.568018533274582, 37.681924322977558 ], [ 126.573323662454143, 37.681482803640414 ], [ 126.575280070211207, 37.680849294210276 ], [ 126.575377081971453, 37.68056494018483 ], [ 126.57651706062822, 37.675398102822754 ], [ 126.576452278037635, 37.674306649916005 ], [ 126.576049407278973, 37.673308469607839 ], [ 126.575792364157422, 37.67236967875958 ], [ 126.575914487470683, 37.671917372141969 ], [ 126.576314028359647, 37.671594109576994 ], [ 126.578007330678574, 37.670201314689173 ], [ 126.578557931574124, 37.669745949209215 ], [ 126.578609767121989, 37.669699631124786 ], [ 126.578674022549819, 37.669642080561502 ], [ 126.57887132131043, 37.669332669386847 ], [ 126.578913963250969, 37.669242014174415 ], [ 126.579424694159727, 37.667848699133401 ], [ 126.579609519700284, 37.667343154024572 ], [ 126.579690960644029, 37.667118461707339 ], [ 126.579721307204693, 37.667033127998401 ], [ 126.579989691083085, 37.665996407197547 ], [ 126.580863117141647, 37.664068775840775 ], [ 126.581268469154296, 37.663665216091175 ], [ 126.581419800387934, 37.663517678297865 ], [ 126.583882673932536, 37.661984324253474 ], [ 126.584244927565067, 37.661864837384243 ], [ 126.589717057844794, 37.665827727140325 ], [ 126.590699140807203, 37.670430541392591 ], [ 126.591899117834885, 37.670590748592453 ], [ 126.592011696622549, 37.670599510856896 ], [ 126.592137926938889, 37.670592595232563 ], [ 126.592291270123198, 37.670576254929344 ], [ 126.5923252631368, 37.670572630994549 ], [ 126.592694997804514, 37.670530411260131 ], [ 126.594298421850567, 37.670208123487512 ], [ 126.594495230553264, 37.670049650936754 ], [ 126.594761106832749, 37.66986467063802 ], [ 126.595060591771144, 37.669829789815786 ], [ 126.598402123973855, 37.669987230112895 ], [ 126.600365854176431, 37.671543626175584 ], [ 126.600508789523317, 37.671660571948664 ], [ 126.600944268101173, 37.672024836366937 ], [ 126.600980134935128, 37.672174848341385 ], [ 126.601000038801772, 37.672446829434072 ], [ 126.601702769127257, 37.673278948429683 ], [ 126.601773075284854, 37.673339175095137 ], [ 126.603146237058127, 37.672687874023076 ], [ 126.605275414972297, 37.671606699427812 ], [ 126.607829145458808, 37.671285798986389 ], [ 126.60885656587439, 37.671419750401931 ], [ 126.609676315057172, 37.670784883850111 ], [ 126.610870359872834, 37.669843005695959 ], [ 126.610300889760254, 37.668867547377566 ], [ 126.609760207856127, 37.668178585812548 ], [ 126.610360445430459, 37.667166477805928 ], [ 126.610935017067263, 37.666649938677949 ], [ 126.612120895749612, 37.666000439864661 ], [ 126.613258219558105, 37.665408495851025 ], [ 126.613525886793767, 37.66528689275826 ], [ 126.613643679440798, 37.665233381938137 ], [ 126.615768720129253, 37.664409985601466 ], [ 126.616193793543957, 37.664418802982219 ], [ 126.617813221601722, 37.664521058147045 ], [ 126.618147492915554, 37.664544811771485 ], [ 126.618521958147412, 37.664571422778018 ], [ 126.61899124234121, 37.664737165630356 ], [ 126.619250836292608, 37.665077097226749 ], [ 126.619576998933155, 37.665180930215023 ], [ 126.619726954562267, 37.665143743636179 ], [ 126.621860535929713, 37.663954117556443 ], [ 126.621693549820563, 37.663809813949342 ], [ 126.621199733267048, 37.663383670614927 ], [ 126.620566839408596, 37.662838033950472 ], [ 126.616877219133144, 37.660086346418453 ], [ 126.614354323467381, 37.658205088385081 ], [ 126.61318192023019, 37.65752025108371 ], [ 126.611770435017476, 37.656696236239767 ], [ 126.611036384419634, 37.65598546344507 ], [ 126.610900378870994, 37.655147305050598 ], [ 126.610895516955622, 37.655109151786895 ], [ 126.610875118353974, 37.654948825315508 ], [ 126.610633681764341, 37.653032836855274 ], [ 126.61052891608368, 37.652199953362327 ], [ 126.610379362489894, 37.651010846506018 ], [ 126.610338511484102, 37.651017640780822 ], [ 126.606360905667628, 37.65164061350405 ], [ 126.604641072217078, 37.650964050543934 ], [ 126.604493761910973, 37.650841254742772 ], [ 126.603996417200008, 37.650426252923808 ], [ 126.601424196554248, 37.644872608786784 ], [ 126.60143718617023, 37.644382618904594 ], [ 126.601478645496499, 37.644165409252174 ], [ 126.601652625011312, 37.643788264385414 ], [ 126.601785392699753, 37.643587605848623 ], [ 126.601958376666673, 37.643459358613036 ], [ 126.602137321690606, 37.643364955850458 ], [ 126.602171540044665, 37.643347189956494 ], [ 126.6029006202197, 37.64322091903621 ], [ 126.603034321951313, 37.643201248690517 ], [ 126.603599648986147, 37.643118074804669 ], [ 126.604646448298354, 37.642962660785976 ], [ 126.604862740796662, 37.642924408120209 ], [ 126.607205973602291, 37.642060945879848 ], [ 126.607227605655538, 37.641982917648065 ], [ 126.60721529787817, 37.641473550714643 ], [ 126.60655908679324, 37.639777486709328 ], [ 126.605942369379136, 37.638038907265987 ], [ 126.605785659010593, 37.636869383200136 ], [ 126.60647248115292, 37.636007068861048 ], [ 126.60658554175734, 37.635888194058509 ], [ 126.606628871986373, 37.635842636096939 ], [ 126.606760156103206, 37.635703925914669 ], [ 126.60714243726035, 37.63507251724414 ], [ 126.607134070165756, 37.634733693584266 ], [ 126.607129549503881, 37.634550781959327 ], [ 126.60703120292257, 37.634345762913924 ], [ 126.606814408892419, 37.633893814322946 ], [ 126.606717784752888, 37.633622687349344 ], [ 126.606654754826195, 37.633444199776285 ], [ 126.606641476148354, 37.633366243370581 ], [ 126.606601088859108, 37.633252263303092 ], [ 126.606537802244219, 37.633154892348607 ], [ 126.606449810786131, 37.633046036229977 ], [ 126.60632589027658, 37.632927957804974 ], [ 126.606267075474364, 37.632871729697825 ], [ 126.60623204885151, 37.632838241767374 ], [ 126.606160251962422, 37.632765457189151 ], [ 126.606114477599405, 37.632719053025248 ], [ 126.606018424480126, 37.632577494264524 ], [ 126.605977439083517, 37.632510711477764 ], [ 126.605616590936762, 37.631889419840938 ], [ 126.605548472761171, 37.631718806648522 ], [ 126.605282409805682, 37.630987848041357 ], [ 126.604943474176622, 37.629660339090734 ], [ 126.603157870112057, 37.627654865320885 ], [ 126.601581201963171, 37.626070068788401 ], [ 126.598065662616122, 37.622482306344288 ], [ 126.597038367896644, 37.620887043841314 ], [ 126.594301710858957, 37.617124540668968 ], [ 126.592713079700431, 37.615168548106055 ], [ 126.590820223829581, 37.616162972887174 ], [ 126.590395016821702, 37.615459638144692 ], [ 126.58630279575307, 37.610346385631992 ], [ 126.58125983795891, 37.604185718249532 ], [ 126.578821464937789, 37.602952254680773 ], [ 126.572412268964939, 37.59846678689938 ], [ 126.570855024486676, 37.597397910060785 ], [ 126.568653089923529, 37.595886441770432 ], [ 126.567514953444729, 37.595296104247439 ], [ 126.566806330378313, 37.594781562225485 ], [ 126.566377658890033, 37.594470289554359 ], [ 126.566060597141799, 37.594170421519692 ], [ 126.562389039580111, 37.597062638743225 ], [ 126.561830835006816, 37.597714445148895 ], [ 126.559397003557891, 37.600556232955419 ], [ 126.556205302555014, 37.605421679351586 ], [ 126.55416876148665, 37.609301084800919 ], [ 126.554115783473335, 37.61148017717467 ], [ 126.554105072002173, 37.611920628477122 ], [ 126.554041623395833, 37.614527804111063 ], [ 126.553158034026112, 37.618030220195898 ], [ 126.551678592035813, 37.622215095097786 ], [ 126.55081686555522, 37.624651858884256 ], [ 126.549555634058095, 37.627085397477231 ], [ 126.545871804031549, 37.629962711152615 ], [ 126.537930751087913, 37.636815497446982 ], [ 126.534375997404481, 37.641810146480587 ], [ 126.531907918655619, 37.646721220240373 ], [ 126.531027042744427, 37.648473921996526 ], [ 126.530680297495252, 37.649163829715661 ], [ 126.52895643551031, 37.652974427030117 ], [ 126.528888748740044, 37.653909195249042 ], [ 126.529701547407996, 37.655889895993305 ], [ 126.53141472035901, 37.657707776408991 ], [ 126.534461882689087, 37.659143056761657 ], [ 126.535517837893593, 37.661708143091182 ], [ 126.535753757697577, 37.664992981915198 ], [ 126.535755231830677, 37.665022501914315 ], [ 126.53530292816356, 37.666333686356289 ], [ 126.534571253995921, 37.66680488907501 ], [ 126.529784500401533, 37.66988459414052 ], [ 126.527440968829467, 37.671074144264644 ], [ 126.525240789551077, 37.672178989792535 ], [ 126.525188200583912, 37.67222555107211 ], [ 126.52411301917212, 37.673178226426451 ], [ 126.523470107146366, 37.67443157037183 ], [ 126.522982530634707, 37.67651724683649 ], [ 126.523253718079047, 37.678759608225256 ], [ 126.52327571479546, 37.678832417637032 ], [ 126.524153796089024, 37.681738393290182 ], [ 126.52424361990586, 37.682035639915838 ], [ 126.524329893885138, 37.682321093254345 ], [ 126.525448363846095, 37.687408310032467 ], [ 126.529590962997176, 37.686147932126488 ], [ 126.533103577473256, 37.68530139413528 ], [ 126.534205263212002, 37.685232684597423 ], [ 126.536876239600886, 37.684345336703309 ], [ 126.53891332275947, 37.683635279569351 ], [ 126.539815639589321, 37.683854436112433 ], [ 126.541662035025695, 37.684795542568615 ], [ 126.546048000232645, 37.684202449058162 ], [ 126.546729815910524, 37.683486917338648 ], [ 126.550755954760248, 37.682532463632604 ], [ 126.550896156954494, 37.682533009866447 ], [ 126.551569613605452, 37.68253563139492 ], [ 126.553966003080703, 37.683798698766985 ], [ 126.554623139894304, 37.684017859761816 ], [ 126.561520080724719, 37.685418511717437 ], [ 126.562993025078001, 37.682783511281144 ] ] ] ] } },
{ "type": "Feature", "properties": { "OBJECTID": 1567, "adm_nm": "경기도 김포시 월곶면", "adm_cd": "3123035", "adm_cd2": "4157035000", "sgg": "41570", "sido": "41", "sidonm": "경기도", "sggnm": "김포시" }, "geometry": { "type": "MultiPolygon", "coordinates": [ [ [ [ 126.592012638222471, 37.757735442078811 ], [ 126.592159803216489, 37.756865533785984 ], [ 126.594609850772287, 37.755550621963877 ], [ 126.595099203581498, 37.75513175226839 ], [ 126.595642993936977, 37.754666268440687 ], [ 126.593465149339124, 37.752386278782012 ], [ 126.593125962867319, 37.749358551441254 ], [ 126.593316519452301, 37.748920705947704 ], [ 126.59380621919685, 37.747795521756572 ], [ 126.593640947356363, 37.747327828016836 ], [ 126.592452787045673, 37.746572696573239 ], [ 126.591006787360399, 37.745653655279689 ], [ 126.590743866734073, 37.740123273799377 ], [ 126.593397020287085, 37.737205461089054 ], [ 126.596843730342755, 37.73591491012904 ], [ 126.597538790031464, 37.735968669821091 ], [ 126.599048180920605, 37.736087246322938 ], [ 126.600778845568939, 37.734274198815463 ], [ 126.60180977158312, 37.730724165497818 ], [ 126.598871384699464, 37.727495279364803 ], [ 126.597715753547106, 37.726238207902973 ], [ 126.594668861662541, 37.725431842117374 ], [ 126.589625655883125, 37.724208865316747 ], [ 126.587789171408971, 37.724373068680883 ], [ 126.58409154810856, 37.724150237600007 ], [ 126.582678575953835, 37.723898222501909 ], [ 126.582110581903862, 37.723503949765188 ], [ 126.582274192467011, 37.717140892850161 ], [ 126.582850955307649, 37.716450589399386 ], [ 126.583091209105305, 37.71619854823647 ], [ 126.583176086894255, 37.716213542696721 ], [ 126.585694802342047, 37.714447784271542 ], [ 126.582709408804462, 37.708241642481632 ], [ 126.580817803509746, 37.70575617936251 ], [ 126.578322231661474, 37.705862906807162 ], [ 126.575544098628185, 37.704565809252912 ], [ 126.574847585074068, 37.703685113395132 ], [ 126.574451995054048, 37.703156734069424 ], [ 126.574154234378028, 37.701732690148376 ], [ 126.571151561380304, 37.700002907223435 ], [ 126.570442192757724, 37.699838872676558 ], [ 126.569544644285088, 37.699787888769677 ], [ 126.569280790622201, 37.699913674552676 ], [ 126.568674472597948, 37.700056097199429 ], [ 126.567544034575349, 37.700290334936838 ], [ 126.566867115467787, 37.700287314025154 ], [ 126.566236069245534, 37.700284490290734 ], [ 126.560442402806444, 37.698204895802519 ], [ 126.560400155557431, 37.698180875544438 ], [ 126.560269545327202, 37.697970304571584 ], [ 126.55913801325957, 37.692311191133498 ], [ 126.559592528186855, 37.691791016418598 ], [ 126.560866711282998, 37.691489040015625 ], [ 126.561958991768577, 37.689921573383934 ], [ 126.564549064036868, 37.6861643026377 ], [ 126.565050329986633, 37.685408042170486 ], [ 126.565353754265175, 37.684213074517729 ], [ 126.564729078108101, 37.683387692756931 ], [ 126.562993025078001, 37.682783511281144 ], [ 126.561520080724719, 37.685418511717437 ], [ 126.554623139894304, 37.684017859761816 ], [ 126.553966003080703, 37.683798698766985 ], [ 126.551569613605452, 37.68253563139492 ], [ 126.550896156954494, 37.682533009866447 ], [ 126.550755954760248, 37.682532463632604 ], [ 126.546729815910524, 37.683486917338648 ], [ 126.546048000232645, 37.684202449058162 ], [ 126.541662035025695, 37.684795542568615 ], [ 126.539815639589321, 37.683854436112433 ], [ 126.53891332275947, 37.683635279569351 ], [ 126.536876239600886, 37.684345336703309 ], [ 126.534205263212002, 37.685232684597423 ], [ 126.533103577473256, 37.68530139413528 ], [ 126.529590962997176, 37.686147932126488 ], [ 126.525448363846095, 37.687408310032467 ], [ 126.525500828052941, 37.690115015900894 ], [ 126.525552211713403, 37.692694765673039 ], [ 126.525564180313239, 37.692767288859521 ], [ 126.526196888127259, 37.696589833491721 ], [ 126.526655259017346, 37.699358874226228 ], [ 126.526794466165612, 37.700199784430062 ], [ 126.527268902043531, 37.703065670952427 ], [ 126.527275328072591, 37.703104490792384 ], [ 126.527281425255964, 37.70314165222603 ], [ 126.525419189179189, 37.704877289540171 ], [ 126.522141560075866, 37.707931840034966 ], [ 126.519278135298748, 37.711718760674053 ], [ 126.518514919118132, 37.712728052394048 ], [ 126.518457343663457, 37.721598098255193 ], [ 126.519178633770196, 37.7243561642141 ], [ 126.519657871606441, 37.726188509031459 ], [ 126.520550525887444, 37.727859522776207 ], [ 126.521965314702172, 37.730507769224879 ], [ 126.522289996228494, 37.73111548340367 ], [ 126.522373044189337, 37.731270924187008 ], [ 126.526017175051052, 37.738092408951402 ], [ 126.527302185839261, 37.743473210716566 ], [ 126.527400362838122, 37.743885237444992 ], [ 126.527844994633426, 37.748397639728488 ], [ 126.522696881960954, 37.753939711403753 ], [ 126.522581316545669, 37.75409192800408 ], [ 126.522442741457482, 37.754274462442801 ], [ 126.514579506375654, 37.764655011255392 ], [ 126.514563977465841, 37.766948622564293 ], [ 126.522506672465369, 37.768986355479448 ], [ 126.524235572030264, 37.76925559659999 ], [ 126.529819337058811, 37.77012496163762 ], [ 126.53478830373912, 37.771684845138154 ], [ 126.535374229457531, 37.771935975626555 ], [ 126.53632848164834, 37.771898719135436 ], [ 126.536775702679066, 37.771640955840041 ], [ 126.537525376827134, 37.771208873083886 ], [ 126.540577596418359, 37.770590493692701 ], [ 126.540948513645048, 37.770565193676831 ], [ 126.54717007677273, 37.76992871029023 ], [ 126.55515497631626, 37.768982277143493 ], [ 126.558841698245431, 37.767564076207321 ], [ 126.561625341657802, 37.765049098328163 ], [ 126.561439346181217, 37.762023801273791 ], [ 126.56135492781101, 37.761573607491364 ], [ 126.566761130412132, 37.756028504998525 ], [ 126.56889148554059, 37.755087727465018 ], [ 126.570911878856975, 37.754576359732951 ], [ 126.571351982854864, 37.754464967155229 ], [ 126.573013912956924, 37.754154710687978 ], [ 126.57527385049778, 37.753793920016548 ], [ 126.577249288774013, 37.753653934464694 ], [ 126.577476372411837, 37.753665360666439 ], [ 126.580428669798764, 37.75381397579455 ], [ 126.580709870446952, 37.753858215196495 ], [ 126.581581322634122, 37.753995320339818 ], [ 126.582522759717733, 37.754144598773806 ], [ 126.582582704189406, 37.75415410635744 ], [ 126.589071210568477, 37.756386707711897 ], [ 126.589179882833562, 37.756517333761678 ], [ 126.589781604078766, 37.757240543983116 ], [ 126.591020360309372, 37.757766098686808 ], [ 126.592012638222471, 37.757735442078811 ] ] ], [ [ [ 126.537825240578627, 37.773861123122167 ], [ 126.536965562621063, 37.773772983632526 ], [ 126.535828769469006, 37.773820016841178 ], [ 126.533293214038437, 37.773813885783092 ], [ 126.533143616540116, 37.773807758013582 ], [ 126.531540554954688, 37.773742038666896 ], [ 126.526286687828772, 37.773433981686829 ], [ 126.524329285967426, 37.773121491987155 ], [ 126.52130027780116, 37.772489127326452 ], [ 126.518258702992753, 37.771853640285514 ], [ 126.517626547489641, 37.771619227203331 ], [ 126.516907163031803, 37.771938261069934 ], [ 126.516544371548193, 37.772099151526604 ], [ 126.515766795078036, 37.77315726439025 ], [ 126.515072373371822, 37.775429517376836 ], [ 126.514814379517446, 37.780858765037856 ], [ 126.515299084920613, 37.782277896414186 ], [ 126.515350005306928, 37.782426978033783 ], [ 126.516544380396951, 37.783294308442386 ], [ 126.517668041655881, 37.784197085186349 ], [ 126.519573677633318, 37.786459421358018 ], [ 126.519634426764384, 37.787610200306041 ], [ 126.51940885284148, 37.788458912128029 ], [ 126.518776306555466, 37.790075905582086 ], [ 126.518637473998083, 37.790430821422895 ], [ 126.518580548275821, 37.791407119009392 ], [ 126.518874987764534, 37.792491117934503 ], [ 126.519335987805974, 37.792589970138906 ], [ 126.519782403231375, 37.792685678976639 ], [ 126.519828391820596, 37.792658888659595 ], [ 126.520763194759013, 37.792113638046345 ], [ 126.522396163366693, 37.790956650929445 ], [ 126.52384021214057, 37.789804836949301 ], [ 126.524810475275558, 37.788027190555439 ], [ 126.525471255751171, 37.786571444766238 ], [ 126.525753437598667, 37.785675868333414 ], [ 126.52716570325741, 37.783850032495323 ], [ 126.532148836140507, 37.780774724276498 ], [ 126.533530249550097, 37.780166074526832 ], [ 126.536229637025144, 37.779457499910983 ], [ 126.536789506890685, 37.779246894798355 ], [ 126.537372474901247, 37.778950852986725 ], [ 126.538607031599298, 37.778101324762225 ], [ 126.539446623015209, 37.777497547882895 ], [ 126.539944320672504, 37.777098275035549 ], [ 126.540439284507428, 37.776086100682768 ], [ 126.540425030472633, 37.775991411072788 ], [ 126.540383074386796, 37.775712730407271 ], [ 126.540223721992987, 37.775358804464616 ], [ 126.539590093335747, 37.774746395560278 ], [ 126.5384472601976, 37.774053218145774 ], [ 126.537825240578627, 37.773861123122167 ] ] ] ] } },
{ "type": "Feature", "properties": { "OBJECTID": 1568, "adm_nm": "경기도 김포시 하성면", "adm_cd": "3123036", "adm_cd2": "4157036000", "sgg": "41570", "sido": "41", "sidonm": "경기도", "sggnm": "김포시" }, "geometry": { "type": "MultiPolygon", "coordinates": [ [ [ [ 126.676174155638279, 37.754999863068662 ], [ 126.675014942970705, 37.752560479701387 ], [ 126.674002540799052, 37.750006076640659 ], [ 126.675051207613819, 37.744440931083773 ], [ 126.675646392475244, 37.742006107837199 ], [ 126.67739221662292, 37.735011859518636 ], [ 126.677405262827193, 37.734988205627971 ], [ 126.677541280999066, 37.734746928474586 ], [ 126.681186372169719, 37.730175753468131 ], [ 126.68257652740013, 37.728432239900904 ], [ 126.684083355158648, 37.726541957160592 ], [ 126.684795039982362, 37.725649039367084 ], [ 126.685161873575552, 37.724857296998906 ], [ 126.685439028806371, 37.723704410012957 ], [ 126.685442522390716, 37.722803124791263 ], [ 126.684167683858405, 37.71621084722301 ], [ 126.683622496195085, 37.713392119079082 ], [ 126.683458638834168, 37.713018311250615 ], [ 126.681652298370864, 37.70890796284359 ], [ 126.68135797779594, 37.708333585998616 ], [ 126.679723243448819, 37.705150734027853 ], [ 126.676548318916787, 37.700084673700033 ], [ 126.667046410818642, 37.689140199901637 ], [ 126.659722009169442, 37.69168403511717 ], [ 126.657128744903446, 37.692583707587858 ], [ 126.654583627118399, 37.692091032357865 ], [ 126.65084344854445, 37.686736093346383 ], [ 126.648078324135255, 37.682776624052607 ], [ 126.646611778552909, 37.682358210445919 ], [ 126.645641686807039, 37.682457029357394 ], [ 126.644799722821659, 37.682572604684289 ], [ 126.644542603137694, 37.682681149742152 ], [ 126.644195869240406, 37.682828206884409 ], [ 126.644135182158564, 37.682853949602105 ], [ 126.643767286960525, 37.683112573236357 ], [ 126.64409544756063, 37.683473313879908 ], [ 126.644048668545963, 37.683598035121356 ], [ 126.643932290081764, 37.683732383673778 ], [ 126.643345956105478, 37.684176528026811 ], [ 126.643114800941518, 37.684306665595592 ], [ 126.642485379457668, 37.684552205504303 ], [ 126.64231179471409, 37.684602200774179 ], [ 126.642203035336166, 37.684633522568078 ], [ 126.641892564116958, 37.684703357960082 ], [ 126.638119859974992, 37.685216642926683 ], [ 126.63807230934593, 37.685217251673947 ], [ 126.637895122961339, 37.68521950762932 ], [ 126.637634634588792, 37.685127687187915 ], [ 126.637366374740949, 37.685033124314458 ], [ 126.635008556207865, 37.684445773049504 ], [ 126.631062995926953, 37.684407752902516 ], [ 126.631216875857092, 37.685313578522589 ], [ 126.631995248876052, 37.689381973418151 ], [ 126.632518953137762, 37.692091058499592 ], [ 126.632649785718741, 37.692767833738543 ], [ 126.632654806176944, 37.692827396839476 ], [ 126.632263024696329, 37.6930761198117 ], [ 126.631987716425058, 37.693250795482427 ], [ 126.631375636150295, 37.694158451491731 ], [ 126.630711577283165, 37.69514315970855 ], [ 126.630550218722419, 37.695397456352325 ], [ 126.630037022782062, 37.696206238338306 ], [ 126.630258024835086, 37.696996063483653 ], [ 126.631157863593018, 37.700211762560642 ], [ 126.62825803827117, 37.702025826457529 ], [ 126.628783217824719, 37.703939252241788 ], [ 126.626174836406562, 37.706467249530974 ], [ 126.625965084277055, 37.706597444424126 ], [ 126.62554504741324, 37.706641618777674 ], [ 126.623317206937955, 37.706832469740959 ], [ 126.621109113265504, 37.707050676785421 ], [ 126.620101971453863, 37.709347955610632 ], [ 126.619240739595128, 37.711371794620348 ], [ 126.618787571105159, 37.712445395500175 ], [ 126.618782000678934, 37.71248178469412 ], [ 126.61877604751065, 37.712520793830166 ], [ 126.61714218482507, 37.714715023910486 ], [ 126.614418511824169, 37.71533313173186 ], [ 126.613831708084447, 37.71688875894975 ], [ 126.613988187862319, 37.717951371616302 ], [ 126.614118622783536, 37.718723300044253 ], [ 126.614567669657959, 37.720640119440596 ], [ 126.61498938198568, 37.722189355770681 ], [ 126.616147423712519, 37.72392403369674 ], [ 126.617407377660555, 37.725690721251276 ], [ 126.618189453910873, 37.726787485724664 ], [ 126.616759380966243, 37.727453858318185 ], [ 126.613848033670095, 37.728790238029688 ], [ 126.61023032679195, 37.730295660833306 ], [ 126.608557850290865, 37.733844328738066 ], [ 126.602871766041801, 37.735760395804483 ], [ 126.599048180920605, 37.736087246322938 ], [ 126.597538790031464, 37.735968669821091 ], [ 126.596843730342755, 37.73591491012904 ], [ 126.593397020287085, 37.737205461089054 ], [ 126.590743866734073, 37.740123273799377 ], [ 126.591006787360399, 37.745653655279689 ], [ 126.592452787045673, 37.746572696573239 ], [ 126.593640947356363, 37.747327828016836 ], [ 126.59380621919685, 37.747795521756572 ], [ 126.593316519452301, 37.748920705947704 ], [ 126.593125962867319, 37.749358551441254 ], [ 126.593465149339124, 37.752386278782012 ], [ 126.595642993936977, 37.754666268440687 ], [ 126.595099203581498, 37.75513175226839 ], [ 126.594609850772287, 37.755550621963877 ], [ 126.592159803216489, 37.756865533785984 ], [ 126.592012638222471, 37.757735442078811 ], [ 126.595406229438794, 37.757155415772921 ], [ 126.597355646241397, 37.756894908278703 ], [ 126.599807354084518, 37.756567219975594 ], [ 126.601083737084252, 37.755161922667092 ], [ 126.601849149438564, 37.754292371170045 ], [ 126.6039691803973, 37.753225822478605 ], [ 126.604901931008655, 37.753053200282906 ], [ 126.60574682519217, 37.752896830479571 ], [ 126.607565294087976, 37.752902629308899 ], [ 126.609340152794275, 37.752908268788033 ], [ 126.609467846036367, 37.752909233749961 ], [ 126.611238652113684, 37.75392079148768 ], [ 126.62261295174369, 37.762278831743473 ], [ 126.622818564147238, 37.762532726376563 ], [ 126.622868916836694, 37.762595038495995 ], [ 126.623537495747257, 37.763422476068122 ], [ 126.627148682842659, 37.768600206201256 ], [ 126.627394413725114, 37.770211971556847 ], [ 126.627895263576903, 37.771555234865012 ], [ 126.628821818497514, 37.772363118073926 ], [ 126.630340218672075, 37.773173110358947 ], [ 126.638942809400859, 37.778433401997354 ], [ 126.641222814410938, 37.77931300359343 ], [ 126.649081097831257, 37.781283055082376 ], [ 126.652378822121861, 37.78169551009163 ], [ 126.656183187322696, 37.782309788195924 ], [ 126.667004056355779, 37.784517209504884 ], [ 126.668748380646775, 37.780499617942681 ], [ 126.669931368783097, 37.777719560819151 ], [ 126.67289369276628, 37.769375191705407 ], [ 126.673194549457477, 37.767339234167117 ], [ 126.673553078348604, 37.764912289009452 ], [ 126.673647335281103, 37.76427347590684 ], [ 126.67464230646452, 37.760621159220157 ], [ 126.676174155638279, 37.754999863068662 ] ] ] ] } },
{ "type": "Feature", "properties": { "OBJECTID": 1569, "adm_nm": "경기도 김포시 김포본동", "adm_cd": "3123061", "adm_cd2": "4157051500", "sgg": "41570", "sido": "41", "sidonm": "경기도", "sggnm": "김포시" }, "geometry": { "type": "MultiPolygon", "coordinates": [ [ [ [ 126.735797072274821, 37.641547355185573 ], [ 126.73227503845888, 37.636711398922401 ], [ 126.730930255573384, 37.634647646201998 ], [ 126.730767861552764, 37.634352503110897 ], [ 126.730386922452595, 37.633720217745015 ], [ 126.729802204848212, 37.632791416931305 ], [ 126.729688202109173, 37.632650967215227 ], [ 126.72944552969166, 37.632554743375984 ], [ 126.72907432734354, 37.632489225653622 ], [ 126.728695990421102, 37.632392001068389 ], [ 126.728472653143868, 37.632312914151122 ], [ 126.728417334981245, 37.632265836697805 ], [ 126.728392608120942, 37.632244791276456 ], [ 126.728298394068474, 37.63210897626363 ], [ 126.728230293537877, 37.631982331729688 ], [ 126.72815841820902, 37.631739643844206 ], [ 126.728138436398098, 37.631648839777398 ], [ 126.728131357351259, 37.63161666121092 ], [ 126.728102057062216, 37.631439561853171 ], [ 126.728181425377798, 37.631383437283681 ], [ 126.728228324728036, 37.631350277860214 ], [ 126.728878457040111, 37.630893726985008 ], [ 126.728899687282677, 37.630813873087163 ], [ 126.728881326730345, 37.630739393719949 ], [ 126.728644114606055, 37.630389706067724 ], [ 126.728357322889138, 37.629972094247243 ], [ 126.727934986474764, 37.62937332966154 ], [ 126.727770260330914, 37.629140412592569 ], [ 126.727493105410545, 37.628748522449371 ], [ 126.727255430470024, 37.628512621315515 ], [ 126.724417949516905, 37.626201254553017 ], [ 126.722149651464264, 37.62345530406774 ], [ 126.721792326532579, 37.623022526676387 ], [ 126.721909571664426, 37.622966837201993 ], [ 126.720668356530965, 37.621250799471582 ], [ 126.720651135397603, 37.621228492361482 ], [ 126.720511823766429, 37.621051514190171 ], [ 126.719717090070873, 37.620042368208857 ], [ 126.719653111504812, 37.62007233154295 ], [ 126.714925118325397, 37.622355146833492 ], [ 126.714250378782637, 37.622681092446143 ], [ 126.71386967423237, 37.622865293334407 ], [ 126.713140084783973, 37.623253606569079 ], [ 126.71289098416807, 37.623444161879235 ], [ 126.712814500040281, 37.623502679470661 ], [ 126.710271359479549, 37.621746126484119 ], [ 126.707487187187411, 37.617614611504848 ], [ 126.707869462148366, 37.617035243199808 ], [ 126.707643765963496, 37.616748683340255 ], [ 126.70738491231063, 37.616515979923321 ], [ 126.707252003008563, 37.616428334391834 ], [ 126.707119070726137, 37.616341815214668 ], [ 126.705873841822779, 37.615833205223126 ], [ 126.705542841922195, 37.615727324602119 ], [ 126.705483491780484, 37.615714531759714 ], [ 126.705411793353719, 37.615708988029539 ], [ 126.705331324466343, 37.615705620481698 ], [ 126.70525010031055, 37.615685920260198 ], [ 126.705187371885472, 37.615657331299644 ], [ 126.705088156522351, 37.615598076741826 ], [ 126.705017872502808, 37.615548030284863 ], [ 126.704791621948303, 37.615247941334871 ], [ 126.704739029110101, 37.61513266774665 ], [ 126.70416173450505, 37.612548782543463 ], [ 126.702136991457195, 37.613962532179038 ], [ 126.699823390763783, 37.615830782696044 ], [ 126.699502104588774, 37.616348225356013 ], [ 126.698633173009952, 37.617462451274363 ], [ 126.698063340729874, 37.617819634006487 ], [ 126.696274658428663, 37.618937789734268 ], [ 126.695500882614581, 37.619383648138033 ], [ 126.691520229955458, 37.621327016088244 ], [ 126.687448378219514, 37.622825493347179 ], [ 126.685193379525828, 37.624202089543708 ], [ 126.68524927952177, 37.624294242081099 ], [ 126.685471463052536, 37.624660064298745 ], [ 126.686713106062328, 37.625368282181874 ], [ 126.687740119789126, 37.625884604947778 ], [ 126.687973569280956, 37.62610703623983 ], [ 126.688016323495333, 37.626147890061368 ], [ 126.688560100902322, 37.626815230870136 ], [ 126.688619056193986, 37.62693055512166 ], [ 126.688565991333363, 37.628684391772708 ], [ 126.688527174792526, 37.629907166915245 ], [ 126.688511037791855, 37.630415681798809 ], [ 126.688553081896956, 37.632541967344878 ], [ 126.688984616834546, 37.63298320292229 ], [ 126.689269045098044, 37.633273581165994 ], [ 126.689732780683443, 37.633620396341946 ], [ 126.69025172471585, 37.633906749321774 ], [ 126.69034139758034, 37.633955612573715 ], [ 126.690412976050482, 37.633994608291978 ], [ 126.691061042209597, 37.634262690579462 ], [ 126.691474997900997, 37.634367395708544 ], [ 126.691555528734796, 37.634387758646398 ], [ 126.691936285782816, 37.63441853347868 ], [ 126.692699644082211, 37.634440659193558 ], [ 126.695236374941089, 37.63429575183941 ], [ 126.695384316758535, 37.634305775020685 ], [ 126.69588418847394, 37.634391427907318 ], [ 126.696465603089862, 37.634601566935473 ], [ 126.69668399341424, 37.634775455659899 ], [ 126.695724566523552, 37.63546405104961 ], [ 126.693908921753419, 37.636826331179591 ], [ 126.693470646047032, 37.637163422908877 ], [ 126.693367753164551, 37.637244960646036 ], [ 126.693563534892576, 37.637416427355497 ], [ 126.693844714881664, 37.637656181068991 ], [ 126.694000834956469, 37.637788958050173 ], [ 126.696349658465621, 37.640239656776487 ], [ 126.693631991943619, 37.642274789310399 ], [ 126.693575055680924, 37.642317424725583 ], [ 126.697989053601319, 37.646350532853781 ], [ 126.698176073770369, 37.646476824700756 ], [ 126.698202651558944, 37.646492456704046 ], [ 126.698309908205701, 37.646555511145458 ], [ 126.699385005211084, 37.647181344454481 ], [ 126.699705899506185, 37.647357009148159 ], [ 126.699891425607944, 37.647458556781132 ], [ 126.700265694863731, 37.64763684337693 ], [ 126.701444904865895, 37.647013915638944 ], [ 126.703675447322709, 37.647052653555406 ], [ 126.703944954892293, 37.647158125454148 ], [ 126.704222736230335, 37.647416867347708 ], [ 126.704093403875817, 37.647720199939052 ], [ 126.703963583785466, 37.6480021136733 ], [ 126.703581593720017, 37.648543708311472 ], [ 126.703492407835625, 37.648669587712881 ], [ 126.703437001840527, 37.648747949441265 ], [ 126.703430847392696, 37.648855060595118 ], [ 126.703424007953984, 37.648975358863119 ], [ 126.703744293794728, 37.649430354160643 ], [ 126.70381876287486, 37.649489442699519 ], [ 126.704302166430509, 37.64986787944239 ], [ 126.704527864564881, 37.650029386183753 ], [ 126.704929124503664, 37.650252474360506 ], [ 126.705348406372764, 37.650485578188146 ], [ 126.706039050979626, 37.650728438006929 ], [ 126.706217310643083, 37.650791116804427 ], [ 126.707468318229047, 37.651142025989039 ], [ 126.707605981628518, 37.651402005001792 ], [ 126.709332066554722, 37.654661727203333 ], [ 126.718264848754288, 37.649289750338916 ], [ 126.728387638709975, 37.644506152012468 ], [ 126.734150715600478, 37.642284609562957 ], [ 126.734986672976291, 37.641962329967853 ], [ 126.735797072274821, 37.641547355185573 ] ] ] ] } },
{ "type": "Feature", "properties": { "OBJECTID": 1570, "adm_nm": "경기도 김포시 사우동", "adm_cd": "3123053", "adm_cd2": "4157054000", "sgg": "41570", "sido": "41", "sidonm": "경기도", "sggnm": "김포시" }, "geometry": { "type": "MultiPolygon", "coordinates": [ [ [ [ 126.738738121239052, 37.610116520159693 ], [ 126.735282655644127, 37.611420543477458 ], [ 126.728861032722321, 37.614738432169013 ], [ 126.727307492173196, 37.613562198878888 ], [ 126.721766259599761, 37.613285805710369 ], [ 126.721501745123845, 37.61332236736601 ], [ 126.720773805076263, 37.613583545438907 ], [ 126.720070947548635, 37.614032854864064 ], [ 126.716743185157398, 37.61303399945843 ], [ 126.714978594826135, 37.612686529090659 ], [ 126.712484105198257, 37.614270890797442 ], [ 126.712128906335593, 37.61451778178855 ], [ 126.711638022762358, 37.61485899047242 ], [ 126.710382552133495, 37.616286860503344 ], [ 126.707869462148366, 37.617035243199808 ], [ 126.707487187187411, 37.617614611504848 ], [ 126.710271359479549, 37.621746126484119 ], [ 126.712814500040281, 37.623502679470661 ], [ 126.71289098416807, 37.623444161879235 ], [ 126.713140084783973, 37.623253606569079 ], [ 126.71386967423237, 37.622865293334407 ], [ 126.714250378782637, 37.622681092446143 ], [ 126.714925118325397, 37.622355146833492 ], [ 126.719653111504812, 37.62007233154295 ], [ 126.719717090070873, 37.620042368208857 ], [ 126.720511823766429, 37.621051514190171 ], [ 126.720651135397603, 37.621228492361482 ], [ 126.720668356530965, 37.621250799471582 ], [ 126.721909571664426, 37.622966837201993 ], [ 126.721792326532579, 37.623022526676387 ], [ 126.722149651464264, 37.62345530406774 ], [ 126.724417949516905, 37.626201254553017 ], [ 126.727255430470024, 37.628512621315515 ], [ 126.727493105410545, 37.628748522449371 ], [ 126.727770260330914, 37.629140412592569 ], [ 126.727934986474764, 37.62937332966154 ], [ 126.728357322889138, 37.629972094247243 ], [ 126.728644114606055, 37.630389706067724 ], [ 126.728881326730345, 37.630739393719949 ], [ 126.728899687282677, 37.630813873087163 ], [ 126.728878457040111, 37.630893726985008 ], [ 126.72927637307231, 37.630895200358914 ], [ 126.729717768668934, 37.630884563034876 ], [ 126.730033418400708, 37.630840430448806 ], [ 126.730105157260937, 37.630773344231756 ], [ 126.730164972041109, 37.630717401672655 ], [ 126.732454745830069, 37.628468819876105 ], [ 126.732717433769395, 37.628202383900714 ], [ 126.733070236815252, 37.627774357463053 ], [ 126.733123051769468, 37.627699403948881 ], [ 126.733413156917891, 37.62728755330658 ], [ 126.733536491726369, 37.627049971742622 ], [ 126.733551841492655, 37.627020400688423 ], [ 126.733736266973821, 37.62637818570542 ], [ 126.733716122210367, 37.626201169528763 ], [ 126.733348514730523, 37.624548226947326 ], [ 126.733262488707652, 37.624377641659123 ], [ 126.733207479645884, 37.623039841141683 ], [ 126.733449569254262, 37.621052861836198 ], [ 126.73434425596794, 37.620964031375188 ], [ 126.734600051164719, 37.620951043452024 ], [ 126.734678698735451, 37.620948174513934 ], [ 126.735031336718706, 37.620970217412932 ], [ 126.735959228934703, 37.621012354558047 ], [ 126.736990627193251, 37.621057786550921 ], [ 126.737228608525541, 37.621055945230232 ], [ 126.737262681497981, 37.62104827887179 ], [ 126.737295618432185, 37.621039784952188 ], [ 126.737360674352857, 37.621022998202577 ], [ 126.738477092779263, 37.620510819511338 ], [ 126.738589016508627, 37.620439435575364 ], [ 126.742842865849781, 37.616988937915124 ], [ 126.743232438752287, 37.616471714742147 ], [ 126.743057228675681, 37.616062964167959 ], [ 126.740659700543034, 37.615348125676235 ], [ 126.739453522480133, 37.615183778916403 ], [ 126.738904128670299, 37.614747985603927 ], [ 126.738836435766984, 37.614140358099228 ], [ 126.73989020049089, 37.612557410149094 ], [ 126.740537759769168, 37.61219702529354 ], [ 126.741320224623735, 37.611761552843738 ], [ 126.741337690892649, 37.611303086845062 ], [ 126.740494850397596, 37.610856901641426 ], [ 126.738738121239052, 37.610116520159693 ] ] ] ] } },
{ "type": "Feature", "properties": { "OBJECTID": 1571, "adm_nm": "경기도 김포시 풍무동", "adm_cd": "3123054", "adm_cd2": "4157055000", "sgg": "41570", "sido": "41", "sidonm": "경기도", "sggnm": "김포시" }, "geometry": { "type": "MultiPolygon", "coordinates": [ [ [ [ 126.738738121239052, 37.610116520159693 ], [ 126.740411615938584, 37.609404271954972 ], [ 126.740592402205138, 37.609311868480575 ], [ 126.74055911418219, 37.609175382245276 ], [ 126.733982360687421, 37.599501224621335 ], [ 126.733477986696897, 37.598828525204375 ], [ 126.733416518153732, 37.598747006189008 ], [ 126.732628081563504, 37.598236010438455 ], [ 126.727685072140972, 37.595030514055779 ], [ 126.725139606566046, 37.593379609310396 ], [ 126.724509806951346, 37.592942833007037 ], [ 126.721956257505937, 37.595826284182465 ], [ 126.721863538104373, 37.595927973018952 ], [ 126.721595033576563, 37.596221787442197 ], [ 126.721480164901251, 37.596301751126916 ], [ 126.719317834163618, 37.597798575678105 ], [ 126.719259461557257, 37.597836242792653 ], [ 126.719099667734355, 37.597928562486736 ], [ 126.719015190581899, 37.597878881907455 ], [ 126.71896612261915, 37.597850226586509 ], [ 126.718833579321995, 37.597841220265479 ], [ 126.718610330937835, 37.597826313464452 ], [ 126.718117897225284, 37.597797138865651 ], [ 126.71798971667512, 37.597898516645337 ], [ 126.717726640916922, 37.59810663164459 ], [ 126.717567841807238, 37.598232996370221 ], [ 126.717135331694962, 37.598577315026667 ], [ 126.71638707112254, 37.59932468008958 ], [ 126.713179819670017, 37.602815205622228 ], [ 126.71247177623944, 37.603956235904647 ], [ 126.711993921816315, 37.604786152337503 ], [ 126.710573795356325, 37.604998109427122 ], [ 126.709934521506753, 37.6050930405668 ], [ 126.708366720558189, 37.604933751724886 ], [ 126.708163246644332, 37.604757754243806 ], [ 126.706889299649589, 37.603657176910296 ], [ 126.706628376437806, 37.603431758400468 ], [ 126.704652088142893, 37.6026160210425 ], [ 126.704506595002286, 37.602648840231886 ], [ 126.70424772308364, 37.605545649681822 ], [ 126.705341311374482, 37.606781420727735 ], [ 126.70598451082877, 37.607625157805586 ], [ 126.706077123029928, 37.607770923537394 ], [ 126.706282748059351, 37.610151368421313 ], [ 126.705801678974524, 37.610818457969017 ], [ 126.705282919107333, 37.611537766886805 ], [ 126.704968168364175, 37.611833198285275 ], [ 126.70416173450505, 37.612548782543463 ], [ 126.704739029110101, 37.61513266774665 ], [ 126.704791621948303, 37.615247941334871 ], [ 126.705017872502808, 37.615548030284863 ], [ 126.705088156522351, 37.615598076741826 ], [ 126.705187371885472, 37.615657331299644 ], [ 126.70525010031055, 37.615685920260198 ], [ 126.705331324466343, 37.615705620481698 ], [ 126.705411793353719, 37.615708988029539 ], [ 126.705483491780484, 37.615714531759714 ], [ 126.705542841922195, 37.615727324602119 ], [ 126.705873841822779, 37.615833205223126 ], [ 126.707119070726137, 37.616341815214668 ], [ 126.707252003008563, 37.616428334391834 ], [ 126.70738491231063, 37.616515979923321 ], [ 126.707643765963496, 37.616748683340255 ], [ 126.707869462148366, 37.617035243199808 ], [ 126.710382552133495, 37.616286860503344 ], [ 126.711638022762358, 37.61485899047242 ], [ 126.712128906335593, 37.61451778178855 ], [ 126.712484105198257, 37.614270890797442 ], [ 126.714978594826135, 37.612686529090659 ], [ 126.716743185157398, 37.61303399945843 ], [ 126.720070947548635, 37.614032854864064 ], [ 126.720773805076263, 37.613583545438907 ], [ 126.721501745123845, 37.61332236736601 ], [ 126.721766259599761, 37.613285805710369 ], [ 126.727307492173196, 37.613562198878888 ], [ 126.728861032722321, 37.614738432169013 ], [ 126.735282655644127, 37.611420543477458 ], [ 126.738738121239052, 37.610116520159693 ] ] ] ] } },
{ "type": "Feature", "properties": { "OBJECTID": 1572, "adm_nm": "경기도 김포시 장기동", "adm_cd": "3123056", "adm_cd2": "4157056000", "sgg": "41570", "sido": "41", "sidonm": "경기도", "sggnm": "김포시" }, "geometry": { "type": "MultiPolygon", "coordinates": [ [ [ [ 126.695236374941089, 37.63429575183941 ], [ 126.692699644082211, 37.634440659193558 ], [ 126.691936285782816, 37.63441853347868 ], [ 126.691555528734796, 37.634387758646398 ], [ 126.691474997900997, 37.634367395708544 ], [ 126.691061042209597, 37.634262690579462 ], [ 126.690412976050482, 37.633994608291978 ], [ 126.69034139758034, 37.633955612573715 ], [ 126.69025172471585, 37.633906749321774 ], [ 126.689732780683443, 37.633620396341946 ], [ 126.689269045098044, 37.633273581165994 ], [ 126.688984616834546, 37.63298320292229 ], [ 126.688553081896956, 37.632541967344878 ], [ 126.688511037791855, 37.630415681798809 ], [ 126.688527174792526, 37.629907166915245 ], [ 126.688565991333363, 37.628684391772708 ], [ 126.688619056193986, 37.62693055512166 ], [ 126.688560100902322, 37.626815230870136 ], [ 126.688016323495333, 37.626147890061368 ], [ 126.687973569280956, 37.62610703623983 ], [ 126.687740119789126, 37.625884604947778 ], [ 126.686713106062328, 37.625368282181874 ], [ 126.685471463052536, 37.624660064298745 ], [ 126.68524927952177, 37.624294242081099 ], [ 126.685193379525828, 37.624202089543708 ], [ 126.685155341800353, 37.624225309060236 ], [ 126.685015000003375, 37.624311002094771 ], [ 126.681675317685091, 37.626525450372206 ], [ 126.680845766669108, 37.627396503322544 ], [ 126.680770479889702, 37.627556899288265 ], [ 126.680807043997746, 37.627817204803677 ], [ 126.680744763518021, 37.628643862731622 ], [ 126.680246496350151, 37.629383993516619 ], [ 126.680073709534241, 37.629639653741584 ], [ 126.679307925430265, 37.629887085705818 ], [ 126.677708242647043, 37.629872198052219 ], [ 126.677367833907752, 37.629868455070238 ], [ 126.67703426208881, 37.629865246410979 ], [ 126.675170280975308, 37.629953672991164 ], [ 126.675067045559246, 37.630009437122446 ], [ 126.674423433605881, 37.630357379509299 ], [ 126.674204291636784, 37.631214355656155 ], [ 126.674088509914228, 37.632135219523271 ], [ 126.674076948623707, 37.632227506106965 ], [ 126.673936319172554, 37.632323359629481 ], [ 126.67093518006962, 37.634359576090759 ], [ 126.6684980613486, 37.635223467609364 ], [ 126.665631962445218, 37.636238914082803 ], [ 126.662810107279682, 37.636854066304359 ], [ 126.662450695398007, 37.636931548079836 ], [ 126.662028643761786, 37.636865418028918 ], [ 126.661916276331326, 37.636847539812074 ], [ 126.661687316055449, 37.636811608821773 ], [ 126.661084636458426, 37.636717877697535 ], [ 126.660998520173422, 37.636796527467013 ], [ 126.66041185989576, 37.637334083795459 ], [ 126.660314138253369, 37.637423627644679 ], [ 126.659436205188896, 37.638228288541391 ], [ 126.661167439932029, 37.640189676832861 ], [ 126.661549172410062, 37.639963671400402 ], [ 126.662596599036419, 37.639343616067791 ], [ 126.664707141649359, 37.639127592289093 ], [ 126.666243129431564, 37.640881307226778 ], [ 126.66702469940634, 37.641815178595422 ], [ 126.667184687553728, 37.642147615527001 ], [ 126.667668640053137, 37.64270984878199 ], [ 126.668042911113702, 37.64313498277474 ], [ 126.670211540481247, 37.645551239680103 ], [ 126.671780751331724, 37.647131523162521 ], [ 126.673200060933027, 37.648074423106301 ], [ 126.674271688585435, 37.648786076340116 ], [ 126.67524467717773, 37.649428267651665 ], [ 126.677163865512171, 37.650706884534607 ], [ 126.677682015322546, 37.651024950162395 ], [ 126.679071205114383, 37.651877279881106 ], [ 126.679775648464627, 37.651532950368512 ], [ 126.680045111801206, 37.651254287931387 ], [ 126.680058016908092, 37.651175512146175 ], [ 126.680096791885404, 37.650935805240053 ], [ 126.680150086560943, 37.650599307329379 ], [ 126.680172940469461, 37.650453866935138 ], [ 126.680199597542924, 37.650284189428532 ], [ 126.68020983064693, 37.650221582750547 ], [ 126.680217073891086, 37.65017727912916 ], [ 126.680394933948136, 37.649711135509818 ], [ 126.680419930296637, 37.649645669642247 ], [ 126.680643240574369, 37.649112175648696 ], [ 126.681217022037231, 37.648217110654471 ], [ 126.681525284049286, 37.647758431772154 ], [ 126.682022694411259, 37.647301081768575 ], [ 126.6823572795941, 37.647154683417519 ], [ 126.683517206010279, 37.647074838606372 ], [ 126.685017227430421, 37.64815890950252 ], [ 126.68652544668609, 37.647456149637357 ], [ 126.688854581676381, 37.645725878466486 ], [ 126.688872367390928, 37.645653895063568 ], [ 126.689363749446727, 37.643659719188108 ], [ 126.68822062442058, 37.642690672177274 ], [ 126.68807360368055, 37.64256137530203 ], [ 126.691139071779148, 37.64026264599665 ], [ 126.689458128767257, 37.638816861157686 ], [ 126.68943075156119, 37.638793022364233 ], [ 126.691063253811691, 37.637520987661162 ], [ 126.69228116682676, 37.636650543604802 ], [ 126.695236374941089, 37.63429575183941 ] ] ] ] } },
{ "type": "Feature", "properties": { "OBJECTID": 1573, "adm_nm": "경기도 김포시 구래동", "adm_cd": "3123063", "adm_cd2": "4157057000", "sgg": "41570", "sido": "41", "sidonm": "경기도", "sggnm": "김포시" }, "geometry": { "type": "MultiPolygon", "coordinates": [ [ [ [ 126.633456850216348, 37.646318877696018 ], [ 126.633911447444078, 37.644670415940823 ], [ 126.629975457795751, 37.643927179902178 ], [ 126.629635998003835, 37.643529309672367 ], [ 126.629454123161395, 37.643131933501508 ], [ 126.630627402014042, 37.639564365814138 ], [ 126.631293661119997, 37.637603307306648 ], [ 126.627200606823408, 37.636838603219786 ], [ 126.627713144967743, 37.63543573886912 ], [ 126.621074363462142, 37.637581602118274 ], [ 126.61909611381725, 37.642547552538375 ], [ 126.617834123492798, 37.645716994995084 ], [ 126.621236093189452, 37.648754434319756 ], [ 126.62183410657579, 37.649230952332921 ], [ 126.622966292820038, 37.650131678929064 ], [ 126.623387987761731, 37.650300430373115 ], [ 126.624184421547554, 37.650584587219882 ], [ 126.624363787229257, 37.650645671591455 ], [ 126.624675712573122, 37.650750511400389 ], [ 126.628876133338792, 37.651622084516632 ], [ 126.632666719045957, 37.652408248699629 ], [ 126.633394572555645, 37.652882383056017 ], [ 126.633648976249162, 37.653361850578754 ], [ 126.633974824282063, 37.653978265384836 ], [ 126.634426171546295, 37.654831069212428 ], [ 126.635308880952863, 37.656491740365517 ], [ 126.6395083636652, 37.655213005976108 ], [ 126.639546765831895, 37.655200893907811 ], [ 126.64029065577472, 37.654947180360246 ], [ 126.638624218905051, 37.652231667603324 ], [ 126.639616235365907, 37.650132311258176 ], [ 126.639665946251469, 37.649575098367663 ], [ 126.63801292076991, 37.649215001848923 ], [ 126.636125558911345, 37.648436470361624 ], [ 126.63523416809096, 37.648099566139102 ], [ 126.633555137186534, 37.647697557839876 ], [ 126.633637317942203, 37.647008625716964 ], [ 126.633456850216348, 37.646318877696018 ] ] ] ] } },
{ "type": "Feature", "properties": { "OBJECTID": 1574, "adm_nm": "경기도 김포시 장기본동", "adm_cd": "3123062", "adm_cd2": "4157052500", "sgg": "41570", "sido": "41", "sidonm": "경기도", "sggnm": "김포시" }, "geometry": { "type": "MultiPolygon", "coordinates": [ [ [ [ 126.67524467717773, 37.649428267651665 ], [ 126.674271688585435, 37.648786076340116 ], [ 126.673200060933027, 37.648074423106301 ], [ 126.671780751331724, 37.647131523162521 ], [ 126.670211540481247, 37.645551239680103 ], [ 126.668042911113702, 37.64313498277474 ], [ 126.667668640053137, 37.64270984878199 ], [ 126.667184687553728, 37.642147615527001 ], [ 126.66702469940634, 37.641815178595422 ], [ 126.666243129431564, 37.640881307226778 ], [ 126.664707141649359, 37.639127592289093 ], [ 126.662596599036419, 37.639343616067791 ], [ 126.661549172410062, 37.639963671400402 ], [ 126.661167439932029, 37.640189676832861 ], [ 126.659436205188896, 37.638228288541391 ], [ 126.657941620319747, 37.63855375610234 ], [ 126.65716925983817, 37.63804414123107 ], [ 126.657094890450551, 37.638000881001254 ], [ 126.656932066022904, 37.637961397003799 ], [ 126.656010936766592, 37.63800689299029 ], [ 126.656298470017788, 37.638300114129223 ], [ 126.656503277254345, 37.639449358575028 ], [ 126.655005648164732, 37.639591180316437 ], [ 126.655004102999513, 37.639925327875851 ], [ 126.652925285151284, 37.640796379781385 ], [ 126.652530078629383, 37.641066714981115 ], [ 126.654562053583035, 37.645275541363631 ], [ 126.656294854447736, 37.648225120885861 ], [ 126.657066519694482, 37.649446282300254 ], [ 126.658101475773535, 37.650735824457662 ], [ 126.660278100085378, 37.653367400039855 ], [ 126.660952950215176, 37.654146785307304 ], [ 126.663670752892216, 37.657451942531694 ], [ 126.664335530664374, 37.658766943231612 ], [ 126.664342493462343, 37.660357819204165 ], [ 126.663596183273, 37.661937752071999 ], [ 126.663827462910319, 37.661840772455228 ], [ 126.665385345067946, 37.660886772909201 ], [ 126.666197476127067, 37.660334482111111 ], [ 126.668871457470544, 37.65656644088191 ], [ 126.67269443027142, 37.651873213943205 ], [ 126.67524467717773, 37.649428267651665 ] ] ] ] } },
{ "type": "Feature", "properties": { "OBJECTID": 1575, "adm_nm": "경기도 김포시 운양동", "adm_cd": "3123060", "adm_cd2": "4157058000", "sgg": "41570", "sido": "41", "sidonm": "경기도", "sggnm": "김포시" }, "geometry": { "type": "MultiPolygon", "coordinates": [ [ [ [ 126.689321531351652, 37.666181157750948 ], [ 126.694468911018149, 37.663301776769721 ], [ 126.701587329424527, 37.659319035250348 ], [ 126.7079093183346, 37.655517525770222 ], [ 126.709332066554722, 37.654661727203333 ], [ 126.707605981628518, 37.651402005001792 ], [ 126.707468318229047, 37.651142025989039 ], [ 126.706217310643083, 37.650791116804427 ], [ 126.706039050979626, 37.650728438006929 ], [ 126.705348406372764, 37.650485578188146 ], [ 126.704929124503664, 37.650252474360506 ], [ 126.704527864564881, 37.650029386183753 ], [ 126.704302166430509, 37.64986787944239 ], [ 126.70381876287486, 37.649489442699519 ], [ 126.703744293794728, 37.649430354160643 ], [ 126.703424007953984, 37.648975358863119 ], [ 126.703430847392696, 37.648855060595118 ], [ 126.703437001840527, 37.648747949441265 ], [ 126.703492407835625, 37.648669587712881 ], [ 126.703581593720017, 37.648543708311472 ], [ 126.703963583785466, 37.6480021136733 ], [ 126.704093403875817, 37.647720199939052 ], [ 126.704222736230335, 37.647416867347708 ], [ 126.703944954892293, 37.647158125454148 ], [ 126.703675447322709, 37.647052653555406 ], [ 126.701444904865895, 37.647013915638944 ], [ 126.700265694863731, 37.64763684337693 ], [ 126.699891425607944, 37.647458556781132 ], [ 126.699705899506185, 37.647357009148159 ], [ 126.699385005211084, 37.647181344454481 ], [ 126.698309908205701, 37.646555511145458 ], [ 126.698202651558944, 37.646492456704046 ], [ 126.698176073770369, 37.646476824700756 ], [ 126.697989053601319, 37.646350532853781 ], [ 126.693575055680924, 37.642317424725583 ], [ 126.693631991943619, 37.642274789310399 ], [ 126.696349658465621, 37.640239656776487 ], [ 126.694000834956469, 37.637788958050173 ], [ 126.693844714881664, 37.637656181068991 ], [ 126.693563534892576, 37.637416427355497 ], [ 126.693367753164551, 37.637244960646036 ], [ 126.693470646047032, 37.637163422908877 ], [ 126.693908921753419, 37.636826331179591 ], [ 126.695724566523552, 37.63546405104961 ], [ 126.69668399341424, 37.634775455659899 ], [ 126.696465603089862, 37.634601566935473 ], [ 126.69588418847394, 37.634391427907318 ], [ 126.695384316758535, 37.634305775020685 ], [ 126.695236374941089, 37.63429575183941 ], [ 126.69228116682676, 37.636650543604802 ], [ 126.691063253811691, 37.637520987661162 ], [ 126.68943075156119, 37.638793022364233 ], [ 126.689458128767257, 37.638816861157686 ], [ 126.691139071779148, 37.64026264599665 ], [ 126.68807360368055, 37.64256137530203 ], [ 126.68822062442058, 37.642690672177274 ], [ 126.689363749446727, 37.643659719188108 ], [ 126.688872367390928, 37.645653895063568 ], [ 126.688854581676381, 37.645725878466486 ], [ 126.68652544668609, 37.647456149637357 ], [ 126.685017227430421, 37.64815890950252 ], [ 126.683517206010279, 37.647074838606372 ], [ 126.6823572795941, 37.647154683417519 ], [ 126.682022694411259, 37.647301081768575 ], [ 126.681525284049286, 37.647758431772154 ], [ 126.681217022037231, 37.648217110654471 ], [ 126.680643240574369, 37.649112175648696 ], [ 126.680419930296637, 37.649645669642247 ], [ 126.680394933948136, 37.649711135509818 ], [ 126.680217073891086, 37.65017727912916 ], [ 126.68020983064693, 37.650221582750547 ], [ 126.680199597542924, 37.650284189428532 ], [ 126.680172940469461, 37.650453866935138 ], [ 126.680150086560943, 37.650599307329379 ], [ 126.680096791885404, 37.650935805240053 ], [ 126.680058016908092, 37.651175512146175 ], [ 126.680045111801206, 37.651254287931387 ], [ 126.679775648464627, 37.651532950368512 ], [ 126.679071205114383, 37.651877279881106 ], [ 126.677682015322546, 37.651024950162395 ], [ 126.677163865512171, 37.650706884534607 ], [ 126.67524467717773, 37.649428267651665 ], [ 126.67269443027142, 37.651873213943205 ], [ 126.668871457470544, 37.65656644088191 ], [ 126.666197476127067, 37.660334482111111 ], [ 126.665385345067946, 37.660886772909201 ], [ 126.663827462910319, 37.661840772455228 ], [ 126.663596183273, 37.661937752071999 ], [ 126.663695122313868, 37.662164878950058 ], [ 126.664612919961442, 37.662973555264116 ], [ 126.664943752545682, 37.663107715608447 ], [ 126.666527633507457, 37.663604503264018 ], [ 126.667190583808747, 37.664647954151008 ], [ 126.66816790945029, 37.667621310257886 ], [ 126.66851427702737, 37.669732382739546 ], [ 126.670165852271325, 37.672119433954023 ], [ 126.673464343198717, 37.674914143553003 ], [ 126.677740195305859, 37.672659194791564 ], [ 126.681547371715283, 37.670530402683035 ], [ 126.689321531351652, 37.666181157750948 ] ] ] ] } },
{ "type": "Feature", "properties": { "OBJECTID": 3475, "adm_nm": "경기도 김포시 마산동", "adm_cd": "3123064", "adm_cd2": "4157057500", "sgg": "41570", "sido": "41", "sidonm": "경기도", "sggnm": "김포시" }, "geometry": { "type": "MultiPolygon", "coordinates": [ [ [ [ 126.639665946251469, 37.649575098367663 ], [ 126.641115954085564, 37.649824910872539 ], [ 126.641329697378723, 37.649073720264816 ], [ 126.642280070083942, 37.648074151508858 ], [ 126.64245486363059, 37.647354695341186 ], [ 126.642718121741126, 37.647133532532216 ], [ 126.642876212848122, 37.647001736865342 ], [ 126.643392636699147, 37.646573981850771 ], [ 126.644069188976715, 37.646058990275215 ], [ 126.645051543901502, 37.645735396937837 ], [ 126.645550677178122, 37.645515936916347 ], [ 126.646188000678293, 37.645292968427924 ], [ 126.646604050988941, 37.645152894587092 ], [ 126.64792469658137, 37.644833459572361 ], [ 126.650515215964845, 37.645091470315641 ], [ 126.65149197166842, 37.644029251004845 ], [ 126.651654431514316, 37.642985506324365 ], [ 126.651815619544706, 37.642213255906121 ], [ 126.652530078629383, 37.641066714981115 ], [ 126.652925285151284, 37.640796379781385 ], [ 126.655004102999513, 37.639925327875851 ], [ 126.655005648164732, 37.639591180316437 ], [ 126.656503277254345, 37.639449358575028 ], [ 126.656298470017788, 37.638300114129223 ], [ 126.656010936766592, 37.63800689299029 ], [ 126.655318416351037, 37.637780949848413 ], [ 126.654277317598314, 37.638074921501847 ], [ 126.65388266328371, 37.638230398212485 ], [ 126.653409464003872, 37.638333431611066 ], [ 126.653103276394191, 37.639230565550541 ], [ 126.652463362748421, 37.639576831995079 ], [ 126.651582211616557, 37.63876662426982 ], [ 126.651306367842736, 37.637700807888791 ], [ 126.65144933629756, 37.63726322682048 ], [ 126.65153363704502, 37.637005200170705 ], [ 126.651673468606347, 37.636576221843107 ], [ 126.651753969169363, 37.635726179478567 ], [ 126.651693002363629, 37.635169175668665 ], [ 126.650607311114527, 37.633391684087229 ], [ 126.649974556983267, 37.632356105979838 ], [ 126.649563121670752, 37.631720197345551 ], [ 126.648961250502296, 37.63079048912207 ], [ 126.648427799003699, 37.629970926348761 ], [ 126.648303334791493, 37.629779885215754 ], [ 126.648059051318498, 37.629404947512121 ], [ 126.6475792237419, 37.628736108402819 ], [ 126.644915029469757, 37.628595808670056 ], [ 126.641630364327852, 37.631702921513714 ], [ 126.636581068013243, 37.633819104912931 ], [ 126.634952185609251, 37.634221780849721 ], [ 126.632256079479745, 37.634722493589123 ], [ 126.627713144967743, 37.63543573886912 ], [ 126.627200606823408, 37.636838603219786 ], [ 126.631293661119997, 37.637603307306648 ], [ 126.630627402014042, 37.639564365814138 ], [ 126.629454123161395, 37.643131933501508 ], [ 126.629635998003835, 37.643529309672367 ], [ 126.629975457795751, 37.643927179902178 ], [ 126.633911447444078, 37.644670415940823 ], [ 126.633456850216348, 37.646318877696018 ], [ 126.633637317942203, 37.647008625716964 ], [ 126.633555137186534, 37.647697557839876 ], [ 126.63523416809096, 37.648099566139102 ], [ 126.636125558911345, 37.648436470361624 ], [ 126.63801292076991, 37.649215001848923 ], [ 126.639665946251469, 37.649575098367663 ] ] ] ] } }
]
}
