{
"type": "FeatureCollection",
"name": "gunposhi",
"crs": { "type": "name", "properties": { "name": "urn:ogc:def:crs:OGC:1.3:CRS84" } },
"features": [
{ "type": "Feature", "properties": { "OBJECTID": 1456, "adm_nm": "경기도 군포시 군포1동", "adm_cd": "3116051", "adm_cd2": "4141051000", "sgg": "41410", "sido": "41", "sidonm": "경기도", "sggnm": "군포시" }, "geometry": { "type": "MultiPolygon", "coordinates": [ [ [ [ 126.962136276020942, 37.361555267521119 ], [ 126.962020559750826, 37.361482728435355 ], [ 126.962007374139375, 37.361438658717375 ], [ 126.96051616918426, 37.356394291769554 ], [ 126.961953667197278, 37.355516361874436 ], [ 126.962227073800946, 37.35537676482879 ], [ 126.962365049502083, 37.355339073533543 ], [ 126.961387570258722, 37.353802856931296 ], [ 126.959432656158796, 37.350617143357816 ], [ 126.959554264151109, 37.348222285211634 ], [ 126.959087139863328, 37.347825796808401 ], [ 126.959018375965712, 37.347771399612796 ], [ 126.958639260347951, 37.347501504961784 ], [ 126.958238976389566, 37.347231513953894 ], [ 126.957985109614441, 37.346105529682291 ], [ 126.957579883342717, 37.344340897530003 ], [ 126.954444370360278, 37.341101347837849 ], [ 126.953653626498493, 37.341022641710154 ], [ 126.951338772014196, 37.341754253873582 ], [ 126.948563481509836, 37.339751508241598 ], [ 126.948403735094359, 37.336896813440887 ], [ 126.948120452810514, 37.331834239031053 ], [ 126.947900139733022, 37.331185342505499 ], [ 126.947587942399025, 37.332006395641969 ], [ 126.947500556466238, 37.334744554183928 ], [ 126.947892397181846, 37.341593997777409 ], [ 126.948437295657868, 37.345331631514142 ], [ 126.948456159770174, 37.345357634116127 ], [ 126.949183286754064, 37.346361464424476 ], [ 126.949524891579514, 37.346848760779871 ], [ 126.949555504027686, 37.346916057761497 ], [ 126.949574197752952, 37.346957155683178 ], [ 126.950203291071517, 37.350207469325547 ], [ 126.94956948652181, 37.350695601889086 ], [ 126.941632532713143, 37.350677403625241 ], [ 126.939892968121626, 37.351104247901802 ], [ 126.936951179589428, 37.351170279534067 ], [ 126.937688261372983, 37.35235459044948 ], [ 126.939201853773355, 37.354932955205015 ], [ 126.939745903898427, 37.355889866460537 ], [ 126.940139034371754, 37.356549733161913 ], [ 126.942239589197968, 37.358418746801149 ], [ 126.942287426597701, 37.358451746428898 ], [ 126.942359665983957, 37.358501563594466 ], [ 126.942646170637488, 37.358696718991759 ], [ 126.942904893240382, 37.358640466006051 ], [ 126.943004562224758, 37.358618400958477 ], [ 126.943901886899496, 37.358405832808927 ], [ 126.945524887083977, 37.358704605736584 ], [ 126.945571596615807, 37.358783695174075 ], [ 126.945597222397723, 37.358849165119182 ], [ 126.945617706544155, 37.358942778991597 ], [ 126.945622631415048, 37.359040826821769 ], [ 126.945622622346548, 37.359138775810131 ], [ 126.946215746396177, 37.359868365059533 ], [ 126.947748858530304, 37.360206761874224 ], [ 126.947886647841941, 37.360205178715397 ], [ 126.948128160096601, 37.360206283245901 ], [ 126.948549341209329, 37.360209397748264 ], [ 126.948945430839146, 37.360574048811515 ], [ 126.950070994221846, 37.361654151166398 ], [ 126.952107610708509, 37.363637645423218 ], [ 126.953896859135071, 37.366277794950179 ], [ 126.955653198834639, 37.366228571805671 ], [ 126.956029003682744, 37.36618635958709 ], [ 126.957019691996038, 37.366030917442586 ], [ 126.957382366606353, 37.365754280964907 ], [ 126.957498047117824, 37.365665801589529 ], [ 126.95772807709379, 37.36547909972127 ], [ 126.957765220572824, 37.365447658734738 ], [ 126.961381106447604, 37.362262823027386 ], [ 126.961653940107226, 37.362009426072191 ], [ 126.962136276020942, 37.361555267521119 ] ] ] ] } },
{ "type": "Feature", "properties": { "OBJECTID": 1457, "adm_nm": "경기도 군포시 군포2동", "adm_cd": "3116052", "adm_cd2": "4141052000", "sgg": "41410", "sido": "41", "sidonm": "경기도", "sggnm": "군포시" }, "geometry": { "type": "MultiPolygon", "coordinates": [ [ [ [ 126.947900139733022, 37.331185342505499 ], [ 126.947410255028913, 37.328139767123446 ], [ 126.947433423519087, 37.327480738993152 ], [ 126.947416641607518, 37.327075038778851 ], [ 126.9474012390843, 37.326963421735172 ], [ 126.946960902644534, 37.324766499067394 ], [ 126.94529215587184, 37.320883869783387 ], [ 126.945051371803402, 37.320341911096477 ], [ 126.944764577668039, 37.320300003479602 ], [ 126.943523907991704, 37.320570223788394 ], [ 126.940942705611931, 37.321161982965442 ], [ 126.940703075057144, 37.321228454232077 ], [ 126.939644819093402, 37.321818359822927 ], [ 126.939358918609742, 37.322131362633712 ], [ 126.939174454083826, 37.322273582915408 ], [ 126.939083812384837, 37.322320475837628 ], [ 126.938992470825454, 37.322367365371456 ], [ 126.938946455601837, 37.32238855412141 ], [ 126.938870724643252, 37.322423124474 ], [ 126.938780966656424, 37.322445233340879 ], [ 126.93867361297427, 37.322462751756916 ], [ 126.938611571980715, 37.322457950511833 ], [ 126.938522335144611, 37.322450956022315 ], [ 126.938458591352543, 37.322445957326678 ], [ 126.937422493352457, 37.32233674131276 ], [ 126.937388612660115, 37.322332708785908 ], [ 126.937091248664018, 37.322289604684883 ], [ 126.936029183293499, 37.321966811050487 ], [ 126.935743081899744, 37.321833619926892 ], [ 126.93566446621351, 37.321781415531952 ], [ 126.935587315347718, 37.3217269853481 ], [ 126.935501838247617, 37.321643164584124 ], [ 126.932161093779072, 37.318446441269067 ], [ 126.930572318344971, 37.317451792486054 ], [ 126.930251172206567, 37.317292504677233 ], [ 126.929639528122195, 37.31703043222624 ], [ 126.929172164335625, 37.317824752937724 ], [ 126.927160279978082, 37.319890463227253 ], [ 126.927055381072023, 37.319956432285899 ], [ 126.926807581880681, 37.319935275581884 ], [ 126.926775515716855, 37.319932542293095 ], [ 126.926069557456785, 37.320006864471466 ], [ 126.925812568307947, 37.320048415329104 ], [ 126.924154626213237, 37.320811058117158 ], [ 126.923669716959921, 37.321500476273734 ], [ 126.923661992978907, 37.321534253988837 ], [ 126.923646339159518, 37.321602899086088 ], [ 126.923853707329656, 37.322876479587954 ], [ 126.924195079032145, 37.324568875992874 ], [ 126.924541250002193, 37.326168204197081 ], [ 126.925027972757348, 37.328765488291424 ], [ 126.925037664295061, 37.32925340767963 ], [ 126.924891487951584, 37.329542283797537 ], [ 126.924452204025954, 37.32970350493953 ], [ 126.924370947979767, 37.329812402035564 ], [ 126.923978523221066, 37.333070108569096 ], [ 126.926848789689743, 37.336290143582339 ], [ 126.926877536697972, 37.336312398193449 ], [ 126.926981794907519, 37.336335293471542 ], [ 126.927087571643966, 37.336342566088106 ], [ 126.927164002291605, 37.336351458722078 ], [ 126.927277179956405, 37.336366018602476 ], [ 126.92733209082995, 37.336382058550726 ], [ 126.927374242473647, 37.336405923790814 ], [ 126.927420396354563, 37.336460229948791 ], [ 126.927652108028099, 37.336979644413667 ], [ 126.927694407068088, 37.337077874066878 ], [ 126.927736320777058, 37.337247738078354 ], [ 126.927740064751575, 37.337289919117552 ], [ 126.927737182446876, 37.337315693644364 ], [ 126.927340216286041, 37.339958320611586 ], [ 126.927319562172642, 37.340008175063865 ], [ 126.927289903470864, 37.34007976324078 ], [ 126.927066508197981, 37.340408818879894 ], [ 126.928558390900591, 37.341403037254125 ], [ 126.928888707252696, 37.342321785340651 ], [ 126.929014131591344, 37.342903780082409 ], [ 126.92896578355392, 37.343324941268165 ], [ 126.928979349348865, 37.343361323295319 ], [ 126.929043239604695, 37.343532632210483 ], [ 126.929856864828011, 37.34464637859562 ], [ 126.93339573225532, 37.348943801438907 ], [ 126.933439692103249, 37.348995669960324 ], [ 126.934099491268825, 37.349761789608934 ], [ 126.935913071759074, 37.350718054827333 ], [ 126.936067161886612, 37.350766082101735 ], [ 126.936221349610733, 37.350813012663963 ], [ 126.93672560735871, 37.350821354924172 ], [ 126.936857513176577, 37.351050401103933 ], [ 126.936951179589428, 37.351170279534067 ], [ 126.939892968121626, 37.351104247901802 ], [ 126.941632532713143, 37.350677403625241 ], [ 126.94956948652181, 37.350695601889086 ], [ 126.950203291071517, 37.350207469325547 ], [ 126.949574197752952, 37.346957155683178 ], [ 126.949555504027686, 37.346916057761497 ], [ 126.949524891579514, 37.346848760779871 ], [ 126.949183286754064, 37.346361464424476 ], [ 126.948456159770174, 37.345357634116127 ], [ 126.948437295657868, 37.345331631514142 ], [ 126.947892397181846, 37.341593997777409 ], [ 126.947500556466238, 37.334744554183928 ], [ 126.947587942399025, 37.332006395641969 ], [ 126.947900139733022, 37.331185342505499 ] ] ] ] } },
{ "type": "Feature", "properties": { "OBJECTID": 1458, "adm_nm": "경기도 군포시 산본1동", "adm_cd": "3116054", "adm_cd2": "4141054000", "sgg": "41410", "sido": "41", "sidonm": "경기도", "sggnm": "군포시" }, "geometry": { "type": "MultiPolygon", "coordinates": [ [ [ [ 126.945282824715648, 37.377012673371361 ], [ 126.944689910166872, 37.376317538036304 ], [ 126.945753903102357, 37.374006502257906 ], [ 126.94559467322, 37.37377820388943 ], [ 126.945000133410545, 37.373565743888491 ], [ 126.943741263299017, 37.373165568357436 ], [ 126.94321154506089, 37.372973805051721 ], [ 126.942712854937355, 37.372793158020691 ], [ 126.943478299321598, 37.371019059835618 ], [ 126.942785857202068, 37.369107136646655 ], [ 126.942090922541837, 37.368184379282766 ], [ 126.939732231997425, 37.366938422780549 ], [ 126.939332122016665, 37.366734844017586 ], [ 126.939229440958812, 37.366684780672578 ], [ 126.938755131458763, 37.367441940677907 ], [ 126.938537169725734, 37.367800365690265 ], [ 126.93842932543366, 37.367971078955172 ], [ 126.936945706751743, 37.370304914564997 ], [ 126.936516578798901, 37.370979334652198 ], [ 126.936150167910952, 37.371554468220623 ], [ 126.935908747067614, 37.371933021089262 ], [ 126.935688623581726, 37.372200129948176 ], [ 126.935439867896605, 37.372426539853116 ], [ 126.935276033595301, 37.372565317494129 ], [ 126.935155007598723, 37.372667424129325 ], [ 126.93511656157267, 37.372711182514287 ], [ 126.935022576575733, 37.372818898518283 ], [ 126.934970586579013, 37.37287949292422 ], [ 126.934871403731975, 37.373022112230096 ], [ 126.934799888233385, 37.373152366115974 ], [ 126.934795905150892, 37.373181213596354 ], [ 126.934778922658111, 37.373305603226228 ], [ 126.934808829693637, 37.374493306787869 ], [ 126.934822093449299, 37.37498349237876 ], [ 126.934871378813668, 37.376546620303351 ], [ 126.934893825929208, 37.376996152574037 ], [ 126.937373770821438, 37.37655554090977 ], [ 126.939165660792526, 37.376011455542816 ], [ 126.940076115393083, 37.375851238119886 ], [ 126.940318167427407, 37.376048476914761 ], [ 126.940511108141607, 37.376205990078446 ], [ 126.940555317415615, 37.376242254182237 ], [ 126.941185375113065, 37.376762397268422 ], [ 126.940816970646196, 37.379126761608958 ], [ 126.941469571127058, 37.378800844083415 ], [ 126.94220516917531, 37.378513623704244 ], [ 126.942464519592775, 37.378430804362367 ], [ 126.942810183366802, 37.378320426915167 ], [ 126.942854025143077, 37.378310493008065 ], [ 126.943269134252532, 37.378212170032896 ], [ 126.943551254994006, 37.378093795327409 ], [ 126.943630282634189, 37.378060636025488 ], [ 126.943798121094559, 37.377989315578681 ], [ 126.944314402055141, 37.377655989724239 ], [ 126.944634578386385, 37.377447861116416 ], [ 126.945086969084272, 37.377152585263417 ], [ 126.945181323721556, 37.37708993175454 ], [ 126.945211852559837, 37.377067089027186 ], [ 126.945236691306107, 37.37704850293089 ], [ 126.945282824715648, 37.377012673371361 ] ] ] ] } },
{ "type": "Feature", "properties": { "OBJECTID": 1459, "adm_nm": "경기도 군포시 산본2동", "adm_cd": "3116055", "adm_cd2": "4141055000", "sgg": "41410", "sido": "41", "sidonm": "경기도", "sggnm": "군포시" }, "geometry": { "type": "MultiPolygon", "coordinates": [ [ [ [ 126.934893825929208, 37.376996152574037 ], [ 126.934871378813668, 37.376546620303351 ], [ 126.934822093449299, 37.37498349237876 ], [ 126.934808829693637, 37.374493306787869 ], [ 126.934778922658111, 37.373305603226228 ], [ 126.934795905150892, 37.373181213596354 ], [ 126.934799888233385, 37.373152366115974 ], [ 126.934871403731975, 37.373022112230096 ], [ 126.934970586579013, 37.37287949292422 ], [ 126.935022576575733, 37.372818898518283 ], [ 126.93511656157267, 37.372711182514287 ], [ 126.935155007598723, 37.372667424129325 ], [ 126.935276033595301, 37.372565317494129 ], [ 126.935439867896605, 37.372426539853116 ], [ 126.935688623581726, 37.372200129948176 ], [ 126.935908747067614, 37.371933021089262 ], [ 126.936150167910952, 37.371554468220623 ], [ 126.936516578798901, 37.370979334652198 ], [ 126.936945706751743, 37.370304914564997 ], [ 126.93842932543366, 37.367971078955172 ], [ 126.938537169725734, 37.367800365690265 ], [ 126.938755131458763, 37.367441940677907 ], [ 126.939229440958812, 37.366684780672578 ], [ 126.937170237926509, 37.364269434399461 ], [ 126.934766332673078, 37.3640698286085 ], [ 126.933605800032836, 37.364000054814063 ], [ 126.933060383772911, 37.363039729976229 ], [ 126.932905728981098, 37.362769702539033 ], [ 126.932806003726313, 37.362609230140627 ], [ 126.932639201744919, 37.36245294280468 ], [ 126.931956265190166, 37.361952799502866 ], [ 126.930146167116732, 37.364156952104615 ], [ 126.929957400381937, 37.36438700105262 ], [ 126.931245883231128, 37.365456845901882 ], [ 126.931976176379052, 37.366057489541546 ], [ 126.932275893313516, 37.366270778805088 ], [ 126.932344901455039, 37.366322381153658 ], [ 126.932398725600152, 37.366362632587396 ], [ 126.932959421847187, 37.366796886995246 ], [ 126.933007952503985, 37.36690285097351 ], [ 126.932905534028592, 37.367109824089091 ], [ 126.932814804985057, 37.367253609073181 ], [ 126.93254929051011, 37.36764443371198 ], [ 126.9324367703679, 37.367776846649548 ], [ 126.932327217406595, 37.367890119496217 ], [ 126.927007024248823, 37.372100926291473 ], [ 126.925977324399639, 37.372355078200698 ], [ 126.924901013508943, 37.373074328816479 ], [ 126.922977283237998, 37.374571379736025 ], [ 126.922651610622211, 37.374977634874973 ], [ 126.921417807264717, 37.376518614550996 ], [ 126.923923136376601, 37.377256450315649 ], [ 126.924137308879381, 37.377312702496397 ], [ 126.926947256171701, 37.377638452139792 ], [ 126.930979992717909, 37.377528666348361 ], [ 126.932765424432162, 37.37747033441299 ], [ 126.934893825929208, 37.376996152574037 ] ] ] ] } },
{ "type": "Feature", "properties": { "OBJECTID": 1460, "adm_nm": "경기도 군포시 금정동", "adm_cd": "3116056", "adm_cd2": "4141056000", "sgg": "41410", "sido": "41", "sidonm": "경기도", "sggnm": "군포시" }, "geometry": { "type": "MultiPolygon", "coordinates": [ [ [ [ 126.945622622346548, 37.359138775810131 ], [ 126.944192259423801, 37.359874648219204 ], [ 126.943366325231281, 37.360797352526085 ], [ 126.941454737628504, 37.362525250314214 ], [ 126.938320906141243, 37.362820328563409 ], [ 126.937170237926509, 37.364269434399461 ], [ 126.939229440958812, 37.366684780672578 ], [ 126.939332122016665, 37.366734844017586 ], [ 126.939732231997425, 37.366938422780549 ], [ 126.942090922541837, 37.368184379282766 ], [ 126.942785857202068, 37.369107136646655 ], [ 126.943478299321598, 37.371019059835618 ], [ 126.942712854937355, 37.372793158020691 ], [ 126.94321154506089, 37.372973805051721 ], [ 126.943741263299017, 37.373165568357436 ], [ 126.945000133410545, 37.373565743888491 ], [ 126.94559467322, 37.37377820388943 ], [ 126.945551435674986, 37.373034354359518 ], [ 126.947074584587227, 37.369979063918436 ], [ 126.947238553349862, 37.369853637804411 ], [ 126.947342184062094, 37.36977525174018 ], [ 126.947599083081499, 37.369607389904203 ], [ 126.947759942258998, 37.369502283561332 ], [ 126.948122364584364, 37.369266241941027 ], [ 126.94856989652888, 37.368974251044207 ], [ 126.948752075436587, 37.368824372250302 ], [ 126.949387959882358, 37.368300903810194 ], [ 126.949657378507695, 37.368039632057297 ], [ 126.950343336286508, 37.367373594479709 ], [ 126.953125164661273, 37.366293526952099 ], [ 126.953896859135071, 37.366277794950179 ], [ 126.952107610708509, 37.363637645423218 ], [ 126.950070994221846, 37.361654151166398 ], [ 126.948945430839146, 37.360574048811515 ], [ 126.948549341209329, 37.360209397748264 ], [ 126.948128160096601, 37.360206283245901 ], [ 126.947886647841941, 37.360205178715397 ], [ 126.947748858530304, 37.360206761874224 ], [ 126.946215746396177, 37.359868365059533 ], [ 126.945622622346548, 37.359138775810131 ] ] ], [ [ [ 126.946694085972041, 37.375658189245378 ], [ 126.945753903102357, 37.374006502257906 ], [ 126.944689910166872, 37.376317538036304 ], [ 126.945282824715648, 37.377012673371361 ], [ 126.946195528036583, 37.376255280525562 ], [ 126.946694085972041, 37.375658189245378 ] ] ] ] } },
{ "type": "Feature", "properties": { "OBJECTID": 1461, "adm_nm": "경기도 군포시 재궁동", "adm_cd": "3116057", "adm_cd2": "4141057000", "sgg": "41410", "sido": "41", "sidonm": "경기도", "sggnm": "군포시" }, "geometry": { "type": "MultiPolygon", "coordinates": [ [ [ [ 126.945622622346548, 37.359138775810131 ], [ 126.945622631415048, 37.359040826821769 ], [ 126.945617706544155, 37.358942778991597 ], [ 126.945597222397723, 37.358849165119182 ], [ 126.945571596615807, 37.358783695174075 ], [ 126.945524887083977, 37.358704605736584 ], [ 126.943901886899496, 37.358405832808927 ], [ 126.943004562224758, 37.358618400958477 ], [ 126.942904893240382, 37.358640466006051 ], [ 126.942646170637488, 37.358696718991759 ], [ 126.942359665983957, 37.358501563594466 ], [ 126.942287426597701, 37.358451746428898 ], [ 126.942239589197968, 37.358418746801149 ], [ 126.940139034371754, 37.356549733161913 ], [ 126.939745903898427, 37.355889866460537 ], [ 126.939201853773355, 37.354932955205015 ], [ 126.937688261372983, 37.35235459044948 ], [ 126.936951179589428, 37.351170279534067 ], [ 126.936857513176577, 37.351050401103933 ], [ 126.931828088904282, 37.357040755386905 ], [ 126.93481173727811, 37.35858349665326 ], [ 126.934726254055732, 37.358686167792598 ], [ 126.934573865712409, 37.358866842379804 ], [ 126.933092020205208, 37.360616305850854 ], [ 126.932392294302588, 37.36144005376913 ], [ 126.931956265190166, 37.361952799502866 ], [ 126.932639201744919, 37.36245294280468 ], [ 126.932806003726313, 37.362609230140627 ], [ 126.932905728981098, 37.362769702539033 ], [ 126.933060383772911, 37.363039729976229 ], [ 126.933605800032836, 37.364000054814063 ], [ 126.934766332673078, 37.3640698286085 ], [ 126.937170237926509, 37.364269434399461 ], [ 126.938320906141243, 37.362820328563409 ], [ 126.941454737628504, 37.362525250314214 ], [ 126.943366325231281, 37.360797352526085 ], [ 126.944192259423801, 37.359874648219204 ], [ 126.945622622346548, 37.359138775810131 ] ] ] ] } },
{ "type": "Feature", "properties": { "OBJECTID": 1462, "adm_nm": "경기도 군포시 오금동", "adm_cd": "3116058", "adm_cd2": "4141058000", "sgg": "41410", "sido": "41", "sidonm": "경기도", "sggnm": "군포시" }, "geometry": { "type": "MultiPolygon", "coordinates": [ [ [ [ 126.936857513176577, 37.351050401103933 ], [ 126.93672560735871, 37.350821354924172 ], [ 126.936221349610733, 37.350813012663963 ], [ 126.936067161886612, 37.350766082101735 ], [ 126.935913071759074, 37.350718054827333 ], [ 126.934099491268825, 37.349761789608934 ], [ 126.933439692103249, 37.348995669960324 ], [ 126.93339573225532, 37.348943801438907 ], [ 126.929856864828011, 37.34464637859562 ], [ 126.929043239604695, 37.343532632210483 ], [ 126.928979349348865, 37.343361323295319 ], [ 126.92896578355392, 37.343324941268165 ], [ 126.929014131591344, 37.342903780082409 ], [ 126.928888707252696, 37.342321785340651 ], [ 126.928558390900591, 37.341403037254125 ], [ 126.927066508197981, 37.340408818879894 ], [ 126.92438181398451, 37.341154049298432 ], [ 126.924431106201354, 37.342548060377403 ], [ 126.924435290201643, 37.342664025062369 ], [ 126.924442167632122, 37.34285458291145 ], [ 126.924662083158736, 37.345198109723547 ], [ 126.924704529162184, 37.345645625070674 ], [ 126.924893911401355, 37.346561724081042 ], [ 126.925022343429347, 37.347182893037221 ], [ 126.925154372242929, 37.347821259536389 ], [ 126.925353365604977, 37.348747265291237 ], [ 126.925601821492194, 37.349567479919635 ], [ 126.926191110918509, 37.351511800543783 ], [ 126.926210677744621, 37.351574915251391 ], [ 126.926601045037401, 37.352820785324752 ], [ 126.926689768896395, 37.353103202187029 ], [ 126.926709225576516, 37.353163832970502 ], [ 126.926849787158588, 37.353473172664692 ], [ 126.92688834850992, 37.353557923989527 ], [ 126.927875848790904, 37.354639853384676 ], [ 126.92790821695489, 37.354672436968592 ], [ 126.928009749720616, 37.354756553219609 ], [ 126.92817947617371, 37.354895960514064 ], [ 126.928795627975902, 37.355400891699674 ], [ 126.928844541508184, 37.355430619136321 ], [ 126.928880296207311, 37.355450312890774 ], [ 126.929211653594905, 37.355636173542543 ], [ 126.929279453081705, 37.355674203473079 ], [ 126.929455136587706, 37.355773075716016 ], [ 126.929814287661145, 37.355967476777863 ], [ 126.930125610144771, 37.356133334090117 ], [ 126.930420457464265, 37.356290476063251 ], [ 126.931141369191991, 37.356674695777038 ], [ 126.931828088904282, 37.357040755386905 ], [ 126.936857513176577, 37.351050401103933 ] ] ] ] } },
{ "type": "Feature", "properties": { "OBJECTID": 1463, "adm_nm": "경기도 군포시 수리동", "adm_cd": "3116059", "adm_cd2": "4141059000", "sgg": "41410", "sido": "41", "sidonm": "경기도", "sggnm": "군포시" }, "geometry": { "type": "MultiPolygon", "coordinates": [ [ [ [ 126.924385188792257, 37.35789716811032 ], [ 126.92688834850992, 37.353557923989527 ], [ 126.926849787158588, 37.353473172664692 ], [ 126.926709225576516, 37.353163832970502 ], [ 126.926689768896395, 37.353103202187029 ], [ 126.926601045037401, 37.352820785324752 ], [ 126.926210677744621, 37.351574915251391 ], [ 126.926191110918509, 37.351511800543783 ], [ 126.925601821492194, 37.349567479919635 ], [ 126.925353365604977, 37.348747265291237 ], [ 126.925154372242929, 37.347821259536389 ], [ 126.925022343429347, 37.347182893037221 ], [ 126.924893911401355, 37.346561724081042 ], [ 126.924704529162184, 37.345645625070674 ], [ 126.924662083158736, 37.345198109723547 ], [ 126.924442167632122, 37.34285458291145 ], [ 126.924435290201643, 37.342664025062369 ], [ 126.924431106201354, 37.342548060377403 ], [ 126.92438181398451, 37.341154049298432 ], [ 126.924300862055929, 37.341123248280212 ], [ 126.923669399460309, 37.34088513921138 ], [ 126.923120318232932, 37.34067819257389 ], [ 126.923009098753795, 37.340636403096006 ], [ 126.92287966462942, 37.340587890511358 ], [ 126.922807598338764, 37.340594304681787 ], [ 126.91613303384743, 37.341201526382385 ], [ 126.915864282224916, 37.341282450488038 ], [ 126.915706823143083, 37.341338432715332 ], [ 126.915617354716545, 37.341370242124043 ], [ 126.915428413833936, 37.34144029221553 ], [ 126.915383823926916, 37.341466767098474 ], [ 126.915347603640512, 37.341488341069351 ], [ 126.915207931081937, 37.341575535121599 ], [ 126.909547732476383, 37.345258843792195 ], [ 126.909325702121023, 37.345408716131338 ], [ 126.909231247263193, 37.345576126037344 ], [ 126.909166717483672, 37.345886778995371 ], [ 126.909183389783436, 37.346009674938884 ], [ 126.909378978533297, 37.347344690063977 ], [ 126.909582151925193, 37.348072439632304 ], [ 126.909793664579453, 37.348997406607396 ], [ 126.910060042737541, 37.352200876333207 ], [ 126.908190320814469, 37.355053488530686 ], [ 126.906931692245479, 37.357044777815887 ], [ 126.905540687738679, 37.358751595882588 ], [ 126.906968748012531, 37.359697263618315 ], [ 126.910131686936225, 37.359458437938599 ], [ 126.914236864421895, 37.359398841710686 ], [ 126.918387897084045, 37.359615374788447 ], [ 126.919617389897965, 37.359425364692747 ], [ 126.924385188792257, 37.35789716811032 ] ] ] ] } },
{ "type": "Feature", "properties": { "OBJECTID": 1464, "adm_nm": "경기도 군포시 궁내동", "adm_cd": "3116060", "adm_cd2": "4141060000", "sgg": "41410", "sido": "41", "sidonm": "경기도", "sggnm": "군포시" }, "geometry": { "type": "MultiPolygon", "coordinates": [ [ [ [ 126.924385188792257, 37.35789716811032 ], [ 126.919617389897965, 37.359425364692747 ], [ 126.918387897084045, 37.359615374788447 ], [ 126.914236864421895, 37.359398841710686 ], [ 126.910131686936225, 37.359458437938599 ], [ 126.906968748012531, 37.359697263618315 ], [ 126.907247954289176, 37.359904849117534 ], [ 126.907433492432602, 37.360095067559961 ], [ 126.907591821190991, 37.360333598353073 ], [ 126.90775115242559, 37.360805364768119 ], [ 126.907919567041745, 37.361377454382911 ], [ 126.907994365095036, 37.361636634280153 ], [ 126.908308849834697, 37.363389369289244 ], [ 126.910192798633275, 37.365717664221911 ], [ 126.910312741438545, 37.365809499403177 ], [ 126.910496768299012, 37.36601888664589 ], [ 126.911536240425036, 37.367671324615721 ], [ 126.911636592800946, 37.367836324667792 ], [ 126.911756180641703, 37.368069023368037 ], [ 126.911805416120529, 37.368272077427498 ], [ 126.911805237035551, 37.36835722034126 ], [ 126.911804883860171, 37.368521079392337 ], [ 126.911777357951294, 37.368702344041012 ], [ 126.911719958747042, 37.368925752565801 ], [ 126.911697280624239, 37.369014046533366 ], [ 126.911705912281093, 37.36908738379794 ], [ 126.912534205273673, 37.370671101048764 ], [ 126.912651607494567, 37.370880847939013 ], [ 126.912803618742345, 37.371152420508729 ], [ 126.913354323206718, 37.372134270614126 ], [ 126.913774423842327, 37.372846186300826 ], [ 126.918944060589652, 37.368673547871573 ], [ 126.92164858761538, 37.365952258167908 ], [ 126.922098301440656, 37.366123463236661 ], [ 126.922205934055057, 37.366151823541983 ], [ 126.922285672455004, 37.366172827491702 ], [ 126.922444450345282, 37.366182274154212 ], [ 126.922533298727174, 37.366187557374005 ], [ 126.922702024961765, 37.366183874159944 ], [ 126.922791768040128, 37.366169664812077 ], [ 126.922852548762222, 37.366159257588791 ], [ 126.92304853095969, 37.366098807580812 ], [ 126.923268251284441, 37.365979320264003 ], [ 126.925179731567837, 37.364776581386074 ], [ 126.925468425761281, 37.364574869052717 ], [ 126.925526791657191, 37.364517635788921 ], [ 126.925767813560284, 37.364279995791222 ], [ 126.928755862259479, 37.360694596191856 ], [ 126.928877830048194, 37.360525050439605 ], [ 126.928962755982994, 37.360405452159036 ], [ 126.928475772932714, 37.360121995183029 ], [ 126.928237540217992, 37.359987890865341 ], [ 126.924385188792257, 37.35789716811032 ] ] ] ] } },
{ "type": "Feature", "properties": { "OBJECTID": 1465, "adm_nm": "경기도 군포시 광정동", "adm_cd": "3116061", "adm_cd2": "4141062000", "sgg": "41410", "sido": "41", "sidonm": "경기도", "sggnm": "군포시" }, "geometry": { "type": "MultiPolygon", "coordinates": [ [ [ [ 126.921417807264717, 37.376518614550996 ], [ 126.922651610622211, 37.374977634874973 ], [ 126.922977283237998, 37.374571379736025 ], [ 126.924901013508943, 37.373074328816479 ], [ 126.925977324399639, 37.372355078200698 ], [ 126.927007024248823, 37.372100926291473 ], [ 126.932327217406595, 37.367890119496217 ], [ 126.9324367703679, 37.367776846649548 ], [ 126.93254929051011, 37.36764443371198 ], [ 126.932814804985057, 37.367253609073181 ], [ 126.932905534028592, 37.367109824089091 ], [ 126.933007952503985, 37.36690285097351 ], [ 126.932959421847187, 37.366796886995246 ], [ 126.932398725600152, 37.366362632587396 ], [ 126.932344901455039, 37.366322381153658 ], [ 126.932275893313516, 37.366270778805088 ], [ 126.931976176379052, 37.366057489541546 ], [ 126.931245883231128, 37.365456845901882 ], [ 126.929957400381937, 37.36438700105262 ], [ 126.930146167116732, 37.364156952104615 ], [ 126.931956265190166, 37.361952799502866 ], [ 126.932392294302588, 37.36144005376913 ], [ 126.933092020205208, 37.360616305850854 ], [ 126.934573865712409, 37.358866842379804 ], [ 126.934726254055732, 37.358686167792598 ], [ 126.93481173727811, 37.35858349665326 ], [ 126.931828088904282, 37.357040755386905 ], [ 126.931141369191991, 37.356674695777038 ], [ 126.930420457464265, 37.356290476063251 ], [ 126.930125610144771, 37.356133334090117 ], [ 126.929814287661145, 37.355967476777863 ], [ 126.929455136587706, 37.355773075716016 ], [ 126.929279453081705, 37.355674203473079 ], [ 126.929211653594905, 37.355636173542543 ], [ 126.928880296207311, 37.355450312890774 ], [ 126.928844541508184, 37.355430619136321 ], [ 126.928795627975902, 37.355400891699674 ], [ 126.92817947617371, 37.354895960514064 ], [ 126.928009749720616, 37.354756553219609 ], [ 126.92790821695489, 37.354672436968592 ], [ 126.927875848790904, 37.354639853384676 ], [ 126.92688834850992, 37.353557923989527 ], [ 126.924385188792257, 37.35789716811032 ], [ 126.928237540217992, 37.359987890865341 ], [ 126.928475772932714, 37.360121995183029 ], [ 126.928962755982994, 37.360405452159036 ], [ 126.928877830048194, 37.360525050439605 ], [ 126.928755862259479, 37.360694596191856 ], [ 126.925767813560284, 37.364279995791222 ], [ 126.925526791657191, 37.364517635788921 ], [ 126.925468425761281, 37.364574869052717 ], [ 126.925179731567837, 37.364776581386074 ], [ 126.923268251284441, 37.365979320264003 ], [ 126.92304853095969, 37.366098807580812 ], [ 126.922852548762222, 37.366159257588791 ], [ 126.922791768040128, 37.366169664812077 ], [ 126.922702024961765, 37.366183874159944 ], [ 126.922533298727174, 37.366187557374005 ], [ 126.922444450345282, 37.366182274154212 ], [ 126.922285672455004, 37.366172827491702 ], [ 126.922205934055057, 37.366151823541983 ], [ 126.922098301440656, 37.366123463236661 ], [ 126.92164858761538, 37.365952258167908 ], [ 126.918944060589652, 37.368673547871573 ], [ 126.913774423842327, 37.372846186300826 ], [ 126.914826737797185, 37.375412424885994 ], [ 126.915494514469998, 37.375504737731056 ], [ 126.915599786483156, 37.375534498518391 ], [ 126.91584740873958, 37.375604505655659 ], [ 126.916497365599838, 37.375810523198645 ], [ 126.916677540886823, 37.375880141726441 ], [ 126.916897559146108, 37.376091922713954 ], [ 126.917530379006422, 37.376781211457292 ], [ 126.919178246143204, 37.376933536574491 ], [ 126.919899024074681, 37.376564130195 ], [ 126.921417807264717, 37.376518614550996 ] ] ] ] } },
{ "type": "Feature", "properties": { "OBJECTID": 1466, "adm_nm": "경기도 군포시 대야동", "adm_cd": "3116062", "adm_cd2": "4141061000", "sgg": "41410", "sido": "41", "sidonm": "경기도", "sggnm": "군포시" }, "geometry": { "type": "MultiPolygon", "coordinates": [ [ [ [ 126.92438181398451, 37.341154049298432 ], [ 126.927066508197981, 37.340408818879894 ], [ 126.927289903470864, 37.34007976324078 ], [ 126.927319562172642, 37.340008175063865 ], [ 126.927340216286041, 37.339958320611586 ], [ 126.927737182446876, 37.337315693644364 ], [ 126.927740064751575, 37.337289919117552 ], [ 126.927736320777058, 37.337247738078354 ], [ 126.927694407068088, 37.337077874066878 ], [ 126.927652108028099, 37.336979644413667 ], [ 126.927420396354563, 37.336460229948791 ], [ 126.927374242473647, 37.336405923790814 ], [ 126.92733209082995, 37.336382058550726 ], [ 126.927277179956405, 37.336366018602476 ], [ 126.927164002291605, 37.336351458722078 ], [ 126.927087571643966, 37.336342566088106 ], [ 126.926981794907519, 37.336335293471542 ], [ 126.926877536697972, 37.336312398193449 ], [ 126.926848789689743, 37.336290143582339 ], [ 126.923978523221066, 37.333070108569096 ], [ 126.924370947979767, 37.329812402035564 ], [ 126.924452204025954, 37.32970350493953 ], [ 126.924891487951584, 37.329542283797537 ], [ 126.925037664295061, 37.32925340767963 ], [ 126.925027972757348, 37.328765488291424 ], [ 126.924541250002193, 37.326168204197081 ], [ 126.924195079032145, 37.324568875992874 ], [ 126.923853707329656, 37.322876479587954 ], [ 126.923646339159518, 37.321602899086088 ], [ 126.923661992978907, 37.321534253988837 ], [ 126.923669716959921, 37.321500476273734 ], [ 126.924154626213237, 37.320811058117158 ], [ 126.925812568307947, 37.320048415329104 ], [ 126.926069557456785, 37.320006864471466 ], [ 126.926775515716855, 37.319932542293095 ], [ 126.926807581880681, 37.319935275581884 ], [ 126.927055381072023, 37.319956432285899 ], [ 126.927160279978082, 37.319890463227253 ], [ 126.929172164335625, 37.317824752937724 ], [ 126.929639528122195, 37.31703043222624 ], [ 126.929602790354551, 37.316937840883313 ], [ 126.929566136732944, 37.316841892282902 ], [ 126.929524642376848, 37.316732399592063 ], [ 126.929481836523635, 37.316514676943882 ], [ 126.929454854134718, 37.316167567661068 ], [ 126.929470605674311, 37.316042581248063 ], [ 126.929526118151202, 37.315790461686461 ], [ 126.930241514708868, 37.312964692167306 ], [ 126.930259583744274, 37.312913670729245 ], [ 126.930290521076785, 37.312826340423008 ], [ 126.930729437798107, 37.311863972423609 ], [ 126.930790036085412, 37.311777505757405 ], [ 126.930859732101283, 37.311712465434404 ], [ 126.931177961940975, 37.311590080523679 ], [ 126.932846864336312, 37.308851123528378 ], [ 126.932857408211774, 37.308822793982962 ], [ 126.932939783972955, 37.308592420891735 ], [ 126.933005728251999, 37.308358376991606 ], [ 126.933020873821491, 37.308125216406204 ], [ 126.933005563602222, 37.30800460996079 ], [ 126.932889701314735, 37.307842905321529 ], [ 126.932777861896227, 37.307710564411643 ], [ 126.932363713552078, 37.307421377794618 ], [ 126.931371197446609, 37.307097610376957 ], [ 126.930910084283155, 37.307079619632894 ], [ 126.930427008629536, 37.307064914201277 ], [ 126.929164461112308, 37.306903329537313 ], [ 126.926164918041124, 37.306905723936858 ], [ 126.92541764092573, 37.306864915992655 ], [ 126.924767963067055, 37.306788522414813 ], [ 126.922575811428146, 37.306442081132552 ], [ 126.922501249799708, 37.306416365880665 ], [ 126.922371152566939, 37.306181934477493 ], [ 126.922253814453029, 37.306125025196387 ], [ 126.921593940787758, 37.305816458055617 ], [ 126.92120794444476, 37.305660208851123 ], [ 126.920913088142882, 37.305576515118823 ], [ 126.920641861969997, 37.305536878809569 ], [ 126.916464113742876, 37.305145658615238 ], [ 126.91622492525903, 37.305160252294293 ], [ 126.916043942593632, 37.305216822619713 ], [ 126.915380240378994, 37.305497481711384 ], [ 126.915277317587183, 37.305582041325138 ], [ 126.914369407569595, 37.310524457599534 ], [ 126.914325949830356, 37.310943385616433 ], [ 126.914325559935577, 37.31117548979249 ], [ 126.914325785057756, 37.311249755844742 ], [ 126.914325956646366, 37.311306192277449 ], [ 126.914400426877009, 37.311707676198012 ], [ 126.914506655973597, 37.312015798720338 ], [ 126.915196091986559, 37.313551909974734 ], [ 126.915508558746481, 37.315137939946702 ], [ 126.915045546229479, 37.315563150643847 ], [ 126.914589942783451, 37.315829063307255 ], [ 126.914454051134584, 37.315888103015951 ], [ 126.914407342171131, 37.31590815297578 ], [ 126.914172228764855, 37.315938537610947 ], [ 126.913906358116506, 37.315931587428281 ], [ 126.913785225418351, 37.315907326120552 ], [ 126.913136524850486, 37.315696792802441 ], [ 126.912829065558057, 37.315597242265298 ], [ 126.912700230350211, 37.315582532334687 ], [ 126.912571135845369, 37.315567793935251 ], [ 126.912457872491046, 37.315583118478493 ], [ 126.910701383096381, 37.316544383902126 ], [ 126.910435828407586, 37.316768405704714 ], [ 126.910392330864468, 37.316827905528974 ], [ 126.910351869122522, 37.316884518014255 ], [ 126.910321733685734, 37.316926705751463 ], [ 126.910275392765087, 37.317350124277702 ], [ 126.910465406366214, 37.317586557090785 ], [ 126.91092807138368, 37.317774771225054 ], [ 126.908156913503859, 37.321610968542814 ], [ 126.907701247330778, 37.321883582685885 ], [ 126.905557866593711, 37.321652022929491 ], [ 126.895031221748084, 37.31916832352286 ], [ 126.894456828165048, 37.319546218863799 ], [ 126.894204827759253, 37.319702526396483 ], [ 126.894130816582091, 37.31974842885743 ], [ 126.893888346967785, 37.319801328534389 ], [ 126.892794882313297, 37.319814876752886 ], [ 126.891874263908363, 37.319825923128121 ], [ 126.891530428897198, 37.319776833062427 ], [ 126.887740734151294, 37.317906078971468 ], [ 126.885773006623637, 37.319345972663676 ], [ 126.885590800159704, 37.319459952713544 ], [ 126.883702364508693, 37.320590424043104 ], [ 126.883282658710044, 37.320813045089892 ], [ 126.883162708506418, 37.320859106829992 ], [ 126.883063208823771, 37.320863094995119 ], [ 126.881629289332267, 37.320844342805252 ], [ 126.881535681847723, 37.320817938902607 ], [ 126.87811594541968, 37.319455876629235 ], [ 126.874213874551003, 37.320861621780551 ], [ 126.874601096475857, 37.32175479996117 ], [ 126.874612572441379, 37.321782334664618 ], [ 126.874657706615253, 37.321922034647287 ], [ 126.874646786436088, 37.322090985593412 ], [ 126.874578470180637, 37.3222379009134 ], [ 126.874535457889209, 37.322330389450379 ], [ 126.874454147714303, 37.322438125150427 ], [ 126.874275981032, 37.322572390016347 ], [ 126.873987743480413, 37.322708325761262 ], [ 126.873822341541953, 37.322770788686626 ], [ 126.87335970272045, 37.323074566870766 ], [ 126.872750240466857, 37.326214842888724 ], [ 126.872745316241932, 37.326295994957505 ], [ 126.87275214154775, 37.326353439954872 ], [ 126.872761794132003, 37.326434669297313 ], [ 126.8727804220851, 37.326569974859183 ], [ 126.873592503308117, 37.329277285957275 ], [ 126.873981289981231, 37.329948617096655 ], [ 126.876724499403593, 37.332645700509431 ], [ 126.87764153909751, 37.332661921355751 ], [ 126.87858158462258, 37.332718692653238 ], [ 126.879233771189419, 37.332760424019142 ], [ 126.879509082416305, 37.332827218118489 ], [ 126.879919518623893, 37.333019786060653 ], [ 126.880558594458705, 37.333378051375753 ], [ 126.880713052400878, 37.333470124491569 ], [ 126.880909368481795, 37.333619879294716 ], [ 126.885359838814722, 37.338201802273474 ], [ 126.885488908473576, 37.338381621546716 ], [ 126.886776633289244, 37.340193992159236 ], [ 126.886800153355267, 37.340253149778725 ], [ 126.886826414725462, 37.340320889192618 ], [ 126.887672667396757, 37.343590510826793 ], [ 126.887697633955312, 37.343991752736251 ], [ 126.887539482207359, 37.346002130673327 ], [ 126.88731185228832, 37.34674796765816 ], [ 126.887450972424986, 37.347302322459406 ], [ 126.888671637348949, 37.349444483738409 ], [ 126.888953338685795, 37.349578378371213 ], [ 126.889028809998209, 37.349614220212018 ], [ 126.889603093074911, 37.349796323465668 ], [ 126.889846896522485, 37.349927154038703 ], [ 126.890162113669618, 37.35012933564704 ], [ 126.891918898243773, 37.351396925502627 ], [ 126.893746119165812, 37.353652983314163 ], [ 126.893949571773547, 37.355482943737428 ], [ 126.89399921906481, 37.355615898571422 ], [ 126.894086755019558, 37.355705380341824 ], [ 126.897237869765277, 37.358067270826375 ], [ 126.900968175570739, 37.356869379681228 ], [ 126.901188697045257, 37.35682768091791 ], [ 126.904076021719661, 37.356987609231815 ], [ 126.904342652458666, 37.357093737119776 ], [ 126.905044350747517, 37.357874704985782 ], [ 126.905262152556872, 37.358177761066585 ], [ 126.905540687738679, 37.358751595882588 ], [ 126.906931692245479, 37.357044777815887 ], [ 126.908190320814469, 37.355053488530686 ], [ 126.910060042737541, 37.352200876333207 ], [ 126.909793664579453, 37.348997406607396 ], [ 126.909582151925193, 37.348072439632304 ], [ 126.909378978533297, 37.347344690063977 ], [ 126.909183389783436, 37.346009674938884 ], [ 126.909166717483672, 37.345886778995371 ], [ 126.909231247263193, 37.345576126037344 ], [ 126.909325702121023, 37.345408716131338 ], [ 126.909547732476383, 37.345258843792195 ], [ 126.915207931081937, 37.341575535121599 ], [ 126.915347603640512, 37.341488341069351 ], [ 126.915383823926916, 37.341466767098474 ], [ 126.915428413833936, 37.34144029221553 ], [ 126.915617354716545, 37.341370242124043 ], [ 126.915706823143083, 37.341338432715332 ], [ 126.915864282224916, 37.341282450488038 ], [ 126.91613303384743, 37.341201526382385 ], [ 126.922807598338764, 37.340594304681787 ], [ 126.92287966462942, 37.340587890511358 ], [ 126.923009098753795, 37.340636403096006 ], [ 126.923120318232932, 37.34067819257389 ], [ 126.923669399460309, 37.34088513921138 ], [ 126.924300862055929, 37.341123248280212 ], [ 126.92438181398451, 37.341154049298432 ] ] ] ] } }
]
}
