{
"type": "FeatureCollection",
"name": "gurishi",
"crs": { "type": "name", "properties": { "name": "urn:ogc:def:crs:OGC:1.3:CRS84" } },
"features": [
{ "type": "Feature", "properties": { "OBJECTID": 1409, "adm_nm": "경기도 구리시 갈매동", "adm_cd": "3112051", "adm_cd2": "4131051000", "sgg": "41310", "sido": "41", "sidonm": "경기도", "sggnm": "구리시" }, "geometry": { "type": "MultiPolygon", "coordinates": [ [ [ [ 127.129027888812246, 37.641693994121127 ], [ 127.129132142449933, 37.641528701540594 ], [ 127.129225084877959, 37.640931854880442 ], [ 127.12943535564429, 37.637392501481564 ], [ 127.12943820374386, 37.636819032314513 ], [ 127.129435687611704, 37.63677337960771 ], [ 127.129429750222911, 37.636665777810421 ], [ 127.12872039913708, 37.634156691909226 ], [ 127.12849774375006, 37.633995894807292 ], [ 127.127931100411331, 37.630500393156929 ], [ 127.127708444195122, 37.627992832491238 ], [ 127.127609379186609, 37.627262432662782 ], [ 127.127181319543922, 37.626037508638035 ], [ 127.127146243705567, 37.625969797120725 ], [ 127.127041729435746, 37.625907499522548 ], [ 127.125658577479868, 37.625301888051425 ], [ 127.123046512105503, 37.623905090159319 ], [ 127.117713464837635, 37.620970962145677 ], [ 127.117080184112126, 37.620579077949429 ], [ 127.116633354060951, 37.620170760855025 ], [ 127.115674587011469, 37.619294601124878 ], [ 127.113994768425343, 37.619418685273651 ], [ 127.113945164217739, 37.619428663109112 ], [ 127.11382939522629, 37.619486871605098 ], [ 127.112737128391885, 37.620070291670082 ], [ 127.111477951391507, 37.620605831585507 ], [ 127.111340299161199, 37.620654952136995 ], [ 127.110979287753523, 37.620756290265994 ], [ 127.110851696806677, 37.62077727645071 ], [ 127.110644832258316, 37.620788987523454 ], [ 127.110391998297217, 37.620787026320329 ], [ 127.110241379163483, 37.620773657741466 ], [ 127.11011521391805, 37.62076245187292 ], [ 127.110011227668068, 37.62074202632833 ], [ 127.109829382087284, 37.620706299862782 ], [ 127.109511751842376, 37.620635395116544 ], [ 127.109083881800814, 37.620520183898613 ], [ 127.108752029717081, 37.620460496778435 ], [ 127.107350212329564, 37.620500926594083 ], [ 127.106137941600764, 37.62059826863748 ], [ 127.106042112081582, 37.620640762518285 ], [ 127.105818891897954, 37.620779797288193 ], [ 127.105710367142819, 37.6208334323481 ], [ 127.105719207011262, 37.620899946724386 ], [ 127.105696292735459, 37.620953878610173 ], [ 127.105658461131384, 37.62100227146324 ], [ 127.105620835879606, 37.621020172571427 ], [ 127.105504449540092, 37.621064850660495 ], [ 127.10542308902302, 37.621112403869709 ], [ 127.105365130410178, 37.621131507794928 ], [ 127.105296742984166, 37.62115471667483 ], [ 127.105246758675435, 37.621162636315425 ], [ 127.105107279552229, 37.621170556616768 ], [ 127.105016621157944, 37.621171379867128 ], [ 127.104963498831751, 37.621171202037708 ], [ 127.104351470902017, 37.621459834501245 ], [ 127.10428592306728, 37.621494929304347 ], [ 127.104238546301758, 37.621520296436536 ], [ 127.104065004355789, 37.621658295675246 ], [ 127.104034383598275, 37.621688613236088 ], [ 127.103981526563274, 37.621772936713342 ], [ 127.103657699107814, 37.622470389852467 ], [ 127.103507380003109, 37.622903655855012 ], [ 127.103525879010789, 37.623037107660018 ], [ 127.103529884565475, 37.623065973085239 ], [ 127.105263885080035, 37.626913756988856 ], [ 127.105369711172685, 37.627139509498811 ], [ 127.105488705448508, 37.627260398775888 ], [ 127.108617281986412, 37.6291411016159 ], [ 127.110416844516251, 37.630139659420131 ], [ 127.110842236154582, 37.630471179502955 ], [ 127.110910506021355, 37.630530309113034 ], [ 127.110983243738787, 37.630593313859002 ], [ 127.111417170281314, 37.631330475285345 ], [ 127.112037346379012, 37.632618053963029 ], [ 127.112384316647393, 37.635228522097137 ], [ 127.111952928205028, 37.640271212478751 ], [ 127.111343168146277, 37.642003229780585 ], [ 127.11115471503085, 37.642411591637234 ], [ 127.111811722403047, 37.643309461385854 ], [ 127.111874489220597, 37.643381842651031 ], [ 127.111927307544363, 37.643424763327445 ], [ 127.111989270989071, 37.643453326878074 ], [ 127.112680689795468, 37.643640179646475 ], [ 127.11284487154056, 37.643674518774667 ], [ 127.115403514936816, 37.6440219850112 ], [ 127.11565886908852, 37.643941728179612 ], [ 127.11574083238547, 37.643891439042051 ], [ 127.1158670975056, 37.643813965491027 ], [ 127.115985833100297, 37.643715658070185 ], [ 127.116096949142218, 37.643616418985594 ], [ 127.116381912837838, 37.643444964753002 ], [ 127.116505412126159, 37.643400299288963 ], [ 127.116728807213676, 37.6433559591716 ], [ 127.117067745056218, 37.643297346050907 ], [ 127.11916298884114, 37.642945844857977 ], [ 127.1208877402496, 37.642587484843503 ], [ 127.127024912287595, 37.641318130385685 ], [ 127.129027888812246, 37.641693994121127 ] ] ] ] } },
{ "type": "Feature", "properties": { "OBJECTID": 1410, "adm_nm": "경기도 구리시 동구동", "adm_cd": "3112052", "adm_cd2": "4131052000", "sgg": "41310", "sido": "41", "sidonm": "경기도", "sggnm": "구리시" }, "geometry": { "type": "MultiPolygon", "coordinates": [ [ [ [ 127.150261708659158, 37.639425693453411 ], [ 127.150227080706287, 37.639249641818132 ], [ 127.150214630636114, 37.639185384357461 ], [ 127.150020311156013, 37.637721255374913 ], [ 127.149860962847498, 37.636354123723095 ], [ 127.149830561762769, 37.636040817326652 ], [ 127.149829991601266, 37.635862593371961 ], [ 127.149829134481351, 37.635589015633698 ], [ 127.149835536298042, 37.635432426529583 ], [ 127.149825070149731, 37.635097772381705 ], [ 127.149752184576741, 37.634174807434199 ], [ 127.149718478607767, 37.633969452910399 ], [ 127.149697785617519, 37.633843402812566 ], [ 127.14964781158649, 37.633653259674944 ], [ 127.149589912074575, 37.633432971928784 ], [ 127.149514618544217, 37.633245647732643 ], [ 127.149439381378173, 37.633058467865467 ], [ 127.1491962717853, 37.632637493688478 ], [ 127.149018392821574, 37.632353041937236 ], [ 127.148452821142982, 37.631818440554426 ], [ 127.148136068354376, 37.631545967043664 ], [ 127.14649945781693, 37.630274689211049 ], [ 127.145386536312458, 37.629560415861441 ], [ 127.144959663391418, 37.62936083682618 ], [ 127.144669842772615, 37.629246180724962 ], [ 127.144535237345281, 37.629152439473522 ], [ 127.144484172517693, 37.629109282575129 ], [ 127.144371542306445, 37.628962475010589 ], [ 127.143356244656886, 37.626889850396701 ], [ 127.143154873502795, 37.626252520393876 ], [ 127.143090081237105, 37.626025861131474 ], [ 127.143080103862914, 37.625984198824945 ], [ 127.143074405280501, 37.625957781253959 ], [ 127.14306451659148, 37.625892836625425 ], [ 127.143040615866184, 37.625705734766328 ], [ 127.143023908909498, 37.625348527976875 ], [ 127.142983201927095, 37.623938928654141 ], [ 127.142987514338856, 37.623857073599694 ], [ 127.142990990298287, 37.623791358168987 ], [ 127.143071755449938, 37.62304461425628 ], [ 127.143079644513165, 37.622987321696094 ], [ 127.143142191923531, 37.622533314026178 ], [ 127.143228041896649, 37.622058115854195 ], [ 127.143393973114428, 37.621274448536902 ], [ 127.143405485803854, 37.621222339698775 ], [ 127.143432920672041, 37.621097644195679 ], [ 127.143252713910854, 37.621053083303181 ], [ 127.14328275262848, 37.620982301463108 ], [ 127.143433153044541, 37.620632358670818 ], [ 127.143742516731535, 37.620063226496278 ], [ 127.143846167406068, 37.619872843870965 ], [ 127.144081202408913, 37.619441160335377 ], [ 127.144298109769139, 37.6190773198947 ], [ 127.144533108375072, 37.61868314020618 ], [ 127.144810716267926, 37.618240064173321 ], [ 127.145060561279422, 37.617841854879508 ], [ 127.145757550168071, 37.61687514478421 ], [ 127.145775508455188, 37.616850388287794 ], [ 127.147015195876278, 37.615130281659773 ], [ 127.147307170716573, 37.614036020806566 ], [ 127.147616021221978, 37.611425207923794 ], [ 127.147734239037902, 37.60937283508347 ], [ 127.148402309438069, 37.606148009386928 ], [ 127.148950956158785, 37.604669180658412 ], [ 127.148519935146808, 37.604476361694999 ], [ 127.147909600210269, 37.604319060188061 ], [ 127.147526282906924, 37.604231224505988 ], [ 127.146644229913178, 37.604029100904668 ], [ 127.139722037320013, 37.602447739174337 ], [ 127.139173534395667, 37.602820091587645 ], [ 127.138645907008822, 37.603209446138401 ], [ 127.138594782634982, 37.603277787401765 ], [ 127.135690202460609, 37.607651691773192 ], [ 127.134991909261544, 37.609011880667488 ], [ 127.132655379111327, 37.611982408721815 ], [ 127.129221691136166, 37.613239226659616 ], [ 127.126932404522293, 37.61461895516922 ], [ 127.126318291895359, 37.615068810874789 ], [ 127.126125702979664, 37.61522583422903 ], [ 127.123571976271208, 37.616193522424119 ], [ 127.119704974862643, 37.616389559371413 ], [ 127.119255241543755, 37.616397122596489 ], [ 127.11696815201357, 37.617430772963118 ], [ 127.115674587011469, 37.619294601124878 ], [ 127.116633354060951, 37.620170760855025 ], [ 127.117080184112126, 37.620579077949429 ], [ 127.117713464837635, 37.620970962145677 ], [ 127.123046512105503, 37.623905090159319 ], [ 127.125658577479868, 37.625301888051425 ], [ 127.127041729435746, 37.625907499522548 ], [ 127.127146243705567, 37.625969797120725 ], [ 127.127181319543922, 37.626037508638035 ], [ 127.127609379186609, 37.627262432662782 ], [ 127.127708444195122, 37.627992832491238 ], [ 127.127931100411331, 37.630500393156929 ], [ 127.12849774375006, 37.633995894807292 ], [ 127.12872039913708, 37.634156691909226 ], [ 127.129429750222911, 37.636665777810421 ], [ 127.129435687611704, 37.63677337960771 ], [ 127.12943820374386, 37.636819032314513 ], [ 127.12943535564429, 37.637392501481564 ], [ 127.129225084877959, 37.640931854880442 ], [ 127.129132142449933, 37.641528701540594 ], [ 127.129027888812246, 37.641693994121127 ], [ 127.129402017144187, 37.641393220986565 ], [ 127.129507966461929, 37.64135617517276 ], [ 127.129561696156046, 37.64133738870536 ], [ 127.129780920780561, 37.641271602999858 ], [ 127.130107188291561, 37.641192632436827 ], [ 127.130590527660758, 37.641153586525846 ], [ 127.131062895690533, 37.641327445961025 ], [ 127.131221528681721, 37.641480646986977 ], [ 127.131414016719177, 37.641666546033107 ], [ 127.132352141739347, 37.642640667194058 ], [ 127.132748773594869, 37.643090319212639 ], [ 127.132958219137976, 37.643287012464519 ], [ 127.133107745364285, 37.643408221072207 ], [ 127.133205190618185, 37.643487202041484 ], [ 127.133389522039778, 37.643602695839824 ], [ 127.139106595468192, 37.645821845888463 ], [ 127.139513976295618, 37.645966179090344 ], [ 127.139733886249772, 37.646042324537078 ], [ 127.14036154930389, 37.646209874315417 ], [ 127.140874801624591, 37.646300436119802 ], [ 127.141212233967721, 37.64624851812578 ], [ 127.14126869129062, 37.646237810642866 ], [ 127.141487752407031, 37.646195829665594 ], [ 127.141749114437886, 37.64613184885215 ], [ 127.142046722150383, 37.645972764408931 ], [ 127.142195607879827, 37.645884325927334 ], [ 127.142518489904077, 37.645692526190857 ], [ 127.142920874039405, 37.645401936004603 ], [ 127.142969133275287, 37.645268431377836 ], [ 127.142981946083054, 37.645233065519861 ], [ 127.143099540388476, 37.645077994264945 ], [ 127.143856678104314, 37.64452933825234 ], [ 127.144283867042503, 37.644383032633925 ], [ 127.14507348296182, 37.644299783506249 ], [ 127.145435498013555, 37.644299745389574 ], [ 127.145851510650459, 37.64426944803801 ], [ 127.146093474837244, 37.644187926845895 ], [ 127.146136050954482, 37.644173407781111 ], [ 127.146256865744704, 37.644093776156282 ], [ 127.146463083153677, 37.643932153066082 ], [ 127.146647993099876, 37.643781732546067 ], [ 127.146846731004587, 37.64355473919926 ], [ 127.146950380708432, 37.643418027666286 ], [ 127.147112710114286, 37.643203836594857 ], [ 127.147233048544791, 37.642909183268692 ], [ 127.147252415135767, 37.642859910814764 ], [ 127.147413692778628, 37.642461306406091 ], [ 127.147483938582141, 37.642288008274711 ], [ 127.148997725246218, 37.640059450105618 ], [ 127.149107428996587, 37.639930208679118 ], [ 127.150261708659158, 37.639425693453411 ] ] ] ] } },
{ "type": "Feature", "properties": { "OBJECTID": 1411, "adm_nm": "경기도 구리시 인창동", "adm_cd": "3112053", "adm_cd2": "4131053000", "sgg": "41310", "sido": "41", "sidonm": "경기도", "sggnm": "구리시" }, "geometry": { "type": "MultiPolygon", "coordinates": [ [ [ [ 127.148950956158785, 37.604669180658412 ], [ 127.149203944087418, 37.604027731751039 ], [ 127.147083563492714, 37.60350876126369 ], [ 127.14661434563989, 37.603310187684073 ], [ 127.145290096575593, 37.602748506938603 ], [ 127.144922545956277, 37.602592189824065 ], [ 127.144719138242749, 37.602505679350742 ], [ 127.143822642943945, 37.602109396120881 ], [ 127.143123056241151, 37.601799968639277 ], [ 127.142720975068571, 37.601621962004906 ], [ 127.142310472662359, 37.601440449279302 ], [ 127.142091439643849, 37.601344016269252 ], [ 127.140767243471501, 37.600785665842338 ], [ 127.140100202066208, 37.600505342844819 ], [ 127.14004035091979, 37.60050575520718 ], [ 127.139986911988174, 37.60050612400476 ], [ 127.138181924120843, 37.600525400348992 ], [ 127.135894264736507, 37.600549902173285 ], [ 127.129796337746299, 37.601528394496533 ], [ 127.128664197162138, 37.602876510921156 ], [ 127.119870405257444, 37.608238558327216 ], [ 127.117447995887616, 37.609551886838823 ], [ 127.116796452674691, 37.609905077647738 ], [ 127.117586687054285, 37.611706990613833 ], [ 127.117308219614912, 37.612925479659204 ], [ 127.11692584293769, 37.614358179227359 ], [ 127.116670562518038, 37.615768458165142 ], [ 127.11696815201357, 37.617430772963118 ], [ 127.119255241543755, 37.616397122596489 ], [ 127.119704974862643, 37.616389559371413 ], [ 127.123571976271208, 37.616193522424119 ], [ 127.126125702979664, 37.61522583422903 ], [ 127.126318291895359, 37.615068810874789 ], [ 127.126932404522293, 37.61461895516922 ], [ 127.129221691136166, 37.613239226659616 ], [ 127.132655379111327, 37.611982408721815 ], [ 127.134991909261544, 37.609011880667488 ], [ 127.135690202460609, 37.607651691773192 ], [ 127.138594782634982, 37.603277787401765 ], [ 127.138645907008822, 37.603209446138401 ], [ 127.139173534395667, 37.602820091587645 ], [ 127.139722037320013, 37.602447739174337 ], [ 127.146644229913178, 37.604029100904668 ], [ 127.147526282906924, 37.604231224505988 ], [ 127.147909600210269, 37.604319060188061 ], [ 127.148519935146808, 37.604476361694999 ], [ 127.148950956158785, 37.604669180658412 ] ] ] ] } },
{ "type": "Feature", "properties": { "OBJECTID": 1412, "adm_nm": "경기도 구리시 교문1동", "adm_cd": "3112054", "adm_cd2": "4131054100", "sgg": "41310", "sido": "41", "sidonm": "경기도", "sggnm": "구리시" }, "geometry": { "type": "MultiPolygon", "coordinates": [ [ [ [ 127.135894264736507, 37.600549902173285 ], [ 127.136739983545866, 37.597287380145069 ], [ 127.137363502172491, 37.59484213962088 ], [ 127.135574357509725, 37.594354840743073 ], [ 127.131856901192577, 37.593524897800457 ], [ 127.131209449475477, 37.593458691619496 ], [ 127.131219805691799, 37.593366299799371 ], [ 127.131237766207875, 37.593211206957108 ], [ 127.131072439825971, 37.590519833670271 ], [ 127.129116685167077, 37.582042155372704 ], [ 127.128268307980747, 37.5785535185613 ], [ 127.129265884340256, 37.577099921124002 ], [ 127.129524862097398, 37.575666387807431 ], [ 127.132733706357982, 37.570242288294892 ], [ 127.133824681984649, 37.568445201911914 ], [ 127.1332222750151, 37.568193342077848 ], [ 127.13298072038684, 37.568093442713398 ], [ 127.132771655179937, 37.568007164192281 ], [ 127.132277463418518, 37.567807300662814 ], [ 127.13206602320146, 37.567723050548103 ], [ 127.131834339669581, 37.567631310692036 ], [ 127.131735447869545, 37.567592693914143 ], [ 127.131462083386779, 37.56748705966455 ], [ 127.131375903082542, 37.567454116614122 ], [ 127.12236415472151, 37.564283297632436 ], [ 127.12228096158411, 37.564254547880985 ], [ 127.121746500119002, 37.563994420093046 ], [ 127.120765869050715, 37.563506391107978 ], [ 127.119355510372699, 37.562657962608597 ], [ 127.117583590197157, 37.560974595076935 ], [ 127.116824267328994, 37.560170667930464 ], [ 127.116682597084278, 37.560020736819681 ], [ 127.116507984654376, 37.559996067627281 ], [ 127.115482651299416, 37.559851221369101 ], [ 127.114994047974704, 37.55994901217111 ], [ 127.114408026093272, 37.560066294547639 ], [ 127.11392872673666, 37.560161957084674 ], [ 127.113484389974062, 37.56025063398706 ], [ 127.113769177183897, 37.558885490922499 ], [ 127.111465008589889, 37.558888752481899 ], [ 127.110022198240841, 37.55845873405385 ], [ 127.108960386939785, 37.559823690134017 ], [ 127.104246389703036, 37.559876059466418 ], [ 127.101146079923197, 37.560023363174111 ], [ 127.101080605273125, 37.560755616464817 ], [ 127.101080970845231, 37.560820839509297 ], [ 127.101092520688866, 37.560909887013111 ], [ 127.103341845028709, 37.569649304038116 ], [ 127.103372979084043, 37.56974860225521 ], [ 127.103384856432868, 37.569786467328221 ], [ 127.103429027662131, 37.569893925987394 ], [ 127.1034962675852, 37.570025009888361 ], [ 127.103748991214161, 37.570415692448442 ], [ 127.10379824477107, 37.570482900194207 ], [ 127.103832604008701, 37.570529768542229 ], [ 127.103900801229969, 37.570616752344854 ], [ 127.103945168602763, 37.570657461962092 ], [ 127.103982505697658, 37.570691388753609 ], [ 127.104066148975761, 37.570799831341326 ], [ 127.10415964070647, 37.570921827144829 ], [ 127.104183502585173, 37.57099528607565 ], [ 127.104190095846235, 37.571051498355146 ], [ 127.104186802099505, 37.571099344502016 ], [ 127.104011971899595, 37.571675086004682 ], [ 127.103995532204962, 37.571706578113897 ], [ 127.103974180285647, 37.571729040240804 ], [ 127.103834757537768, 37.571834575724203 ], [ 127.103685703958249, 37.571941015211692 ], [ 127.103263053712809, 37.572228027593056 ], [ 127.103162918719065, 37.572293039806091 ], [ 127.103076368838046, 37.57233105530797 ], [ 127.102974266092474, 37.572365640180806 ], [ 127.102933180148938, 37.5723722621211 ], [ 127.101636970614166, 37.572558290981583 ], [ 127.100930211180881, 37.573559795823115 ], [ 127.101255295295942, 37.574980520024098 ], [ 127.102671640584504, 37.57830360868784 ], [ 127.102678231876013, 37.57891294732714 ], [ 127.102725981537304, 37.579399837370858 ], [ 127.102745419359181, 37.579603832073651 ], [ 127.102764559094382, 37.581064081496685 ], [ 127.102768639632586, 37.58176264040079 ], [ 127.100472249540388, 37.582573991621281 ], [ 127.099750485889274, 37.58305151357613 ], [ 127.102665586138102, 37.584104673555011 ], [ 127.10603197351243, 37.584564376132334 ], [ 127.109328091225422, 37.584664340290161 ], [ 127.109527716524312, 37.585069480854713 ], [ 127.109839222303123, 37.585965901175861 ], [ 127.110143338740357, 37.587416193390077 ], [ 127.112399760682607, 37.591863780933949 ], [ 127.113905755719131, 37.593342787267751 ], [ 127.115354868471371, 37.593504947938307 ], [ 127.117823836340534, 37.59400532907511 ], [ 127.118365647126552, 37.595015524601116 ], [ 127.118018020239887, 37.595344531899954 ], [ 127.11649936096029, 37.596781468151811 ], [ 127.115999749221146, 37.597240877992277 ], [ 127.11595777489876, 37.597279048648815 ], [ 127.113962732920299, 37.599420818023191 ], [ 127.113892244775968, 37.599524547811065 ], [ 127.113846851622412, 37.599818252562223 ], [ 127.113831922295049, 37.599963685482244 ], [ 127.114282341473753, 37.600351682622282 ], [ 127.115223609611419, 37.601258443697034 ], [ 127.116890563607441, 37.603149842592387 ], [ 127.118011214671341, 37.604577600244468 ], [ 127.11827583448283, 37.606279746746608 ], [ 127.118375029859976, 37.607376328613611 ], [ 127.118317167689725, 37.607613871250969 ], [ 127.118207177849428, 37.607753503367348 ], [ 127.118178179340646, 37.607790310614661 ], [ 127.117900937287303, 37.608140937846933 ], [ 127.11713661961933, 37.60860716005363 ], [ 127.116615090792834, 37.608821897860281 ], [ 127.116796452674691, 37.609905077647738 ], [ 127.117447995887616, 37.609551886838823 ], [ 127.119870405257444, 37.608238558327216 ], [ 127.128664197162138, 37.602876510921156 ], [ 127.129796337746299, 37.601528394496533 ], [ 127.135894264736507, 37.600549902173285 ] ] ] ] } },
{ "type": "Feature", "properties": { "OBJECTID": 1413, "adm_nm": "경기도 구리시 교문2동", "adm_cd": "3112055", "adm_cd2": "4131054200", "sgg": "41310", "sido": "41", "sidonm": "경기도", "sggnm": "구리시" }, "geometry": { "type": "MultiPolygon", "coordinates": [ [ [ [ 127.137929819350916, 37.592356145973952 ], [ 127.13787265935791, 37.592334575322269 ], [ 127.137892753380754, 37.58775700923492 ], [ 127.137897002533336, 37.58701782173889 ], [ 127.137904509106619, 37.585760463192763 ], [ 127.137921453833115, 37.584590000847015 ], [ 127.138331217618557, 37.584474022188964 ], [ 127.138682290295648, 37.584043525060792 ], [ 127.138767866579599, 37.583913091344343 ], [ 127.139468254257977, 37.582506802199902 ], [ 127.138988427263882, 37.582215849301896 ], [ 127.13884726300931, 37.582149942564122 ], [ 127.13876736947671, 37.582112643624164 ], [ 127.138470729727572, 37.581975407267535 ], [ 127.136226056420256, 37.580964632229133 ], [ 127.133257727415511, 37.579726232799359 ], [ 127.131835589339971, 37.578797668269182 ], [ 127.129265884340256, 37.577099921124002 ], [ 127.128268307980747, 37.5785535185613 ], [ 127.129116685167077, 37.582042155372704 ], [ 127.131072439825971, 37.590519833670271 ], [ 127.131237766207875, 37.593211206957108 ], [ 127.131219805691799, 37.593366299799371 ], [ 127.131209449475477, 37.593458691619496 ], [ 127.131856901192577, 37.593524897800457 ], [ 127.135574357509725, 37.594354840743073 ], [ 127.137363502172491, 37.59484213962088 ], [ 127.137929819350916, 37.592356145973952 ] ] ] ] } },
{ "type": "Feature", "properties": { "OBJECTID": 1414, "adm_nm": "경기도 구리시 수택1동", "adm_cd": "3112056", "adm_cd2": "4131057000", "sgg": "41310", "sido": "41", "sidonm": "경기도", "sggnm": "구리시" }, "geometry": { "type": "MultiPolygon", "coordinates": [ [ [ [ 127.156576407033342, 37.595933457071922 ], [ 127.162865684575138, 37.594541314047206 ], [ 127.161883789724797, 37.593612482679255 ], [ 127.16133119498933, 37.593537663839101 ], [ 127.158091915492037, 37.593448330125611 ], [ 127.155827203163284, 37.593429354471269 ], [ 127.155201346986061, 37.593430906985446 ], [ 127.15501647451633, 37.593449520425153 ], [ 127.150758175454428, 37.594345337900116 ], [ 127.148739982768703, 37.594722188298462 ], [ 127.148404548368902, 37.594839491446614 ], [ 127.148158872794156, 37.594925847568241 ], [ 127.147883321028047, 37.595022713898864 ], [ 127.147701803301047, 37.595131055037982 ], [ 127.147528327788251, 37.595234597701719 ], [ 127.14738206928719, 37.595322042233036 ], [ 127.147225866792667, 37.595416216967301 ], [ 127.146272066213243, 37.596042052236115 ], [ 127.143975929425991, 37.597550538631808 ], [ 127.136739983545866, 37.597287380145069 ], [ 127.135894264736507, 37.600549902173285 ], [ 127.138181924120843, 37.600525400348992 ], [ 127.139986911988174, 37.60050612400476 ], [ 127.14004035091979, 37.60050575520718 ], [ 127.140100202066208, 37.600505342844819 ], [ 127.140767243471501, 37.600785665842338 ], [ 127.142091439643849, 37.601344016269252 ], [ 127.142310472662359, 37.601440449279302 ], [ 127.142720975068571, 37.601621962004906 ], [ 127.143123056241151, 37.601799968639277 ], [ 127.143822642943945, 37.602109396120881 ], [ 127.144719138242749, 37.602505679350742 ], [ 127.144922545956277, 37.602592189824065 ], [ 127.145290096575593, 37.602748506938603 ], [ 127.14661434563989, 37.603310187684073 ], [ 127.147083563492714, 37.60350876126369 ], [ 127.149203944087418, 37.604027731751039 ], [ 127.150612612662542, 37.600633763122751 ], [ 127.15072671622471, 37.600450514504587 ], [ 127.15091922814959, 37.600194948285768 ], [ 127.150964677060301, 37.600134620344534 ], [ 127.151976577161136, 37.599045852731955 ], [ 127.152130955879883, 37.598886317819122 ], [ 127.152153014902694, 37.598863849153339 ], [ 127.153379177388118, 37.597672045536669 ], [ 127.154084962501088, 37.597081480196593 ], [ 127.15481752107182, 37.596671258392789 ], [ 127.155627009344812, 37.596313083978316 ], [ 127.155985270264893, 37.596155266208598 ], [ 127.156505158980991, 37.595955103819321 ], [ 127.156576407033342, 37.595933457071922 ] ] ] ] } },
{ "type": "Feature", "properties": { "OBJECTID": 1415, "adm_nm": "경기도 구리시 수택2동", "adm_cd": "3112057", "adm_cd2": "4131058000", "sgg": "41310", "sido": "41", "sidonm": "경기도", "sggnm": "구리시" }, "geometry": { "type": "MultiPolygon", "coordinates": [ [ [ [ 127.150758175454428, 37.594345337900116 ], [ 127.150709665403241, 37.594101596962084 ], [ 127.150557978099314, 37.593534425422959 ], [ 127.149982003853424, 37.591956504252714 ], [ 127.14995403388545, 37.591880915361898 ], [ 127.149477366885449, 37.590700999509117 ], [ 127.149407264879798, 37.590711983349813 ], [ 127.14864922943795, 37.590834854512103 ], [ 127.14847644779887, 37.590863120116964 ], [ 127.148365117968325, 37.590881329239771 ], [ 127.147916444759815, 37.59095427185018 ], [ 127.147059327023953, 37.591092626106921 ], [ 127.145809598290427, 37.591293942890701 ], [ 127.145057898784927, 37.591411112541728 ], [ 127.138665935051947, 37.592405735158074 ], [ 127.138498337157543, 37.592402905499625 ], [ 127.138340298852683, 37.592400231083907 ], [ 127.137929819350916, 37.592356145973952 ], [ 127.137363502172491, 37.59484213962088 ], [ 127.136739983545866, 37.597287380145069 ], [ 127.143975929425991, 37.597550538631808 ], [ 127.146272066213243, 37.596042052236115 ], [ 127.147225866792667, 37.595416216967301 ], [ 127.14738206928719, 37.595322042233036 ], [ 127.147528327788251, 37.595234597701719 ], [ 127.147701803301047, 37.595131055037982 ], [ 127.147883321028047, 37.595022713898864 ], [ 127.148158872794156, 37.594925847568241 ], [ 127.148404548368902, 37.594839491446614 ], [ 127.148739982768703, 37.594722188298462 ], [ 127.150758175454428, 37.594345337900116 ] ] ] ] } },
{ "type": "Feature", "properties": { "OBJECTID": 1416, "adm_nm": "경기도 구리시 수택3동", "adm_cd": "3112058", "adm_cd2": "4131059000", "sgg": "41310", "sido": "41", "sidonm": "경기도", "sggnm": "구리시" }, "geometry": { "type": "MultiPolygon", "coordinates": [ [ [ [ 127.164714481418642, 37.579521200991636 ], [ 127.161570227432023, 37.577804166414992 ], [ 127.15299406860386, 37.573733362774007 ], [ 127.147189742064228, 37.57171963247233 ], [ 127.141331401622736, 37.570276717446411 ], [ 127.133824681984649, 37.568445201911914 ], [ 127.132733706357982, 37.570242288294892 ], [ 127.129524862097398, 37.575666387807431 ], [ 127.129265884340256, 37.577099921124002 ], [ 127.131835589339971, 37.578797668269182 ], [ 127.133257727415511, 37.579726232799359 ], [ 127.136226056420256, 37.580964632229133 ], [ 127.138470729727572, 37.581975407267535 ], [ 127.13876736947671, 37.582112643624164 ], [ 127.13884726300931, 37.582149942564122 ], [ 127.138988427263882, 37.582215849301896 ], [ 127.139468254257977, 37.582506802199902 ], [ 127.138767866579599, 37.583913091344343 ], [ 127.138682290295648, 37.584043525060792 ], [ 127.138331217618557, 37.584474022188964 ], [ 127.137921453833115, 37.584590000847015 ], [ 127.137904509106619, 37.585760463192763 ], [ 127.137897002533336, 37.58701782173889 ], [ 127.137892753380754, 37.58775700923492 ], [ 127.13787265935791, 37.592334575322269 ], [ 127.137929819350916, 37.592356145973952 ], [ 127.138340298852683, 37.592400231083907 ], [ 127.138498337157543, 37.592402905499625 ], [ 127.138665935051947, 37.592405735158074 ], [ 127.145057898784927, 37.591411112541728 ], [ 127.145809598290427, 37.591293942890701 ], [ 127.147059327023953, 37.591092626106921 ], [ 127.147916444759815, 37.59095427185018 ], [ 127.148365117968325, 37.590881329239771 ], [ 127.14847644779887, 37.590863120116964 ], [ 127.14864922943795, 37.590834854512103 ], [ 127.149407264879798, 37.590711983349813 ], [ 127.149477366885449, 37.590700999509117 ], [ 127.14995403388545, 37.591880915361898 ], [ 127.149982003853424, 37.591956504252714 ], [ 127.150557978099314, 37.593534425422959 ], [ 127.150709665403241, 37.594101596962084 ], [ 127.150758175454428, 37.594345337900116 ], [ 127.15501647451633, 37.593449520425153 ], [ 127.155201346986061, 37.593430906985446 ], [ 127.155827203163284, 37.593429354471269 ], [ 127.158091915492037, 37.593448330125611 ], [ 127.16133119498933, 37.593537663839101 ], [ 127.161883789724797, 37.593612482679255 ], [ 127.162865684575138, 37.594541314047206 ], [ 127.164453840087006, 37.594220340338985 ], [ 127.164835932389948, 37.594268746756612 ], [ 127.164927918210608, 37.594280274783337 ], [ 127.165462882748017, 37.59434037991398 ], [ 127.167827428843836, 37.594205095838198 ], [ 127.167980405739911, 37.594193132725422 ], [ 127.168208972788264, 37.594058573214248 ], [ 127.168392109231291, 37.593925096136786 ], [ 127.168605587802105, 37.593705907313762 ], [ 127.169062358662941, 37.592877948281867 ], [ 127.169183575415218, 37.592524508762779 ], [ 127.169198312555494, 37.592232738440153 ], [ 127.169197984931841, 37.592178800816882 ], [ 127.169197490105574, 37.592098660517955 ], [ 127.168707089351983, 37.590924355405093 ], [ 127.168522936933385, 37.590632076258771 ], [ 127.16830841891155, 37.590474864251505 ], [ 127.168063903337739, 37.590377281863184 ], [ 127.167712490987711, 37.590280524767337 ], [ 127.167525792511753, 37.590248632084148 ], [ 127.167222966698773, 37.590196897555913 ], [ 127.166841004076716, 37.590123712140546 ], [ 127.166000338891166, 37.589881352151473 ], [ 127.164867144961093, 37.589803174932889 ], [ 127.163728696819945, 37.590004144864224 ], [ 127.162567869558302, 37.589623996987491 ], [ 127.161872336868853, 37.589295264884463 ], [ 127.16092426177407, 37.588351988394557 ], [ 127.160616953439657, 37.587747272505702 ], [ 127.160459403778063, 37.586646828120976 ], [ 127.16082253692322, 37.585794149139033 ], [ 127.162278396254194, 37.584527035701505 ], [ 127.163571357412494, 37.584290481230141 ], [ 127.16554591995498, 37.584230420115468 ], [ 127.170761957211042, 37.580918094963614 ], [ 127.169356992995944, 37.580333648723865 ], [ 127.168557130872927, 37.57982923347749 ], [ 127.168632624572609, 37.579303543403697 ], [ 127.166060496905146, 37.579584727293977 ], [ 127.164714481418642, 37.579521200991636 ] ] ] ] } }
]
}
