{
"type": "FeatureCollection",
"name": "gwacheonshi",
"crs": { "type": "name", "properties": { "name": "urn:ogc:def:crs:OGC:1.3:CRS84" } },
"features": [
{ "type": "Feature", "properties": { "OBJECTID": 1403, "adm_nm": "경기도 과천시 중앙동", "adm_cd": "3111051", "adm_cd2": "4129051000", "sgg": "41290", "sido": "41", "sidonm": "경기도", "sggnm": "과천시" }, "geometry": { "type": "MultiPolygon", "coordinates": [ [ [ [ 127.000708368451342, 37.437840829358024 ], [ 127.000133449926508, 37.437755334802048 ], [ 126.999980775449316, 37.437981536098839 ], [ 126.999555859590757, 37.438590721329263 ], [ 126.99929423276815, 37.43876101636063 ], [ 126.998726082133203, 37.439095494983597 ], [ 126.998177105298353, 37.439415404136298 ], [ 126.997793221065635, 37.439557992352611 ], [ 126.99405316738158, 37.439527393837942 ], [ 126.994120369450812, 37.439407421141041 ], [ 126.994291262571338, 37.439102517917753 ], [ 126.994411058158192, 37.438896616519877 ], [ 126.994475674792568, 37.438785574104024 ], [ 126.997243828526564, 37.434543989581272 ], [ 126.989431391313701, 37.425754834139383 ], [ 126.989187948817047, 37.423858684456278 ], [ 126.987401748511729, 37.423505092876042 ], [ 126.986243997731393, 37.42340429652748 ], [ 126.983678538377347, 37.423190311252704 ], [ 126.983277514611942, 37.423162644674491 ], [ 126.982575714079715, 37.423115633240251 ], [ 126.980691256416947, 37.422995825549066 ], [ 126.980366285921605, 37.42300228449848 ], [ 126.977821822557473, 37.423227681656584 ], [ 126.974933385946372, 37.422132118549939 ], [ 126.974832331346917, 37.422066726053536 ], [ 126.97453891171034, 37.421876855869584 ], [ 126.973585988378659, 37.421278839754187 ], [ 126.973267568235087, 37.421285317393412 ], [ 126.972859062163479, 37.421293627897576 ], [ 126.972519766685252, 37.421329295900435 ], [ 126.972240684873583, 37.421440721379227 ], [ 126.972037378992667, 37.421523190163335 ], [ 126.969094152929586, 37.422806852504642 ], [ 126.968580448569625, 37.423033266501527 ], [ 126.968194141996747, 37.423221943291786 ], [ 126.967906448355365, 37.42336818463599 ], [ 126.967821700508409, 37.423448989371423 ], [ 126.967739372912177, 37.423602978003295 ], [ 126.96771364290629, 37.423651860518774 ], [ 126.967626967007874, 37.423816546752271 ], [ 126.967337357363377, 37.424215224191563 ], [ 126.966649008139413, 37.424861105392992 ], [ 126.965586402701121, 37.424790957161946 ], [ 126.961412127760994, 37.426304180343905 ], [ 126.961675307287024, 37.427340981740677 ], [ 126.962060769148906, 37.429545452433608 ], [ 126.962316812127014, 37.431081194441298 ], [ 126.962240583547612, 37.431169857637641 ], [ 126.961954727048834, 37.431333056243346 ], [ 126.961778097955971, 37.431433655879879 ], [ 126.961777872080205, 37.431465202684649 ], [ 126.961826229145927, 37.434874841288469 ], [ 126.962002835464205, 37.435762364141645 ], [ 126.962061506187055, 37.435957551571356 ], [ 126.962145514429253, 37.436070618140647 ], [ 126.962284287238191, 37.436120811139183 ], [ 126.962764168426915, 37.436392276338061 ], [ 126.963479252848884, 37.43687099489685 ], [ 126.964312323259307, 37.437638640415145 ], [ 126.964930041889929, 37.438506790096383 ], [ 126.965033863181105, 37.43867369091231 ], [ 126.965047818202521, 37.438834068269436 ], [ 126.964965037058121, 37.439143808426735 ], [ 126.964930018467442, 37.439274538105586 ], [ 126.964570108763596, 37.44016595777682 ], [ 126.964374991491368, 37.440452352404009 ], [ 126.963904021118964, 37.440610209512855 ], [ 126.963106668026967, 37.441060653025978 ], [ 126.96398284298219, 37.442040357633225 ], [ 126.964089188834805, 37.442187312611367 ], [ 126.964098132419863, 37.442299627202345 ], [ 126.964111889709855, 37.442472472254629 ], [ 126.964083436571158, 37.442795707958702 ], [ 126.964049856588744, 37.443046811190413 ], [ 126.96396238090054, 37.443423860169432 ], [ 126.963912809079034, 37.443593417331812 ], [ 126.963872576597069, 37.443731044518721 ], [ 126.963866298184769, 37.443766330613691 ], [ 126.963851965638185, 37.443847000849651 ], [ 126.963832807868329, 37.443957332039275 ], [ 126.963827375772851, 37.444220955707685 ], [ 126.963992522408503, 37.44485047971795 ], [ 126.964323252457433, 37.445429907160388 ], [ 126.964355381760996, 37.445485233419859 ], [ 126.964410508429708, 37.445580153573864 ], [ 126.964502822322629, 37.445647336849859 ], [ 126.964561632076908, 37.445690129676549 ], [ 126.965409141015144, 37.446042118244989 ], [ 126.965566312216239, 37.446096910933946 ], [ 126.968107504007193, 37.446748343467839 ], [ 126.968272161324862, 37.446766606003827 ], [ 126.968478163889969, 37.446789445706848 ], [ 126.968608024222704, 37.446790029652306 ], [ 126.968697196801841, 37.44679042965236 ], [ 126.970812223112873, 37.447461294950671 ], [ 126.972085929997434, 37.446796601184559 ], [ 126.979588185547343, 37.4450315600862 ], [ 126.98813307831621, 37.443179478151173 ], [ 126.98851378075581, 37.443199153606479 ], [ 126.988547012762595, 37.443203083153129 ], [ 126.988602734508063, 37.443209678894846 ], [ 126.989240702433761, 37.443320601467164 ], [ 126.989419610106395, 37.443402497403113 ], [ 126.989568154574968, 37.44348088182111 ], [ 126.989983778551647, 37.443768859707184 ], [ 126.990117604897094, 37.443933936384866 ], [ 126.990345698969946, 37.444161388340696 ], [ 126.99047937602235, 37.44424534103608 ], [ 126.99126395844209, 37.444721937815515 ], [ 126.991755312920731, 37.444888551025336 ], [ 126.99289977330271, 37.44522809897331 ], [ 126.993778418386086, 37.445486501416042 ], [ 126.994193082120901, 37.445605454297755 ], [ 126.996191440171074, 37.44548428219818 ], [ 127.000708368451342, 37.437840829358024 ] ] ] ] } },
{ "type": "Feature", "properties": { "OBJECTID": 1404, "adm_nm": "경기도 과천시 갈현동", "adm_cd": "3111052", "adm_cd2": "4129052000", "sgg": "41290", "sido": "41", "sidonm": "경기도", "sggnm": "과천시" }, "geometry": { "type": "MultiPolygon", "coordinates": [ [ [ [ 126.989431391313701, 37.425754834139383 ], [ 126.996348355615652, 37.421852380625239 ], [ 126.995837633201816, 37.421220688088425 ], [ 126.994972500216278, 37.420150783334172 ], [ 126.993984542567475, 37.41896576433885 ], [ 126.993774320223508, 37.418716987638796 ], [ 126.993594721184436, 37.418535944478414 ], [ 126.993425195754355, 37.418431560645118 ], [ 126.993200613733208, 37.418323560419964 ], [ 126.993009725771586, 37.418244998791764 ], [ 126.992144834207167, 37.418089180337681 ], [ 126.992053947979045, 37.418072934772681 ], [ 126.991815388688067, 37.418030302299577 ], [ 126.987251108424374, 37.417627512742385 ], [ 126.987489310249003, 37.416682060468837 ], [ 126.990735884839765, 37.412226465294431 ], [ 126.996761159465919, 37.407765690560439 ], [ 126.998364589229155, 37.407082955184997 ], [ 127.000754918349912, 37.405736620654977 ], [ 127.000516729276072, 37.405227353482744 ], [ 127.000477662216994, 37.405155078668066 ], [ 127.00041392297895, 37.405088864977955 ], [ 127.000385083181087, 37.405058916711511 ], [ 127.000182045179599, 37.404901445165393 ], [ 126.999928272305112, 37.404725731254182 ], [ 126.999773656624598, 37.40462711157501 ], [ 126.999714199197399, 37.404623672755982 ], [ 126.999539103610005, 37.404628313838089 ], [ 126.997784391574172, 37.404815796123415 ], [ 126.995140509416302, 37.405116636371851 ], [ 126.995066306428328, 37.40512533322083 ], [ 126.994980077708803, 37.405136232087372 ], [ 126.994902037343408, 37.405162795660793 ], [ 126.994868945724022, 37.405174065656368 ], [ 126.994837980806224, 37.405184966152881 ], [ 126.994774091534495, 37.405207461818705 ], [ 126.994540085420596, 37.40535068115404 ], [ 126.992676523644164, 37.406699263968278 ], [ 126.992544283686854, 37.406830522057618 ], [ 126.992479684787284, 37.406919381412528 ], [ 126.992454467863965, 37.406954075119465 ], [ 126.99235680682898, 37.407193646007372 ], [ 126.99225326331387, 37.407392269276293 ], [ 126.99223698537223, 37.407421733706713 ], [ 126.992186017360282, 37.40749149187733 ], [ 126.992123294189355, 37.407576852746111 ], [ 126.992021693994118, 37.407666553408895 ], [ 126.991990514843181, 37.40768219344384 ], [ 126.991943776525929, 37.407701146754277 ], [ 126.991897045794374, 37.407718973364467 ], [ 126.991770440551363, 37.407743261987569 ], [ 126.991667232945574, 37.407763054080775 ], [ 126.990166092403769, 37.408033762097105 ], [ 126.989877787229105, 37.408058432941992 ], [ 126.988274060005139, 37.407939957879712 ], [ 126.987522455096396, 37.40765727731727 ], [ 126.9859305255859, 37.40674336148497 ], [ 126.985784308593807, 37.406644701515312 ], [ 126.983473340438238, 37.402155937953474 ], [ 126.982569746822449, 37.400674863707884 ], [ 126.981990446121543, 37.401738200502137 ], [ 126.981933287884502, 37.401834846654332 ], [ 126.980832684849219, 37.40281589457139 ], [ 126.980454110610253, 37.403029434168168 ], [ 126.980369395031303, 37.403044602435152 ], [ 126.978542777225584, 37.40319228066285 ], [ 126.978415944154207, 37.403254817232359 ], [ 126.978378712891569, 37.40327951281305 ], [ 126.978264124223074, 37.403355551699548 ], [ 126.978198906748034, 37.403419198182057 ], [ 126.97816529114597, 37.403452012981184 ], [ 126.976154025395459, 37.406099910917057 ], [ 126.975771819491044, 37.407135920209804 ], [ 126.975489848727165, 37.409188668172803 ], [ 126.975748937310115, 37.410114848786229 ], [ 126.975436059145963, 37.411738180966431 ], [ 126.975260527257007, 37.412602716411342 ], [ 126.973764394510269, 37.41496216215215 ], [ 126.971999192808383, 37.416096777484718 ], [ 126.968370119666858, 37.417414539968441 ], [ 126.968193640791867, 37.417466196884192 ], [ 126.967539894529608, 37.417657553334699 ], [ 126.967097328894766, 37.417816678897495 ], [ 126.966556325660903, 37.418011413407889 ], [ 126.966001854442453, 37.418211718147766 ], [ 126.964015498043551, 37.419132265511863 ], [ 126.963926919313167, 37.419200449012564 ], [ 126.96388872647286, 37.419233488545487 ], [ 126.963804234897111, 37.419339748972838 ], [ 126.96284008657625, 37.420726859518631 ], [ 126.962634952979172, 37.421063940351374 ], [ 126.962186962799308, 37.422470290839449 ], [ 126.961389772757087, 37.425381738871884 ], [ 126.96132741997458, 37.425711301193097 ], [ 126.96132631409651, 37.425865655338868 ], [ 126.961398931525935, 37.426212634127978 ], [ 126.961412127760994, 37.426304180343905 ], [ 126.965586402701121, 37.424790957161946 ], [ 126.966649008139413, 37.424861105392992 ], [ 126.967337357363377, 37.424215224191563 ], [ 126.967626967007874, 37.423816546752271 ], [ 126.96771364290629, 37.423651860518774 ], [ 126.967739372912177, 37.423602978003295 ], [ 126.967821700508409, 37.423448989371423 ], [ 126.967906448355365, 37.42336818463599 ], [ 126.968194141996747, 37.423221943291786 ], [ 126.968580448569625, 37.423033266501527 ], [ 126.969094152929586, 37.422806852504642 ], [ 126.972037378992667, 37.421523190163335 ], [ 126.972240684873583, 37.421440721379227 ], [ 126.972519766685252, 37.421329295900435 ], [ 126.972859062163479, 37.421293627897576 ], [ 126.973267568235087, 37.421285317393412 ], [ 126.973585988378659, 37.421278839754187 ], [ 126.97453891171034, 37.421876855869584 ], [ 126.974832331346917, 37.422066726053536 ], [ 126.974933385946372, 37.422132118549939 ], [ 126.977821822557473, 37.423227681656584 ], [ 126.980366285921605, 37.42300228449848 ], [ 126.980691256416947, 37.422995825549066 ], [ 126.982575714079715, 37.423115633240251 ], [ 126.983277514611942, 37.423162644674491 ], [ 126.983678538377347, 37.423190311252704 ], [ 126.986243997731393, 37.42340429652748 ], [ 126.987401748511729, 37.423505092876042 ], [ 126.989187948817047, 37.423858684456278 ], [ 126.989431391313701, 37.425754834139383 ] ] ] ] } },
{ "type": "Feature", "properties": { "OBJECTID": 1405, "adm_nm": "경기도 과천시 별양동", "adm_cd": "3111053", "adm_cd2": "4129053000", "sgg": "41290", "sido": "41", "sidonm": "경기도", "sggnm": "과천시" }, "geometry": { "type": "MultiPolygon", "coordinates": [ [ [ [ 127.001500446410461, 37.429521196363709 ], [ 127.000438579755794, 37.427310598604805 ], [ 127.000373704207078, 37.427186386215212 ], [ 127.000176298401755, 37.426810356937075 ], [ 126.999922500763518, 37.4264149346767 ], [ 126.999528725604065, 37.425826251704244 ], [ 126.999428359956013, 37.425690756606855 ], [ 126.999327793035349, 37.425554990159085 ], [ 126.999000839031169, 37.425116440966477 ], [ 126.998520400834437, 37.424495839310161 ], [ 126.998376061788207, 37.424318134920291 ], [ 126.998263267941752, 37.42417926903483 ], [ 126.99772185784181, 37.42351352159136 ], [ 126.997323700540136, 37.423031665287226 ], [ 126.99710459032157, 37.422766740334552 ], [ 126.996348355615652, 37.421852380625239 ], [ 126.989431391313701, 37.425754834139383 ], [ 126.997243828526564, 37.434543989581272 ], [ 126.997239751867824, 37.432626377406905 ], [ 126.996595316747715, 37.432021958091909 ], [ 126.996449642929534, 37.431858987732326 ], [ 126.997279093405609, 37.431395041802382 ], [ 126.998620671026757, 37.430644726367703 ], [ 126.998659599604807, 37.430623516434927 ], [ 126.998814899529904, 37.430861878402709 ], [ 126.998895543502798, 37.430845319648199 ], [ 127.001500446410461, 37.429521196363709 ] ] ] ] } },
{ "type": "Feature", "properties": { "OBJECTID": 1406, "adm_nm": "경기도 과천시 부림동", "adm_cd": "3111054", "adm_cd2": "4129054000", "sgg": "41290", "sido": "41", "sidonm": "경기도", "sggnm": "과천시" }, "geometry": { "type": "MultiPolygon", "coordinates": [ [ [ [ 127.000708368451342, 37.437840829358024 ], [ 127.002649448977436, 37.434062157986162 ], [ 127.002764235055594, 37.433583788340513 ], [ 127.002785697621775, 37.433401334499678 ], [ 127.00281363993922, 37.43316373427146 ], [ 127.002828625688124, 37.433034224758984 ], [ 127.002700462968306, 37.432117671270845 ], [ 127.001500446410461, 37.429521196363709 ], [ 126.998895543502798, 37.430845319648199 ], [ 126.998814899529904, 37.430861878402709 ], [ 126.998659599604807, 37.430623516434927 ], [ 126.998620671026757, 37.430644726367703 ], [ 126.997279093405609, 37.431395041802382 ], [ 126.996449642929534, 37.431858987732326 ], [ 126.996595316747715, 37.432021958091909 ], [ 126.997239751867824, 37.432626377406905 ], [ 126.997243828526564, 37.434543989581272 ], [ 126.994475674792568, 37.438785574104024 ], [ 126.994411058158192, 37.438896616519877 ], [ 126.994291262571338, 37.439102517917753 ], [ 126.994120369450812, 37.439407421141041 ], [ 126.99405316738158, 37.439527393837942 ], [ 126.997793221065635, 37.439557992352611 ], [ 126.998177105298353, 37.439415404136298 ], [ 126.998726082133203, 37.439095494983597 ], [ 126.99929423276815, 37.43876101636063 ], [ 126.999555859590757, 37.438590721329263 ], [ 126.999980775449316, 37.437981536098839 ], [ 127.000133449926508, 37.437755334802048 ], [ 127.000708368451342, 37.437840829358024 ] ] ] ] } },
{ "type": "Feature", "properties": { "OBJECTID": 1407, "adm_nm": "경기도 과천시 과천동", "adm_cd": "3111055", "adm_cd2": "4129055000", "sgg": "41290", "sido": "41", "sidonm": "경기도", "sggnm": "과천시" }, "geometry": { "type": "MultiPolygon", "coordinates": [ [ [ [ 127.029861118653287, 37.465445300547309 ], [ 127.031268940285514, 37.465775357273628 ], [ 127.03272117313513, 37.4652527121224 ], [ 127.033142414131476, 37.465023402545292 ], [ 127.034067827655022, 37.464410747228165 ], [ 127.034368147094099, 37.464189970021749 ], [ 127.034575485708743, 37.464036403850493 ], [ 127.034734914894017, 37.463847834388574 ], [ 127.034366127014991, 37.463035106027156 ], [ 127.034069889775765, 37.462476508406901 ], [ 127.034005668336263, 37.462355391197164 ], [ 127.033429462899889, 37.461075226757792 ], [ 127.033784814615103, 37.460030492546082 ], [ 127.034924643839247, 37.457867958733331 ], [ 127.03516222071535, 37.457618764582293 ], [ 127.03540844571107, 37.457531711798765 ], [ 127.035475769250866, 37.457524669081479 ], [ 127.035624137078131, 37.45751318290408 ], [ 127.035834736553767, 37.457545918602712 ], [ 127.037876517289135, 37.449135161181921 ], [ 127.037887457034387, 37.44907886853612 ], [ 127.038358635431678, 37.445651008415403 ], [ 127.03836990001075, 37.445539677668584 ], [ 127.038368270203861, 37.445462885624991 ], [ 127.038322780697015, 37.445160749885609 ], [ 127.038212405099657, 37.444725408920696 ], [ 127.038203377955952, 37.444700586046075 ], [ 127.038175573054446, 37.44462611459069 ], [ 127.038151903610469, 37.444568559927433 ], [ 127.038086457819475, 37.444410564867241 ], [ 127.038000662326922, 37.44422882932755 ], [ 127.037569216133846, 37.443454102222127 ], [ 127.036813048964063, 37.442147655472063 ], [ 127.036759748972145, 37.442083224130471 ], [ 127.036711312674029, 37.442031205635843 ], [ 127.036654001272154, 37.441987602651963 ], [ 127.036601581309327, 37.441951905786077 ], [ 127.036515732951059, 37.441895233685749 ], [ 127.035413112466003, 37.441172670533135 ], [ 127.032646751082154, 37.441436075889428 ], [ 127.03223631842171, 37.441539236277819 ], [ 127.031918739166926, 37.441595441194423 ], [ 127.031384392719076, 37.441628251825406 ], [ 127.03101264385657, 37.441645931394959 ], [ 127.030876300991551, 37.441642010187159 ], [ 127.030756203561268, 37.441617155960337 ], [ 127.030687982535227, 37.441590560653829 ], [ 127.030621938533031, 37.441552066886935 ], [ 127.030441827282573, 37.441409309463353 ], [ 127.03022387749985, 37.441237183543599 ], [ 127.030117681119791, 37.441157891735827 ], [ 127.030005604560344, 37.441116884577013 ], [ 127.029572375875489, 37.441023897596452 ], [ 127.029439985891827, 37.440999096764585 ], [ 127.02932958213492, 37.440983496166517 ], [ 127.02923920252951, 37.440976303859109 ], [ 127.029076058220255, 37.440963332259315 ], [ 127.029014553984055, 37.440957722251454 ], [ 127.028827677012288, 37.440930703465952 ], [ 127.0287252518862, 37.44091010447795 ], [ 127.028651924952314, 37.440891243906989 ], [ 127.028609567578357, 37.440880348707616 ], [ 127.028556849431681, 37.440863183716957 ], [ 127.028500983830426, 37.440844987601672 ], [ 127.028218973222806, 37.440749218673062 ], [ 127.027960570019602, 37.440645773566452 ], [ 127.027883509241292, 37.440614927444237 ], [ 127.027773506125371, 37.440580686710533 ], [ 127.027408186134551, 37.440475569295771 ], [ 127.027176841283932, 37.44041267503227 ], [ 127.027097092426018, 37.440397708756912 ], [ 127.026972131333068, 37.440383688203035 ], [ 127.02601389966182, 37.440299853016832 ], [ 127.025885037451459, 37.440300399799042 ], [ 127.025736856639583, 37.440313388922689 ], [ 127.025485126824208, 37.440346179868058 ], [ 127.024614810070219, 37.440326908703192 ], [ 127.023396692017513, 37.440227359528606 ], [ 127.023324725564265, 37.440201064859281 ], [ 127.023163071452274, 37.439966147366327 ], [ 127.022871884463527, 37.439536822639788 ], [ 127.020650697751833, 37.438303102048891 ], [ 127.020068048601601, 37.438379607365718 ], [ 127.019747708722193, 37.438424501313953 ], [ 127.018075876774915, 37.438792890902512 ], [ 127.01755942342588, 37.439026225765517 ], [ 127.017189477701919, 37.439849507014749 ], [ 127.017234582398046, 37.440197844414598 ], [ 127.017258790980136, 37.440337700302997 ], [ 127.015945030303641, 37.440549737050105 ], [ 127.013018945140288, 37.440832753778118 ], [ 127.011294373532678, 37.440378494506376 ], [ 127.008801018601005, 37.439301165498961 ], [ 127.008446537978102, 37.438732957159743 ], [ 127.007880220266117, 37.437823599728098 ], [ 127.007142171836193, 37.436694815717551 ], [ 127.006478782816089, 37.435738977652726 ], [ 127.004889398644551, 37.436384966014771 ], [ 127.004829662119292, 37.436409232973986 ], [ 127.004635167361826, 37.436487513021312 ], [ 127.001659695787339, 37.437684865868327 ], [ 127.000731850033219, 37.438035863613187 ], [ 127.000708368451342, 37.437840829358024 ], [ 126.996191440171074, 37.44548428219818 ], [ 126.994193082120901, 37.445605454297755 ], [ 126.993778418386086, 37.445486501416042 ], [ 126.99289977330271, 37.44522809897331 ], [ 126.991755312920731, 37.444888551025336 ], [ 126.99126395844209, 37.444721937815515 ], [ 126.99047937602235, 37.44424534103608 ], [ 126.990345698969946, 37.444161388340696 ], [ 126.990117604897094, 37.443933936384866 ], [ 126.989983778551647, 37.443768859707184 ], [ 126.989568154574968, 37.44348088182111 ], [ 126.989419610106395, 37.443402497403113 ], [ 126.989240702433761, 37.443320601467164 ], [ 126.988602734508063, 37.443209678894846 ], [ 126.988547012762595, 37.443203083153129 ], [ 126.98851378075581, 37.443199153606479 ], [ 126.98813307831621, 37.443179478151173 ], [ 126.979588185547343, 37.4450315600862 ], [ 126.972085929997434, 37.446796601184559 ], [ 126.970812223112873, 37.447461294950671 ], [ 126.973983145834708, 37.447599378097003 ], [ 126.97405695132845, 37.447653797456383 ], [ 126.978660607673021, 37.451899331747185 ], [ 126.982355746662549, 37.455158240783824 ], [ 126.986836168455099, 37.457407529743456 ], [ 126.988620463878362, 37.458135323217363 ], [ 126.991761981024922, 37.459672086515745 ], [ 126.996832011816068, 37.46218492617583 ], [ 126.996958519457351, 37.462500941928937 ], [ 126.997161567643559, 37.463524853353547 ], [ 126.997219499822521, 37.463936599151054 ], [ 126.996461082407961, 37.464804059436851 ], [ 126.99627509882059, 37.46671749087119 ], [ 126.999747343854807, 37.467159306272222 ], [ 127.003421937005811, 37.467259348791046 ], [ 127.004171241365441, 37.464778072938351 ], [ 127.005155755720295, 37.463060595794893 ], [ 127.01106032839904, 37.455388649737863 ], [ 127.016171063209669, 37.455369122383104 ], [ 127.017859172951532, 37.455608123024405 ], [ 127.020533873364926, 37.456167710917896 ], [ 127.021596897269859, 37.456582140097815 ], [ 127.021845031623698, 37.456678914364453 ], [ 127.022616921135963, 37.456980612138771 ], [ 127.023376794920964, 37.457284509825584 ], [ 127.024692132484134, 37.457811472440042 ], [ 127.025803614009376, 37.458361093967383 ], [ 127.026104979219866, 37.458510142023812 ], [ 127.029862362719669, 37.463453553046811 ], [ 127.029993067829281, 37.463899985093001 ], [ 127.030076099427689, 37.46418424593989 ], [ 127.029861118653287, 37.465445300547309 ] ] ] ] } },
{ "type": "Feature", "properties": { "OBJECTID": 1408, "adm_nm": "경기도 과천시 문원동", "adm_cd": "3111056", "adm_cd2": "4129056000", "sgg": "41290", "sido": "41", "sidonm": "경기도", "sggnm": "과천시" }, "geometry": { "type": "MultiPolygon", "coordinates": [ [ [ [ 127.035413112466003, 37.441172670533135 ], [ 127.035392888912298, 37.441120156667395 ], [ 127.035393003080543, 37.440988332063881 ], [ 127.035410404881262, 37.440828398650311 ], [ 127.035419970025245, 37.440740561889044 ], [ 127.035448432074361, 37.440536175906743 ], [ 127.035460238278503, 37.44048792250657 ], [ 127.035472712393172, 37.4404376842134 ], [ 127.035799428570272, 37.43927170156023 ], [ 127.03583903518377, 37.43918532485695 ], [ 127.035864267087447, 37.439155899625561 ], [ 127.037168155830955, 37.438522168681395 ], [ 127.037311794205408, 37.438487802121259 ], [ 127.037387498231766, 37.438482059274769 ], [ 127.037481435189719, 37.438474945538971 ], [ 127.039015504241888, 37.438434743408543 ], [ 127.039581895582828, 37.438471879067407 ], [ 127.039706134452501, 37.438489263610215 ], [ 127.039811338267995, 37.438500940360775 ], [ 127.039906028768186, 37.438497928857522 ], [ 127.040007140991662, 37.438483675164839 ], [ 127.040524291334194, 37.438339610868653 ], [ 127.040867899819276, 37.438214357903526 ], [ 127.040974839857824, 37.438173084963303 ], [ 127.041059976213447, 37.438114826608675 ], [ 127.043710508133913, 37.435715054497742 ], [ 127.044067868400489, 37.435386306173193 ], [ 127.044099851739148, 37.435353754909372 ], [ 127.044217869146564, 37.435231398508911 ], [ 127.044295527984616, 37.435124660357616 ], [ 127.044351906400848, 37.435030233947089 ], [ 127.044438650108631, 37.434823253402868 ], [ 127.044453518307321, 37.434771306213406 ], [ 127.044473283852639, 37.434703955469018 ], [ 127.044496420026164, 37.434648177768999 ], [ 127.044542821689163, 37.434536343427354 ], [ 127.044575097966899, 37.434481468946949 ], [ 127.04459635753075, 37.434446412781682 ], [ 127.044664723096574, 37.434356539237598 ], [ 127.044722609239813, 37.434303207358965 ], [ 127.044775132674232, 37.434259995202154 ], [ 127.044859287198477, 37.434192788687973 ], [ 127.044928107445756, 37.43414347835315 ], [ 127.045045828348961, 37.434069568548573 ], [ 127.045123076864854, 37.43403191820169 ], [ 127.045229349891216, 37.433980137841125 ], [ 127.045354288604202, 37.433929402658656 ], [ 127.045391523143778, 37.433914285686576 ], [ 127.045428621761616, 37.433904819765488 ], [ 127.045591767057005, 37.433863226920785 ], [ 127.046041226941995, 37.433720734834893 ], [ 127.046160366123331, 37.433678408832563 ], [ 127.04619280448695, 37.433661583124113 ], [ 127.04628209214934, 37.433610115173785 ], [ 127.046343186487931, 37.433554014079974 ], [ 127.046390945529126, 37.433484341239016 ], [ 127.046410381028778, 37.433423573387337 ], [ 127.046428394516568, 37.433366180210491 ], [ 127.046470387951786, 37.433197334573066 ], [ 127.046493571897486, 37.433101653020223 ], [ 127.046552408984923, 37.432927783736503 ], [ 127.04660618704888, 37.432807036153704 ], [ 127.04665340618557, 37.432720310819228 ], [ 127.046736120644525, 37.43259330957757 ], [ 127.046830747982639, 37.43248325462573 ], [ 127.046958875591201, 37.432343551251989 ], [ 127.046986449796748, 37.432318224789157 ], [ 127.047093709610365, 37.432221739477896 ], [ 127.047194952884624, 37.432067766902968 ], [ 127.047242878702477, 37.431969364078206 ], [ 127.047263796092665, 37.431897897077626 ], [ 127.04746704771722, 37.430871092229097 ], [ 127.045915208436242, 37.42908721146393 ], [ 127.045876504835647, 37.4290634018178 ], [ 127.043601329995326, 37.427960357140826 ], [ 127.043340654424327, 37.427868330946445 ], [ 127.041829105829535, 37.426914916571107 ], [ 127.041643252764075, 37.424143608670711 ], [ 127.041634668165671, 37.423987069494352 ], [ 127.041627996700427, 37.423865251319931 ], [ 127.041690818784772, 37.423178199696054 ], [ 127.041728221775273, 37.423067926774003 ], [ 127.041904468283278, 37.422775664354269 ], [ 127.042028277848814, 37.422627417867744 ], [ 127.041950310460109, 37.418381657349762 ], [ 127.041675340274111, 37.415633660359624 ], [ 127.040981702079733, 37.415180292273064 ], [ 127.040096238560977, 37.414798265774621 ], [ 127.038020803740693, 37.413938377327625 ], [ 127.037979218708784, 37.413923567524812 ], [ 127.037926365599674, 37.413905333522088 ], [ 127.037809216469256, 37.413890228298264 ], [ 127.037591584599284, 37.413906278009442 ], [ 127.037159659058005, 37.413968810604608 ], [ 127.036876685175514, 37.41401279808899 ], [ 127.036742556065334, 37.414033653131447 ], [ 127.036540301647818, 37.414075675605375 ], [ 127.035948065466371, 37.414136448498994 ], [ 127.035820062590361, 37.414135944193298 ], [ 127.035471386171892, 37.4141278161987 ], [ 127.035311737102504, 37.414116219099881 ], [ 127.035028742521092, 37.414095654828074 ], [ 127.034858727311601, 37.414064564741011 ], [ 127.033964305328496, 37.41388076796693 ], [ 127.033754852561955, 37.41383600926094 ], [ 127.030491083237521, 37.412957983109017 ], [ 127.029499899319461, 37.412643979730447 ], [ 127.029083764189195, 37.412440640936538 ], [ 127.028403558620695, 37.412114562392233 ], [ 127.028342198920555, 37.412101923752068 ], [ 127.028220069947821, 37.412092422742951 ], [ 127.028129120079626, 37.412089815359018 ], [ 127.026146757278866, 37.412050329625245 ], [ 127.026047182917338, 37.41204993048882 ], [ 127.021154833071051, 37.412397525576608 ], [ 127.020856367528808, 37.412463919221487 ], [ 127.019458184331697, 37.412817323861795 ], [ 127.01814044177091, 37.413178485119971 ], [ 127.012903743528923, 37.412698451970094 ], [ 127.008655059158073, 37.412234692049083 ], [ 127.008601496709588, 37.412227721767294 ], [ 127.00849000486528, 37.412202457976939 ], [ 127.008449968516004, 37.412175290044999 ], [ 127.007038947515255, 37.410539019833621 ], [ 127.004126980087563, 37.407770898540129 ], [ 127.002613491744228, 37.407246252335923 ], [ 127.002308416130504, 37.407139057332571 ], [ 127.002122473362093, 37.407063911289519 ], [ 127.002086438205367, 37.407033392320542 ], [ 127.00184577795595, 37.406829515819659 ], [ 127.001777238149927, 37.406769484087427 ], [ 127.00167515325316, 37.406680070429353 ], [ 127.000754918349912, 37.405736620654977 ], [ 126.998364589229155, 37.407082955184997 ], [ 126.996761159465919, 37.407765690560439 ], [ 126.990735884839765, 37.412226465294431 ], [ 126.987489310249003, 37.416682060468837 ], [ 126.987251108424374, 37.417627512742385 ], [ 126.991815388688067, 37.418030302299577 ], [ 126.992053947979045, 37.418072934772681 ], [ 126.992144834207167, 37.418089180337681 ], [ 126.993009725771586, 37.418244998791764 ], [ 126.993200613733208, 37.418323560419964 ], [ 126.993425195754355, 37.418431560645118 ], [ 126.993594721184436, 37.418535944478414 ], [ 126.993774320223508, 37.418716987638796 ], [ 126.993984542567475, 37.41896576433885 ], [ 126.994972500216278, 37.420150783334172 ], [ 126.995837633201816, 37.421220688088425 ], [ 126.996348355615652, 37.421852380625239 ], [ 126.99710459032157, 37.422766740334552 ], [ 126.997323700540136, 37.423031665287226 ], [ 126.99772185784181, 37.42351352159136 ], [ 126.998263267941752, 37.42417926903483 ], [ 126.998376061788207, 37.424318134920291 ], [ 126.998520400834437, 37.424495839310161 ], [ 126.999000839031169, 37.425116440966477 ], [ 126.999327793035349, 37.425554990159085 ], [ 126.999428359956013, 37.425690756606855 ], [ 126.999528725604065, 37.425826251704244 ], [ 126.999922500763518, 37.4264149346767 ], [ 127.000176298401755, 37.426810356937075 ], [ 127.000373704207078, 37.427186386215212 ], [ 127.000438579755794, 37.427310598604805 ], [ 127.001500446410461, 37.429521196363709 ], [ 127.002700462968306, 37.432117671270845 ], [ 127.002828625688124, 37.433034224758984 ], [ 127.00281363993922, 37.43316373427146 ], [ 127.002785697621775, 37.433401334499678 ], [ 127.002764235055594, 37.433583788340513 ], [ 127.002649448977436, 37.434062157986162 ], [ 127.000708368451342, 37.437840829358024 ], [ 127.000731850033219, 37.438035863613187 ], [ 127.001659695787339, 37.437684865868327 ], [ 127.004635167361826, 37.436487513021312 ], [ 127.004829662119292, 37.436409232973986 ], [ 127.004889398644551, 37.436384966014771 ], [ 127.006478782816089, 37.435738977652726 ], [ 127.007142171836193, 37.436694815717551 ], [ 127.007880220266117, 37.437823599728098 ], [ 127.008446537978102, 37.438732957159743 ], [ 127.008801018601005, 37.439301165498961 ], [ 127.011294373532678, 37.440378494506376 ], [ 127.013018945140288, 37.440832753778118 ], [ 127.015945030303641, 37.440549737050105 ], [ 127.017258790980136, 37.440337700302997 ], [ 127.017234582398046, 37.440197844414598 ], [ 127.017189477701919, 37.439849507014749 ], [ 127.01755942342588, 37.439026225765517 ], [ 127.018075876774915, 37.438792890902512 ], [ 127.019747708722193, 37.438424501313953 ], [ 127.020068048601601, 37.438379607365718 ], [ 127.020650697751833, 37.438303102048891 ], [ 127.022871884463527, 37.439536822639788 ], [ 127.023163071452274, 37.439966147366327 ], [ 127.023324725564265, 37.440201064859281 ], [ 127.023396692017513, 37.440227359528606 ], [ 127.024614810070219, 37.440326908703192 ], [ 127.025485126824208, 37.440346179868058 ], [ 127.025736856639583, 37.440313388922689 ], [ 127.025885037451459, 37.440300399799042 ], [ 127.02601389966182, 37.440299853016832 ], [ 127.026972131333068, 37.440383688203035 ], [ 127.027097092426018, 37.440397708756912 ], [ 127.027176841283932, 37.44041267503227 ], [ 127.027408186134551, 37.440475569295771 ], [ 127.027773506125371, 37.440580686710533 ], [ 127.027883509241292, 37.440614927444237 ], [ 127.027960570019602, 37.440645773566452 ], [ 127.028218973222806, 37.440749218673062 ], [ 127.028500983830426, 37.440844987601672 ], [ 127.028556849431681, 37.440863183716957 ], [ 127.028609567578357, 37.440880348707616 ], [ 127.028651924952314, 37.440891243906989 ], [ 127.0287252518862, 37.44091010447795 ], [ 127.028827677012288, 37.440930703465952 ], [ 127.029014553984055, 37.440957722251454 ], [ 127.029076058220255, 37.440963332259315 ], [ 127.02923920252951, 37.440976303859109 ], [ 127.02932958213492, 37.440983496166517 ], [ 127.029439985891827, 37.440999096764585 ], [ 127.029572375875489, 37.441023897596452 ], [ 127.030005604560344, 37.441116884577013 ], [ 127.030117681119791, 37.441157891735827 ], [ 127.03022387749985, 37.441237183543599 ], [ 127.030441827282573, 37.441409309463353 ], [ 127.030621938533031, 37.441552066886935 ], [ 127.030687982535227, 37.441590560653829 ], [ 127.030756203561268, 37.441617155960337 ], [ 127.030876300991551, 37.441642010187159 ], [ 127.03101264385657, 37.441645931394959 ], [ 127.031384392719076, 37.441628251825406 ], [ 127.031918739166926, 37.441595441194423 ], [ 127.03223631842171, 37.441539236277819 ], [ 127.032646751082154, 37.441436075889428 ], [ 127.035413112466003, 37.441172670533135 ] ] ] ] } }
]
}
