{
"type": "FeatureCollection",
"name": "gwangmyeongshi",
"crs": { "type": "name", "properties": { "name": "urn:ogc:def:crs:OGC:1.3:CRS84" } },
"features": [
{ "type": "Feature", "properties": { "OBJECTID": 1291, "adm_nm": "경기도 광명시 광명1동", "adm_cd": "3106051", "adm_cd2": "4121051000", "sgg": "41210", "sido": "41", "sidonm": "경기도", "sggnm": "광명시" }, "geometry": { "type": "MultiPolygon", "coordinates": [ [ [ [ 126.862678856123878, 37.486482576538755 ], [ 126.862473237409588, 37.483319964913321 ], [ 126.861074049045897, 37.483010462621586 ], [ 126.859397193710336, 37.483101027169248 ], [ 126.857507896735598, 37.485455198692932 ], [ 126.856509190340248, 37.485686381321983 ], [ 126.857704167555312, 37.485899056060831 ], [ 126.858175080490412, 37.486301591111996 ], [ 126.85833750541768, 37.486487250952713 ], [ 126.859074005924583, 37.48733176129452 ], [ 126.861255665288255, 37.489825680584055 ], [ 126.861613920517115, 37.490182529494852 ], [ 126.861720954077626, 37.490270669812332 ], [ 126.861867345539409, 37.490391214473981 ], [ 126.863091881335521, 37.490958820466595 ], [ 126.867039841802267, 37.492955180210139 ], [ 126.866955820751215, 37.49245451492574 ], [ 126.866779513978742, 37.491899237658359 ], [ 126.866227936897303, 37.490247971844916 ], [ 126.865628202624876, 37.489929235890216 ], [ 126.864447374126172, 37.489280675640821 ], [ 126.864343261335236, 37.489219273219753 ], [ 126.864180773783019, 37.489122630895707 ], [ 126.864098453853643, 37.489057831165816 ], [ 126.863958849756173, 37.488947925701346 ], [ 126.862139367152452, 37.487334830991621 ], [ 126.862362340220059, 37.486969859568035 ], [ 126.862678856123878, 37.486482576538755 ] ] ] ] } },
{ "type": "Feature", "properties": { "OBJECTID": 1292, "adm_nm": "경기도 광명시 광명2동", "adm_cd": "3106052", "adm_cd2": "4121052000", "sgg": "41210", "sido": "41", "sidonm": "경기도", "sggnm": "광명시" }, "geometry": { "type": "MultiPolygon", "coordinates": [ [ [ [ 126.862473237409588, 37.483319964913321 ], [ 126.861537030126229, 37.481371323599689 ], [ 126.86145356655696, 37.481194031222664 ], [ 126.861385424612578, 37.481060713076793 ], [ 126.861320592754836, 37.480954453430336 ], [ 126.861209555703766, 37.480878360161988 ], [ 126.859936822039742, 37.480380790686468 ], [ 126.859535915358364, 37.480495042537861 ], [ 126.859212189822557, 37.480589255394626 ], [ 126.858150605620821, 37.480898965440744 ], [ 126.857453271920534, 37.481102486664767 ], [ 126.856347021518417, 37.481426587212589 ], [ 126.855956494028391, 37.481545014306057 ], [ 126.855441227832756, 37.4817021948136 ], [ 126.853482788517397, 37.482639043029558 ], [ 126.856509190340248, 37.485686381321983 ], [ 126.857507896735598, 37.485455198692932 ], [ 126.859397193710336, 37.483101027169248 ], [ 126.861074049045897, 37.483010462621586 ], [ 126.862473237409588, 37.483319964913321 ] ] ] ] } },
{ "type": "Feature", "properties": { "OBJECTID": 1293, "adm_nm": "경기도 광명시 광명3동", "adm_cd": "3106053", "adm_cd2": "4121054000", "sgg": "41210", "sido": "41", "sidonm": "경기도", "sggnm": "광명시" }, "geometry": { "type": "MultiPolygon", "coordinates": [ [ [ [ 126.861537030126229, 37.481371323599689 ], [ 126.862221224408358, 37.477131916355617 ], [ 126.860552158092617, 37.477645688444142 ], [ 126.859533778016385, 37.477930855996739 ], [ 126.859103795536299, 37.478051352089238 ], [ 126.85653858784049, 37.478797882944242 ], [ 126.855484819921045, 37.479245993164795 ], [ 126.854569807832874, 37.479515700503867 ], [ 126.854304462096422, 37.47959315166964 ], [ 126.853497816108003, 37.479682007339562 ], [ 126.849609928762447, 37.480801490244275 ], [ 126.848221581545332, 37.481211911007073 ], [ 126.846483960212524, 37.481704817371138 ], [ 126.848269602410056, 37.482356895713785 ], [ 126.848171171121592, 37.482214388527836 ], [ 126.848241345671596, 37.48211111994312 ], [ 126.850012563416655, 37.481656680146529 ], [ 126.850631628749809, 37.481595862805392 ], [ 126.851085140144235, 37.481552160130946 ], [ 126.851494805538138, 37.481591590332336 ], [ 126.851891747642455, 37.481630949320667 ], [ 126.851976241752809, 37.481669720349686 ], [ 126.852564875477071, 37.481941100382109 ], [ 126.853077894503883, 37.482292058673792 ], [ 126.853241630658303, 37.482404497705794 ], [ 126.853448448101858, 37.482605054322541 ], [ 126.853482788517397, 37.482639043029558 ], [ 126.855441227832756, 37.4817021948136 ], [ 126.855956494028391, 37.481545014306057 ], [ 126.856347021518417, 37.481426587212589 ], [ 126.857453271920534, 37.481102486664767 ], [ 126.858150605620821, 37.480898965440744 ], [ 126.859212189822557, 37.480589255394626 ], [ 126.859535915358364, 37.480495042537861 ], [ 126.859936822039742, 37.480380790686468 ], [ 126.861209555703766, 37.480878360161988 ], [ 126.861320592754836, 37.480954453430336 ], [ 126.861385424612578, 37.481060713076793 ], [ 126.86145356655696, 37.481194031222664 ], [ 126.861537030126229, 37.481371323599689 ] ] ] ] } },
{ "type": "Feature", "properties": { "OBJECTID": 1294, "adm_nm": "경기도 광명시 광명4동", "adm_cd": "3106054", "adm_cd2": "4121055000", "sgg": "41210", "sido": "41", "sidonm": "경기도", "sggnm": "광명시" }, "geometry": { "type": "MultiPolygon", "coordinates": [ [ [ [ 126.860552158092617, 37.477645688444142 ], [ 126.859811473036103, 37.475968550827645 ], [ 126.857615815401971, 37.476401678062189 ], [ 126.854256953852754, 37.476057763083901 ], [ 126.853319697938232, 37.476053754691378 ], [ 126.853064159401157, 37.476581901996191 ], [ 126.852272813828037, 37.476630521033961 ], [ 126.851721819760172, 37.476723998226866 ], [ 126.850787034465284, 37.476952486897403 ], [ 126.850519656763439, 37.477054673264092 ], [ 126.850423011286068, 37.477101395504135 ], [ 126.849382118747755, 37.479990447421208 ], [ 126.849609928762447, 37.480801490244275 ], [ 126.853497816108003, 37.479682007339562 ], [ 126.854304462096422, 37.47959315166964 ], [ 126.854569807832874, 37.479515700503867 ], [ 126.855484819921045, 37.479245993164795 ], [ 126.85653858784049, 37.478797882944242 ], [ 126.859103795536299, 37.478051352089238 ], [ 126.859533778016385, 37.477930855996739 ], [ 126.860552158092617, 37.477645688444142 ] ] ] ] } },
{ "type": "Feature", "properties": { "OBJECTID": 1295, "adm_nm": "경기도 광명시 광명5동", "adm_cd": "3106055", "adm_cd2": "4121056000", "sgg": "41210", "sido": "41", "sidonm": "경기도", "sggnm": "광명시" }, "geometry": { "type": "MultiPolygon", "coordinates": [ [ [ [ 126.849609928762447, 37.480801490244275 ], [ 126.849382118747755, 37.479990447421208 ], [ 126.850423011286068, 37.477101395504135 ], [ 126.850519656763439, 37.477054673264092 ], [ 126.850787034465284, 37.476952486897403 ], [ 126.851721819760172, 37.476723998226866 ], [ 126.852272813828037, 37.476630521033961 ], [ 126.853064159401157, 37.476581901996191 ], [ 126.851825446432827, 37.473902599015183 ], [ 126.850218562855943, 37.474031225341605 ], [ 126.84994259753897, 37.474010923143069 ], [ 126.84851213086948, 37.473883246269551 ], [ 126.848332053300638, 37.473548864396072 ], [ 126.846733040286281, 37.474043553263691 ], [ 126.845943422929508, 37.474296071185975 ], [ 126.845550537518207, 37.474529350396658 ], [ 126.845816191811409, 37.476566781474006 ], [ 126.845889881794534, 37.477439251110205 ], [ 126.845941547913398, 37.478161747558715 ], [ 126.845944634588989, 37.478212464941222 ], [ 126.846034211186051, 37.479695688929624 ], [ 126.846483960212524, 37.481704817371138 ], [ 126.848221581545332, 37.481211911007073 ], [ 126.849609928762447, 37.480801490244275 ] ] ] ] } },
{ "type": "Feature", "properties": { "OBJECTID": 1296, "adm_nm": "경기도 광명시 광명6동", "adm_cd": "3106056", "adm_cd2": "4121057000", "sgg": "41210", "sido": "41", "sidonm": "경기도", "sggnm": "광명시" }, "geometry": { "type": "MultiPolygon", "coordinates": [ [ [ [ 126.845550537518207, 37.474529350396658 ], [ 126.845943422929508, 37.474296071185975 ], [ 126.846733040286281, 37.474043553263691 ], [ 126.848332053300638, 37.473548864396072 ], [ 126.84851213086948, 37.473883246269551 ], [ 126.84994259753897, 37.474010923143069 ], [ 126.850218562855943, 37.474031225341605 ], [ 126.851825446432827, 37.473902599015183 ], [ 126.854201880933545, 37.472676259199851 ], [ 126.854134975182276, 37.472489971735641 ], [ 126.853511794077519, 37.470821308590452 ], [ 126.853432990590917, 37.470696940944563 ], [ 126.851983825402698, 37.468530877936011 ], [ 126.850889207922535, 37.46820658830805 ], [ 126.850740756286839, 37.468162699598743 ], [ 126.85062446195964, 37.468128448969281 ], [ 126.849783288004829, 37.467895104042427 ], [ 126.848989993753776, 37.467684550845675 ], [ 126.848584066165586, 37.46778233723208 ], [ 126.848267570817825, 37.467858586372174 ], [ 126.848185412400056, 37.467878413711318 ], [ 126.84790777272913, 37.467945611173391 ], [ 126.844997584756342, 37.47122847765133 ], [ 126.842405354585807, 37.467557959621132 ], [ 126.841818226287572, 37.466567701278315 ], [ 126.841850722334186, 37.46576671539875 ], [ 126.841865194498013, 37.465720790778839 ], [ 126.841911753333946, 37.465573349332729 ], [ 126.842454528265606, 37.463847388921444 ], [ 126.842593678585743, 37.463404875946544 ], [ 126.842658458820253, 37.462867802375008 ], [ 126.842645325196116, 37.462430571267475 ], [ 126.842121849586832, 37.460712826519092 ], [ 126.841147478964771, 37.458597095496394 ], [ 126.840516869348519, 37.458141772590004 ], [ 126.838832426021213, 37.455697670264108 ], [ 126.837366535165614, 37.457743902238811 ], [ 126.835190145748527, 37.458829632473318 ], [ 126.829118648895516, 37.458546319930853 ], [ 126.828542777253787, 37.459559333380575 ], [ 126.828075862466221, 37.459619768975649 ], [ 126.825973238406192, 37.459404989529709 ], [ 126.826757166656591, 37.461668481753989 ], [ 126.827532666593385, 37.462984370603699 ], [ 126.827682513410011, 37.463219575817526 ], [ 126.828723832084336, 37.463975874698228 ], [ 126.83008468737394, 37.464726089499052 ], [ 126.830514106995452, 37.464831392260685 ], [ 126.831026160778165, 37.465423921418946 ], [ 126.832198658595388, 37.466119200182412 ], [ 126.832989755236895, 37.466031481313685 ], [ 126.833420620381418, 37.467147370952269 ], [ 126.833488680352687, 37.467478702022007 ], [ 126.833510061937673, 37.467936260592204 ], [ 126.833508184255336, 37.468700157807589 ], [ 126.832851651170429, 37.470502606546788 ], [ 126.832427843100248, 37.471926534207029 ], [ 126.832033808423901, 37.473423260323663 ], [ 126.832253713186773, 37.476166311822801 ], [ 126.83226577206328, 37.476239727675917 ], [ 126.832296370993319, 37.476296235239943 ], [ 126.832324274949187, 37.476318791579423 ], [ 126.832346901308014, 37.476337081725148 ], [ 126.833408517700192, 37.476904168890691 ], [ 126.835792501546351, 37.475256849186259 ], [ 126.836849628225579, 37.475052094563416 ], [ 126.836903276128425, 37.475060283407721 ], [ 126.837131326478158, 37.475099410010621 ], [ 126.837330976591986, 37.475133664612883 ], [ 126.83847816641088, 37.475376697749581 ], [ 126.838841426811712, 37.47546435970532 ], [ 126.839736065221572, 37.475052476874517 ], [ 126.839775747678587, 37.474997500552114 ], [ 126.839996711625588, 37.474788043354408 ], [ 126.84012930508122, 37.474740336111267 ], [ 126.840845604055559, 37.474629411563392 ], [ 126.841007597154515, 37.474615663641075 ], [ 126.841410744437809, 37.474707303317849 ], [ 126.841743962076265, 37.474795536122301 ], [ 126.841867391064312, 37.474825518631647 ], [ 126.841967817216926, 37.474819316906718 ], [ 126.842064200018328, 37.474790560510662 ], [ 126.842168814396999, 37.474800056498729 ], [ 126.842278082377561, 37.474824425417737 ], [ 126.842367545306672, 37.474858724198469 ], [ 126.842396041916587, 37.474874593419337 ], [ 126.842438642575289, 37.474892920703653 ], [ 126.842581852830122, 37.474924138346047 ], [ 126.842708357751761, 37.4749270946417 ], [ 126.842777678671141, 37.474920720990148 ], [ 126.842912886527245, 37.474897812421666 ], [ 126.843278241213198, 37.474826607683625 ], [ 126.843468185514823, 37.47469213282303 ], [ 126.843562717418337, 37.474547642647074 ], [ 126.843606700144719, 37.474429421898904 ], [ 126.84418398752338, 37.474024901323517 ], [ 126.844618526664675, 37.473929180961022 ], [ 126.845044070437908, 37.473839285968197 ], [ 126.845327827260846, 37.473803677626208 ], [ 126.845487984117199, 37.474080604942728 ], [ 126.845539286427922, 37.474273514128654 ], [ 126.845542268807478, 37.474341075500796 ], [ 126.845550537518207, 37.474529350396658 ] ] ] ] } },
{ "type": "Feature", "properties": { "OBJECTID": 1297, "adm_nm": "경기도 광명시 광명7동", "adm_cd": "3106057", "adm_cd2": "4121058000", "sgg": "41210", "sido": "41", "sidonm": "경기도", "sggnm": "광명시" }, "geometry": { "type": "MultiPolygon", "coordinates": [ [ [ [ 126.859811473036103, 37.475968550827645 ], [ 126.86016219134018, 37.476036925561985 ], [ 126.860275150557811, 37.475955028023257 ], [ 126.860355516608294, 37.475896702849369 ], [ 126.861168592873696, 37.475306599978005 ], [ 126.861825070862537, 37.472080935930251 ], [ 126.860766031036079, 37.469789264217347 ], [ 126.860013338428871, 37.468460220844136 ], [ 126.857268973079286, 37.465478735264121 ], [ 126.856672081020349, 37.462224967441223 ], [ 126.856074060046851, 37.459108645969103 ], [ 126.854653194797621, 37.458169115385758 ], [ 126.854584964867882, 37.458132688440308 ], [ 126.854490507745084, 37.45809384497047 ], [ 126.854386211578444, 37.458070761999288 ], [ 126.853239638164212, 37.458026183789286 ], [ 126.84991263443878, 37.457905480050584 ], [ 126.847855330153493, 37.458034901605991 ], [ 126.847334394734332, 37.457558812839281 ], [ 126.847167143996074, 37.456962992844105 ], [ 126.843637982876913, 37.456400375056617 ], [ 126.843348478267927, 37.456697342410848 ], [ 126.842295132525336, 37.457355343601968 ], [ 126.841555281054866, 37.4577058987757 ], [ 126.840516869348519, 37.458141772590004 ], [ 126.841147478964771, 37.458597095496394 ], [ 126.842121849586832, 37.460712826519092 ], [ 126.842645325196116, 37.462430571267475 ], [ 126.842658458820253, 37.462867802375008 ], [ 126.842593678585743, 37.463404875946544 ], [ 126.842454528265606, 37.463847388921444 ], [ 126.841911753333946, 37.465573349332729 ], [ 126.841865194498013, 37.465720790778839 ], [ 126.841850722334186, 37.46576671539875 ], [ 126.841818226287572, 37.466567701278315 ], [ 126.842405354585807, 37.467557959621132 ], [ 126.844997584756342, 37.47122847765133 ], [ 126.84790777272913, 37.467945611173391 ], [ 126.848185412400056, 37.467878413711318 ], [ 126.848267570817825, 37.467858586372174 ], [ 126.848584066165586, 37.46778233723208 ], [ 126.848989993753776, 37.467684550845675 ], [ 126.849783288004829, 37.467895104042427 ], [ 126.85062446195964, 37.468128448969281 ], [ 126.850740756286839, 37.468162699598743 ], [ 126.850889207922535, 37.46820658830805 ], [ 126.851983825402698, 37.468530877936011 ], [ 126.853432990590917, 37.470696940944563 ], [ 126.853511794077519, 37.470821308590452 ], [ 126.854134975182276, 37.472489971735641 ], [ 126.854201880933545, 37.472676259199851 ], [ 126.851825446432827, 37.473902599015183 ], [ 126.853064159401157, 37.476581901996191 ], [ 126.853319697938232, 37.476053754691378 ], [ 126.854256953852754, 37.476057763083901 ], [ 126.857615815401971, 37.476401678062189 ], [ 126.859811473036103, 37.475968550827645 ] ] ] ] } },
{ "type": "Feature", "properties": { "OBJECTID": 1298, "adm_nm": "경기도 광명시 철산1동", "adm_cd": "3106058", "adm_cd2": "4121059000", "sgg": "41210", "sido": "41", "sidonm": "경기도", "sggnm": "광명시" }, "geometry": { "type": "MultiPolygon", "coordinates": [ [ [ [ 126.874742468072512, 37.485382052103006 ], [ 126.873977419204891, 37.48505125149169 ], [ 126.870801822947968, 37.486655694477591 ], [ 126.870350639815456, 37.488453645935195 ], [ 126.869931405550858, 37.488267850036131 ], [ 126.869546965628857, 37.488095609924073 ], [ 126.869083274299285, 37.487887639313477 ], [ 126.868898925766715, 37.487804910868476 ], [ 126.867348481973849, 37.487097140450622 ], [ 126.865272734169253, 37.486737661119228 ], [ 126.862678856123878, 37.486482576538755 ], [ 126.862362340220059, 37.486969859568035 ], [ 126.862139367152452, 37.487334830991621 ], [ 126.863958849756173, 37.488947925701346 ], [ 126.864098453853643, 37.489057831165816 ], [ 126.864180773783019, 37.489122630895707 ], [ 126.864343261335236, 37.489219273219753 ], [ 126.864447374126172, 37.489280675640821 ], [ 126.865628202624876, 37.489929235890216 ], [ 126.866227936897303, 37.490247971844916 ], [ 126.866779513978742, 37.491899237658359 ], [ 126.866955820751215, 37.49245451492574 ], [ 126.867039841802267, 37.492955180210139 ], [ 126.868305776206668, 37.495103813075367 ], [ 126.868908244258719, 37.495100292797325 ], [ 126.869612446034793, 37.493401134951974 ], [ 126.869653244506381, 37.492517416932408 ], [ 126.870046435236574, 37.491917829173246 ], [ 126.872780308642263, 37.48880355146688 ], [ 126.875285960300729, 37.488532901045389 ], [ 126.875151726048585, 37.48648498874045 ], [ 126.874742468072512, 37.485382052103006 ] ] ] ] } },
{ "type": "Feature", "properties": { "OBJECTID": 1299, "adm_nm": "경기도 광명시 철산2동", "adm_cd": "3106059", "adm_cd2": "4121060000", "sgg": "41210", "sido": "41", "sidonm": "경기도", "sggnm": "광명시" }, "geometry": { "type": "MultiPolygon", "coordinates": [ [ [ [ 126.873977419204891, 37.48505125149169 ], [ 126.873909017617024, 37.483333832104861 ], [ 126.872784500587699, 37.482805056413071 ], [ 126.872113685757739, 37.481531709139958 ], [ 126.867910594928148, 37.480587661803376 ], [ 126.867850536064722, 37.480574996417339 ], [ 126.867545055153855, 37.480512470512899 ], [ 126.867388387337954, 37.480481211023843 ], [ 126.867243673709964, 37.48045677551378 ], [ 126.867205655182673, 37.480454615956113 ], [ 126.867151790691437, 37.480455156698568 ], [ 126.867085237434381, 37.480466251916205 ], [ 126.867029731535979, 37.48047969572395 ], [ 126.866981090089709, 37.480495929924224 ], [ 126.866912776675264, 37.480519918513927 ], [ 126.866870486294587, 37.480534771571854 ], [ 126.865544903247155, 37.481122897591789 ], [ 126.864983696502605, 37.481378679648003 ], [ 126.864411150662605, 37.480538467474062 ], [ 126.863932078652951, 37.479805791645589 ], [ 126.863910749138782, 37.479768373328476 ], [ 126.863878914099132, 37.479698470389479 ], [ 126.863857010985541, 37.479613850409052 ], [ 126.863840579535747, 37.479549540377711 ], [ 126.863828813033962, 37.479437934311115 ], [ 126.86382742858703, 37.479350427794991 ], [ 126.863827852101892, 37.479300472459592 ], [ 126.863829227515026, 37.479138235914178 ], [ 126.86385160783685, 37.478951748826439 ], [ 126.863878907132957, 37.478614590608096 ], [ 126.863880626367575, 37.478578554662683 ], [ 126.863882345753083, 37.478542500690693 ], [ 126.863880821694181, 37.478471456666639 ], [ 126.863874241607903, 37.478415140608305 ], [ 126.863857683036031, 37.47837159080224 ], [ 126.863679563374546, 37.478032142940826 ], [ 126.863628575073491, 37.477945788880056 ], [ 126.863553425207996, 37.477818518313072 ], [ 126.863304520537909, 37.477412694001849 ], [ 126.863058319816631, 37.477020403157816 ], [ 126.862924310391222, 37.476819129943571 ], [ 126.862221224408358, 37.477131916355617 ], [ 126.861537030126229, 37.481371323599689 ], [ 126.862473237409588, 37.483319964913321 ], [ 126.862678856123878, 37.486482576538755 ], [ 126.865272734169253, 37.486737661119228 ], [ 126.867348481973849, 37.487097140450622 ], [ 126.868898925766715, 37.487804910868476 ], [ 126.869083274299285, 37.487887639313477 ], [ 126.869546965628857, 37.488095609924073 ], [ 126.869931405550858, 37.488267850036131 ], [ 126.870350639815456, 37.488453645935195 ], [ 126.870801822947968, 37.486655694477591 ], [ 126.873977419204891, 37.48505125149169 ] ] ] ] } },
{ "type": "Feature", "properties": { "OBJECTID": 1300, "adm_nm": "경기도 광명시 철산3동", "adm_cd": "3106060", "adm_cd2": "4121061000", "sgg": "41210", "sido": "41", "sidonm": "경기도", "sggnm": "광명시" }, "geometry": { "type": "MultiPolygon", "coordinates": [ [ [ [ 126.880654494170173, 37.471850131701665 ], [ 126.874724586486877, 37.468440867187702 ], [ 126.874232600596798, 37.468352749166634 ], [ 126.87415872440603, 37.468484160695596 ], [ 126.872360661160897, 37.471273337421977 ], [ 126.872081850650545, 37.471312417166175 ], [ 126.871929226043008, 37.471012201382827 ], [ 126.871860724427208, 37.470877463861534 ], [ 126.871661338753597, 37.470505719818206 ], [ 126.871478508962909, 37.47040908192578 ], [ 126.871346994323474, 37.470357578213118 ], [ 126.871220494402706, 37.470324951117973 ], [ 126.871170301112372, 37.470317545261459 ], [ 126.871105675103252, 37.470308971926272 ], [ 126.868612411188906, 37.470086074012592 ], [ 126.868532318896953, 37.470295247540072 ], [ 126.8668262164406, 37.4711998643009 ], [ 126.866362792608967, 37.47109034757824 ], [ 126.865767242142468, 37.47105673161979 ], [ 126.865696999005991, 37.471087902043294 ], [ 126.865648784149897, 37.471190172518895 ], [ 126.865481056125148, 37.472302447198643 ], [ 126.863970624534957, 37.475883977842543 ], [ 126.863949085675685, 37.475923296211882 ], [ 126.863915563355832, 37.475958042384164 ], [ 126.863795055817832, 37.476082457583004 ], [ 126.862924310391222, 37.476819129943571 ], [ 126.863058319816631, 37.477020403157816 ], [ 126.863304520537909, 37.477412694001849 ], [ 126.863553425207996, 37.477818518313072 ], [ 126.863628575073491, 37.477945788880056 ], [ 126.863679563374546, 37.478032142940826 ], [ 126.863857683036031, 37.47837159080224 ], [ 126.863874241607903, 37.478415140608305 ], [ 126.863880821694181, 37.478471456666639 ], [ 126.863882345753083, 37.478542500690693 ], [ 126.863880626367575, 37.478578554662683 ], [ 126.863878907132957, 37.478614590608096 ], [ 126.86385160783685, 37.478951748826439 ], [ 126.863829227515026, 37.479138235914178 ], [ 126.863827852101892, 37.479300472459592 ], [ 126.86382742858703, 37.479350427794991 ], [ 126.863828813033962, 37.479437934311115 ], [ 126.863840579535747, 37.479549540377711 ], [ 126.863857010985541, 37.479613850409052 ], [ 126.863878914099132, 37.479698470389479 ], [ 126.863910749138782, 37.479768373328476 ], [ 126.863932078652951, 37.479805791645589 ], [ 126.864411150662605, 37.480538467474062 ], [ 126.864983696502605, 37.481378679648003 ], [ 126.865544903247155, 37.481122897591789 ], [ 126.866870486294587, 37.480534771571854 ], [ 126.866912776675264, 37.480519918513927 ], [ 126.866981090089709, 37.480495929924224 ], [ 126.867029731535979, 37.48047969572395 ], [ 126.867085237434381, 37.480466251916205 ], [ 126.867151790691437, 37.480455156698568 ], [ 126.867205655182673, 37.480454615956113 ], [ 126.867243673709964, 37.48045677551378 ], [ 126.867388387337954, 37.480481211023843 ], [ 126.867545055153855, 37.480512470512899 ], [ 126.867850536064722, 37.480574996417339 ], [ 126.867910594928148, 37.480587661803376 ], [ 126.872113685757739, 37.481531709139958 ], [ 126.872784500587699, 37.482805056413071 ], [ 126.873909017617024, 37.483333832104861 ], [ 126.874716850663063, 37.481408058904137 ], [ 126.875156777008925, 37.480445935902765 ], [ 126.875621456337953, 37.479481688488555 ], [ 126.875724811340021, 37.479287009980887 ], [ 126.876133744643923, 37.478516757538038 ], [ 126.876299292703365, 37.478214356812607 ], [ 126.876644039802258, 37.477585934480878 ], [ 126.876657451625917, 37.477561637076377 ], [ 126.877584670118551, 37.476051119968993 ], [ 126.877821116906986, 37.475667035418823 ], [ 126.877978597338839, 37.475429005106697 ], [ 126.878146146244134, 37.475176301199291 ], [ 126.878460318134415, 37.474702568892894 ], [ 126.879007945276769, 37.473955068867483 ], [ 126.879166654837363, 37.473738450560035 ], [ 126.87949894758664, 37.4733019112929 ], [ 126.87976078001067, 37.472958704469093 ], [ 126.879861945420316, 37.472826097833419 ], [ 126.879895799953559, 37.472781972913268 ], [ 126.880654494170173, 37.471850131701665 ] ] ] ] } },
{ "type": "Feature", "properties": { "OBJECTID": 1301, "adm_nm": "경기도 광명시 철산4동", "adm_cd": "3106061", "adm_cd2": "4121062000", "sgg": "41210", "sido": "41", "sidonm": "경기도", "sggnm": "광명시" }, "geometry": { "type": "MultiPolygon", "coordinates": [ [ [ [ 126.862221224408358, 37.477131916355617 ], [ 126.862924310391222, 37.476819129943571 ], [ 126.863795055817832, 37.476082457583004 ], [ 126.863915563355832, 37.475958042384164 ], [ 126.863949085675685, 37.475923296211882 ], [ 126.863970624534957, 37.475883977842543 ], [ 126.865481056125148, 37.472302447198643 ], [ 126.865648784149897, 37.471190172518895 ], [ 126.865696999005991, 37.471087902043294 ], [ 126.865767242142468, 37.47105673161979 ], [ 126.866362792608967, 37.47109034757824 ], [ 126.8668262164406, 37.4711998643009 ], [ 126.867011807818685, 37.470885526253724 ], [ 126.867067516116521, 37.470751609054524 ], [ 126.867110663526248, 37.470579455694946 ], [ 126.867099642011041, 37.470377718087192 ], [ 126.86702975539194, 37.47020045246596 ], [ 126.866280913562321, 37.469235366925403 ], [ 126.865058502220165, 37.468025493103632 ], [ 126.864990333073465, 37.467964186032027 ], [ 126.864890862772654, 37.4678747415768 ], [ 126.861583236926336, 37.469522715630397 ], [ 126.860766031036079, 37.469789264217347 ], [ 126.861825070862537, 37.472080935930251 ], [ 126.861168592873696, 37.475306599978005 ], [ 126.860355516608294, 37.475896702849369 ], [ 126.860275150557811, 37.475955028023257 ], [ 126.86016219134018, 37.476036925561985 ], [ 126.859811473036103, 37.475968550827645 ], [ 126.860552158092617, 37.477645688444142 ], [ 126.862221224408358, 37.477131916355617 ] ] ] ] } },
{ "type": "Feature", "properties": { "OBJECTID": 1302, "adm_nm": "경기도 광명시 하안1동", "adm_cd": "3106062", "adm_cd2": "4121063100", "sgg": "41210", "sido": "41", "sidonm": "경기도", "sggnm": "광명시" }, "geometry": { "type": "MultiPolygon", "coordinates": [ [ [ [ 126.874232600596798, 37.468352749166634 ], [ 126.873188176268414, 37.468076785532688 ], [ 126.872439919719284, 37.467880148794514 ], [ 126.871583729310245, 37.467660399426961 ], [ 126.869744197643442, 37.467214569604295 ], [ 126.868704975831207, 37.466969420579517 ], [ 126.868709213994293, 37.466895750046618 ], [ 126.868717945963837, 37.466868218766592 ], [ 126.868757166999984, 37.466747532834489 ], [ 126.868830331185436, 37.466543814879749 ], [ 126.868866468737721, 37.466458161717426 ], [ 126.868938500651439, 37.466287505737675 ], [ 126.869249573599049, 37.46560300729201 ], [ 126.869367956401405, 37.465387705406386 ], [ 126.869429025670001, 37.465294141389158 ], [ 126.869448899937083, 37.465263808595104 ], [ 126.869487089773727, 37.465212346554701 ], [ 126.869554696423904, 37.465121282563992 ], [ 126.86965748590292, 37.465000147638143 ], [ 126.869776114985328, 37.464875279848535 ], [ 126.869901842604037, 37.464768224562128 ], [ 126.870080397205186, 37.464630592775734 ], [ 126.875393706674288, 37.461065757898524 ], [ 126.875505259467417, 37.460993112990451 ], [ 126.876118296511123, 37.460595159084143 ], [ 126.879275533348689, 37.456980521625816 ], [ 126.879872982049534, 37.456273089585132 ], [ 126.880048996519037, 37.456063194113561 ], [ 126.881082077324294, 37.45481990060852 ], [ 126.879269104332167, 37.453227450806189 ], [ 126.878883987173296, 37.452970793195711 ], [ 126.878575042666029, 37.452902693779912 ], [ 126.878318948728023, 37.452851772086859 ], [ 126.877948874750501, 37.452915840344062 ], [ 126.877302056190715, 37.453027817053112 ], [ 126.876786175626009, 37.453116360391704 ], [ 126.875439427834678, 37.452763353890013 ], [ 126.871497972240007, 37.450126261318111 ], [ 126.870235458297529, 37.44816358899341 ], [ 126.86875678332801, 37.445866245061026 ], [ 126.868450512028815, 37.445567151760933 ], [ 126.866443341210669, 37.443610634748765 ], [ 126.863806495380004, 37.444786236723544 ], [ 126.861314925086219, 37.445894992205133 ], [ 126.860362516141123, 37.446221091385553 ], [ 126.859887251325461, 37.446439351471533 ], [ 126.859645258422475, 37.446550754731604 ], [ 126.859597116591658, 37.446572984616189 ], [ 126.85941768378791, 37.446734257008224 ], [ 126.857459995968313, 37.449762338693048 ], [ 126.857215748730155, 37.450313093134397 ], [ 126.856850425707435, 37.45311883925288 ], [ 126.856993501672974, 37.458115398382937 ], [ 126.856074060046851, 37.459108645969103 ], [ 126.856672081020349, 37.462224967441223 ], [ 126.857268973079286, 37.465478735264121 ], [ 126.860013338428871, 37.468460220844136 ], [ 126.860766031036079, 37.469789264217347 ], [ 126.861583236926336, 37.469522715630397 ], [ 126.864890862772654, 37.4678747415768 ], [ 126.864990333073465, 37.467964186032027 ], [ 126.865058502220165, 37.468025493103632 ], [ 126.866280913562321, 37.469235366925403 ], [ 126.86702975539194, 37.47020045246596 ], [ 126.867099642011041, 37.470377718087192 ], [ 126.867110663526248, 37.470579455694946 ], [ 126.867067516116521, 37.470751609054524 ], [ 126.867011807818685, 37.470885526253724 ], [ 126.8668262164406, 37.4711998643009 ], [ 126.868532318896953, 37.470295247540072 ], [ 126.868612411188906, 37.470086074012592 ], [ 126.871105675103252, 37.470308971926272 ], [ 126.871170301112372, 37.470317545261459 ], [ 126.871220494402706, 37.470324951117973 ], [ 126.871346994323474, 37.470357578213118 ], [ 126.871478508962909, 37.47040908192578 ], [ 126.871661338753597, 37.470505719818206 ], [ 126.871860724427208, 37.470877463861534 ], [ 126.871929226043008, 37.471012201382827 ], [ 126.872081850650545, 37.471312417166175 ], [ 126.872360661160897, 37.471273337421977 ], [ 126.87415872440603, 37.468484160695596 ], [ 126.874232600596798, 37.468352749166634 ] ] ] ] } },
{ "type": "Feature", "properties": { "OBJECTID": 1303, "adm_nm": "경기도 광명시 하안2동", "adm_cd": "3106063", "adm_cd2": "4121063200", "sgg": "41210", "sido": "41", "sidonm": "경기도", "sggnm": "광명시" }, "geometry": { "type": "MultiPolygon", "coordinates": [ [ [ [ 126.879735266469638, 37.462573674743702 ], [ 126.876630701507906, 37.460887988919978 ], [ 126.876118296511123, 37.460595159084143 ], [ 126.875505259467417, 37.460993112990451 ], [ 126.875393706674288, 37.461065757898524 ], [ 126.870080397205186, 37.464630592775734 ], [ 126.869901842604037, 37.464768224562128 ], [ 126.869776114985328, 37.464875279848535 ], [ 126.86965748590292, 37.465000147638143 ], [ 126.869554696423904, 37.465121282563992 ], [ 126.869487089773727, 37.465212346554701 ], [ 126.869448899937083, 37.465263808595104 ], [ 126.869429025670001, 37.465294141389158 ], [ 126.869367956401405, 37.465387705406386 ], [ 126.869249573599049, 37.46560300729201 ], [ 126.868938500651439, 37.466287505737675 ], [ 126.868866468737721, 37.466458161717426 ], [ 126.868830331185436, 37.466543814879749 ], [ 126.868757166999984, 37.466747532834489 ], [ 126.868717945963837, 37.466868218766592 ], [ 126.868709213994293, 37.466895750046618 ], [ 126.868704975831207, 37.466969420579517 ], [ 126.869744197643442, 37.467214569604295 ], [ 126.871583729310245, 37.467660399426961 ], [ 126.872439919719284, 37.467880148794514 ], [ 126.873188176268414, 37.468076785532688 ], [ 126.874232600596798, 37.468352749166634 ], [ 126.874724586486877, 37.468440867187702 ], [ 126.879735266469638, 37.462573674743702 ] ] ] ] } },
{ "type": "Feature", "properties": { "OBJECTID": 1304, "adm_nm": "경기도 광명시 하안3동", "adm_cd": "3106064", "adm_cd2": "4121063300", "sgg": "41210", "sido": "41", "sidonm": "경기도", "sggnm": "광명시" }, "geometry": { "type": "MultiPolygon", "coordinates": [ [ [ [ 126.886767133261486, 37.464677716408808 ], [ 126.888650115573952, 37.46247360090581 ], [ 126.889084637740382, 37.46153280123432 ], [ 126.889099889823299, 37.461395422820068 ], [ 126.8890657195399, 37.461252155406044 ], [ 126.888955630665222, 37.461058920686071 ], [ 126.888862025949862, 37.460924359457159 ], [ 126.888679421939642, 37.46084648394887 ], [ 126.88865074523811, 37.460834257382672 ], [ 126.888598535372793, 37.460833302234519 ], [ 126.888392126552489, 37.460829539059255 ], [ 126.888224770943296, 37.46089965480683 ], [ 126.887976549914328, 37.461006532594133 ], [ 126.887618648349886, 37.46112974200615 ], [ 126.886673984357756, 37.460976686431714 ], [ 126.886055223442838, 37.460642832304792 ], [ 126.885274025924502, 37.460061851705611 ], [ 126.886202186781631, 37.456572782648905 ], [ 126.886379085283934, 37.456198509418826 ], [ 126.881226367070312, 37.456390609258861 ], [ 126.879275533348689, 37.456980521625816 ], [ 126.876118296511123, 37.460595159084143 ], [ 126.876630701507906, 37.460887988919978 ], [ 126.879735266469638, 37.462573674743702 ], [ 126.885781808484211, 37.465816183841135 ], [ 126.886065748095575, 37.465482007077497 ], [ 126.886767133261486, 37.464677716408808 ] ] ] ] } },
{ "type": "Feature", "properties": { "OBJECTID": 1305, "adm_nm": "경기도 광명시 하안4동", "adm_cd": "3106065", "adm_cd2": "4121063400", "sgg": "41210", "sido": "41", "sidonm": "경기도", "sggnm": "광명시" }, "geometry": { "type": "MultiPolygon", "coordinates": [ [ [ [ 126.885781808484211, 37.465816183841135 ], [ 126.879735266469638, 37.462573674743702 ], [ 126.874724586486877, 37.468440867187702 ], [ 126.880654494170173, 37.471850131701665 ], [ 126.885781808484211, 37.465816183841135 ] ] ] ] } },
{ "type": "Feature", "properties": { "OBJECTID": 1306, "adm_nm": "경기도 광명시 소하1동", "adm_cd": "3106066", "adm_cd2": "4121064000", "sgg": "41210", "sido": "41", "sidonm": "경기도", "sggnm": "광명시" }, "geometry": { "type": "MultiPolygon", "coordinates": [ [ [ [ 126.886379085283934, 37.456198509418826 ], [ 126.887170018165733, 37.455571661727291 ], [ 126.889481116642727, 37.45275345995212 ], [ 126.889526460226932, 37.4525273968299 ], [ 126.889622864290189, 37.452350724259873 ], [ 126.889707198089909, 37.452324123487436 ], [ 126.892462639826647, 37.45193833916715 ], [ 126.892628850394019, 37.451918913780645 ], [ 126.894073761845817, 37.452639507246531 ], [ 126.894826612733084, 37.450848554414044 ], [ 126.895091643082253, 37.448425475088214 ], [ 126.896123188511808, 37.445846998308959 ], [ 126.898225616184661, 37.444654364934472 ], [ 126.89851101781035, 37.443866037050519 ], [ 126.898927047316675, 37.442380905758732 ], [ 126.899116510439143, 37.441041092376523 ], [ 126.899098552939122, 37.439600618919421 ], [ 126.89879641960195, 37.439367436742039 ], [ 126.898722704275883, 37.439309599879905 ], [ 126.89877727123698, 37.439111577622313 ], [ 126.898882877722357, 37.438804524661663 ], [ 126.898944416192876, 37.438713498000823 ], [ 126.89905661162949, 37.438548519656806 ], [ 126.899077152403564, 37.438518671797816 ], [ 126.899113796291459, 37.438465434308483 ], [ 126.899344377407587, 37.438190789222247 ], [ 126.899384128797379, 37.438143444323984 ], [ 126.90049098886135, 37.43736038439733 ], [ 126.899647625765482, 37.437454104471804 ], [ 126.899499471756556, 37.436706356091982 ], [ 126.899416619124963, 37.435050806547203 ], [ 126.899169172223793, 37.433923971164056 ], [ 126.899088290776049, 37.433702725893689 ], [ 126.898617392481356, 37.432427154613372 ], [ 126.897809164813097, 37.431021418815597 ], [ 126.897591257183507, 37.430971851151206 ], [ 126.897481982385841, 37.430947642405492 ], [ 126.895832865573283, 37.430630537478216 ], [ 126.895400460805277, 37.431258124924767 ], [ 126.894249281918363, 37.43183248955323 ], [ 126.891459755708382, 37.432417563584814 ], [ 126.890004587987505, 37.434754733538909 ], [ 126.890691617553571, 37.435306468155453 ], [ 126.891515084327025, 37.435968092342179 ], [ 126.888643553742028, 37.43610312643753 ], [ 126.888461928133069, 37.436111200506382 ], [ 126.885424653447828, 37.436211497597128 ], [ 126.885352650662654, 37.436204362973719 ], [ 126.885284897830303, 37.43619725942299 ], [ 126.885223548691215, 37.436181157485954 ], [ 126.885147519240917, 37.436148087614896 ], [ 126.885034127372052, 37.43610580968295 ], [ 126.884957467863941, 37.436110384531268 ], [ 126.884884806277114, 37.436131969921874 ], [ 126.884750558010509, 37.436224891244933 ], [ 126.884331343018488, 37.436517976776535 ], [ 126.884999231371737, 37.442614590358623 ], [ 126.885034479994459, 37.442644897277916 ], [ 126.885075700729388, 37.442680336966049 ], [ 126.885212416205675, 37.44281061894312 ], [ 126.885236404818414, 37.442836175642761 ], [ 126.885287936222184, 37.442906781433095 ], [ 126.88533675630606, 37.442984777786641 ], [ 126.885439717691369, 37.443266988738529 ], [ 126.885448054691764, 37.443298120053214 ], [ 126.885457530252935, 37.443333516221195 ], [ 126.885455430120373, 37.443419175221806 ], [ 126.885445624398145, 37.443495739976726 ], [ 126.885421698447061, 37.443550251602908 ], [ 126.885389718080575, 37.443610115988839 ], [ 126.884862031049678, 37.444529269807632 ], [ 126.884785522631603, 37.444639288359099 ], [ 126.884695530948278, 37.444757123576053 ], [ 126.883862125539267, 37.445577527453601 ], [ 126.88337717317323, 37.445522043327394 ], [ 126.882970576885484, 37.445474853227402 ], [ 126.882909213435113, 37.445461012429718 ], [ 126.882789318370811, 37.445433350034421 ], [ 126.882649173015565, 37.445378531891762 ], [ 126.882557089151007, 37.445323987211658 ], [ 126.882407523493526, 37.445120381439345 ], [ 126.882322079536479, 37.444943042769154 ], [ 126.878020464220327, 37.444266996505071 ], [ 126.874846512084233, 37.444448550157489 ], [ 126.868450512028815, 37.445567151760933 ], [ 126.86875678332801, 37.445866245061026 ], [ 126.870235458297529, 37.44816358899341 ], [ 126.871497972240007, 37.450126261318111 ], [ 126.875439427834678, 37.452763353890013 ], [ 126.876786175626009, 37.453116360391704 ], [ 126.877302056190715, 37.453027817053112 ], [ 126.877948874750501, 37.452915840344062 ], [ 126.878318948728023, 37.452851772086859 ], [ 126.878575042666029, 37.452902693779912 ], [ 126.878883987173296, 37.452970793195711 ], [ 126.879269104332167, 37.453227450806189 ], [ 126.881082077324294, 37.45481990060852 ], [ 126.880048996519037, 37.456063194113561 ], [ 126.879872982049534, 37.456273089585132 ], [ 126.879275533348689, 37.456980521625816 ], [ 126.881226367070312, 37.456390609258861 ], [ 126.886379085283934, 37.456198509418826 ] ] ] ] } },
{ "type": "Feature", "properties": { "OBJECTID": 1307, "adm_nm": "경기도 광명시 소하2동", "adm_cd": "3106067", "adm_cd2": "4121065000", "sgg": "41210", "sido": "41", "sidonm": "경기도", "sggnm": "광명시" }, "geometry": { "type": "MultiPolygon", "coordinates": [ [ [ [ 126.895832865573283, 37.430630537478216 ], [ 126.894883071293748, 37.429975540492073 ], [ 126.894570954562141, 37.429697899526609 ], [ 126.894473102974075, 37.429591731387248 ], [ 126.894315339951987, 37.429420547261898 ], [ 126.894069848931366, 37.429031688990598 ], [ 126.894611332267615, 37.42845873049594 ], [ 126.894997400344437, 37.428497888366763 ], [ 126.895336792162865, 37.428545819867487 ], [ 126.895649574856847, 37.428428259060418 ], [ 126.895744917288212, 37.428392421489264 ], [ 126.896098510491299, 37.428256770398058 ], [ 126.896271717290105, 37.428151744834857 ], [ 126.896568744445901, 37.427757787816674 ], [ 126.896651309966387, 37.427591456831188 ], [ 126.896772801088318, 37.427330681147303 ], [ 126.896833602168812, 37.427144025849572 ], [ 126.896477954882826, 37.425624352954976 ], [ 126.893958256174542, 37.42167762533149 ], [ 126.891889376790658, 37.420527395641749 ], [ 126.890351961274476, 37.420399692809035 ], [ 126.889860072447789, 37.419918658052026 ], [ 126.888945431559691, 37.418869476629922 ], [ 126.888874884586784, 37.418597575585693 ], [ 126.888913441711892, 37.418483788208505 ], [ 126.888932060059247, 37.418428865092217 ], [ 126.888953452906179, 37.418366276678306 ], [ 126.889017433701682, 37.418179177397185 ], [ 126.889378933052029, 37.417847539865761 ], [ 126.889605457911543, 37.417759310437262 ], [ 126.88890763641983, 37.412556276879421 ], [ 126.879935816628063, 37.410193112696909 ], [ 126.876180762223086, 37.410958674248192 ], [ 126.876087543768875, 37.411043812128163 ], [ 126.875409090672022, 37.411523587342444 ], [ 126.87524294662893, 37.411629746692476 ], [ 126.875117511568703, 37.411682039021272 ], [ 126.871863690793987, 37.412457997973583 ], [ 126.871241429687515, 37.41254820689587 ], [ 126.869952590587644, 37.415523225280708 ], [ 126.869946193079016, 37.415579913194996 ], [ 126.869676355180474, 37.418110447760917 ], [ 126.869594878642147, 37.420499618289789 ], [ 126.869593463696518, 37.420543029468121 ], [ 126.869595584241068, 37.420597848239048 ], [ 126.870142725642651, 37.422049505038963 ], [ 126.871444559490129, 37.422481427445611 ], [ 126.87203394448467, 37.422677086706379 ], [ 126.870482390863273, 37.424158505212773 ], [ 126.870024949858831, 37.424595212757723 ], [ 126.86876638441683, 37.425796344190466 ], [ 126.867728125260314, 37.426481780612491 ], [ 126.867423982438694, 37.426682568100532 ], [ 126.867357723824739, 37.427495058442936 ], [ 126.867321445889431, 37.42794062444748 ], [ 126.86737567441044, 37.428006515894616 ], [ 126.867784354979946, 37.42850307303339 ], [ 126.867944426750199, 37.428873487926325 ], [ 126.866482183837135, 37.431567306799728 ], [ 126.865534424273605, 37.433276127119591 ], [ 126.865312109022682, 37.434336368720395 ], [ 126.865162680642982, 37.435050941274412 ], [ 126.865247571820078, 37.435539259360517 ], [ 126.865260673955646, 37.435614061639676 ], [ 126.865273885371806, 37.435689311578919 ], [ 126.866153105228392, 37.437317547348982 ], [ 126.866571643642317, 37.438791263937688 ], [ 126.866474035476259, 37.440169382084747 ], [ 126.866466575054787, 37.440274589547776 ], [ 126.866420930109612, 37.440347440768626 ], [ 126.866386430851804, 37.440402495754633 ], [ 126.866260898116778, 37.440601732033734 ], [ 126.866209498728679, 37.440683309036707 ], [ 126.86637881665574, 37.442808048855632 ], [ 126.866443341210669, 37.443610634748765 ], [ 126.868450512028815, 37.445567151760933 ], [ 126.874846512084233, 37.444448550157489 ], [ 126.878020464220327, 37.444266996505071 ], [ 126.882322079536479, 37.444943042769154 ], [ 126.882407523493526, 37.445120381439345 ], [ 126.882557089151007, 37.445323987211658 ], [ 126.882649173015565, 37.445378531891762 ], [ 126.882789318370811, 37.445433350034421 ], [ 126.882909213435113, 37.445461012429718 ], [ 126.882970576885484, 37.445474853227402 ], [ 126.88337717317323, 37.445522043327394 ], [ 126.883862125539267, 37.445577527453601 ], [ 126.884695530948278, 37.444757123576053 ], [ 126.884785522631603, 37.444639288359099 ], [ 126.884862031049678, 37.444529269807632 ], [ 126.885389718080575, 37.443610115988839 ], [ 126.885421698447061, 37.443550251602908 ], [ 126.885445624398145, 37.443495739976726 ], [ 126.885455430120373, 37.443419175221806 ], [ 126.885457530252935, 37.443333516221195 ], [ 126.885448054691764, 37.443298120053214 ], [ 126.885439717691369, 37.443266988738529 ], [ 126.88533675630606, 37.442984777786641 ], [ 126.885287936222184, 37.442906781433095 ], [ 126.885236404818414, 37.442836175642761 ], [ 126.885212416205675, 37.44281061894312 ], [ 126.885075700729388, 37.442680336966049 ], [ 126.885034479994459, 37.442644897277916 ], [ 126.884999231371737, 37.442614590358623 ], [ 126.884331343018488, 37.436517976776535 ], [ 126.884750558010509, 37.436224891244933 ], [ 126.884884806277114, 37.436131969921874 ], [ 126.884957467863941, 37.436110384531268 ], [ 126.885034127372052, 37.43610580968295 ], [ 126.885147519240917, 37.436148087614896 ], [ 126.885223548691215, 37.436181157485954 ], [ 126.885284897830303, 37.43619725942299 ], [ 126.885352650662654, 37.436204362973719 ], [ 126.885424653447828, 37.436211497597128 ], [ 126.888461928133069, 37.436111200506382 ], [ 126.888643553742028, 37.43610312643753 ], [ 126.891515084327025, 37.435968092342179 ], [ 126.890691617553571, 37.435306468155453 ], [ 126.890004587987505, 37.434754733538909 ], [ 126.891459755708382, 37.432417563584814 ], [ 126.894249281918363, 37.43183248955323 ], [ 126.895400460805277, 37.431258124924767 ], [ 126.895832865573283, 37.430630537478216 ] ] ] ] } },
{ "type": "Feature", "properties": { "OBJECTID": 1308, "adm_nm": "경기도 광명시 학온동", "adm_cd": "3106068", "adm_cd2": "4121066000", "sgg": "41210", "sido": "41", "sidonm": "경기도", "sggnm": "광명시" }, "geometry": { "type": "MultiPolygon", "coordinates": [ [ [ [ 126.866443341210669, 37.443610634748765 ], [ 126.86637881665574, 37.442808048855632 ], [ 126.866209498728679, 37.440683309036707 ], [ 126.866260898116778, 37.440601732033734 ], [ 126.866386430851804, 37.440402495754633 ], [ 126.866420930109612, 37.440347440768626 ], [ 126.866466575054787, 37.440274589547776 ], [ 126.866474035476259, 37.440169382084747 ], [ 126.866571643642317, 37.438791263937688 ], [ 126.866153105228392, 37.437317547348982 ], [ 126.865273885371806, 37.435689311578919 ], [ 126.865260673955646, 37.435614061639676 ], [ 126.865247571820078, 37.435539259360517 ], [ 126.865162680642982, 37.435050941274412 ], [ 126.865312109022682, 37.434336368720395 ], [ 126.865534424273605, 37.433276127119591 ], [ 126.866482183837135, 37.431567306799728 ], [ 126.867944426750199, 37.428873487926325 ], [ 126.867784354979946, 37.42850307303339 ], [ 126.86737567441044, 37.428006515894616 ], [ 126.867321445889431, 37.42794062444748 ], [ 126.867357723824739, 37.427495058442936 ], [ 126.867423982438694, 37.426682568100532 ], [ 126.867728125260314, 37.426481780612491 ], [ 126.86876638441683, 37.425796344190466 ], [ 126.870024949858831, 37.424595212757723 ], [ 126.870482390863273, 37.424158505212773 ], [ 126.87203394448467, 37.422677086706379 ], [ 126.871444559490129, 37.422481427445611 ], [ 126.870142725642651, 37.422049505038963 ], [ 126.869595584241068, 37.420597848239048 ], [ 126.869593463696518, 37.420543029468121 ], [ 126.869594878642147, 37.420499618289789 ], [ 126.869676355180474, 37.418110447760917 ], [ 126.869946193079016, 37.415579913194996 ], [ 126.869952590587644, 37.415523225280708 ], [ 126.871241429687515, 37.41254820689587 ], [ 126.871071707111128, 37.412143841115871 ], [ 126.870714340395608, 37.410463247410277 ], [ 126.870299700558704, 37.408110727456332 ], [ 126.870316816250551, 37.407837028588922 ], [ 126.870332684366474, 37.407628672125611 ], [ 126.870392138800213, 37.407426500394294 ], [ 126.87045547977236, 37.407220290466718 ], [ 126.870614117696377, 37.40691020418847 ], [ 126.870782197661782, 37.406740965890116 ], [ 126.870892756306731, 37.406694232482543 ], [ 126.870943810906212, 37.406688284704757 ], [ 126.871216512870419, 37.406656519966489 ], [ 126.871550625325, 37.406653248744782 ], [ 126.871813309302908, 37.406650678724212 ], [ 126.872386664776599, 37.406660483953665 ], [ 126.872807915329574, 37.406702154152747 ], [ 126.872910856922658, 37.406721854235911 ], [ 126.873386273323305, 37.406789723948307 ], [ 126.873568571855756, 37.406803777821679 ], [ 126.873841489121716, 37.406824810226993 ], [ 126.874216293260574, 37.406847075377506 ], [ 126.874276037997461, 37.406850501301292 ], [ 126.87462782065252, 37.406870660299795 ], [ 126.874924498255695, 37.406862088808737 ], [ 126.875235477052243, 37.406832184685463 ], [ 126.87541093565612, 37.406793676934612 ], [ 126.875572607234091, 37.406714534603388 ], [ 126.875720800947349, 37.406606495173925 ], [ 126.875755234835552, 37.406581371113084 ], [ 126.877310092225315, 37.404895049976744 ], [ 126.877406114843723, 37.404746437982318 ], [ 126.877429127367563, 37.404505835536732 ], [ 126.87728347042983, 37.403359286455341 ], [ 126.877003777160851, 37.402054116632577 ], [ 126.87498748064499, 37.401574776899864 ], [ 126.874449314938076, 37.401691154738636 ], [ 126.874341473282627, 37.401714481187348 ], [ 126.874101087138399, 37.401766784394184 ], [ 126.872697138321328, 37.401947984029761 ], [ 126.870610820373258, 37.402155478176063 ], [ 126.870450052681861, 37.402151314253942 ], [ 126.870282519800767, 37.40214696986363 ], [ 126.868695291856881, 37.402037101900163 ], [ 126.865735758625291, 37.401620154460254 ], [ 126.86197071959414, 37.401514267528839 ], [ 126.859320801144833, 37.401791009436458 ], [ 126.857691004864009, 37.402238768601443 ], [ 126.853743600895982, 37.405471255443679 ], [ 126.853802946513852, 37.405740485213258 ], [ 126.852843633049943, 37.408294277512731 ], [ 126.852146718018702, 37.408780785460152 ], [ 126.84745784479766, 37.411305337141236 ], [ 126.847147756275561, 37.411447524481225 ], [ 126.846832291321874, 37.411669991087855 ], [ 126.84654648308873, 37.412114443890417 ], [ 126.846318257498694, 37.412469364535248 ], [ 126.845795329122339, 37.414777346653459 ], [ 126.845531155021803, 37.416016403009621 ], [ 126.844598634707708, 37.420966465887147 ], [ 126.845044141528064, 37.422204929178491 ], [ 126.845266590893019, 37.422406065731941 ], [ 126.845302181871944, 37.422422685684559 ], [ 126.845459739717967, 37.422499047333012 ], [ 126.84552361281257, 37.42262671850068 ], [ 126.845507035092581, 37.422908270191606 ], [ 126.844887865936727, 37.423833762484321 ], [ 126.84418417238507, 37.424509920719672 ], [ 126.84312190599708, 37.425390728990976 ], [ 126.841930042955681, 37.426378969558897 ], [ 126.841914318276892, 37.427852609093414 ], [ 126.840607016155772, 37.430729659716604 ], [ 126.840044576472962, 37.431711503353725 ], [ 126.840267454505579, 37.432388545870978 ], [ 126.840617919665135, 37.433104830204279 ], [ 126.840791927614362, 37.433272822097685 ], [ 126.840921945705517, 37.433398341491007 ], [ 126.841162060121661, 37.433488689519784 ], [ 126.84149648652577, 37.433559921859477 ], [ 126.841656356933612, 37.433593972576276 ], [ 126.841857992807007, 37.433800268689005 ], [ 126.841744427946296, 37.434428222071176 ], [ 126.84104588482073, 37.435377519868275 ], [ 126.840885361137524, 37.435556897006009 ], [ 126.839745823872875, 37.436601748936582 ], [ 126.839184721371382, 37.436780011170093 ], [ 126.838768259461673, 37.436818243303257 ], [ 126.838502718396697, 37.436646626585798 ], [ 126.837805032434559, 37.436932281932037 ], [ 126.83771444390942, 37.442434684616089 ], [ 126.837757839805221, 37.443008309643751 ], [ 126.838362204923243, 37.446219884663989 ], [ 126.838466565627257, 37.450727164302755 ], [ 126.838109060840523, 37.452944377723469 ], [ 126.838832426021213, 37.455697670264108 ], [ 126.840516869348519, 37.458141772590004 ], [ 126.841555281054866, 37.4577058987757 ], [ 126.842295132525336, 37.457355343601968 ], [ 126.843348478267927, 37.456697342410848 ], [ 126.843637982876913, 37.456400375056617 ], [ 126.847167143996074, 37.456962992844105 ], [ 126.847334394734332, 37.457558812839281 ], [ 126.847855330153493, 37.458034901605991 ], [ 126.84991263443878, 37.457905480050584 ], [ 126.853239638164212, 37.458026183789286 ], [ 126.854386211578444, 37.458070761999288 ], [ 126.854490507745084, 37.45809384497047 ], [ 126.854584964867882, 37.458132688440308 ], [ 126.854653194797621, 37.458169115385758 ], [ 126.856074060046851, 37.459108645969103 ], [ 126.856993501672974, 37.458115398382937 ], [ 126.856850425707435, 37.45311883925288 ], [ 126.857215748730155, 37.450313093134397 ], [ 126.857459995968313, 37.449762338693048 ], [ 126.85941768378791, 37.446734257008224 ], [ 126.859597116591658, 37.446572984616189 ], [ 126.859645258422475, 37.446550754731604 ], [ 126.859887251325461, 37.446439351471533 ], [ 126.860362516141123, 37.446221091385553 ], [ 126.861314925086219, 37.445894992205133 ], [ 126.863806495380004, 37.444786236723544 ], [ 126.866443341210669, 37.443610634748765 ] ] ] ] } }
]
}
