{
"type": "FeatureCollection",
"name": "hanamshi",
"crs": { "type": "name", "properties": { "name": "urn:ogc:def:crs:OGC:1.3:CRS84" } },
"features": [
{ "type": "Feature", "properties": { "OBJECTID": 1473, "adm_nm": "경기도 하남시 천현동", "adm_cd": "3118051", "adm_cd2": "4145051000", "sgg": "41450", "sido": "41", "sidonm": "경기도", "sggnm": "하남시" }, "geometry": { "type": "MultiPolygon", "coordinates": [ [ [ [ 127.237267942148975, 37.545711732440587 ], [ 127.238421022884893, 37.544996367633082 ], [ 127.23897967241642, 37.544673115181716 ], [ 127.23936742073559, 37.544457642264433 ], [ 127.239677191698618, 37.544291578054953 ], [ 127.240097419861385, 37.544098711862958 ], [ 127.240279939093838, 37.544018964735194 ], [ 127.240436121435707, 37.543950732865653 ], [ 127.240774692933812, 37.543839934506607 ], [ 127.241047994868666, 37.543750875218493 ], [ 127.241207460237291, 37.543698919929113 ], [ 127.24182222147823, 37.543510980532041 ], [ 127.242129600947251, 37.543417009626772 ], [ 127.243786879826061, 37.542912475800335 ], [ 127.244310488469864, 37.542755270107492 ], [ 127.245072305199216, 37.542526548171573 ], [ 127.247590800927767, 37.541739889131371 ], [ 127.248109946755008, 37.541571993930276 ], [ 127.248356139733303, 37.541485772126528 ], [ 127.248547743643996, 37.541401668947117 ], [ 127.252832581325393, 37.539159571938313 ], [ 127.255493062174637, 37.537728571040006 ], [ 127.258118241103531, 37.536244481661889 ], [ 127.259140283718054, 37.535646039223259 ], [ 127.259471987403046, 37.535450669672059 ], [ 127.260934703944031, 37.534653692478244 ], [ 127.263466627672045, 37.533274068346628 ], [ 127.263817282912356, 37.533117032220758 ], [ 127.27021515397135, 37.530270170876832 ], [ 127.27898980120284, 37.52636479127721 ], [ 127.280098703391218, 37.52571450119563 ], [ 127.281647952151985, 37.524679683641324 ], [ 127.282835184746546, 37.523585591946343 ], [ 127.283582942074077, 37.522807286843367 ], [ 127.284784193622585, 37.521490169682536 ], [ 127.285392710906919, 37.520176542457513 ], [ 127.28568163590495, 37.519552690929387 ], [ 127.286368870032575, 37.517897682957937 ], [ 127.286846938263011, 37.516670440403587 ], [ 127.287004588386893, 37.516194129360031 ], [ 127.287339167459081, 37.515180699246784 ], [ 127.287582955169839, 37.513496716072801 ], [ 127.283200943019281, 37.51353607593699 ], [ 127.282962665206526, 37.513517047738844 ], [ 127.282861577473483, 37.513501651450717 ], [ 127.281613278897126, 37.513278516161265 ], [ 127.281315704198192, 37.513220503716632 ], [ 127.280432467555755, 37.512952963114515 ], [ 127.280340361982581, 37.512917548573348 ], [ 127.280029109362673, 37.512797854222349 ], [ 127.27964840858894, 37.512630392479522 ], [ 127.279570774885713, 37.512576165847065 ], [ 127.278281597959165, 37.511358039534095 ], [ 127.278210440607722, 37.511275681793983 ], [ 127.278190029395518, 37.511233930181213 ], [ 127.277735089114913, 37.510113424984574 ], [ 127.277747955116723, 37.510066960476884 ], [ 127.277801005750987, 37.509946611095515 ], [ 127.277829837778242, 37.509881208319023 ], [ 127.277927956128138, 37.509703373552625 ], [ 127.277960782151212, 37.509599760440381 ], [ 127.277939724927023, 37.509550163894303 ], [ 127.277249173481351, 37.508949456976609 ], [ 127.276413770477163, 37.508314670750508 ], [ 127.2763099874754, 37.508259265740868 ], [ 127.276220978802357, 37.508227549424973 ], [ 127.276095174075365, 37.508203650231714 ], [ 127.276056625364703, 37.50819970129205 ], [ 127.276016696676351, 37.508195614518613 ], [ 127.275977094985549, 37.508191906924509 ], [ 127.275856921216587, 37.508180664288247 ], [ 127.27566598674882, 37.508180301829036 ], [ 127.275503360290543, 37.508184175191936 ], [ 127.275440661264852, 37.508185601852603 ], [ 127.27537320031476, 37.508186505647409 ], [ 127.2753222912079, 37.508184155417105 ], [ 127.275164684981135, 37.508175982124108 ], [ 127.274985053707752, 37.508158725990057 ], [ 127.274921093013447, 37.508150762269608 ], [ 127.274782879146329, 37.50813355319228 ], [ 127.274724439789239, 37.50812568101508 ], [ 127.274331925466655, 37.508060583442358 ], [ 127.273798996186983, 37.507969427747696 ], [ 127.273511468103138, 37.507871980205529 ], [ 127.273290510378956, 37.507746492133286 ], [ 127.272080375816259, 37.507571777582719 ], [ 127.271782484818104, 37.507627537655232 ], [ 127.271489672768695, 37.507642754451084 ], [ 127.271423220424097, 37.507635856639602 ], [ 127.271335161748183, 37.507610768010331 ], [ 127.271281210806251, 37.507595020393609 ], [ 127.270920948802186, 37.507467004668669 ], [ 127.270422023355763, 37.507262904730638 ], [ 127.269998191546534, 37.506993600053384 ], [ 127.269910646552816, 37.506928729673945 ], [ 127.269773027345124, 37.506840578569268 ], [ 127.269701963681541, 37.506795507061838 ], [ 127.269630459672243, 37.506750164243549 ], [ 127.269204086299425, 37.506507090444153 ], [ 127.268957622605456, 37.506397318282445 ], [ 127.268909879751817, 37.50637765628435 ], [ 127.268701958483234, 37.506292034409618 ], [ 127.268559973776433, 37.506244434708655 ], [ 127.26844194432617, 37.50622166930264 ], [ 127.268361340142548, 37.506218131154647 ], [ 127.268252425755136, 37.506222424347072 ], [ 127.268158238884908, 37.506230148993637 ], [ 127.264011089012257, 37.506850615313205 ], [ 127.262421769810743, 37.50718093400932 ], [ 127.262284485355394, 37.507211078834942 ], [ 127.262142993608094, 37.507229947984712 ], [ 127.261201717953028, 37.507242700529382 ], [ 127.261031342340743, 37.507228831017947 ], [ 127.260994581058142, 37.507225376529917 ], [ 127.260889151472497, 37.507214919166671 ], [ 127.25949186016085, 37.50700712591896 ], [ 127.256712893336029, 37.506521459023162 ], [ 127.256487040797154, 37.506467236325008 ], [ 127.256225338531252, 37.506404403304465 ], [ 127.254442614718556, 37.50596918304047 ], [ 127.254394687193894, 37.505956716691294 ], [ 127.253377482862518, 37.503657218538656 ], [ 127.253336841535514, 37.503506326481457 ], [ 127.253268503083575, 37.503252503888362 ], [ 127.255534639194622, 37.496153335828318 ], [ 127.255850471130174, 37.495959059749019 ], [ 127.256117003315268, 37.495795120153986 ], [ 127.25727108904087, 37.495083165063818 ], [ 127.257925881634762, 37.494623685568889 ], [ 127.259145115701457, 37.492111367554017 ], [ 127.259164344084439, 37.492066338463673 ], [ 127.259170879254896, 37.492014523251925 ], [ 127.259182564325556, 37.491235992301533 ], [ 127.259181551834928, 37.491110925713734 ], [ 127.259179600376271, 37.491003496941254 ], [ 127.259177946464021, 37.490912617852686 ], [ 127.259156480053804, 37.490773989072657 ], [ 127.25909697285212, 37.490589087714362 ], [ 127.259040269045428, 37.490415459114168 ], [ 127.258961659611501, 37.490209863911822 ], [ 127.258881646805008, 37.490054589056321 ], [ 127.258801495218663, 37.489915840407591 ], [ 127.258731151195704, 37.489805279422711 ], [ 127.25869212937944, 37.489751189867704 ], [ 127.258637532698231, 37.489675516816753 ], [ 127.258543809783177, 37.48958180856777 ], [ 127.258392956979748, 37.489444041823276 ], [ 127.257927708916171, 37.489020574049427 ], [ 127.257650619644991, 37.48878452404513 ], [ 127.257554785917421, 37.488725152726381 ], [ 127.257445081195542, 37.488666690273625 ], [ 127.257393745007576, 37.488639778233853 ], [ 127.257254701742781, 37.48856963674276 ], [ 127.257045687785478, 37.488491464264371 ], [ 127.256715907023718, 37.488372481309689 ], [ 127.256154440996582, 37.488194430661402 ], [ 127.255815400941685, 37.48809908694664 ], [ 127.255634808410193, 37.488033657440056 ], [ 127.255506855100251, 37.487973384253586 ], [ 127.255396071700602, 37.487910059297668 ], [ 127.255137838291503, 37.487750658553729 ], [ 127.255050183474992, 37.487685181870809 ], [ 127.254991145255588, 37.487641063758737 ], [ 127.254831055086228, 37.487519047191753 ], [ 127.253797073112381, 37.486561448545487 ], [ 127.253699121865409, 37.486463220774084 ], [ 127.253646346095834, 37.486389874707086 ], [ 127.253635378143017, 37.486350732527455 ], [ 127.253626780672548, 37.486319977998981 ], [ 127.253664241579827, 37.485028848339653 ], [ 127.253671499692729, 37.484971401339855 ], [ 127.253699575529296, 37.484819354224349 ], [ 127.253735778919534, 37.48473776585692 ], [ 127.253771503615923, 37.484657258119739 ], [ 127.253797027643927, 37.484605424128112 ], [ 127.25308891020218, 37.484131976289802 ], [ 127.252262197425864, 37.483579222983039 ], [ 127.250557560101569, 37.483005530782442 ], [ 127.248988636309718, 37.482444478141112 ], [ 127.248768378853825, 37.482353873291181 ], [ 127.248467792532338, 37.482103736239836 ], [ 127.248257990237406, 37.481929144373375 ], [ 127.247126260602542, 37.480686732940534 ], [ 127.247035414585199, 37.48058700048071 ], [ 127.247018355482822, 37.480415060583056 ], [ 127.246994288364064, 37.480171032334795 ], [ 127.246790850108454, 37.479435694520532 ], [ 127.246223245222922, 37.477815682702975 ], [ 127.245416608900669, 37.477605361940611 ], [ 127.243865770668663, 37.477201045844978 ], [ 127.243472493234989, 37.477182778239168 ], [ 127.243356900605846, 37.477177407453425 ], [ 127.243223330815823, 37.477170356998926 ], [ 127.241736405461353, 37.47686403136435 ], [ 127.240999048632034, 37.476481589471732 ], [ 127.240772909939338, 37.476253486456415 ], [ 127.240515809971782, 37.475992582737881 ], [ 127.240494313157328, 37.475869003052679 ], [ 127.240447205697649, 37.475598164703477 ], [ 127.239361638480801, 37.475141710982918 ], [ 127.239062833710477, 37.475077953929642 ], [ 127.238263295795051, 37.47490830757058 ], [ 127.237460929721152, 37.474931315133837 ], [ 127.231552588586808, 37.477428348740517 ], [ 127.226152057346169, 37.479732464840133 ], [ 127.220507039667211, 37.481001445293998 ], [ 127.215731973085965, 37.482301480333774 ], [ 127.214927458973747, 37.482206429000513 ], [ 127.21448683479808, 37.482154320668556 ], [ 127.214262444976399, 37.482115461128004 ], [ 127.213147396619718, 37.481922354579112 ], [ 127.209366803583947, 37.48107478423136 ], [ 127.206838766458759, 37.480311451186104 ], [ 127.206451258788675, 37.480320820532668 ], [ 127.206343183631404, 37.480323741008284 ], [ 127.205643288217075, 37.480388760939981 ], [ 127.204831268110226, 37.480464192282618 ], [ 127.204149132983744, 37.480635999262162 ], [ 127.203747673917334, 37.480797239303747 ], [ 127.2025856145696, 37.481705749090629 ], [ 127.202495866585522, 37.483082437499625 ], [ 127.20259195783521, 37.483988552258751 ], [ 127.202768111622774, 37.485375796462357 ], [ 127.203914236596304, 37.488201214845134 ], [ 127.204943991773561, 37.491202840119371 ], [ 127.204397810086519, 37.491617535776868 ], [ 127.20368225525138, 37.493781244702227 ], [ 127.204143431749401, 37.494091118762704 ], [ 127.204983693181134, 37.494655148661359 ], [ 127.205792848709194, 37.495198282588539 ], [ 127.205984898467719, 37.496166600550971 ], [ 127.206074607935676, 37.497973923436419 ], [ 127.206121199260224, 37.498912611457406 ], [ 127.206279736233242, 37.499779549739245 ], [ 127.206932583147079, 37.50262046588567 ], [ 127.207224530298959, 37.502743847322463 ], [ 127.207825618951389, 37.502997870476641 ], [ 127.208680185426672, 37.503056311727569 ], [ 127.209742451060535, 37.502858377829476 ], [ 127.211613401702493, 37.503038653905072 ], [ 127.212969959473924, 37.503169347541835 ], [ 127.215116461029083, 37.503997037572361 ], [ 127.215820149139532, 37.504343503934344 ], [ 127.215804674808211, 37.505629035702768 ], [ 127.215755455777725, 37.508350996593904 ], [ 127.215094383363308, 37.509425463929212 ], [ 127.214070762514609, 37.510077582350981 ], [ 127.212613635090847, 37.51163790932582 ], [ 127.211499164164536, 37.513439056302033 ], [ 127.212657877658316, 37.5137393661674 ], [ 127.212898420903699, 37.513915689562474 ], [ 127.213020595152301, 37.514005757570679 ], [ 127.213171323175771, 37.514116882997889 ], [ 127.213363087534219, 37.514827170707143 ], [ 127.213479428127684, 37.515657832168465 ], [ 127.212652074546483, 37.51839596006716 ], [ 127.211404923707789, 37.520485261505812 ], [ 127.2117678426618, 37.52137730932612 ], [ 127.213149148763506, 37.523469114082395 ], [ 127.21375291810439, 37.52497180309728 ], [ 127.213774386931689, 37.525833780490089 ], [ 127.210355563396661, 37.528099124903719 ], [ 127.210213962828234, 37.528132578518175 ], [ 127.208288595079637, 37.528481622053043 ], [ 127.208176754371607, 37.528501626334659 ], [ 127.207946003640274, 37.528540490398882 ], [ 127.207152982851539, 37.528559933938283 ], [ 127.206952107766114, 37.528556055572601 ], [ 127.206881396385612, 37.528546871006924 ], [ 127.206790976782571, 37.52851847457363 ], [ 127.206642684202734, 37.528453884468405 ], [ 127.205690695979513, 37.527882532896832 ], [ 127.203299507277933, 37.527252358514176 ], [ 127.199663494926028, 37.526785728161983 ], [ 127.199316424731066, 37.528117734528486 ], [ 127.199471708475727, 37.53015970427122 ], [ 127.199558158570994, 37.530277416353101 ], [ 127.199741156844524, 37.530526566649101 ], [ 127.201037088941675, 37.532119616740992 ], [ 127.205570476428178, 37.535254221973851 ], [ 127.205696192862248, 37.535306363437549 ], [ 127.207733621893468, 37.536018989556617 ], [ 127.208188801134895, 37.536067414867475 ], [ 127.208721745726322, 37.536241136962808 ], [ 127.210893323458535, 37.535570453712062 ], [ 127.211096495074088, 37.535523827917544 ], [ 127.211524906020003, 37.535425527498099 ], [ 127.216234043007944, 37.537156277810652 ], [ 127.21796228121471, 37.538482034241696 ], [ 127.218129563175907, 37.538582709718391 ], [ 127.218365584028589, 37.538654254781292 ], [ 127.218823178211267, 37.538690272839119 ], [ 127.219449214726922, 37.538738542276924 ], [ 127.219667636884907, 37.538755375568563 ], [ 127.219839545860992, 37.538754656839686 ], [ 127.219967144828075, 37.538713233829398 ], [ 127.220129256634124, 37.538659574522725 ], [ 127.221334482936243, 37.537213491601435 ], [ 127.222106203462175, 37.536286911104142 ], [ 127.222715238381298, 37.535557079628461 ], [ 127.222987390676536, 37.535403396743924 ], [ 127.224915630685814, 37.534881736013865 ], [ 127.225262610748601, 37.534787901091129 ], [ 127.226447956274114, 37.534479684013583 ], [ 127.227364230381497, 37.534241766558537 ], [ 127.228007623796415, 37.534725517651509 ], [ 127.229877986552737, 37.537485724283037 ], [ 127.2295067313554, 37.538225114966053 ], [ 127.229089978493619, 37.538635404297807 ], [ 127.2266420997978, 37.540983434098791 ], [ 127.224015625324071, 37.543372681573523 ], [ 127.224429108488962, 37.545621487756364 ], [ 127.225233958252275, 37.547800058933788 ], [ 127.226861215759797, 37.548987991509804 ], [ 127.229462748559385, 37.546873538999819 ], [ 127.232497848401763, 37.544362287255666 ], [ 127.233086993878899, 37.544222784228104 ], [ 127.234873324867465, 37.544033530413486 ], [ 127.237267942148975, 37.545711732440587 ] ] ] ] } },
{ "type": "Feature", "properties": { "OBJECTID": 1474, "adm_nm": "경기도 하남시 신장1동", "adm_cd": "3118052", "adm_cd2": "4145052000", "sgg": "41450", "sido": "41", "sidonm": "경기도", "sggnm": "하남시" }, "geometry": { "type": "MultiPolygon", "coordinates": [ [ [ [ 127.208721745726322, 37.536241136962808 ], [ 127.208188801134895, 37.536067414867475 ], [ 127.204044181958452, 37.538213620937654 ], [ 127.204294066715093, 37.538534228906514 ], [ 127.204323258980168, 37.538666125558024 ], [ 127.204348832188941, 37.538810444663092 ], [ 127.204374404507845, 37.539024110604259 ], [ 127.204273089705183, 37.539048447765943 ], [ 127.204215441450202, 37.539055601677582 ], [ 127.204372337423251, 37.539495498299502 ], [ 127.204437098750972, 37.539577909279785 ], [ 127.20480226702513, 37.539942785432139 ], [ 127.204990412738582, 37.540095318215783 ], [ 127.205330295281811, 37.540200949627675 ], [ 127.2053952976554, 37.54022251905154 ], [ 127.205521767099256, 37.540266604414761 ], [ 127.205551153636179, 37.54027785452481 ], [ 127.20575838724227, 37.540376905663464 ], [ 127.205837120614802, 37.540490647612543 ], [ 127.205877668976512, 37.540537766119016 ], [ 127.206113805993851, 37.540654707552008 ], [ 127.206279935837728, 37.540685541696213 ], [ 127.206373738851894, 37.540672601638079 ], [ 127.206477737304041, 37.540941793672452 ], [ 127.206380693362334, 37.540970846529454 ], [ 127.206397415969207, 37.541021913946409 ], [ 127.206450994771814, 37.541197289035814 ], [ 127.206482636919745, 37.541314742435475 ], [ 127.20651122624227, 37.541411114504406 ], [ 127.206564116482298, 37.541438827476355 ], [ 127.20656374578023, 37.541559410127952 ], [ 127.206563328655079, 37.541691259626965 ], [ 127.208669016210834, 37.540801396670027 ], [ 127.210779597683015, 37.539763648329547 ], [ 127.210238943285148, 37.539046964942031 ], [ 127.210020827853981, 37.538785244918444 ], [ 127.209605677529382, 37.538338970241824 ], [ 127.208973709803487, 37.537667029595752 ], [ 127.208721745726322, 37.536241136962808 ] ] ] ] } },
{ "type": "Feature", "properties": { "OBJECTID": 1475, "adm_nm": "경기도 하남시 신장2동", "adm_cd": "3118053", "adm_cd2": "4145053000", "sgg": "41450", "sido": "41", "sidonm": "경기도", "sggnm": "하남시" }, "geometry": { "type": "MultiPolygon", "coordinates": [ [ [ [ 127.237267942148975, 37.545711732440587 ], [ 127.234873324867465, 37.544033530413486 ], [ 127.233086993878899, 37.544222784228104 ], [ 127.232497848401763, 37.544362287255666 ], [ 127.229462748559385, 37.546873538999819 ], [ 127.226861215759797, 37.548987991509804 ], [ 127.225233958252275, 37.547800058933788 ], [ 127.224429108488962, 37.545621487756364 ], [ 127.224015625324071, 37.543372681573523 ], [ 127.2266420997978, 37.540983434098791 ], [ 127.229089978493619, 37.538635404297807 ], [ 127.2295067313554, 37.538225114966053 ], [ 127.229877986552737, 37.537485724283037 ], [ 127.228007623796415, 37.534725517651509 ], [ 127.227364230381497, 37.534241766558537 ], [ 127.226447956274114, 37.534479684013583 ], [ 127.225262610748601, 37.534787901091129 ], [ 127.224915630685814, 37.534881736013865 ], [ 127.222987390676536, 37.535403396743924 ], [ 127.222715238381298, 37.535557079628461 ], [ 127.222106203462175, 37.536286911104142 ], [ 127.221334482936243, 37.537213491601435 ], [ 127.220129256634124, 37.538659574522725 ], [ 127.219967144828075, 37.538713233829398 ], [ 127.219839545860992, 37.538754656839686 ], [ 127.219667636884907, 37.538755375568563 ], [ 127.219449214726922, 37.538738542276924 ], [ 127.218823178211267, 37.538690272839119 ], [ 127.218365584028589, 37.538654254781292 ], [ 127.218129563175907, 37.538582709718391 ], [ 127.21796228121471, 37.538482034241696 ], [ 127.216234043007944, 37.537156277810652 ], [ 127.211524906020003, 37.535425527498099 ], [ 127.211096495074088, 37.535523827917544 ], [ 127.210893323458535, 37.535570453712062 ], [ 127.208721745726322, 37.536241136962808 ], [ 127.208973709803487, 37.537667029595752 ], [ 127.209605677529382, 37.538338970241824 ], [ 127.210020827853981, 37.538785244918444 ], [ 127.210238943285148, 37.539046964942031 ], [ 127.210779597683015, 37.539763648329547 ], [ 127.208669016210834, 37.540801396670027 ], [ 127.206563328655079, 37.541691259626965 ], [ 127.206559392630425, 37.541768991905826 ], [ 127.206563798619086, 37.541902633565797 ], [ 127.206719830941438, 37.542531037274856 ], [ 127.206859189539855, 37.542716161509333 ], [ 127.207498740558961, 37.543458095051164 ], [ 127.208586993602793, 37.544533211132219 ], [ 127.210243824832119, 37.546194739153478 ], [ 127.210421431257572, 37.546373192770382 ], [ 127.212727765942219, 37.549008533609012 ], [ 127.212837062631351, 37.54929047328141 ], [ 127.21290423293452, 37.549670332901862 ], [ 127.213046721721142, 37.550892016702562 ], [ 127.213018259727079, 37.551119539902572 ], [ 127.212971212897415, 37.551254304444178 ], [ 127.212942321694996, 37.551336829956163 ], [ 127.211262995310037, 37.551978308914045 ], [ 127.211689025483281, 37.553063230140729 ], [ 127.213093921902285, 37.551868975830921 ], [ 127.214582225624383, 37.550688426470835 ], [ 127.214737905293219, 37.550592555884712 ], [ 127.215065206821123, 37.550391018766874 ], [ 127.216248169108823, 37.549664891188513 ], [ 127.218031703400655, 37.548788092434066 ], [ 127.218580859405805, 37.548567394837121 ], [ 127.219630228496527, 37.550174723617268 ], [ 127.220203908888607, 37.551053410386416 ], [ 127.221518092767639, 37.553067563978267 ], [ 127.22138189220469, 37.553938200163373 ], [ 127.219670610609043, 37.55646465091705 ], [ 127.214599704692617, 37.563953683208403 ], [ 127.214668128374143, 37.563973480083718 ], [ 127.222511332394859, 37.566309781313421 ], [ 127.222830672990256, 37.570098130647956 ], [ 127.223150086481994, 37.569648543312574 ], [ 127.226326372391171, 37.566191371235185 ], [ 127.227019215797441, 37.565454831288875 ], [ 127.229062759104593, 37.563357290453894 ], [ 127.229660676401494, 37.562791934480202 ], [ 127.230327821592056, 37.562242930895806 ], [ 127.230429426324392, 37.562159290083549 ], [ 127.230471351186267, 37.562120070517096 ], [ 127.230891632191899, 37.561726641512877 ], [ 127.233637589881326, 37.558691922310985 ], [ 127.233989087429251, 37.558156394896642 ], [ 127.234226884966731, 37.55774457389478 ], [ 127.234304994492376, 37.557470963007717 ], [ 127.2343665989968, 37.556861560025048 ], [ 127.234384378232861, 37.556238538029952 ], [ 127.234365243604742, 37.555591204483825 ], [ 127.23436037240711, 37.55542613727534 ], [ 127.234357844001806, 37.55532190782904 ], [ 127.234340003382087, 37.554584450524011 ], [ 127.234339669887873, 37.553083692167363 ], [ 127.234352833295361, 37.552915618880704 ], [ 127.23436190522969, 37.552799815035776 ], [ 127.234391849185542, 37.552462009062609 ], [ 127.234427512501469, 37.552059723890885 ], [ 127.234746429910757, 37.54925610463777 ], [ 127.237267942148975, 37.545711732440587 ] ] ] ] } },
{ "type": "Feature", "properties": { "OBJECTID": 1476, "adm_nm": "경기도 하남시 덕풍1동", "adm_cd": "3118054", "adm_cd2": "4145054000", "sgg": "41450", "sido": "41", "sidonm": "경기도", "sggnm": "하남시" }, "geometry": { "type": "MultiPolygon", "coordinates": [ [ [ [ 127.202564792018791, 37.538775505954078 ], [ 127.204044181958452, 37.538213620937654 ], [ 127.208188801134895, 37.536067414867475 ], [ 127.207733621893468, 37.536018989556617 ], [ 127.205696192862248, 37.535306363437549 ], [ 127.205570476428178, 37.535254221973851 ], [ 127.201037088941675, 37.532119616740992 ], [ 127.199741156844524, 37.530526566649101 ], [ 127.199558158570994, 37.530277416353101 ], [ 127.199471708475727, 37.53015970427122 ], [ 127.199316424731066, 37.528117734528486 ], [ 127.199090101695859, 37.52953679585535 ], [ 127.196962562587757, 37.532094598198668 ], [ 127.196865346478305, 37.532165325272693 ], [ 127.195270728970456, 37.532738090755508 ], [ 127.1952072334702, 37.53273792779909 ], [ 127.193899416342603, 37.532308652505911 ], [ 127.190581682023122, 37.533377079995482 ], [ 127.191037047137129, 37.533913503161749 ], [ 127.191152433936566, 37.534065909156944 ], [ 127.19122101630154, 37.534246360105385 ], [ 127.191402617490979, 37.534799935096515 ], [ 127.19128904369343, 37.538680091087691 ], [ 127.193888838926242, 37.540445604317497 ], [ 127.198256903346078, 37.536587158282558 ], [ 127.202245184935464, 37.537846302145141 ], [ 127.202564792018791, 37.538775505954078 ] ] ] ] } },
{ "type": "Feature", "properties": { "OBJECTID": 1477, "adm_nm": "경기도 하남시 덕풍2동", "adm_cd": "3118055", "adm_cd2": "4145055000", "sgg": "41450", "sido": "41", "sidonm": "경기도", "sggnm": "하남시" }, "geometry": { "type": "MultiPolygon", "coordinates": [ [ [ [ 127.202564792018791, 37.538775505954078 ], [ 127.202245184935464, 37.537846302145141 ], [ 127.198256903346078, 37.536587158282558 ], [ 127.193888838926242, 37.540445604317497 ], [ 127.196012459184345, 37.541183471658542 ], [ 127.196077368221879, 37.541227579891284 ], [ 127.196111943986892, 37.541251329497591 ], [ 127.196217589430404, 37.541368777738874 ], [ 127.19630762767234, 37.54166983723912 ], [ 127.196338336234049, 37.541773572265491 ], [ 127.196361368801178, 37.541852500228096 ], [ 127.196394267838897, 37.542113969322173 ], [ 127.196380121145452, 37.542374208773019 ], [ 127.196402762903588, 37.542891536760031 ], [ 127.1966683589024, 37.543962463266979 ], [ 127.196766422915744, 37.544206081425592 ], [ 127.197276610498832, 37.545236063636516 ], [ 127.198474701902796, 37.547111665355366 ], [ 127.199577752739856, 37.546750586761569 ], [ 127.200501104462546, 37.546214371925025 ], [ 127.203891247522265, 37.543061342056653 ], [ 127.202724722263397, 37.541549681846057 ], [ 127.202131629213511, 37.540783313584754 ], [ 127.201499460691949, 37.540001954877951 ], [ 127.202229679632637, 37.539075489504604 ], [ 127.202384607282426, 37.538898988646054 ], [ 127.202564792018791, 37.538775505954078 ] ] ] ] } },
{ "type": "Feature", "properties": { "OBJECTID": 1478, "adm_nm": "경기도 하남시 감북동", "adm_cd": "3118064", "adm_cd2": "4145058000", "sgg": "41450", "sido": "41", "sidonm": "경기도", "sggnm": "하남시" }, "geometry": { "type": "MultiPolygon", "coordinates": [ [ [ [ 127.174134869172278, 37.507144051978067 ], [ 127.172460706260111, 37.508520115086114 ], [ 127.170165408997107, 37.510168034242149 ], [ 127.168153214203954, 37.512563046464663 ], [ 127.165201853568973, 37.514697701711427 ], [ 127.154805326452589, 37.513207359634066 ], [ 127.152423618615714, 37.513004883378962 ], [ 127.152048604053604, 37.513182907641387 ], [ 127.151873252633678, 37.513482149520804 ], [ 127.15187711548873, 37.51538837302666 ], [ 127.150480620890093, 37.515128521259953 ], [ 127.149495364669363, 37.515195182168092 ], [ 127.14863862672803, 37.51500003401793 ], [ 127.147618380607469, 37.515169510119861 ], [ 127.146293110056632, 37.515330011335799 ], [ 127.144662939817238, 37.515546937041783 ], [ 127.145398656702284, 37.516096226188573 ], [ 127.14540462175195, 37.516330498466012 ], [ 127.145408129466148, 37.516485993537749 ], [ 127.144879358418137, 37.516801368019664 ], [ 127.144613052271652, 37.516960197817582 ], [ 127.145009239739181, 37.516933220844997 ], [ 127.144907273944852, 37.517555979107442 ], [ 127.144875956213966, 37.517769795575084 ], [ 127.144837843236999, 37.518030110751852 ], [ 127.1447315398553, 37.519416757654255 ], [ 127.145078334245767, 37.520263951163116 ], [ 127.145241497176798, 37.520657956688041 ], [ 127.145639873429459, 37.521619929127418 ], [ 127.145800088675486, 37.521989966841396 ], [ 127.146350899137872, 37.522011212960088 ], [ 127.146528471960309, 37.522018063058901 ], [ 127.14742156404894, 37.522066927169313 ], [ 127.147763461104319, 37.522169331260862 ], [ 127.148437665158511, 37.523031029922763 ], [ 127.148517781971805, 37.523201363779329 ], [ 127.14854061812666, 37.523249915821651 ], [ 127.148976878374171, 37.524186372820807 ], [ 127.148952270303894, 37.524305729688209 ], [ 127.148972039329834, 37.524361699717069 ], [ 127.149056287512664, 37.524600107035489 ], [ 127.149427758738653, 37.525630971714087 ], [ 127.149582194061367, 37.525882724229298 ], [ 127.149658713268707, 37.525959593738364 ], [ 127.149800442714863, 37.526101950971963 ], [ 127.150819198853199, 37.52697139892112 ], [ 127.151938100811705, 37.527909860842833 ], [ 127.152216418177076, 37.528142780459696 ], [ 127.152431982413347, 37.528333826941932 ], [ 127.152655879206094, 37.528558698458617 ], [ 127.153112491972166, 37.529091841713623 ], [ 127.153264858145036, 37.529331221105096 ], [ 127.153514907482986, 37.530330136647606 ], [ 127.153571844934461, 37.531020969009703 ], [ 127.153552422253881, 37.533996519079544 ], [ 127.156846697454043, 37.531440619880023 ], [ 127.157265422613236, 37.531411442041403 ], [ 127.160593065961379, 37.529983386665599 ], [ 127.161442886079215, 37.529612889048387 ], [ 127.161658233312693, 37.529397090120682 ], [ 127.162794895299868, 37.527510990508759 ], [ 127.162800617100004, 37.527468079651818 ], [ 127.162837389648615, 37.527191098044362 ], [ 127.162554757966888, 37.526967204617947 ], [ 127.161805231370465, 37.526596630386074 ], [ 127.161673273235223, 37.526503169146913 ], [ 127.161413915624493, 37.526319468129408 ], [ 127.161297769966637, 37.526095598174308 ], [ 127.161215463158726, 37.525936948330148 ], [ 127.163133822418388, 37.524977981827277 ], [ 127.163528657579391, 37.524849374773765 ], [ 127.163759684895638, 37.524794292699006 ], [ 127.164543770066871, 37.524607931051264 ], [ 127.166758838279847, 37.524498165362175 ], [ 127.167550160654429, 37.524865432335481 ], [ 127.168654892532871, 37.525209926546609 ], [ 127.169808102377914, 37.525180482027878 ], [ 127.169869438770874, 37.525170900790918 ], [ 127.170028108680839, 37.525140332952731 ], [ 127.170026123475722, 37.525112362745354 ], [ 127.169827571858903, 37.522657857643729 ], [ 127.169150132772415, 37.521819951092603 ], [ 127.168911643303744, 37.521442350488798 ], [ 127.168877589397511, 37.52091657134077 ], [ 127.168930451959255, 37.520314065098148 ], [ 127.168976302797233, 37.520166316548028 ], [ 127.16903736407248, 37.519969594659123 ], [ 127.169629670696281, 37.518613579695305 ], [ 127.170169090194847, 37.518182434498947 ], [ 127.171876283438735, 37.517041457185726 ], [ 127.174363031002216, 37.518049849639347 ], [ 127.174703608699332, 37.518448517775518 ], [ 127.175103862538677, 37.518949874273481 ], [ 127.175349860892325, 37.519618510703317 ], [ 127.175422682526104, 37.520620520010112 ], [ 127.17547608309934, 37.520864033875768 ], [ 127.175580809805339, 37.521017552732879 ], [ 127.175721040851272, 37.521136241292844 ], [ 127.177579777065532, 37.522127192124998 ], [ 127.177664466401836, 37.521566324521352 ], [ 127.177898658394113, 37.521379087150002 ], [ 127.178249010568038, 37.520705773388727 ], [ 127.178341751756932, 37.520238421168798 ], [ 127.178948714232163, 37.518947997211633 ], [ 127.178851696316073, 37.517621260973236 ], [ 127.178943180510245, 37.516630631948054 ], [ 127.180441015209652, 37.515077207490549 ], [ 127.180507348834055, 37.513395140416776 ], [ 127.181232787323708, 37.512627800596498 ], [ 127.181089945694737, 37.511768348018272 ], [ 127.18122781682132, 37.510572071445246 ], [ 127.180545132497343, 37.509601313786746 ], [ 127.180586424464821, 37.507265184870441 ], [ 127.179315431621106, 37.505510398982516 ], [ 127.178774102569648, 37.504763677985849 ], [ 127.178139484857411, 37.504241357608343 ], [ 127.177369553464459, 37.503927014682894 ], [ 127.176756203098307, 37.504561140713236 ], [ 127.174134869172278, 37.507144051978067 ] ] ] ] } },
{ "type": "Feature", "properties": { "OBJECTID": 1479, "adm_nm": "경기도 하남시 춘궁동", "adm_cd": "3118059", "adm_cd2": "4145059000", "sgg": "41450", "sido": "41", "sidonm": "경기도", "sggnm": "하남시" }, "geometry": { "type": "MultiPolygon", "coordinates": [ [ [ [ 127.199316424731066, 37.528117734528486 ], [ 127.199663494926028, 37.526785728161983 ], [ 127.203299507277933, 37.527252358514176 ], [ 127.205690695979513, 37.527882532896832 ], [ 127.206642684202734, 37.528453884468405 ], [ 127.206790976782571, 37.52851847457363 ], [ 127.206881396385612, 37.528546871006924 ], [ 127.206952107766114, 37.528556055572601 ], [ 127.207152982851539, 37.528559933938283 ], [ 127.207946003640274, 37.528540490398882 ], [ 127.208176754371607, 37.528501626334659 ], [ 127.208288595079637, 37.528481622053043 ], [ 127.210213962828234, 37.528132578518175 ], [ 127.210355563396661, 37.528099124903719 ], [ 127.213774386931689, 37.525833780490089 ], [ 127.21375291810439, 37.52497180309728 ], [ 127.213149148763506, 37.523469114082395 ], [ 127.2117678426618, 37.52137730932612 ], [ 127.211404923707789, 37.520485261505812 ], [ 127.212652074546483, 37.51839596006716 ], [ 127.213479428127684, 37.515657832168465 ], [ 127.213363087534219, 37.514827170707143 ], [ 127.213171323175771, 37.514116882997889 ], [ 127.213020595152301, 37.514005757570679 ], [ 127.212898420903699, 37.513915689562474 ], [ 127.212657877658316, 37.5137393661674 ], [ 127.211499164164536, 37.513439056302033 ], [ 127.212613635090847, 37.51163790932582 ], [ 127.214070762514609, 37.510077582350981 ], [ 127.215094383363308, 37.509425463929212 ], [ 127.215755455777725, 37.508350996593904 ], [ 127.215804674808211, 37.505629035702768 ], [ 127.215820149139532, 37.504343503934344 ], [ 127.215116461029083, 37.503997037572361 ], [ 127.212969959473924, 37.503169347541835 ], [ 127.211613401702493, 37.503038653905072 ], [ 127.209742451060535, 37.502858377829476 ], [ 127.208680185426672, 37.503056311727569 ], [ 127.207825618951389, 37.502997870476641 ], [ 127.207224530298959, 37.502743847322463 ], [ 127.206932583147079, 37.50262046588567 ], [ 127.206279736233242, 37.499779549739245 ], [ 127.206121199260224, 37.498912611457406 ], [ 127.206074607935676, 37.497973923436419 ], [ 127.205984898467719, 37.496166600550971 ], [ 127.205792848709194, 37.495198282588539 ], [ 127.204983693181134, 37.494655148661359 ], [ 127.204143431749401, 37.494091118762704 ], [ 127.20368225525138, 37.493781244702227 ], [ 127.204397810086519, 37.491617535776868 ], [ 127.204943991773561, 37.491202840119371 ], [ 127.203914236596304, 37.488201214845134 ], [ 127.202768111622774, 37.485375796462357 ], [ 127.20259195783521, 37.483988552258751 ], [ 127.202495866585522, 37.483082437499625 ], [ 127.2025856145696, 37.481705749090629 ], [ 127.202192734826511, 37.480908254485293 ], [ 127.201943896535468, 37.48077274654969 ], [ 127.201332014364041, 37.480439608531576 ], [ 127.201038543762877, 37.480363371482042 ], [ 127.198042849541793, 37.479585106853278 ], [ 127.197609024298487, 37.47967554735537 ], [ 127.197065795506347, 37.47978879341305 ], [ 127.196289357647373, 37.48009380555775 ], [ 127.196139693779429, 37.480152629710922 ], [ 127.195270457322977, 37.480284619833149 ], [ 127.192382288274615, 37.480723127156615 ], [ 127.18917855638604, 37.480217864504787 ], [ 127.188922034685618, 37.480236253299537 ], [ 127.188420529895723, 37.480272203348221 ], [ 127.187614753408937, 37.480461717867385 ], [ 127.186627218394051, 37.480694290842422 ], [ 127.185472432261136, 37.481015955736638 ], [ 127.184782674669947, 37.481648404267538 ], [ 127.183186209039718, 37.483571794996195 ], [ 127.18097958199327, 37.484112446328538 ], [ 127.179269158291362, 37.484686942781856 ], [ 127.178953309937683, 37.484984779371146 ], [ 127.178925009335089, 37.485011483830341 ], [ 127.17873186421609, 37.485193730419809 ], [ 127.179076919239137, 37.48648127768665 ], [ 127.177061677107687, 37.489049169427801 ], [ 127.176411657424481, 37.490103114023384 ], [ 127.176214955788055, 37.493853406328327 ], [ 127.176029509685037, 37.494788111406585 ], [ 127.1762186441849, 37.495423240810531 ], [ 127.176173269909341, 37.496077408354331 ], [ 127.176287173874215, 37.496830327861893 ], [ 127.175544168325473, 37.497872446981894 ], [ 127.175220236160698, 37.499779160829107 ], [ 127.17693756228563, 37.501888407433754 ], [ 127.177174388577697, 37.502841168345824 ], [ 127.17734009544526, 37.503476330190892 ], [ 127.177405216170726, 37.503904460844282 ], [ 127.177369553464459, 37.503927014682894 ], [ 127.178139484857411, 37.504241357608343 ], [ 127.178774102569648, 37.504763677985849 ], [ 127.179315431621106, 37.505510398982516 ], [ 127.180586424464821, 37.507265184870441 ], [ 127.180545132497343, 37.509601313786746 ], [ 127.18122781682132, 37.510572071445246 ], [ 127.181089945694737, 37.511768348018272 ], [ 127.181232787323708, 37.512627800596498 ], [ 127.180507348834055, 37.513395140416776 ], [ 127.180441015209652, 37.515077207490549 ], [ 127.178943180510245, 37.516630631948054 ], [ 127.178851696316073, 37.517621260973236 ], [ 127.178948714232163, 37.518947997211633 ], [ 127.178341751756932, 37.520238421168798 ], [ 127.178249010568038, 37.520705773388727 ], [ 127.177898658394113, 37.521379087150002 ], [ 127.177664466401836, 37.521566324521352 ], [ 127.177579777065532, 37.522127192124998 ], [ 127.178113433506311, 37.522374268222386 ], [ 127.178711242859663, 37.522506593099273 ], [ 127.180453609885646, 37.523768716512244 ], [ 127.181014351839764, 37.524304287740208 ], [ 127.183918152186919, 37.527271924812538 ], [ 127.188240288145494, 37.53128094818986 ], [ 127.190005367117607, 37.532612844710087 ], [ 127.190581682023122, 37.533377079995482 ], [ 127.193899416342603, 37.532308652505911 ], [ 127.1952072334702, 37.53273792779909 ], [ 127.195270728970456, 37.532738090755508 ], [ 127.196865346478305, 37.532165325272693 ], [ 127.196962562587757, 37.532094598198668 ], [ 127.199090101695859, 37.52953679585535 ], [ 127.199316424731066, 37.528117734528486 ] ] ] ] } },
{ "type": "Feature", "properties": { "OBJECTID": 1480, "adm_nm": "경기도 하남시 초이동", "adm_cd": "3118060", "adm_cd2": "4145060000", "sgg": "41450", "sido": "41", "sidonm": "경기도", "sggnm": "하남시" }, "geometry": { "type": "MultiPolygon", "coordinates": [ [ [ [ 127.183551903455481, 37.54582646715933 ], [ 127.183848397146676, 37.54479075764749 ], [ 127.183893259349446, 37.544680786097899 ], [ 127.183913762233445, 37.5446427721999 ], [ 127.183959595529686, 37.544595010325757 ], [ 127.184068608073133, 37.544581781694902 ], [ 127.184777288954706, 37.544640010413168 ], [ 127.184821135207173, 37.544644634234082 ], [ 127.184891693823531, 37.5446527274378 ], [ 127.184961867725093, 37.544660783518694 ], [ 127.185566157969149, 37.544809991275159 ], [ 127.187286831242076, 37.542438359496117 ], [ 127.187384600501488, 37.541898931024505 ], [ 127.187163046963178, 37.540740100725827 ], [ 127.18713725112292, 37.540536560064545 ], [ 127.187102776785238, 37.540264475235844 ], [ 127.187760576162972, 37.5382640767316 ], [ 127.188777612580097, 37.538499987690095 ], [ 127.189803968126, 37.538732543295005 ], [ 127.190996018467445, 37.538893365512358 ], [ 127.19128904369343, 37.538680091087691 ], [ 127.191402617490979, 37.534799935096515 ], [ 127.19122101630154, 37.534246360105385 ], [ 127.191152433936566, 37.534065909156944 ], [ 127.191037047137129, 37.533913503161749 ], [ 127.190581682023122, 37.533377079995482 ], [ 127.190005367117607, 37.532612844710087 ], [ 127.188240288145494, 37.53128094818986 ], [ 127.183918152186919, 37.527271924812538 ], [ 127.181014351839764, 37.524304287740208 ], [ 127.180453609885646, 37.523768716512244 ], [ 127.178711242859663, 37.522506593099273 ], [ 127.178113433506311, 37.522374268222386 ], [ 127.177579777065532, 37.522127192124998 ], [ 127.175721040851272, 37.521136241292844 ], [ 127.175580809805339, 37.521017552732879 ], [ 127.17547608309934, 37.520864033875768 ], [ 127.175422682526104, 37.520620520010112 ], [ 127.175349860892325, 37.519618510703317 ], [ 127.175103862538677, 37.518949874273481 ], [ 127.174703608699332, 37.518448517775518 ], [ 127.174363031002216, 37.518049849639347 ], [ 127.171876283438735, 37.517041457185726 ], [ 127.170169090194847, 37.518182434498947 ], [ 127.169629670696281, 37.518613579695305 ], [ 127.16903736407248, 37.519969594659123 ], [ 127.168976302797233, 37.520166316548028 ], [ 127.168930451959255, 37.520314065098148 ], [ 127.168877589397511, 37.52091657134077 ], [ 127.168911643303744, 37.521442350488798 ], [ 127.169150132772415, 37.521819951092603 ], [ 127.169827571858903, 37.522657857643729 ], [ 127.170026123475722, 37.525112362745354 ], [ 127.170028108680839, 37.525140332952731 ], [ 127.169869438770874, 37.525170900790918 ], [ 127.169808102377914, 37.525180482027878 ], [ 127.168654892532871, 37.525209926546609 ], [ 127.167550160654429, 37.524865432335481 ], [ 127.166758838279847, 37.524498165362175 ], [ 127.164543770066871, 37.524607931051264 ], [ 127.163759684895638, 37.524794292699006 ], [ 127.163528657579391, 37.524849374773765 ], [ 127.163133822418388, 37.524977981827277 ], [ 127.161215463158726, 37.525936948330148 ], [ 127.161297769966637, 37.526095598174308 ], [ 127.161413915624493, 37.526319468129408 ], [ 127.161673273235223, 37.526503169146913 ], [ 127.161805231370465, 37.526596630386074 ], [ 127.162554757966888, 37.526967204617947 ], [ 127.162837389648615, 37.527191098044362 ], [ 127.162800617100004, 37.527468079651818 ], [ 127.162794895299868, 37.527510990508759 ], [ 127.161658233312693, 37.529397090120682 ], [ 127.161442886079215, 37.529612889048387 ], [ 127.160593065961379, 37.529983386665599 ], [ 127.157265422613236, 37.531411442041403 ], [ 127.156846697454043, 37.531440619880023 ], [ 127.153552422253881, 37.533996519079544 ], [ 127.153852254810971, 37.534172036255768 ], [ 127.154406272330647, 37.534761793472832 ], [ 127.154556904109739, 37.534925606063418 ], [ 127.156731381255085, 37.537576301709294 ], [ 127.156870591193893, 37.53776486539963 ], [ 127.156987220574905, 37.537940968778862 ], [ 127.157008671720334, 37.538046940492642 ], [ 127.157002922977895, 37.538170192428034 ], [ 127.156993759008174, 37.538366878779549 ], [ 127.157563253519328, 37.539034606133129 ], [ 127.158677160101803, 37.540148654591711 ], [ 127.159660204466874, 37.540999794404023 ], [ 127.160402105155214, 37.541597804305681 ], [ 127.163193047455309, 37.545018685686891 ], [ 127.16410987374897, 37.54486470555748 ], [ 127.168599025733045, 37.545189484239437 ], [ 127.17397469013639, 37.545525555061779 ], [ 127.174127199700962, 37.54541112977806 ], [ 127.174245134777678, 37.5453223714741 ], [ 127.174387097297512, 37.545216853696921 ], [ 127.174652424008045, 37.545216341167915 ], [ 127.175590599214658, 37.545214531852778 ], [ 127.176892834413735, 37.545855809875334 ], [ 127.177631726369938, 37.546212740993433 ], [ 127.178842671315891, 37.546579646795259 ], [ 127.179046356445852, 37.5466413585008 ], [ 127.1792535798253, 37.546603668026549 ], [ 127.179766480915049, 37.546510362769247 ], [ 127.180131137420403, 37.546443749454916 ], [ 127.180612316797806, 37.546098029895781 ], [ 127.18090901654152, 37.545881348355991 ], [ 127.183551903455481, 37.54582646715933 ] ] ] ] } },
{ "type": "Feature", "properties": { "OBJECTID": 1481, "adm_nm": "경기도 하남시 풍산동", "adm_cd": "3118061", "adm_cd2": "4145057000", "sgg": "41450", "sido": "41", "sidonm": "경기도", "sggnm": "하남시" }, "geometry": { "type": "MultiPolygon", "coordinates": [ [ [ [ 127.197737844466644, 37.555581354639799 ], [ 127.195593476916443, 37.554792869213642 ], [ 127.192853287302086, 37.553494580846547 ], [ 127.193567925894342, 37.552307792601511 ], [ 127.196481178140715, 37.551911943568093 ], [ 127.196942137151268, 37.551501983296994 ], [ 127.197486858228473, 37.55221197173676 ], [ 127.197850900024221, 37.552651187927466 ], [ 127.198173444806017, 37.55303907287928 ], [ 127.198312838182844, 37.553206702637581 ], [ 127.199188432840799, 37.552780792812491 ], [ 127.199157315573643, 37.55241050884343 ], [ 127.199110908171306, 37.552001049025741 ], [ 127.198687117910339, 37.552047433706491 ], [ 127.198529024232812, 37.55170525418901 ], [ 127.197813751229745, 37.549233828358318 ], [ 127.197741258161116, 37.548963236040976 ], [ 127.198396931416013, 37.549021247367115 ], [ 127.198557629436493, 37.548999123824174 ], [ 127.198474701902796, 37.547111665355366 ], [ 127.197276610498832, 37.545236063636516 ], [ 127.196766422915744, 37.544206081425592 ], [ 127.1966683589024, 37.543962463266979 ], [ 127.196402762903588, 37.542891536760031 ], [ 127.196380121145452, 37.542374208773019 ], [ 127.196394267838897, 37.542113969322173 ], [ 127.196361368801178, 37.541852500228096 ], [ 127.196338336234049, 37.541773572265491 ], [ 127.19630762767234, 37.54166983723912 ], [ 127.196217589430404, 37.541368777738874 ], [ 127.196111943986892, 37.541251329497591 ], [ 127.196077368221879, 37.541227579891284 ], [ 127.196012459184345, 37.541183471658542 ], [ 127.193888838926242, 37.540445604317497 ], [ 127.19128904369343, 37.538680091087691 ], [ 127.190996018467445, 37.538893365512358 ], [ 127.189803968126, 37.538732543295005 ], [ 127.188777612580097, 37.538499987690095 ], [ 127.187760576162972, 37.5382640767316 ], [ 127.187102776785238, 37.540264475235844 ], [ 127.18713725112292, 37.540536560064545 ], [ 127.187163046963178, 37.540740100725827 ], [ 127.187384600501488, 37.541898931024505 ], [ 127.187286831242076, 37.542438359496117 ], [ 127.185566157969149, 37.544809991275159 ], [ 127.184961867725093, 37.544660783518694 ], [ 127.184891693823531, 37.5446527274378 ], [ 127.184821135207173, 37.544644634234082 ], [ 127.184777288954706, 37.544640010413168 ], [ 127.184068608073133, 37.544581781694902 ], [ 127.183959595529686, 37.544595010325757 ], [ 127.183913762233445, 37.5446427721999 ], [ 127.183893259349446, 37.544680786097899 ], [ 127.183848397146676, 37.54479075764749 ], [ 127.183551903455481, 37.54582646715933 ], [ 127.183365652246991, 37.546015308535097 ], [ 127.182825610153103, 37.546563686343575 ], [ 127.181389444386355, 37.552852408572733 ], [ 127.18137825185363, 37.553021580722216 ], [ 127.18136978094293, 37.55314980264275 ], [ 127.181584281077576, 37.557616593259461 ], [ 127.181648733923254, 37.557894339095725 ], [ 127.18171353209101, 37.558173527982227 ], [ 127.18182919515597, 37.558653964031315 ], [ 127.181847637462525, 37.558730528775442 ], [ 127.181878326396358, 37.558857874550348 ], [ 127.184749183453249, 37.55948144669739 ], [ 127.187566173423988, 37.560093240351115 ], [ 127.189249563030046, 37.559918551532718 ], [ 127.190291557100039, 37.559900396069374 ], [ 127.192184930961119, 37.560389446782985 ], [ 127.193872343002667, 37.560836570150009 ], [ 127.194406313626445, 37.560033575141489 ], [ 127.197737844466644, 37.555581354639799 ] ] ] ] } },
{ "type": "Feature", "properties": { "OBJECTID": 1482, "adm_nm": "경기도 하남시 미사1동", "adm_cd": "3118062", "adm_cd2": "4145061000", "sgg": "41450", "sido": "41", "sidonm": "경기도", "sggnm": "하남시" }, "geometry": { "type": "MultiPolygon", "coordinates": [ [ [ [ 127.222830672990256, 37.570098130647956 ], [ 127.222511332394859, 37.566309781313421 ], [ 127.214668128374143, 37.563973480083718 ], [ 127.214599704692617, 37.563953683208403 ], [ 127.219670610609043, 37.55646465091705 ], [ 127.22138189220469, 37.553938200163373 ], [ 127.221518092767639, 37.553067563978267 ], [ 127.220203908888607, 37.551053410386416 ], [ 127.219630228496527, 37.550174723617268 ], [ 127.218580859405805, 37.548567394837121 ], [ 127.218031703400655, 37.548788092434066 ], [ 127.216248169108823, 37.549664891188513 ], [ 127.215065206821123, 37.550391018766874 ], [ 127.214737905293219, 37.550592555884712 ], [ 127.214582225624383, 37.550688426470835 ], [ 127.213093921902285, 37.551868975830921 ], [ 127.211689025483281, 37.553063230140729 ], [ 127.211631061812668, 37.553112600054284 ], [ 127.211438490768685, 37.553276626977002 ], [ 127.212829613146425, 37.555249327840563 ], [ 127.206016197291916, 37.561545637995955 ], [ 127.205676696906281, 37.561859139404071 ], [ 127.203461899959677, 37.560193979833322 ], [ 127.197771954667402, 37.555608890016636 ], [ 127.197737844466644, 37.555581354639799 ], [ 127.194406313626445, 37.560033575141489 ], [ 127.193872343002667, 37.560836570150009 ], [ 127.192184930961119, 37.560389446782985 ], [ 127.190291557100039, 37.559900396069374 ], [ 127.189249563030046, 37.559918551532718 ], [ 127.187566173423988, 37.560093240351115 ], [ 127.184749183453249, 37.55948144669739 ], [ 127.181878326396358, 37.558857874550348 ], [ 127.18193436201706, 37.559151875950235 ], [ 127.181984239908459, 37.559413618390828 ], [ 127.181986189163894, 37.559451823022677 ], [ 127.181992677028234, 37.55959165852429 ], [ 127.182021156874484, 37.560218176193899 ], [ 127.181992536578093, 37.560623708330986 ], [ 127.18196925443641, 37.560941372822619 ], [ 127.181824645033856, 37.56133194537491 ], [ 127.181558200650457, 37.561749229781277 ], [ 127.181116490156441, 37.562442079813657 ], [ 127.179759313866413, 37.565050077449413 ], [ 127.179650200952622, 37.565411449336452 ], [ 127.17960475441339, 37.565563555519248 ], [ 127.179574409742031, 37.565670175330709 ], [ 127.179569669346392, 37.56570755058582 ], [ 127.179475622441515, 37.566537252929827 ], [ 127.182325619662208, 37.56665543223184 ], [ 127.18532712492231, 37.566720820027406 ], [ 127.18593721044455, 37.566732157542255 ], [ 127.190246103888782, 37.567386341384832 ], [ 127.196895235129105, 37.569138984449722 ], [ 127.196826881823469, 37.569307451145512 ], [ 127.196468492637266, 37.570244649140939 ], [ 127.195751698276851, 37.572119077386041 ], [ 127.193396168735035, 37.578659212848606 ], [ 127.193328276250924, 37.579028518401628 ], [ 127.193823247797582, 37.579093285419553 ], [ 127.196237987856037, 37.579663373143823 ], [ 127.1992165108893, 37.581696345065154 ], [ 127.204748765904, 37.585304376265704 ], [ 127.205535877018519, 37.584327250335186 ], [ 127.208434570418561, 37.581811789897181 ], [ 127.210675443276017, 37.579867056909308 ], [ 127.211496441817403, 37.57915470192664 ], [ 127.212900890545072, 37.577834256667103 ], [ 127.21306854120877, 37.577676927712318 ], [ 127.214400407619706, 37.577142924702002 ], [ 127.21858020346923, 37.575466110425282 ], [ 127.221659736555623, 37.572265722954079 ], [ 127.222668870496605, 37.570587074566404 ], [ 127.222830672990256, 37.570098130647956 ] ] ] ] } },
{ "type": "Feature", "properties": { "OBJECTID": 1483, "adm_nm": "경기도 하남시 미사2동", "adm_cd": "3118063", "adm_cd2": "4145062000", "sgg": "41450", "sido": "41", "sidonm": "경기도", "sggnm": "하남시" }, "geometry": { "type": "MultiPolygon", "coordinates": [ [ [ [ 127.202432786521271, 37.588179502248849 ], [ 127.204748765904, 37.585304376265704 ], [ 127.1992165108893, 37.581696345065154 ], [ 127.196237987856037, 37.579663373143823 ], [ 127.193823247797582, 37.579093285419553 ], [ 127.193328276250924, 37.579028518401628 ], [ 127.193396168735035, 37.578659212848606 ], [ 127.195751698276851, 37.572119077386041 ], [ 127.196468492637266, 37.570244649140939 ], [ 127.196826881823469, 37.569307451145512 ], [ 127.196895235129105, 37.569138984449722 ], [ 127.190246103888782, 37.567386341384832 ], [ 127.18593721044455, 37.566732157542255 ], [ 127.18532712492231, 37.566720820027406 ], [ 127.182325619662208, 37.56665543223184 ], [ 127.179475622441515, 37.566537252929827 ], [ 127.179452741250614, 37.567560639905999 ], [ 127.179422063947399, 37.567738023934176 ], [ 127.179399758554823, 37.567866955939763 ], [ 127.179255390919522, 37.568691301400236 ], [ 127.179242650880582, 37.568762771080102 ], [ 127.179232904461756, 37.568817429654253 ], [ 127.179113651309521, 37.569147789257919 ], [ 127.177822987763633, 37.571469199470343 ], [ 127.176139001170725, 37.57413484646591 ], [ 127.176059104895913, 37.574278843505482 ], [ 127.175919384457401, 37.574607345171586 ], [ 127.175817407657902, 37.574847158173185 ], [ 127.175359490859506, 37.577286308390285 ], [ 127.17540399293685, 37.57761111545102 ], [ 127.175460340342696, 37.578022313483189 ], [ 127.175509753356565, 37.578379609640919 ], [ 127.176973080084224, 37.579455013747619 ], [ 127.177379706781608, 37.580216730603965 ], [ 127.177667259253823, 37.580834941347462 ], [ 127.176936544817366, 37.580710119440418 ], [ 127.175010545655496, 37.580052495453423 ], [ 127.173952945659934, 37.579582003364848 ], [ 127.171920033443641, 37.579419761166648 ], [ 127.168632624572609, 37.579303543403697 ], [ 127.168557130872927, 37.57982923347749 ], [ 127.169356992995944, 37.580333648723865 ], [ 127.170761957211042, 37.580918094963614 ], [ 127.171776887193232, 37.58197731933268 ], [ 127.173241857984721, 37.58258750838386 ], [ 127.174761848769108, 37.583800831384018 ], [ 127.176805634697203, 37.585551222405122 ], [ 127.177471127405269, 37.586231614882443 ], [ 127.178608514701324, 37.586763672525862 ], [ 127.180221634564916, 37.587885417231597 ], [ 127.180973258102483, 37.588851438122873 ], [ 127.181597486153876, 37.589930856297727 ], [ 127.182432217342139, 37.590906912895925 ], [ 127.183377877756683, 37.591701327386886 ], [ 127.184785913407836, 37.591815724938556 ], [ 127.185331023298957, 37.591721474190109 ], [ 127.189350349799795, 37.591837516778796 ], [ 127.191235076631344, 37.591709945793525 ], [ 127.191353305197183, 37.591711381699369 ], [ 127.19194088777779, 37.591757894055888 ], [ 127.192368887062102, 37.591791774386245 ], [ 127.192959785906964, 37.591853027375898 ], [ 127.193715605077998, 37.591921465599263 ], [ 127.194024010149207, 37.591944718095348 ], [ 127.194644396196225, 37.591934012268851 ], [ 127.195060795972566, 37.591904668245313 ], [ 127.196458873558996, 37.591765182729411 ], [ 127.197118376025173, 37.591666601797584 ], [ 127.197217052408405, 37.591650187215897 ], [ 127.197569660058491, 37.591590017584252 ], [ 127.197879283040777, 37.591527716054713 ], [ 127.198259848059806, 37.591431794485658 ], [ 127.198638282606822, 37.59133586624673 ], [ 127.199287541229708, 37.591143732008767 ], [ 127.199737944944715, 37.590929681439782 ], [ 127.199891181757579, 37.590850076382075 ], [ 127.200282797012875, 37.590643761037555 ], [ 127.200637588309917, 37.590439604367937 ], [ 127.200779505189104, 37.590357716062037 ], [ 127.201245604074316, 37.590043271096555 ], [ 127.20162139474121, 37.589789743580695 ], [ 127.201952319880888, 37.589532568280895 ], [ 127.202044804348702, 37.589419006359876 ], [ 127.202167926583556, 37.589265988469649 ], [ 127.202298778953846, 37.588929538196787 ], [ 127.202406342207397, 37.588408153147256 ], [ 127.202432786521271, 37.588179502248849 ] ] ] ] } },
{ "type": "Feature", "properties": { "OBJECTID": 3439, "adm_nm": "경기도 하남시 덕풍3동", "adm_cd": "3118056", "adm_cd2": "4145056000", "sgg": "41450", "sido": "41", "sidonm": "경기도", "sggnm": "하남시" }, "geometry": { "type": "MultiPolygon", "coordinates": [ [ [ [ 127.211689025483281, 37.553063230140729 ], [ 127.211262995310037, 37.551978308914045 ], [ 127.212942321694996, 37.551336829956163 ], [ 127.212971212897415, 37.551254304444178 ], [ 127.213018259727079, 37.551119539902572 ], [ 127.213046721721142, 37.550892016702562 ], [ 127.21290423293452, 37.549670332901862 ], [ 127.212837062631351, 37.54929047328141 ], [ 127.212727765942219, 37.549008533609012 ], [ 127.210421431257572, 37.546373192770382 ], [ 127.210243824832119, 37.546194739153478 ], [ 127.208586993602793, 37.544533211132219 ], [ 127.207498740558961, 37.543458095051164 ], [ 127.206859189539855, 37.542716161509333 ], [ 127.206719830941438, 37.542531037274856 ], [ 127.206563798619086, 37.541902633565797 ], [ 127.206559392630425, 37.541768991905826 ], [ 127.206563328655079, 37.541691259626965 ], [ 127.20656374578023, 37.541559410127952 ], [ 127.206564116482298, 37.541438827476355 ], [ 127.20651122624227, 37.541411114504406 ], [ 127.206482636919745, 37.541314742435475 ], [ 127.206450994771814, 37.541197289035814 ], [ 127.206397415969207, 37.541021913946409 ], [ 127.206380693362334, 37.540970846529454 ], [ 127.206477737304041, 37.540941793672452 ], [ 127.206373738851894, 37.540672601638079 ], [ 127.206279935837728, 37.540685541696213 ], [ 127.206113805993851, 37.540654707552008 ], [ 127.205877668976512, 37.540537766119016 ], [ 127.205837120614802, 37.540490647612543 ], [ 127.20575838724227, 37.540376905663464 ], [ 127.205551153636179, 37.54027785452481 ], [ 127.205521767099256, 37.540266604414761 ], [ 127.2053952976554, 37.54022251905154 ], [ 127.205330295281811, 37.540200949627675 ], [ 127.204990412738582, 37.540095318215783 ], [ 127.20480226702513, 37.539942785432139 ], [ 127.204437098750972, 37.539577909279785 ], [ 127.204372337423251, 37.539495498299502 ], [ 127.204215441450202, 37.539055601677582 ], [ 127.204273089705183, 37.539048447765943 ], [ 127.204374404507845, 37.539024110604259 ], [ 127.204348832188941, 37.538810444663092 ], [ 127.204323258980168, 37.538666125558024 ], [ 127.204294066715093, 37.538534228906514 ], [ 127.204044181958452, 37.538213620937654 ], [ 127.202564792018791, 37.538775505954078 ], [ 127.202384607282426, 37.538898988646054 ], [ 127.202229679632637, 37.539075489504604 ], [ 127.201499460691949, 37.540001954877951 ], [ 127.202131629213511, 37.540783313584754 ], [ 127.202724722263397, 37.541549681846057 ], [ 127.203891247522265, 37.543061342056653 ], [ 127.200501104462546, 37.546214371925025 ], [ 127.199577752739856, 37.546750586761569 ], [ 127.198474701902796, 37.547111665355366 ], [ 127.198557629436493, 37.548999123824174 ], [ 127.198396931416013, 37.549021247367115 ], [ 127.197741258161116, 37.548963236040976 ], [ 127.197813751229745, 37.549233828358318 ], [ 127.198529024232812, 37.55170525418901 ], [ 127.198687117910339, 37.552047433706491 ], [ 127.199110908171306, 37.552001049025741 ], [ 127.199157315573643, 37.55241050884343 ], [ 127.199188432840799, 37.552780792812491 ], [ 127.198312838182844, 37.553206702637581 ], [ 127.198173444806017, 37.55303907287928 ], [ 127.197850900024221, 37.552651187927466 ], [ 127.197486858228473, 37.55221197173676 ], [ 127.196942137151268, 37.551501983296994 ], [ 127.196481178140715, 37.551911943568093 ], [ 127.193567925894342, 37.552307792601511 ], [ 127.192853287302086, 37.553494580846547 ], [ 127.195593476916443, 37.554792869213642 ], [ 127.197737844466644, 37.555581354639799 ], [ 127.197771954667402, 37.555608890016636 ], [ 127.203461899959677, 37.560193979833322 ], [ 127.205676696906281, 37.561859139404071 ], [ 127.206016197291916, 37.561545637995955 ], [ 127.212829613146425, 37.555249327840563 ], [ 127.211438490768685, 37.553276626977002 ], [ 127.211631061812668, 37.553112600054284 ], [ 127.211689025483281, 37.553063230140729 ] ] ] ] } },
{ "type": "Feature", "properties": { "OBJECTID": 3440, "adm_nm": "경기도 하남시 위례동", "adm_cd": "3118065", "adm_cd2": "4145058500", "sgg": "41450", "sido": "41", "sidonm": "경기도", "sggnm": "하남시" }, "geometry": { "type": "MultiPolygon", "coordinates": [ [ [ [ 127.175792076980059, 37.485278514426234 ], [ 127.175789843026948, 37.485202079742272 ], [ 127.176033750467624, 37.48287920201944 ], [ 127.175588924520184, 37.478146097314792 ], [ 127.17584124283789, 37.47677005459245 ], [ 127.177828190005002, 37.474896992262551 ], [ 127.17801809771494, 37.474780089761438 ], [ 127.179220392386256, 37.474470527896443 ], [ 127.180870481581806, 37.473796397417424 ], [ 127.181053701463085, 37.473289546856087 ], [ 127.180833713155209, 37.473366638971129 ], [ 127.180534586467928, 37.473564131367347 ], [ 127.180217844091061, 37.473746928110096 ], [ 127.180134408806765, 37.473753462528734 ], [ 127.180037067980962, 37.473760117875372 ], [ 127.177811038421538, 37.47342040468201 ], [ 127.177731218882357, 37.473406666505866 ], [ 127.176804693884833, 37.472881343018649 ], [ 127.176298587260561, 37.472556592192021 ], [ 127.175956608311054, 37.47219961484187 ], [ 127.173300171945485, 37.471429518117439 ], [ 127.172206763175907, 37.470934118132497 ], [ 127.171925220231643, 37.470761662370322 ], [ 127.171611804817928, 37.470569665856409 ], [ 127.170735268702941, 37.469945283180444 ], [ 127.167083324251237, 37.469278179173351 ], [ 127.164615248713503, 37.469097701086106 ], [ 127.16405105307831, 37.469300019235042 ], [ 127.163640308855648, 37.46950378561889 ], [ 127.163269719061688, 37.46968763661755 ], [ 127.162498426235331, 37.470196962035239 ], [ 127.162375393238747, 37.470313292535742 ], [ 127.162247492031739, 37.470418411306866 ], [ 127.162797150690039, 37.471259380093855 ], [ 127.156447865045564, 37.471446822937551 ], [ 127.155867240052814, 37.47155280613849 ], [ 127.155444720854575, 37.471511276546657 ], [ 127.154362693681449, 37.47173364742644 ], [ 127.15445251626403, 37.473685278566499 ], [ 127.143445260624105, 37.474104184997621 ], [ 127.143538369500916, 37.475245566397355 ], [ 127.143898496681629, 37.47599537181565 ], [ 127.144189119908589, 37.476559408932474 ], [ 127.144244948196061, 37.477324717487541 ], [ 127.147399570713816, 37.477217809094022 ], [ 127.147719686027884, 37.481750243005322 ], [ 127.14874266819794, 37.483985814413082 ], [ 127.149839723316461, 37.485270635586978 ], [ 127.151963182625451, 37.486578774961536 ], [ 127.152250347132167, 37.486245783115145 ], [ 127.157638637478911, 37.489142800542808 ], [ 127.157297258532211, 37.48962864923903 ], [ 127.157678869648166, 37.49016640067002 ], [ 127.158387368425139, 37.489915866719429 ], [ 127.159066410014645, 37.489374074049231 ], [ 127.159402896649951, 37.489065817199339 ], [ 127.159828332971131, 37.488781933318748 ], [ 127.161041525607985, 37.488289955611741 ], [ 127.161240920157766, 37.488022098501091 ], [ 127.162485010996562, 37.48761041048509 ], [ 127.162914484949653, 37.487309382961989 ], [ 127.163414448423111, 37.4872501699734 ], [ 127.164130462683531, 37.486843146777112 ], [ 127.164912031557378, 37.486564929885326 ], [ 127.16604118188225, 37.486543062755324 ], [ 127.165082132886369, 37.486193656946512 ], [ 127.165324792605816, 37.485896849135756 ], [ 127.166310946357328, 37.485945466594373 ], [ 127.167050804339652, 37.485583928894989 ], [ 127.168504279022756, 37.485902400332918 ], [ 127.169990576480743, 37.485585822232594 ], [ 127.17138307808672, 37.485343570528805 ], [ 127.172887266993357, 37.485191748172817 ], [ 127.175792076980059, 37.485278514426234 ] ] ] ] } },
{ "type": "Feature", "properties": { "OBJECTID": 3488, "adm_nm": "경기도 하남시 감일동", "adm_cd": "3118067", "adm_cd2": "4145058200", "sgg": "41450", "sido": "41", "sidonm": "경기도", "sggnm": "하남시" }, "geometry": { "type": "MultiPolygon", "coordinates": [ [ [ [ 127.141132125887353, 37.515644651224058 ], [ 127.144662939817238, 37.515546937041783 ], [ 127.146293110056632, 37.515330011335799 ], [ 127.147618380607469, 37.515169510119861 ], [ 127.14863862672803, 37.51500003401793 ], [ 127.149495364669363, 37.515195182168092 ], [ 127.150480620890093, 37.515128521259953 ], [ 127.15187711548873, 37.51538837302666 ], [ 127.151873252633678, 37.513482149520804 ], [ 127.152048604053604, 37.513182907641387 ], [ 127.152423618615714, 37.513004883378962 ], [ 127.154805326452589, 37.513207359634066 ], [ 127.165201853568973, 37.514697701711427 ], [ 127.168153214203954, 37.512563046464663 ], [ 127.170165408997107, 37.510168034242149 ], [ 127.172460706260111, 37.508520115086114 ], [ 127.174134869172278, 37.507144051978067 ], [ 127.176756203098307, 37.504561140713236 ], [ 127.177369553464459, 37.503927014682894 ], [ 127.177405216170726, 37.503904460844282 ], [ 127.17734009544526, 37.503476330190892 ], [ 127.177174388577697, 37.502841168345824 ], [ 127.17693756228563, 37.501888407433754 ], [ 127.175220236160698, 37.499779160829107 ], [ 127.175544168325473, 37.497872446981894 ], [ 127.176287173874215, 37.496830327861893 ], [ 127.176173269909341, 37.496077408354331 ], [ 127.1762186441849, 37.495423240810531 ], [ 127.176029509685037, 37.494788111406585 ], [ 127.176214955788055, 37.493853406328327 ], [ 127.176411657424481, 37.490103114023384 ], [ 127.177061677107687, 37.489049169427801 ], [ 127.179076919239137, 37.48648127768665 ], [ 127.17873186421609, 37.485193730419809 ], [ 127.178391503882736, 37.485255577295511 ], [ 127.177812390794088, 37.485492958597831 ], [ 127.177730356013029, 37.485517429561867 ], [ 127.177653657081024, 37.485539968979552 ], [ 127.177476857754954, 37.485554133661822 ], [ 127.176784734276779, 37.485456944519171 ], [ 127.175930279537468, 37.485336954120214 ], [ 127.175858926143164, 37.485324364611124 ], [ 127.175828161105855, 37.485300457121738 ], [ 127.175792076980059, 37.485278514426234 ], [ 127.172887266993357, 37.485191748172817 ], [ 127.17138307808672, 37.485343570528805 ], [ 127.169990576480743, 37.485585822232594 ], [ 127.168504279022756, 37.485902400332918 ], [ 127.167050804339652, 37.485583928894989 ], [ 127.166310946357328, 37.485945466594373 ], [ 127.165324792605816, 37.485896849135756 ], [ 127.165082132886369, 37.486193656946512 ], [ 127.16604118188225, 37.486543062755324 ], [ 127.164912031557378, 37.486564929885326 ], [ 127.164130462683531, 37.486843146777112 ], [ 127.163414448423111, 37.4872501699734 ], [ 127.162914484949653, 37.487309382961989 ], [ 127.162485010996562, 37.48761041048509 ], [ 127.161240920157766, 37.488022098501091 ], [ 127.161041525607985, 37.488289955611741 ], [ 127.159828332971131, 37.488781933318748 ], [ 127.159402896649951, 37.489065817199339 ], [ 127.159066410014645, 37.489374074049231 ], [ 127.158387368425139, 37.489915866719429 ], [ 127.157678869648166, 37.49016640067002 ], [ 127.158201335985893, 37.490458572609207 ], [ 127.158418484450038, 37.490695555392406 ], [ 127.159743530186844, 37.493604277802142 ], [ 127.159806100973753, 37.493761069903741 ], [ 127.159977226500217, 37.494222384615014 ], [ 127.16004833198636, 37.494445677588473 ], [ 127.160054021690328, 37.494595544718116 ], [ 127.160095433526749, 37.497160050159195 ], [ 127.160563196856728, 37.497695444536141 ], [ 127.161376158662932, 37.499612046804145 ], [ 127.161377287182177, 37.499830630469241 ], [ 127.161378218747103, 37.500250659975649 ], [ 127.160552527380645, 37.501145379324392 ], [ 127.157869057555729, 37.503011345363618 ], [ 127.157616971849649, 37.503088356557328 ], [ 127.156471223240729, 37.501900866655475 ], [ 127.15616532064017, 37.502004723063806 ], [ 127.155317531640662, 37.502294105319741 ], [ 127.154564694272551, 37.502551047833961 ], [ 127.154151792088214, 37.502691804202485 ], [ 127.153963405651155, 37.502755474547094 ], [ 127.153718698771428, 37.502750250657321 ], [ 127.153596454527161, 37.502747637941233 ], [ 127.153213177067087, 37.502752147797231 ], [ 127.153013043211303, 37.502909298434915 ], [ 127.152824965447024, 37.503057470541961 ], [ 127.152632339542365, 37.503119999593473 ], [ 127.152150944873625, 37.503088162058162 ], [ 127.152061236037468, 37.503110304814619 ], [ 127.151903245750134, 37.503149931932988 ], [ 127.151673023877592, 37.503372935245025 ], [ 127.150840155245646, 37.504105086208341 ], [ 127.150122653243741, 37.50450970356701 ], [ 127.149287449643651, 37.504073445660651 ], [ 127.148643461639551, 37.503729014512587 ], [ 127.147686140213196, 37.503269912830007 ], [ 127.146052125989698, 37.503369747407667 ], [ 127.145603524577069, 37.503430371917943 ], [ 127.145236894176023, 37.503502506145573 ], [ 127.145133947245824, 37.503591207288622 ], [ 127.145062942563683, 37.50365296257219 ], [ 127.144372177170851, 37.504387705688501 ], [ 127.143561456550728, 37.504451779045546 ], [ 127.143398439364532, 37.504516761933466 ], [ 127.143011678995677, 37.504670952392807 ], [ 127.141135441716969, 37.50545395934769 ], [ 127.141043369936583, 37.505567341246071 ], [ 127.140934759975337, 37.505701944022292 ], [ 127.141160808359558, 37.506307745302735 ], [ 127.141283126749499, 37.506942921065601 ], [ 127.140226742974306, 37.508394175753267 ], [ 127.139971965620461, 37.508593914388278 ], [ 127.14024606386316, 37.509831866959182 ], [ 127.140269588141891, 37.509902479078178 ], [ 127.141125307264986, 37.512323720301659 ], [ 127.1420614099831, 37.512790463765526 ], [ 127.142584782758036, 37.512754155436411 ], [ 127.1435243959871, 37.512689026940834 ], [ 127.143287427519041, 37.513978778417645 ], [ 127.141132125887353, 37.515644651224058 ] ] ] ] } }
]
}
