{
"type": "FeatureCollection",
"name": "osanshi",
"crs": { "type": "name", "properties": { "name": "urn:ogc:def:crs:OGC:1.3:CRS84" } },
"features": [
{ "type": "Feature", "properties": { "OBJECTID": 1433, "adm_nm": "경기도 오산시 중앙동", "adm_cd": "3114051", "adm_cd2": "4137051000", "sgg": "41370", "sido": "41", "sidonm": "경기도", "sggnm": "오산시" }, "geometry": { "type": "MultiPolygon", "coordinates": [ [ [ [ 127.100949273072018, 37.146087206018066 ], [ 127.09962832493359, 37.145278237798074 ], [ 127.099165449489405, 37.145371321923562 ], [ 127.097478813028658, 37.145711524020513 ], [ 127.097306897875768, 37.145746992151892 ], [ 127.097155306591688, 37.145880323587612 ], [ 127.09701221102064, 37.14600618484203 ], [ 127.096737710908499, 37.146247600160983 ], [ 127.09601548449514, 37.146671059117608 ], [ 127.089960546393797, 37.147244073578257 ], [ 127.087833014604911, 37.146978664504793 ], [ 127.087457761398994, 37.147004401420531 ], [ 127.087189507266373, 37.14702374925205 ], [ 127.084192051159391, 37.147542852385762 ], [ 127.081875046513801, 37.148075549636658 ], [ 127.081832733578224, 37.148113494109644 ], [ 127.081809851471348, 37.148133983641173 ], [ 127.081635512951976, 37.148238086542833 ], [ 127.080232451695466, 37.148826931163271 ], [ 127.080102568368645, 37.148857542824452 ], [ 127.079963946404135, 37.148890205640022 ], [ 127.079191407804402, 37.148846901718493 ], [ 127.078493559514527, 37.148788083668641 ], [ 127.077589764414199, 37.148682330266148 ], [ 127.072476436449477, 37.148842025672607 ], [ 127.07052127258639, 37.148910612776064 ], [ 127.070124550070588, 37.148924787043732 ], [ 127.068500633711153, 37.148991224541497 ], [ 127.067173505583625, 37.149057142887436 ], [ 127.066723768068229, 37.154598066151081 ], [ 127.067991804161622, 37.155395937034093 ], [ 127.068077312892299, 37.155449828640918 ], [ 127.068121906699105, 37.155478101693163 ], [ 127.070231333857947, 37.156886496786683 ], [ 127.071481101202238, 37.157727848156952 ], [ 127.073264950970724, 37.15894068950702 ], [ 127.075262758947929, 37.160299984136678 ], [ 127.075615613550625, 37.160564271168532 ], [ 127.076411377517687, 37.161173200325393 ], [ 127.077390769146859, 37.161923388473312 ], [ 127.078133058097038, 37.161865173478517 ], [ 127.082946385963751, 37.161374039208013 ], [ 127.088953558400007, 37.160524542726584 ], [ 127.091647576274738, 37.159678448443223 ], [ 127.093861110164042, 37.159452501114117 ], [ 127.097990235906224, 37.155850796151512 ], [ 127.098028256094238, 37.15572955883993 ], [ 127.098133473789176, 37.155393805712571 ], [ 127.098421288868579, 37.153942379003652 ], [ 127.098061906345947, 37.15295749323225 ], [ 127.099308810901135, 37.150213529828157 ], [ 127.100093868313323, 37.148418986667281 ], [ 127.100949273072018, 37.146087206018066 ] ] ] ] } },
{ "type": "Feature", "properties": { "OBJECTID": 1434, "adm_nm": "경기도 오산시 대원동", "adm_cd": "3114052", "adm_cd2": "4137057000", "sgg": "41370", "sido": "41", "sidonm": "경기도", "sggnm": "오산시" }, "geometry": { "type": "MultiPolygon", "coordinates": [ [ [ [ 127.100949273072018, 37.146087206018066 ], [ 127.103646601986483, 37.14357454892091 ], [ 127.102565038694721, 37.143418812638743 ], [ 127.102491227951361, 37.143403917130335 ], [ 127.100353448491703, 37.142290241337889 ], [ 127.097775253730106, 37.138904592821461 ], [ 127.097704001275673, 37.138805195289194 ], [ 127.097697024592435, 37.138396154201146 ], [ 127.097697299041585, 37.138344323723274 ], [ 127.097803968988046, 37.138265811819259 ], [ 127.097924062237269, 37.138178331191732 ], [ 127.098040326484693, 37.138016470646917 ], [ 127.098112161999737, 37.137873614447457 ], [ 127.098150983735181, 37.137718251816999 ], [ 127.098150076796699, 37.137489514446564 ], [ 127.097974709845232, 37.136981859792556 ], [ 127.097855040929545, 37.136859776227283 ], [ 127.095020408475747, 37.136359980789038 ], [ 127.094812114060034, 37.136360395751915 ], [ 127.093934363499983, 37.136408096832774 ], [ 127.093855981377914, 37.136415895974373 ], [ 127.093813962776039, 37.136420078797066 ], [ 127.093699094242211, 37.136452361460769 ], [ 127.09236704574954, 37.136838777420571 ], [ 127.092266123468079, 37.136892515275179 ], [ 127.091601141611321, 37.137283468732683 ], [ 127.091512144084376, 37.137345134410381 ], [ 127.087854308163742, 37.137606277839112 ], [ 127.08756921007614, 37.137625568080999 ], [ 127.086264601456108, 37.137346071040326 ], [ 127.087164562353152, 37.135114731489054 ], [ 127.087192665167009, 37.135046209066097 ], [ 127.08917277975921, 37.131668268973947 ], [ 127.089900432939203, 37.130741202568359 ], [ 127.090464925314109, 37.130086164529267 ], [ 127.089036740980021, 37.127938184325124 ], [ 127.086224684391766, 37.126595432004947 ], [ 127.085205466912015, 37.126927648145838 ], [ 127.084101766413013, 37.127267446524733 ], [ 127.083726548835017, 37.127302186261154 ], [ 127.083261547994354, 37.127288158058967 ], [ 127.083183598126894, 37.127259714731323 ], [ 127.083138435998421, 37.127242618307051 ], [ 127.083075467499896, 37.127218770729264 ], [ 127.08124338736269, 37.12630638918943 ], [ 127.079312829606536, 37.125777858972796 ], [ 127.079266816765539, 37.125767524092282 ], [ 127.07922151184863, 37.126753463102681 ], [ 127.079189204920581, 37.127539735555786 ], [ 127.079177054525047, 37.127839225135133 ], [ 127.079160525626151, 37.128250581202906 ], [ 127.076613738206362, 37.127186855240119 ], [ 127.074880928891773, 37.126391878208814 ], [ 127.07481021303299, 37.126339829184964 ], [ 127.074641001032319, 37.12602597978259 ], [ 127.074511201168519, 37.125835089652604 ], [ 127.074380345744203, 37.12570616800614 ], [ 127.074257665388885, 37.125608090513289 ], [ 127.074104083567391, 37.125536160160813 ], [ 127.073040474658697, 37.125370110848593 ], [ 127.071135152790632, 37.125605551558372 ], [ 127.070121876330859, 37.127009120333298 ], [ 127.068676899636316, 37.128210647708826 ], [ 127.06751106981622, 37.127582169337842 ], [ 127.06719020356671, 37.127338742631515 ], [ 127.066024456215871, 37.127824166347438 ], [ 127.064982180012265, 37.131169566897142 ], [ 127.06508963269826, 37.131937291381696 ], [ 127.065188105827758, 37.132807464683651 ], [ 127.065553203257068, 37.136026910365388 ], [ 127.066366735578214, 37.143162373121889 ], [ 127.067173505583625, 37.149057142887436 ], [ 127.068500633711153, 37.148991224541497 ], [ 127.070124550070588, 37.148924787043732 ], [ 127.07052127258639, 37.148910612776064 ], [ 127.072476436449477, 37.148842025672607 ], [ 127.077589764414199, 37.148682330266148 ], [ 127.078493559514527, 37.148788083668641 ], [ 127.079191407804402, 37.148846901718493 ], [ 127.079963946404135, 37.148890205640022 ], [ 127.080102568368645, 37.148857542824452 ], [ 127.080232451695466, 37.148826931163271 ], [ 127.081635512951976, 37.148238086542833 ], [ 127.081809851471348, 37.148133983641173 ], [ 127.081832733578224, 37.148113494109644 ], [ 127.081875046513801, 37.148075549636658 ], [ 127.084192051159391, 37.147542852385762 ], [ 127.087189507266373, 37.14702374925205 ], [ 127.087457761398994, 37.147004401420531 ], [ 127.087833014604911, 37.146978664504793 ], [ 127.089960546393797, 37.147244073578257 ], [ 127.09601548449514, 37.146671059117608 ], [ 127.096737710908499, 37.146247600160983 ], [ 127.09701221102064, 37.14600618484203 ], [ 127.097155306591688, 37.145880323587612 ], [ 127.097306897875768, 37.145746992151892 ], [ 127.097478813028658, 37.145711524020513 ], [ 127.099165449489405, 37.145371321923562 ], [ 127.09962832493359, 37.145278237798074 ], [ 127.100949273072018, 37.146087206018066 ] ] ] ] } },
{ "type": "Feature", "properties": { "OBJECTID": 1435, "adm_nm": "경기도 오산시 남촌동", "adm_cd": "3114053", "adm_cd2": "4137053000", "sgg": "41370", "sido": "41", "sidonm": "경기도", "sggnm": "오산시" }, "geometry": { "type": "MultiPolygon", "coordinates": [ [ [ [ 127.066723768068229, 37.154598066151081 ], [ 127.067173505583625, 37.149057142887436 ], [ 127.066366735578214, 37.143162373121889 ], [ 127.065553203257068, 37.136026910365388 ], [ 127.065188105827758, 37.132807464683651 ], [ 127.06508963269826, 37.131937291381696 ], [ 127.060821343218393, 37.132301276426482 ], [ 127.058943546956939, 37.13201486587176 ], [ 127.058664011215924, 37.131925937475792 ], [ 127.058069257227245, 37.131956398033452 ], [ 127.056693736194958, 37.132418871362283 ], [ 127.055794039906516, 37.133207689738981 ], [ 127.055730092976205, 37.133320059397178 ], [ 127.05570355173397, 37.133518251442325 ], [ 127.057383419243479, 37.134214138192881 ], [ 127.059131614940867, 37.13525615349382 ], [ 127.061176356825413, 37.136987696780274 ], [ 127.061789691711169, 37.137892507335323 ], [ 127.061983958480084, 37.138260709599045 ], [ 127.062155767087177, 37.138723251757717 ], [ 127.062298147471523, 37.139653136018374 ], [ 127.062318648242268, 37.139886587928245 ], [ 127.062539396296373, 37.143591088393521 ], [ 127.0625853655078, 37.144528728441685 ], [ 127.062807279828704, 37.149501968864165 ], [ 127.059746997177726, 37.15061515441333 ], [ 127.057247744573772, 37.149043020085976 ], [ 127.056753414085392, 37.148724551166133 ], [ 127.056498491941966, 37.148508385212629 ], [ 127.056388359911267, 37.148325436934456 ], [ 127.056314805418111, 37.148145995863011 ], [ 127.056303689245965, 37.148001737179897 ], [ 127.056319183147238, 37.147969119858729 ], [ 127.056352850043098, 37.147898259603323 ], [ 127.056186179908735, 37.147755663071301 ], [ 127.056145940439421, 37.147737240746046 ], [ 127.056116695794444, 37.147723853412295 ], [ 127.056008439011222, 37.147702039374835 ], [ 127.053671608916304, 37.147262837927961 ], [ 127.053614636743873, 37.147254041923674 ], [ 127.053566833639834, 37.14724666860424 ], [ 127.053448652586184, 37.147237209279773 ], [ 127.05330147004625, 37.1472535561659 ], [ 127.053050847866501, 37.147323372282031 ], [ 127.052830566141253, 37.147384738913843 ], [ 127.051166472668299, 37.148269754343822 ], [ 127.050360382400541, 37.149028359481377 ], [ 127.049669053470822, 37.149772780487048 ], [ 127.049192135118133, 37.150319702315073 ], [ 127.048286094303137, 37.152725275957629 ], [ 127.048186332427676, 37.153758130151324 ], [ 127.048348193672496, 37.154354814689057 ], [ 127.049195293156799, 37.155241423361346 ], [ 127.049336898128644, 37.156290878728427 ], [ 127.04714086325869, 37.156514723107612 ], [ 127.044794281940185, 37.156375028676145 ], [ 127.037729319253231, 37.155709933802491 ], [ 127.03286365651276, 37.155168136123834 ], [ 127.030005352317573, 37.154755608465535 ], [ 127.029868164690143, 37.154746050238785 ], [ 127.029758924102325, 37.154768152131226 ], [ 127.02879470555537, 37.15498404140758 ], [ 127.030102704153876, 37.155402757830714 ], [ 127.030486779123706, 37.156007184235925 ], [ 127.02975744049786, 37.158759143469489 ], [ 127.028883384418549, 37.159410321411741 ], [ 127.028075836267092, 37.160004292749477 ], [ 127.027446062040454, 37.160379941945479 ], [ 127.026974418837895, 37.160661266291157 ], [ 127.027307709668079, 37.161726304153589 ], [ 127.028095052483465, 37.163121926457094 ], [ 127.025270460670043, 37.164672497567977 ], [ 127.024023188251348, 37.165261173481831 ], [ 127.026035703758794, 37.165786581063372 ], [ 127.027488364309974, 37.166629566941936 ], [ 127.031606592873743, 37.168230154605872 ], [ 127.037086929378731, 37.169984636220612 ], [ 127.040437921668399, 37.168404113922968 ], [ 127.043328613264691, 37.168025492584384 ], [ 127.048027944366012, 37.168304052723578 ], [ 127.048301124504803, 37.168298333762067 ], [ 127.048358002395446, 37.168295233365427 ], [ 127.048436333440051, 37.168290961733661 ], [ 127.048515211451871, 37.168285628470535 ], [ 127.048609610270717, 37.168274720466329 ], [ 127.048732288397346, 37.168243638362533 ], [ 127.048883955299388, 37.16819238477138 ], [ 127.049049125645865, 37.168118647128772 ], [ 127.055833689504382, 37.164702010820854 ], [ 127.059550170599564, 37.162341790553967 ], [ 127.060725227746246, 37.161456008518719 ], [ 127.062199406002648, 37.160259314500841 ], [ 127.063715009593153, 37.15896788972519 ], [ 127.06453334402751, 37.15877371657205 ], [ 127.065796025749137, 37.158399761960297 ], [ 127.065904857188059, 37.157978745213143 ], [ 127.066462620573006, 37.155710355336886 ], [ 127.066522162138767, 37.155457871224286 ], [ 127.066572262711716, 37.155245402291349 ], [ 127.066615411551425, 37.155061068028999 ], [ 127.066723768068229, 37.154598066151081 ] ] ] ] } },
{ "type": "Feature", "properties": { "OBJECTID": 1436, "adm_nm": "경기도 오산시 신장동", "adm_cd": "3114054", "adm_cd2": "4137054000", "sgg": "41370", "sido": "41", "sidonm": "경기도", "sggnm": "오산시" }, "geometry": { "type": "MultiPolygon", "coordinates": [ [ [ [ 127.065324430808815, 37.186445406596384 ], [ 127.065347396965706, 37.18637806647039 ], [ 127.065688947104817, 37.185377430556692 ], [ 127.066061173039586, 37.184316260900445 ], [ 127.066594197465122, 37.184071451464604 ], [ 127.06975612414719, 37.18400522896475 ], [ 127.071059042082254, 37.184037604613131 ], [ 127.071555428812403, 37.183710904070892 ], [ 127.071869483588983, 37.183085560607218 ], [ 127.072139538565509, 37.182019453450884 ], [ 127.072217982469652, 37.175975830851478 ], [ 127.070828818669867, 37.173621508277634 ], [ 127.070671355752694, 37.173081218831278 ], [ 127.070646485135626, 37.172976664347125 ], [ 127.070641317235285, 37.172666461514396 ], [ 127.071004966789474, 37.170359042348302 ], [ 127.071033704950452, 37.170219130346204 ], [ 127.071060704363788, 37.170087694309473 ], [ 127.071071561630944, 37.170035902524354 ], [ 127.071576961917955, 37.168053501293514 ], [ 127.071600579409434, 37.167979323070128 ], [ 127.07398961952768, 37.163769229857294 ], [ 127.075359095470617, 37.16258202843251 ], [ 127.075961543854845, 37.162225874534258 ], [ 127.076565421332234, 37.161990286442624 ], [ 127.077390769146859, 37.161923388473312 ], [ 127.076411377517687, 37.161173200325393 ], [ 127.075615613550625, 37.160564271168532 ], [ 127.075262758947929, 37.160299984136678 ], [ 127.073264950970724, 37.15894068950702 ], [ 127.071481101202238, 37.157727848156952 ], [ 127.070231333857947, 37.156886496786683 ], [ 127.068121906699105, 37.155478101693163 ], [ 127.068077312892299, 37.155449828640918 ], [ 127.067991804161622, 37.155395937034093 ], [ 127.066723768068229, 37.154598066151081 ], [ 127.066615411551425, 37.155061068028999 ], [ 127.066572262711716, 37.155245402291349 ], [ 127.066522162138767, 37.155457871224286 ], [ 127.066462620573006, 37.155710355336886 ], [ 127.065904857188059, 37.157978745213143 ], [ 127.065796025749137, 37.158399761960297 ], [ 127.06453334402751, 37.15877371657205 ], [ 127.063715009593153, 37.15896788972519 ], [ 127.062199406002648, 37.160259314500841 ], [ 127.060725227746246, 37.161456008518719 ], [ 127.059550170599564, 37.162341790553967 ], [ 127.055833689504382, 37.164702010820854 ], [ 127.049049125645865, 37.168118647128772 ], [ 127.048883955299388, 37.16819238477138 ], [ 127.048732288397346, 37.168243638362533 ], [ 127.048609610270717, 37.168274720466329 ], [ 127.048515211451871, 37.168285628470535 ], [ 127.048436333440051, 37.168290961733661 ], [ 127.048358002395446, 37.168295233365427 ], [ 127.048301124504803, 37.168298333762067 ], [ 127.048027944366012, 37.168304052723578 ], [ 127.043328613264691, 37.168025492584384 ], [ 127.040437921668399, 37.168404113922968 ], [ 127.037086929378731, 37.169984636220612 ], [ 127.037268385183637, 37.171092347268122 ], [ 127.038325059623389, 37.173374256653197 ], [ 127.038277278001388, 37.173708925730729 ], [ 127.038240485624243, 37.173966603223967 ], [ 127.03745794646423, 37.176566367557996 ], [ 127.040502979759751, 37.178547790580588 ], [ 127.043022904716182, 37.179362043379484 ], [ 127.044404983546883, 37.179808960799058 ], [ 127.043749422222049, 37.180716351720278 ], [ 127.0432982622022, 37.181340568171578 ], [ 127.043258486074876, 37.181424075384534 ], [ 127.043173459929974, 37.181602622902972 ], [ 127.048010164683092, 37.183532966528531 ], [ 127.050465820182737, 37.183994454814311 ], [ 127.052647719323787, 37.183909191964759 ], [ 127.054915389943872, 37.184805618552986 ], [ 127.058105342039596, 37.186098684083177 ], [ 127.059930226094096, 37.186873925970716 ], [ 127.060181302321325, 37.187067885623996 ], [ 127.060608813483142, 37.187398133939645 ], [ 127.061897379804549, 37.186689180388406 ], [ 127.065324430808815, 37.186445406596384 ] ] ] ] } },
{ "type": "Feature", "properties": { "OBJECTID": 1437, "adm_nm": "경기도 오산시 세마동", "adm_cd": "3114055", "adm_cd2": "4137055000", "sgg": "41370", "sido": "41", "sidonm": "경기도", "sggnm": "오산시" }, "geometry": { "type": "MultiPolygon", "coordinates": [ [ [ [ 127.042507112071888, 37.197638322905028 ], [ 127.046098600111634, 37.196263973755386 ], [ 127.046999039503206, 37.196111512274172 ], [ 127.049188027473889, 37.195924222088379 ], [ 127.049440253961421, 37.195906026746243 ], [ 127.049624993653367, 37.195897904435938 ], [ 127.04974582077287, 37.19591845513893 ], [ 127.049852259428548, 37.195959792445933 ], [ 127.049901094405399, 37.1959787641864 ], [ 127.05040747069674, 37.196326586017896 ], [ 127.050642493967402, 37.196482984573557 ], [ 127.050955712230817, 37.19664604660538 ], [ 127.051532029294364, 37.196946072071086 ], [ 127.051725978442676, 37.197017791794352 ], [ 127.05179227283864, 37.197036070736544 ], [ 127.051962222095057, 37.197082910620971 ], [ 127.054412195891075, 37.19746285478773 ], [ 127.054596700180809, 37.197464674465195 ], [ 127.054665735562892, 37.197461554627317 ], [ 127.054812973692833, 37.197454220721191 ], [ 127.05517454070629, 37.197404874828024 ], [ 127.055449564150223, 37.197342808781812 ], [ 127.055800776943315, 37.197258492654036 ], [ 127.056014542909693, 37.19719506793183 ], [ 127.056133378952794, 37.1971789363865 ], [ 127.056224577235838, 37.197166560113047 ], [ 127.056406962525074, 37.197168369932982 ], [ 127.056615915845796, 37.197205208376189 ], [ 127.056731866844643, 37.197239430568636 ], [ 127.058535177914138, 37.198126798703512 ], [ 127.061466083139123, 37.199400718442 ], [ 127.064972355239746, 37.197748879515956 ], [ 127.066022686516703, 37.19571779068923 ], [ 127.066034602149969, 37.194665388509435 ], [ 127.0656772653453, 37.194333028555917 ], [ 127.065540827057347, 37.193169627488949 ], [ 127.065646609290766, 37.19215585724556 ], [ 127.06636773307973, 37.191536528212438 ], [ 127.06650291294369, 37.191448567861585 ], [ 127.066853328467218, 37.191220559552647 ], [ 127.067244609879296, 37.191018046130317 ], [ 127.067429066490789, 37.190959573937313 ], [ 127.067639561802409, 37.190912446041288 ], [ 127.067996961952346, 37.190846144263475 ], [ 127.068304518694262, 37.190784878945372 ], [ 127.06836355881137, 37.190773113457659 ], [ 127.068573431554157, 37.190654410817764 ], [ 127.06863618418403, 37.190618454132235 ], [ 127.068142557349759, 37.189147523656295 ], [ 127.065324430808815, 37.186445406596384 ], [ 127.061897379804549, 37.186689180388406 ], [ 127.060608813483142, 37.187398133939645 ], [ 127.060181302321325, 37.187067885623996 ], [ 127.059930226094096, 37.186873925970716 ], [ 127.058105342039596, 37.186098684083177 ], [ 127.054915389943872, 37.184805618552986 ], [ 127.052647719323787, 37.183909191964759 ], [ 127.050465820182737, 37.183994454814311 ], [ 127.048010164683092, 37.183532966528531 ], [ 127.043173459929974, 37.181602622902972 ], [ 127.043258486074876, 37.181424075384534 ], [ 127.0432982622022, 37.181340568171578 ], [ 127.043749422222049, 37.180716351720278 ], [ 127.044404983546883, 37.179808960799058 ], [ 127.043022904716182, 37.179362043379484 ], [ 127.040502979759751, 37.178547790580588 ], [ 127.03745794646423, 37.176566367557996 ], [ 127.038240485624243, 37.173966603223967 ], [ 127.038277278001388, 37.173708925730729 ], [ 127.038325059623389, 37.173374256653197 ], [ 127.037268385183637, 37.171092347268122 ], [ 127.037086929378731, 37.169984636220612 ], [ 127.031606592873743, 37.168230154605872 ], [ 127.027488364309974, 37.166629566941936 ], [ 127.026035703758794, 37.165786581063372 ], [ 127.024023188251348, 37.165261173481831 ], [ 127.02271643480303, 37.165465653970642 ], [ 127.021434990898811, 37.166173725028607 ], [ 127.021268647076383, 37.166429954729765 ], [ 127.019884723863413, 37.167085765565744 ], [ 127.019048505625335, 37.167291952217525 ], [ 127.016626833182713, 37.167845479349303 ], [ 127.016190628533593, 37.167804262621473 ], [ 127.012391350738113, 37.167568971995635 ], [ 127.006530292798786, 37.168064181800894 ], [ 127.006485681916047, 37.168096032070466 ], [ 127.004155235512499, 37.169769161284989 ], [ 127.001986706108184, 37.172121249863721 ], [ 127.001666478914245, 37.172468577901157 ], [ 127.001310760490469, 37.172710461390622 ], [ 127.000068938220096, 37.173553677350014 ], [ 126.999667803486631, 37.17374240744234 ], [ 126.997864122946055, 37.174372523319022 ], [ 126.996951724298498, 37.174686399318162 ], [ 126.996535000036943, 37.174825402149864 ], [ 126.996291277998225, 37.174906691838785 ], [ 126.995613890456511, 37.174861750722634 ], [ 126.995529094333463, 37.174856147161869 ], [ 126.995253593584906, 37.175013772061249 ], [ 126.9951525204159, 37.175695083493657 ], [ 126.995152579069781, 37.177272545210862 ], [ 126.996497206760637, 37.178461362466315 ], [ 126.99781478094225, 37.178105263768487 ], [ 126.999769964362216, 37.177576071396665 ], [ 127.001546679829559, 37.178388100244092 ], [ 127.003009109306205, 37.179137939690357 ], [ 127.003430937836228, 37.179432593246005 ], [ 127.004557896574738, 37.18041448672718 ], [ 127.004818930839122, 37.18079839796868 ], [ 127.004810348785981, 37.181250192874671 ], [ 127.004613126945586, 37.181476973517981 ], [ 127.00422713541424, 37.181531380557033 ], [ 127.003650430546458, 37.18161266254117 ], [ 127.002426088664365, 37.182048039927608 ], [ 127.002934061710022, 37.182607082286715 ], [ 127.003601098996469, 37.183340901807853 ], [ 127.006223949652423, 37.185506221232359 ], [ 127.007845069058121, 37.186996904207973 ], [ 127.008448878141024, 37.189224754247256 ], [ 127.008724075521798, 37.189897442481147 ], [ 127.008735004477842, 37.189923701558399 ], [ 127.009298538394276, 37.191214352819756 ], [ 127.00981837133574, 37.192404500344601 ], [ 127.010006200158372, 37.19265203686389 ], [ 127.010319029087086, 37.193063469391689 ], [ 127.011036470653579, 37.193751529834131 ], [ 127.011315013201312, 37.193902507878263 ], [ 127.011879955820845, 37.194206807378755 ], [ 127.013604260182191, 37.19480882619721 ], [ 127.015091696751256, 37.195122527989078 ], [ 127.015639524111918, 37.195203731152041 ], [ 127.016358118500861, 37.195310239190221 ], [ 127.016980060391305, 37.195390685860723 ], [ 127.017527594002232, 37.195461485909078 ], [ 127.018743402074151, 37.19585854204567 ], [ 127.021048551750951, 37.196611542502012 ], [ 127.021459689826472, 37.196746161115883 ], [ 127.021603502024263, 37.196793981844394 ], [ 127.024130348787565, 37.197844237961931 ], [ 127.024440775004962, 37.197980695157852 ], [ 127.024675996562536, 37.198093205985344 ], [ 127.026493841244545, 37.200098205844931 ], [ 127.026614695729293, 37.200256434560821 ], [ 127.026651370748681, 37.200361369334821 ], [ 127.026651016711227, 37.200417705675427 ], [ 127.028244470106628, 37.200133358182747 ], [ 127.031243806173052, 37.199910133879655 ], [ 127.032455031407494, 37.200072305598759 ], [ 127.032663388818719, 37.200090029069841 ], [ 127.03331615812229, 37.200104996714167 ], [ 127.033880291949615, 37.200104964223257 ], [ 127.034262714772183, 37.200104214800092 ], [ 127.034851602821377, 37.200086246912193 ], [ 127.036657425635056, 37.199963746749994 ], [ 127.036799038643025, 37.199950454971017 ], [ 127.036887851209883, 37.199942112657027 ], [ 127.036983754636694, 37.1999222059289 ], [ 127.037023641051192, 37.199913618192738 ], [ 127.03705569350241, 37.199906712498006 ], [ 127.037183030448617, 37.199812562567452 ], [ 127.037280159345755, 37.199708153709103 ], [ 127.037330761274958, 37.199609196844371 ], [ 127.037343392573433, 37.199502204381176 ], [ 127.037344635849237, 37.199449891713954 ], [ 127.037349062168019, 37.199265607813082 ], [ 127.037393596429766, 37.199141234647669 ], [ 127.037629761478243, 37.19896924017177 ], [ 127.038399582002995, 37.198496751253437 ], [ 127.038535987624897, 37.198418409753742 ], [ 127.038723162872969, 37.198327871472266 ], [ 127.041542574197834, 37.197490738047243 ], [ 127.042507112071888, 37.197638322905028 ] ] ] ] } },
{ "type": "Feature", "properties": { "OBJECTID": 1438, "adm_nm": "경기도 오산시 초평동", "adm_cd": "3114056", "adm_cd2": "4137056000", "sgg": "41370", "sido": "41", "sidonm": "경기도", "sggnm": "오산시" }, "geometry": { "type": "MultiPolygon", "coordinates": [ [ [ [ 127.05570355173397, 37.133518251442325 ], [ 127.053742884967818, 37.132254559839161 ], [ 127.053299266499721, 37.131948661319797 ], [ 127.052371366875533, 37.130718068809742 ], [ 127.052334103454967, 37.129623875465903 ], [ 127.048845153223198, 37.12993853958897 ], [ 127.048696000581117, 37.129935717417339 ], [ 127.048114327852403, 37.12989631906968 ], [ 127.047436549081183, 37.129796803389155 ], [ 127.045528911505642, 37.1293771537878 ], [ 127.045283849968513, 37.129271406461271 ], [ 127.045254379383124, 37.129257772182733 ], [ 127.045140410143958, 37.128787564937078 ], [ 127.045240637468765, 37.128710147382563 ], [ 127.045307480936586, 37.128614590515959 ], [ 127.045427777849525, 37.128148569263054 ], [ 127.045478262689102, 37.127942563996314 ], [ 127.045640448690307, 37.126941487418129 ], [ 127.045626276538485, 37.126722839747742 ], [ 127.04556587614185, 37.126348520620311 ], [ 127.043243168576154, 37.127545237894637 ], [ 127.043141645889278, 37.127597786836006 ], [ 127.04296013553197, 37.127691752969184 ], [ 127.04271804308226, 37.127818145241832 ], [ 127.041169325609545, 37.128879210868817 ], [ 127.041083294300108, 37.128951468839972 ], [ 127.04094230652349, 37.129069883656648 ], [ 127.038188778175979, 37.131775828673319 ], [ 127.038104052045568, 37.131940006787083 ], [ 127.037985680630513, 37.132197574594777 ], [ 127.037961831692016, 37.132300018477515 ], [ 127.03771882000332, 37.13349907846434 ], [ 127.037683989343378, 37.13367246583833 ], [ 127.03776220019418, 37.134579819189092 ], [ 127.038305882439076, 37.135432647823606 ], [ 127.03851568698451, 37.135761344339457 ], [ 127.035633432695661, 37.136019580557736 ], [ 127.034464468258491, 37.137225652168098 ], [ 127.033344240408056, 37.138756246838568 ], [ 127.032572948761853, 37.140196884717504 ], [ 127.031591591083924, 37.142588318007832 ], [ 127.031596828235209, 37.142765241004973 ], [ 127.031599563822851, 37.143006379784211 ], [ 127.031558608997969, 37.143143683407594 ], [ 127.031519161416185, 37.143262964712349 ], [ 127.030920892163508, 37.144415533739611 ], [ 127.030890928618149, 37.144465695955489 ], [ 127.0307945466392, 37.144589682367695 ], [ 127.030654038413033, 37.144704984640619 ], [ 127.030543461557329, 37.144792632773402 ], [ 127.030465874228142, 37.144833375778333 ], [ 127.030413546812454, 37.144860850860397 ], [ 127.030284658529254, 37.144922370868514 ], [ 127.030104300709453, 37.145021879550868 ], [ 127.02990621832754, 37.145187855428048 ], [ 127.029824486035167, 37.145315982528992 ], [ 127.029807051902822, 37.145403801091696 ], [ 127.029808465171712, 37.145463813729442 ], [ 127.029809843947945, 37.145522122560116 ], [ 127.029832525220243, 37.145608973486112 ], [ 127.029869858572823, 37.145717291070383 ], [ 127.029914414411294, 37.145795777998387 ], [ 127.029945132239618, 37.145835900001288 ], [ 127.030065286431864, 37.14598060244105 ], [ 127.030229477053439, 37.146175056982969 ], [ 127.03031452776888, 37.146306098843894 ], [ 127.030340845768762, 37.146374935826934 ], [ 127.030343194023217, 37.146450438419436 ], [ 127.030177171128543, 37.148942185146794 ], [ 127.03015423510648, 37.14923303395701 ], [ 127.03013131814123, 37.149523502427776 ], [ 127.029981270865264, 37.150003947736487 ], [ 127.029406024136222, 37.15060899128742 ], [ 127.028761536293018, 37.151255446961997 ], [ 127.028630135397293, 37.151323740904679 ], [ 127.028590947932571, 37.151370284475185 ], [ 127.028533769630755, 37.151438203752775 ], [ 127.028073140464002, 37.152171052425295 ], [ 127.027860266035006, 37.152673836667894 ], [ 127.02783434211463, 37.153794922249332 ], [ 127.027906541306137, 37.153890745926745 ], [ 127.027967884812384, 37.153971116699893 ], [ 127.027991309305563, 37.154011827579417 ], [ 127.027995821540529, 37.154079451386082 ], [ 127.028015318499598, 37.154211216185317 ], [ 127.028046068342221, 37.154261060477324 ], [ 127.028097084150673, 37.154327125222196 ], [ 127.028177458452333, 37.154411443217157 ], [ 127.028263893808528, 37.154492706963168 ], [ 127.028297818636631, 37.15452459870275 ], [ 127.028422111376443, 37.154636367117071 ], [ 127.02879470555537, 37.15498404140758 ], [ 127.029758924102325, 37.154768152131226 ], [ 127.029868164690143, 37.154746050238785 ], [ 127.030005352317573, 37.154755608465535 ], [ 127.03286365651276, 37.155168136123834 ], [ 127.037729319253231, 37.155709933802491 ], [ 127.044794281940185, 37.156375028676145 ], [ 127.04714086325869, 37.156514723107612 ], [ 127.049336898128644, 37.156290878728427 ], [ 127.049195293156799, 37.155241423361346 ], [ 127.048348193672496, 37.154354814689057 ], [ 127.048186332427676, 37.153758130151324 ], [ 127.048286094303137, 37.152725275957629 ], [ 127.049192135118133, 37.150319702315073 ], [ 127.049669053470822, 37.149772780487048 ], [ 127.050360382400541, 37.149028359481377 ], [ 127.051166472668299, 37.148269754343822 ], [ 127.052830566141253, 37.147384738913843 ], [ 127.053050847866501, 37.147323372282031 ], [ 127.05330147004625, 37.1472535561659 ], [ 127.053448652586184, 37.147237209279773 ], [ 127.053566833639834, 37.14724666860424 ], [ 127.053614636743873, 37.147254041923674 ], [ 127.053671608916304, 37.147262837927961 ], [ 127.056008439011222, 37.147702039374835 ], [ 127.056116695794444, 37.147723853412295 ], [ 127.056145940439421, 37.147737240746046 ], [ 127.056186179908735, 37.147755663071301 ], [ 127.056352850043098, 37.147898259603323 ], [ 127.056319183147238, 37.147969119858729 ], [ 127.056303689245965, 37.148001737179897 ], [ 127.056314805418111, 37.148145995863011 ], [ 127.056388359911267, 37.148325436934456 ], [ 127.056498491941966, 37.148508385212629 ], [ 127.056753414085392, 37.148724551166133 ], [ 127.057247744573772, 37.149043020085976 ], [ 127.059746997177726, 37.15061515441333 ], [ 127.062807279828704, 37.149501968864165 ], [ 127.0625853655078, 37.144528728441685 ], [ 127.062539396296373, 37.143591088393521 ], [ 127.062318648242268, 37.139886587928245 ], [ 127.062298147471523, 37.139653136018374 ], [ 127.062155767087177, 37.138723251757717 ], [ 127.061983958480084, 37.138260709599045 ], [ 127.061789691711169, 37.137892507335323 ], [ 127.061176356825413, 37.136987696780274 ], [ 127.059131614940867, 37.13525615349382 ], [ 127.057383419243479, 37.134214138192881 ], [ 127.05570355173397, 37.133518251442325 ] ] ] ] } }
]
}
