{
"type": "FeatureCollection",
"name": "uijeongbushi",
"crs": { "type": "name", "properties": { "name": "urn:ogc:def:crs:OGC:1.3:CRS84" } },
"features": [
{ "type": "Feature", "properties": { "OBJECTID": 1246, "adm_nm": "경기도 의정부시 의정부1동", "adm_cd": "3103051", "adm_cd2": "4115051000", "sgg": "41150", "sido": "41", "sidonm": "경기도", "sggnm": "의정부시" }, "geometry": { "type": "MultiPolygon", "coordinates": [ [ [ [ 127.046075165073248, 37.753774958237457 ], [ 127.047430913060921, 37.751477243109129 ], [ 127.048616470861944, 37.750640234972309 ], [ 127.050005151472249, 37.749659724908348 ], [ 127.050302037499236, 37.749370181867178 ], [ 127.051003579135227, 37.748684472135594 ], [ 127.051422976847761, 37.747959379380568 ], [ 127.053539982101611, 37.747713812485749 ], [ 127.053593101400836, 37.74761384979 ], [ 127.053643444359736, 37.747511577282211 ], [ 127.054446355985505, 37.745871893651852 ], [ 127.054588594384441, 37.745580568714658 ], [ 127.054618624902531, 37.745519006520048 ], [ 127.054532044442183, 37.743767630003163 ], [ 127.054167758000986, 37.740515842438661 ], [ 127.053137583067837, 37.737367578379299 ], [ 127.046753089451641, 37.738720987123259 ], [ 127.046164798574338, 37.740027894118896 ], [ 127.04552515007434, 37.742548006065171 ], [ 127.0454518367996, 37.743525925723937 ], [ 127.045387621464627, 37.744273507749725 ], [ 127.045353274345089, 37.744668830319021 ], [ 127.045342059300367, 37.744772853698677 ], [ 127.0453374868315, 37.744815234247845 ], [ 127.045320984183064, 37.744961635412139 ], [ 127.045313522714949, 37.745001273808974 ], [ 127.045219166997299, 37.745485135977241 ], [ 127.04501778382317, 37.746514118948873 ], [ 127.044933660069475, 37.746796349528665 ], [ 127.044899684150408, 37.746910244551493 ], [ 127.043673090478777, 37.750033087290717 ], [ 127.042973464622506, 37.751664020797847 ], [ 127.042881330138854, 37.75187885384873 ], [ 127.042597113395303, 37.752812872372132 ], [ 127.042393645006214, 37.753767482401976 ], [ 127.042285486229375, 37.754854280203752 ], [ 127.042297514979595, 37.756587115077387 ], [ 127.04231923643141, 37.757898583990759 ], [ 127.046075165073248, 37.753774958237457 ] ] ] ] } },
{ "type": "Feature", "properties": { "OBJECTID": 1247, "adm_nm": "경기도 의정부시 의정부2동", "adm_cd": "3103052", "adm_cd2": "4115052000", "sgg": "41150", "sido": "41", "sidonm": "경기도", "sggnm": "의정부시" }, "geometry": { "type": "MultiPolygon", "coordinates": [ [ [ [ 127.046753089451641, 37.738720987123259 ], [ 127.04614502660759, 37.739128243737504 ], [ 127.046132955606822, 37.739207347829634 ], [ 127.045315373852375, 37.73913223982985 ], [ 127.045231130628011, 37.739124100372479 ], [ 127.045261807016871, 37.738845718963439 ], [ 127.045502326405014, 37.736680028162866 ], [ 127.045867923326682, 37.736023749729249 ], [ 127.046141334190978, 37.736033554600468 ], [ 127.046325356258677, 37.736040035966795 ], [ 127.046382416216801, 37.735637035018364 ], [ 127.046436533576866, 37.735253054136443 ], [ 127.046652288833599, 37.733721633968543 ], [ 127.046664159490106, 37.733636053865901 ], [ 127.046682778934382, 37.733489660360206 ], [ 127.04689393524545, 37.731807970868118 ], [ 127.046931038276057, 37.731511082135519 ], [ 127.044221946348941, 37.730988010811906 ], [ 127.043476860032897, 37.730927668266141 ], [ 127.042500553307534, 37.731560443343156 ], [ 127.042023696323213, 37.732056573137449 ], [ 127.041983005427156, 37.732098101270999 ], [ 127.040566489833168, 37.73153489490339 ], [ 127.040084441860913, 37.730804069471134 ], [ 127.036738789581676, 37.729185107140324 ], [ 127.033411408668286, 37.727670568468781 ], [ 127.033087955208714, 37.72755883863509 ], [ 127.030222071047376, 37.726856814108537 ], [ 127.030000290148536, 37.726824379249301 ], [ 127.028692252083843, 37.726743674711948 ], [ 127.026762609170149, 37.726714538721566 ], [ 127.024965744342467, 37.727760680171087 ], [ 127.02488120362807, 37.728457796510185 ], [ 127.025282651057239, 37.729572617140839 ], [ 127.025471900071906, 37.730032981142998 ], [ 127.027256881635154, 37.733857104160542 ], [ 127.028684718488805, 37.736325840770313 ], [ 127.029711385177762, 37.739824017191921 ], [ 127.031511417618006, 37.741163690938947 ], [ 127.032958057455247, 37.741802610604765 ], [ 127.034262828134885, 37.741768339550106 ], [ 127.034888840671499, 37.741146610657999 ], [ 127.03969147652127, 37.739630998093375 ], [ 127.040205326246905, 37.740274068392409 ], [ 127.040545798679474, 37.741533867463119 ], [ 127.04057160040216, 37.741653654626518 ], [ 127.040651432343907, 37.742024463306564 ], [ 127.039312757143932, 37.745230217325513 ], [ 127.039320267996743, 37.746074000943672 ], [ 127.039776121977539, 37.746124228698733 ], [ 127.041490703819022, 37.746346094349938 ], [ 127.041621974658682, 37.746364669219076 ], [ 127.042378275045721, 37.746839643676033 ], [ 127.044385473092319, 37.746895864798724 ], [ 127.044899684150408, 37.746910244551493 ], [ 127.044933660069475, 37.746796349528665 ], [ 127.04501778382317, 37.746514118948873 ], [ 127.045219166997299, 37.745485135977241 ], [ 127.045313522714949, 37.745001273808974 ], [ 127.045320984183064, 37.744961635412139 ], [ 127.0453374868315, 37.744815234247845 ], [ 127.045342059300367, 37.744772853698677 ], [ 127.045353274345089, 37.744668830319021 ], [ 127.045387621464627, 37.744273507749725 ], [ 127.0454518367996, 37.743525925723937 ], [ 127.04552515007434, 37.742548006065171 ], [ 127.046164798574338, 37.740027894118896 ], [ 127.046753089451641, 37.738720987123259 ] ] ] ] } },
{ "type": "Feature", "properties": { "OBJECTID": 1248, "adm_nm": "경기도 의정부시 의정부3동", "adm_cd": "3103053", "adm_cd2": "4115053000", "sgg": "41150", "sido": "41", "sidonm": "경기도", "sggnm": "의정부시" }, "geometry": { "type": "MultiPolygon", "coordinates": [ [ [ [ 127.046753089451641, 37.738720987123259 ], [ 127.053137583067837, 37.737367578379299 ], [ 127.054132499314505, 37.734923012990436 ], [ 127.054144023768217, 37.734893763557437 ], [ 127.054365184271333, 37.731130444273028 ], [ 127.054343203558744, 37.730674075614544 ], [ 127.05434184269069, 37.730645894166607 ], [ 127.054335513099176, 37.730518558159218 ], [ 127.053713842537547, 37.729867252625361 ], [ 127.053651110294993, 37.729802795742657 ], [ 127.052889062182828, 37.729259852252397 ], [ 127.052680025686101, 37.729110728244777 ], [ 127.052577147121738, 37.728998798898886 ], [ 127.052373510753199, 37.728777201298243 ], [ 127.052355042626999, 37.728751596642937 ], [ 127.052280664208638, 37.728648409944562 ], [ 127.051758100696304, 37.72791522444971 ], [ 127.051662453318187, 37.727780788666173 ], [ 127.051436846570851, 37.727321381433704 ], [ 127.051127267314897, 37.727614260287737 ], [ 127.050180086680356, 37.728374522615489 ], [ 127.04679789171972, 37.730081971500816 ], [ 127.046602585733098, 37.730093397377964 ], [ 127.046563034084556, 37.73009571487836 ], [ 127.045164275648091, 37.730225524911624 ], [ 127.043476860032897, 37.730927668266141 ], [ 127.044221946348941, 37.730988010811906 ], [ 127.046931038276057, 37.731511082135519 ], [ 127.04689393524545, 37.731807970868118 ], [ 127.046682778934382, 37.733489660360206 ], [ 127.046664159490106, 37.733636053865901 ], [ 127.046652288833599, 37.733721633968543 ], [ 127.046436533576866, 37.735253054136443 ], [ 127.046382416216801, 37.735637035018364 ], [ 127.046325356258677, 37.736040035966795 ], [ 127.046141334190978, 37.736033554600468 ], [ 127.045867923326682, 37.736023749729249 ], [ 127.045502326405014, 37.736680028162866 ], [ 127.045261807016871, 37.738845718963439 ], [ 127.045231130628011, 37.739124100372479 ], [ 127.045315373852375, 37.73913223982985 ], [ 127.046132955606822, 37.739207347829634 ], [ 127.04614502660759, 37.739128243737504 ], [ 127.046753089451641, 37.738720987123259 ] ] ] ] } },
{ "type": "Feature", "properties": { "OBJECTID": 1249, "adm_nm": "경기도 의정부시 호원1동", "adm_cd": "3103055", "adm_cd2": "4115054500", "sgg": "41150", "sido": "41", "sidonm": "경기도", "sggnm": "의정부시" }, "geometry": { "type": "MultiPolygon", "coordinates": [ [ [ [ 127.0504234410366, 37.723667154369551 ], [ 127.050182258946094, 37.723313498874134 ], [ 127.050042544032905, 37.72310835761764 ], [ 127.049456879201131, 37.722248383442114 ], [ 127.049122287814953, 37.721755881823512 ], [ 127.048819336111293, 37.720023050699737 ], [ 127.048912045250759, 37.718884354762928 ], [ 127.049254187620249, 37.717894204602054 ], [ 127.049794283293082, 37.717002828577748 ], [ 127.050686474211346, 37.715814227858218 ], [ 127.050924342078815, 37.71404032266836 ], [ 127.050351733605424, 37.712298903662841 ], [ 127.050185238048897, 37.711688746090665 ], [ 127.050492671452702, 37.70998077662783 ], [ 127.050606849712551, 37.709482967040159 ], [ 127.050796811263751, 37.708684492741043 ], [ 127.051001273662962, 37.708067393349594 ], [ 127.051324738256213, 37.707108689788427 ], [ 127.051621523272573, 37.706802261336179 ], [ 127.051708687266128, 37.706712432929955 ], [ 127.051989047613091, 37.706645925975288 ], [ 127.052341793586507, 37.705407939588149 ], [ 127.052091615263961, 37.704319712661523 ], [ 127.051991980998068, 37.704232441575527 ], [ 127.051830709146358, 37.704091185422534 ], [ 127.05167271981162, 37.703953132230744 ], [ 127.050700109315741, 37.703104434688157 ], [ 127.050597146676978, 37.703014693611038 ], [ 127.050324890444315, 37.702777399399906 ], [ 127.050102696022009, 37.702587272822974 ], [ 127.049209022441374, 37.701822236935818 ], [ 127.049136401863876, 37.701759817174832 ], [ 127.048820859277555, 37.701293475035463 ], [ 127.048776590878418, 37.701226832646562 ], [ 127.048464186357108, 37.700599213245432 ], [ 127.048421679964406, 37.69895750510851 ], [ 127.04861440463732, 37.696404101172554 ], [ 127.048204861781144, 37.693913737164664 ], [ 127.045085365514836, 37.69244158977186 ], [ 127.04320657311824, 37.694667370477084 ], [ 127.043195865467524, 37.694909561314098 ], [ 127.043190141468202, 37.695034598611052 ], [ 127.04312276342398, 37.695154890397866 ], [ 127.043013257899233, 37.695208545841716 ], [ 127.041722839205505, 37.695347750619128 ], [ 127.041576725126859, 37.695359575959856 ], [ 127.041529351003874, 37.695340238530015 ], [ 127.041433890774982, 37.695299307520933 ], [ 127.041015848753005, 37.695031788926109 ], [ 127.040796778963752, 37.694918269852806 ], [ 127.040716080561666, 37.694898802320871 ], [ 127.040619110594164, 37.694874764698831 ], [ 127.040550938143227, 37.694856607711607 ], [ 127.040498081812899, 37.694841619954978 ], [ 127.04042950610274, 37.694819892061567 ], [ 127.040383605965886, 37.694781460744679 ], [ 127.040261876061834, 37.694688307016669 ], [ 127.040230498251475, 37.694663127720524 ], [ 127.040008648327316, 37.694426226868153 ], [ 127.039812879776321, 37.694213650608937 ], [ 127.03975235096074, 37.694143556834945 ], [ 127.039693131170338, 37.694089250419417 ], [ 127.039053581650535, 37.693876066421979 ], [ 127.03885234140273, 37.693631920635511 ], [ 127.038551299541311, 37.693363724099022 ], [ 127.038432944820272, 37.693273939133327 ], [ 127.038379421467525, 37.693244759085282 ], [ 127.035894842508796, 37.692243533337887 ], [ 127.035835459907091, 37.692220769976636 ], [ 127.034159522770508, 37.691894189289187 ], [ 127.034106399870538, 37.691886092788124 ], [ 127.034073116025141, 37.691881454637006 ], [ 127.032821496725035, 37.691719358615622 ], [ 127.032567813776524, 37.691701991490902 ], [ 127.032500454094659, 37.691705104454584 ], [ 127.032468338412897, 37.691712255367328 ], [ 127.031172710299813, 37.692899840863063 ], [ 127.031144350707635, 37.69293904860681 ], [ 127.030067210065809, 37.695232023892018 ], [ 127.029925857765008, 37.695612272004709 ], [ 127.029859484411062, 37.69579452651363 ], [ 127.029729401638718, 37.696186085890922 ], [ 127.029697169773868, 37.696350449864845 ], [ 127.029698824124125, 37.696537482201038 ], [ 127.02972721156388, 37.696757294318495 ], [ 127.029726574060092, 37.696971357364887 ], [ 127.029725862418161, 37.697084020623038 ], [ 127.029703571129133, 37.697470376413804 ], [ 127.029696546930197, 37.697569562154712 ], [ 127.029669486573795, 37.697703459264801 ], [ 127.029389536716408, 37.698585644330905 ], [ 127.029300866917751, 37.698818509162145 ], [ 127.029280724163868, 37.698864621839036 ], [ 127.029219584686757, 37.6990023936767 ], [ 127.028995296064053, 37.699379492595604 ], [ 127.028890596247294, 37.699535157368715 ], [ 127.028213298240075, 37.700385854057345 ], [ 127.028072178161793, 37.70055640198995 ], [ 127.028028377013641, 37.700589039529184 ], [ 127.027987135324523, 37.700608027669077 ], [ 127.027955890637642, 37.700615789213543 ], [ 127.027217926169996, 37.700713106284418 ], [ 127.027151956097143, 37.700718475057165 ], [ 127.027107426912195, 37.700696889939387 ], [ 127.02706730755736, 37.700651662628509 ], [ 127.027036729574306, 37.70060000023657 ], [ 127.02701241269979, 37.700521669217196 ], [ 127.027004488109469, 37.700495931550343 ], [ 127.026949091698228, 37.700399379876536 ], [ 127.026887323375888, 37.700300549289032 ], [ 127.026839385741752, 37.700257543849212 ], [ 127.026776526156581, 37.700220675136237 ], [ 127.025649276754194, 37.699657885648101 ], [ 127.02551060770071, 37.699612261316318 ], [ 127.0253952898845, 37.699574617433669 ], [ 127.025302590073863, 37.699546077777107 ], [ 127.025066957844473, 37.699475276008855 ], [ 127.024966458223886, 37.699447831332726 ], [ 127.024897044992926, 37.699437411732227 ], [ 127.024817550167612, 37.699440759812674 ], [ 127.024775068174165, 37.699442553504483 ], [ 127.024697053964175, 37.699446745706119 ], [ 127.022153724017073, 37.699593072200955 ], [ 127.022089845318916, 37.699604079920086 ], [ 127.020283221654324, 37.700507085127171 ], [ 127.019886033370909, 37.700751080410406 ], [ 127.019792658362022, 37.700827313044982 ], [ 127.019676998115571, 37.700951901198813 ], [ 127.019567706609408, 37.701079899670617 ], [ 127.01584584752527, 37.701025238863842 ], [ 127.015461161720694, 37.702721534501713 ], [ 127.015412476148342, 37.703012012514584 ], [ 127.015468194032493, 37.703275879741661 ], [ 127.015529314599547, 37.703368566512808 ], [ 127.015562653182641, 37.703405491163608 ], [ 127.015601781139495, 37.703448807466202 ], [ 127.017080497529179, 37.704804610578073 ], [ 127.019393763158419, 37.707264545181125 ], [ 127.02013916569517, 37.707565019054641 ], [ 127.023509301470952, 37.710444941839995 ], [ 127.024157147899999, 37.711481794296361 ], [ 127.02433517605381, 37.711917393618414 ], [ 127.024368905677377, 37.712189063255131 ], [ 127.024385514713558, 37.712347177818891 ], [ 127.024398979550355, 37.712475355661837 ], [ 127.024424830190569, 37.71264671192101 ], [ 127.024443650923999, 37.712762364895781 ], [ 127.024473280052277, 37.712944344986148 ], [ 127.024525894372658, 37.713032436483068 ], [ 127.025560785719961, 37.714430280933932 ], [ 127.025916820098033, 37.714866602887 ], [ 127.028856736089196, 37.717123815913681 ], [ 127.031118094769766, 37.717928251056556 ], [ 127.032511786147026, 37.718365908188439 ], [ 127.033501828592719, 37.718676794282622 ], [ 127.034939916429479, 37.71891794717493 ], [ 127.035211751164027, 37.718926355956278 ], [ 127.036359386417971, 37.718961844341202 ], [ 127.038087480054742, 37.719014027443372 ], [ 127.041084460956469, 37.719063911669231 ], [ 127.041690557665021, 37.718899317709223 ], [ 127.041834561127203, 37.718870890785652 ], [ 127.042222360704073, 37.718794350509953 ], [ 127.042424512008267, 37.718773972141427 ], [ 127.042545235041388, 37.718761804942268 ], [ 127.043900364289527, 37.718644060355643 ], [ 127.044053691027088, 37.718634701887588 ], [ 127.04460415868833, 37.718608663932116 ], [ 127.046492341070433, 37.718775927668979 ], [ 127.046728726289558, 37.720250504571496 ], [ 127.046845113953168, 37.721050878575412 ], [ 127.046953188124874, 37.721856412050279 ], [ 127.047119595739133, 37.724419388711233 ], [ 127.048242814085697, 37.724894777675871 ], [ 127.0504234410366, 37.723667154369551 ] ] ] ] } },
{ "type": "Feature", "properties": { "OBJECTID": 1250, "adm_nm": "경기도 의정부시 장암동", "adm_cd": "3103056", "adm_cd2": "4115056100", "sgg": "41150", "sido": "41", "sidonm": "경기도", "sggnm": "의정부시" }, "geometry": { "type": "MultiPolygon", "coordinates": [ [ [ [ 127.073425457404113, 37.719915203033132 ], [ 127.07379059207436, 37.718442883188786 ], [ 127.075170453944253, 37.716980953733135 ], [ 127.076830976998863, 37.715412982695867 ], [ 127.078167356988544, 37.712094125699998 ], [ 127.079233930730226, 37.708942161303952 ], [ 127.080809684502242, 37.706011695634459 ], [ 127.081712074160365, 37.705292710432786 ], [ 127.082033707815782, 37.704962612528426 ], [ 127.08217878225129, 37.704633014870907 ], [ 127.083195982889833, 37.702019380428048 ], [ 127.083110252681905, 37.702007810734543 ], [ 127.083028787775888, 37.701996256061989 ], [ 127.082869149839553, 37.70188978519883 ], [ 127.082756914053391, 37.70180038179452 ], [ 127.082267987916708, 37.70136260540783 ], [ 127.082138997686172, 37.701235989241823 ], [ 127.082090270416941, 37.701179312191044 ], [ 127.081449851856121, 37.700354748496714 ], [ 127.081408498263201, 37.700268975363159 ], [ 127.081393034993425, 37.700232966419492 ], [ 127.081377012012126, 37.70019563053156 ], [ 127.081347178686968, 37.700102705660576 ], [ 127.081331024616702, 37.700052381136246 ], [ 127.081305027916798, 37.699884416131304 ], [ 127.081294698299544, 37.699704113462083 ], [ 127.081230791255607, 37.69745399524799 ], [ 127.081764301318529, 37.696377610934753 ], [ 127.077341122587541, 37.696384380359262 ], [ 127.075944781283539, 37.695961375234852 ], [ 127.074464142280789, 37.695476966249387 ], [ 127.072915572664556, 37.694457614416592 ], [ 127.072831398339801, 37.694425762958332 ], [ 127.072627663956254, 37.694349538326868 ], [ 127.071995836640895, 37.694255987045509 ], [ 127.071038099289524, 37.694128574043106 ], [ 127.070430138425664, 37.694076787730246 ], [ 127.069944464606365, 37.694260799736945 ], [ 127.069392718522565, 37.694365936411721 ], [ 127.068812473455424, 37.694058490452264 ], [ 127.068366784063613, 37.693580513975569 ], [ 127.068260106468529, 37.693466097931946 ], [ 127.065660908340519, 37.690604075832276 ], [ 127.065635415145877, 37.690473054608006 ], [ 127.065473767072177, 37.690233606392773 ], [ 127.065347955994085, 37.690049496563937 ], [ 127.065111655534878, 37.689846952566086 ], [ 127.064511660375729, 37.689644160687877 ], [ 127.061796349038644, 37.688977288710952 ], [ 127.06038027346888, 37.688692605626706 ], [ 127.058849026147868, 37.688944893357366 ], [ 127.058162050409749, 37.689154918382009 ], [ 127.057552627971234, 37.689399715301015 ], [ 127.056826433174152, 37.689568241313808 ], [ 127.054822324241968, 37.689347752455866 ], [ 127.054629168891466, 37.689285056640323 ], [ 127.052936203107393, 37.688130580623586 ], [ 127.050776586122979, 37.687021624314454 ], [ 127.050446174934748, 37.687388784245918 ], [ 127.050386007992927, 37.687485508329708 ], [ 127.050350960831139, 37.68754277415848 ], [ 127.050255792434669, 37.687698332479137 ], [ 127.050141908501331, 37.687884482600147 ], [ 127.050061421183472, 37.68818386802856 ], [ 127.050051982598532, 37.688219885247214 ], [ 127.050026835574471, 37.688507421964012 ], [ 127.050004015223891, 37.688768387297564 ], [ 127.050017712903696, 37.689198824950068 ], [ 127.050033166004312, 37.689293514615279 ], [ 127.050083633423682, 37.689607847917273 ], [ 127.050121553560885, 37.689845925820862 ], [ 127.050127036048949, 37.690111839233566 ], [ 127.050095130845833, 37.690348316760719 ], [ 127.050065421462136, 37.690454109736919 ], [ 127.049370725668709, 37.692912088630251 ], [ 127.049119616798976, 37.693521779836047 ], [ 127.048204861781144, 37.693913737164664 ], [ 127.04861440463732, 37.696404101172554 ], [ 127.048421679964406, 37.69895750510851 ], [ 127.048464186357108, 37.700599213245432 ], [ 127.048776590878418, 37.701226832646562 ], [ 127.048820859277555, 37.701293475035463 ], [ 127.049136401863876, 37.701759817174832 ], [ 127.049209022441374, 37.701822236935818 ], [ 127.050102696022009, 37.702587272822974 ], [ 127.050324890444315, 37.702777399399906 ], [ 127.050597146676978, 37.703014693611038 ], [ 127.050700109315741, 37.703104434688157 ], [ 127.05167271981162, 37.703953132230744 ], [ 127.051830709146358, 37.704091185422534 ], [ 127.051991980998068, 37.704232441575527 ], [ 127.052091615263961, 37.704319712661523 ], [ 127.052341793586507, 37.705407939588149 ], [ 127.051989047613091, 37.706645925975288 ], [ 127.051708687266128, 37.706712432929955 ], [ 127.051621523272573, 37.706802261336179 ], [ 127.051324738256213, 37.707108689788427 ], [ 127.051001273662962, 37.708067393349594 ], [ 127.050796811263751, 37.708684492741043 ], [ 127.050606849712551, 37.709482967040159 ], [ 127.050492671452702, 37.70998077662783 ], [ 127.050185238048897, 37.711688746090665 ], [ 127.050351733605424, 37.712298903662841 ], [ 127.050924342078815, 37.71404032266836 ], [ 127.050686474211346, 37.715814227858218 ], [ 127.049794283293082, 37.717002828577748 ], [ 127.049254187620249, 37.717894204602054 ], [ 127.048912045250759, 37.718884354762928 ], [ 127.048819336111293, 37.720023050699737 ], [ 127.049122287814953, 37.721755881823512 ], [ 127.049456879201131, 37.722248383442114 ], [ 127.050042544032905, 37.72310835761764 ], [ 127.050182258946094, 37.723313498874134 ], [ 127.0504234410366, 37.723667154369551 ], [ 127.052017668542362, 37.726513467488665 ], [ 127.057640771485083, 37.72657757139563 ], [ 127.062998974749462, 37.726589669093812 ], [ 127.064122394138607, 37.726591574871925 ], [ 127.064348633503897, 37.7265778664664 ], [ 127.063957103791964, 37.72550937309088 ], [ 127.062911422589096, 37.724234644265017 ], [ 127.061986838082845, 37.723106796174633 ], [ 127.061531227491827, 37.722235999041473 ], [ 127.061163646721852, 37.721533190624214 ], [ 127.064087626124802, 37.721865110586364 ], [ 127.065466647060759, 37.722057235692475 ], [ 127.066028748292666, 37.722107752453326 ], [ 127.07112340884521, 37.721770372381634 ], [ 127.073425457404113, 37.719915203033132 ] ] ] ] } },
{ "type": "Feature", "properties": { "OBJECTID": 1251, "adm_nm": "경기도 의정부시 신곡1동", "adm_cd": "3103057", "adm_cd2": "4115056700", "sgg": "41150", "sido": "41", "sidonm": "경기도", "sggnm": "의정부시" }, "geometry": { "type": "MultiPolygon", "coordinates": [ [ [ [ 127.073425457404113, 37.719915203033132 ], [ 127.07112340884521, 37.721770372381634 ], [ 127.066028748292666, 37.722107752453326 ], [ 127.065466647060759, 37.722057235692475 ], [ 127.064087626124802, 37.721865110586364 ], [ 127.061163646721852, 37.721533190624214 ], [ 127.061531227491827, 37.722235999041473 ], [ 127.061986838082845, 37.723106796174633 ], [ 127.062911422589096, 37.724234644265017 ], [ 127.063957103791964, 37.72550937309088 ], [ 127.064348633503897, 37.7265778664664 ], [ 127.064122394138607, 37.726591574871925 ], [ 127.062998974749462, 37.726589669093812 ], [ 127.057640771485083, 37.72657757139563 ], [ 127.052017668542362, 37.726513467488665 ], [ 127.051436846570851, 37.727321381433704 ], [ 127.051662453318187, 37.727780788666173 ], [ 127.051758100696304, 37.72791522444971 ], [ 127.052280664208638, 37.728648409944562 ], [ 127.052355042626999, 37.728751596642937 ], [ 127.052373510753199, 37.728777201298243 ], [ 127.052577147121738, 37.728998798898886 ], [ 127.052680025686101, 37.729110728244777 ], [ 127.052889062182828, 37.729259852252397 ], [ 127.053651110294993, 37.729802795742657 ], [ 127.053713842537547, 37.729867252625361 ], [ 127.054335513099176, 37.730518558159218 ], [ 127.05434184269069, 37.730645894166607 ], [ 127.054343203558744, 37.730674075614544 ], [ 127.054365184271333, 37.731130444273028 ], [ 127.054144023768217, 37.734893763557437 ], [ 127.054132499314505, 37.734923012990436 ], [ 127.053137583067837, 37.737367578379299 ], [ 127.054167758000986, 37.740515842438661 ], [ 127.056151371635025, 37.740479403339705 ], [ 127.057788409733064, 37.737050441854606 ], [ 127.057845265120207, 37.737014070409423 ], [ 127.058019834625497, 37.736902537344129 ], [ 127.058213488077172, 37.736803324530612 ], [ 127.058530691106341, 37.736640814541204 ], [ 127.064307945617898, 37.737895997567087 ], [ 127.066603156929901, 37.739395022686473 ], [ 127.069340030147146, 37.739977394234387 ], [ 127.072330627375081, 37.740238399972348 ], [ 127.072402233475458, 37.740252251711922 ], [ 127.072520526408738, 37.74027514175561 ], [ 127.072632306142822, 37.74032737318646 ], [ 127.074155081366811, 37.741360393189758 ], [ 127.074449201681176, 37.740373892391979 ], [ 127.074985393942711, 37.739686927281383 ], [ 127.074656943639141, 37.738450928973613 ], [ 127.074458368734511, 37.737947724191685 ], [ 127.074229520008799, 37.737776772910507 ], [ 127.073678556556686, 37.737371439050939 ], [ 127.073048870318516, 37.736970336732462 ], [ 127.071266104927417, 37.73355125053412 ], [ 127.071017199051155, 37.732075475978768 ], [ 127.072134593584551, 37.73042113975805 ], [ 127.073432187843451, 37.729497477442095 ], [ 127.07438618621326, 37.728996183504847 ], [ 127.074606024405341, 37.726025982729787 ], [ 127.074213347829684, 37.724620750105458 ], [ 127.073761455016992, 37.723900309633926 ], [ 127.073564712751107, 37.723207830354497 ], [ 127.073515929237132, 37.722935002717051 ], [ 127.073460958015133, 37.722627226268642 ], [ 127.073366298144293, 37.721943002423288 ], [ 127.073357307490298, 37.721656798766844 ], [ 127.073841981432039, 37.721108742631415 ], [ 127.074046267442284, 37.72072311827759 ], [ 127.074046114247125, 37.720510098203917 ], [ 127.073425457404113, 37.719915203033132 ] ] ] ] } },
{ "type": "Feature", "properties": { "OBJECTID": 1252, "adm_nm": "경기도 의정부시 신곡2동", "adm_cd": "3103058", "adm_cd2": "4115056800", "sgg": "41150", "sido": "41", "sidonm": "경기도", "sggnm": "의정부시" }, "geometry": { "type": "MultiPolygon", "coordinates": [ [ [ [ 127.082681044237845, 37.752222475685066 ], [ 127.079938827894509, 37.749708238548124 ], [ 127.080228603085658, 37.749302553742467 ], [ 127.080838583870346, 37.748449594931294 ], [ 127.081150353332959, 37.748014688474328 ], [ 127.081218131166651, 37.747935009037462 ], [ 127.08140025204051, 37.747731659632336 ], [ 127.081627276094849, 37.747478968690231 ], [ 127.081925690561278, 37.747146538148677 ], [ 127.082300599369034, 37.74672867114824 ], [ 127.078407716027201, 37.745126311632774 ], [ 127.077077488301711, 37.744676094316297 ], [ 127.076398236171613, 37.744453254633299 ], [ 127.075227354276507, 37.744764503879971 ], [ 127.074642302367891, 37.744976458209727 ], [ 127.073414218338641, 37.744249834988722 ], [ 127.07331368799403, 37.743702998987303 ], [ 127.073204639859185, 37.743068343140571 ], [ 127.07309617429118, 37.742190282394795 ], [ 127.074155081366811, 37.741360393189758 ], [ 127.072632306142822, 37.74032737318646 ], [ 127.072520526408738, 37.74027514175561 ], [ 127.072402233475458, 37.740252251711922 ], [ 127.072330627375081, 37.740238399972348 ], [ 127.069340030147146, 37.739977394234387 ], [ 127.066603156929901, 37.739395022686473 ], [ 127.064307945617898, 37.737895997567087 ], [ 127.058530691106341, 37.736640814541204 ], [ 127.058213488077172, 37.736803324530612 ], [ 127.058019834625497, 37.736902537344129 ], [ 127.057845265120207, 37.737014070409423 ], [ 127.057788409733064, 37.737050441854606 ], [ 127.056151371635025, 37.740479403339705 ], [ 127.054167758000986, 37.740515842438661 ], [ 127.054532044442183, 37.743767630003163 ], [ 127.057118485046587, 37.745887409269898 ], [ 127.058774216616769, 37.74735958340537 ], [ 127.059707915404985, 37.748063851935171 ], [ 127.066216807588717, 37.749926682621584 ], [ 127.066729946707625, 37.749891390537599 ], [ 127.06694570951241, 37.749876410362219 ], [ 127.067238577657889, 37.7497783406506 ], [ 127.067359420570469, 37.74973796342163 ], [ 127.06767218979806, 37.749633467145522 ], [ 127.068837696906741, 37.749901373193985 ], [ 127.069962761867743, 37.750170246826045 ], [ 127.0701370380865, 37.75021369535893 ], [ 127.070707125446447, 37.750357527683477 ], [ 127.071909736767253, 37.750947190556992 ], [ 127.073157791574332, 37.751966479256538 ], [ 127.073607494480626, 37.752479607116854 ], [ 127.073654712930747, 37.752533857234852 ], [ 127.074789930824863, 37.753518144671759 ], [ 127.07527024921464, 37.753643808293191 ], [ 127.076037497088976, 37.753843734828408 ], [ 127.077266335688392, 37.754094885588621 ], [ 127.078580512896878, 37.754312529158312 ], [ 127.078865249316706, 37.754219521063462 ], [ 127.082681044237845, 37.752222475685066 ] ] ] ] } },
{ "type": "Feature", "properties": { "OBJECTID": 1253, "adm_nm": "경기도 의정부시 송산1동", "adm_cd": "3103059", "adm_cd2": "4115057300", "sgg": "41150", "sido": "41", "sidonm": "경기도", "sggnm": "의정부시" }, "geometry": { "type": "MultiPolygon", "coordinates": [ [ [ [ 127.083385313727916, 37.750725769301098 ], [ 127.083100186118486, 37.750365039776263 ], [ 127.083709672546348, 37.747569714271108 ], [ 127.084560037515146, 37.745826608458955 ], [ 127.086027010522869, 37.741910923446582 ], [ 127.087664729850061, 37.740069861191593 ], [ 127.087888988366046, 37.739888226493647 ], [ 127.08855728075703, 37.737953840723357 ], [ 127.089810527057494, 37.732486589229694 ], [ 127.089959453047186, 37.732587956627917 ], [ 127.090826780700183, 37.73299994757415 ], [ 127.09114607286115, 37.733110341104378 ], [ 127.091266453260516, 37.733146811572702 ], [ 127.097018627502322, 37.734831832323884 ], [ 127.09707941797059, 37.734801602379122 ], [ 127.09784536725563, 37.734425661421035 ], [ 127.098296090655339, 37.734239046606319 ], [ 127.098523453450738, 37.734147422730103 ], [ 127.098731712147639, 37.734352069280774 ], [ 127.099020993295085, 37.734636971081983 ], [ 127.099973367009952, 37.73560349803536 ], [ 127.100240548289989, 37.735909728274351 ], [ 127.10079818470355, 37.736551558783731 ], [ 127.100881588213284, 37.736697918933231 ], [ 127.101920160973862, 37.737777774931217 ], [ 127.105076877016501, 37.740578766727609 ], [ 127.105338744099569, 37.740803074444393 ], [ 127.106728870370645, 37.741653838897456 ], [ 127.10690357174542, 37.741752440662381 ], [ 127.113322195900778, 37.74486183375857 ], [ 127.115084226459572, 37.745986369413409 ], [ 127.115216329370256, 37.746016535417326 ], [ 127.115314522363875, 37.746038947379581 ], [ 127.120641692836486, 37.746752089510217 ], [ 127.124241479104157, 37.74710426695524 ], [ 127.128229688074228, 37.747149586903483 ], [ 127.128690113212144, 37.74587115709592 ], [ 127.128689741339059, 37.745661598037671 ], [ 127.128664186260494, 37.745601182884478 ], [ 127.128598593555253, 37.74544611969614 ], [ 127.127978888174013, 37.744673533076131 ], [ 127.127591825905796, 37.744500689606333 ], [ 127.127130200703164, 37.744294548434205 ], [ 127.126294891451323, 37.743798427910214 ], [ 127.125130850529004, 37.741811812947816 ], [ 127.123714842627237, 37.738612198745656 ], [ 127.123688373155716, 37.738373830896442 ], [ 127.123602197687347, 37.737596698971792 ], [ 127.123667233245669, 37.734980696518136 ], [ 127.123854305696341, 37.734593768579018 ], [ 127.124722314829114, 37.73421234498764 ], [ 127.125291968105813, 37.733913339602381 ], [ 127.125645673692503, 37.733538159795444 ], [ 127.125767700582031, 37.727471493264062 ], [ 127.124758253988475, 37.72638556537521 ], [ 127.12411777498545, 37.725972289967949 ], [ 127.123661042898362, 37.722870302709602 ], [ 127.123431133178997, 37.722495531112045 ], [ 127.123006687917169, 37.722136978436652 ], [ 127.120961536176367, 37.721734449500907 ], [ 127.118919420558058, 37.721064777431835 ], [ 127.118195987085826, 37.720801051730561 ], [ 127.116747243045083, 37.718301925967971 ], [ 127.116564622266523, 37.717953752999513 ], [ 127.113605343837975, 37.717681020788909 ], [ 127.112903446752242, 37.717786877685867 ], [ 127.112612007382907, 37.717781413790419 ], [ 127.112346173445872, 37.717737438501082 ], [ 127.112215869982151, 37.717715828772576 ], [ 127.111666063682847, 37.717225111675596 ], [ 127.110907460080654, 37.716104963544794 ], [ 127.110566276251276, 37.715581066636972 ], [ 127.109304407240998, 37.712806433178834 ], [ 127.109232046070517, 37.710786069217626 ], [ 127.10933520230472, 37.71004621614842 ], [ 127.109341763775063, 37.709825033676928 ], [ 127.109348132824877, 37.709610240983537 ], [ 127.10930614990788, 37.709372525001505 ], [ 127.10912457137195, 37.708837736841168 ], [ 127.109013582302438, 37.708639076384003 ], [ 127.10737964803036, 37.707745837362054 ], [ 127.10706670800576, 37.707658041927061 ], [ 127.104415703693562, 37.707227806012881 ], [ 127.104307941565594, 37.707225191096036 ], [ 127.10365495794386, 37.707213984624495 ], [ 127.102370185560702, 37.707607370494976 ], [ 127.101287463086706, 37.708259413199698 ], [ 127.097943859638306, 37.706760883879326 ], [ 127.096635823954429, 37.705686087682032 ], [ 127.096364101101898, 37.705062113776386 ], [ 127.094417400175672, 37.703705692557179 ], [ 127.091241212555431, 37.702245832525527 ], [ 127.091108631105499, 37.702245377350451 ], [ 127.09105597670586, 37.702248628814395 ], [ 127.091005081195348, 37.702251778196135 ], [ 127.090925657899064, 37.702277163542291 ], [ 127.090851666531506, 37.702300819103215 ], [ 127.090629733050307, 37.702560307791266 ], [ 127.090546876152032, 37.702671559661233 ], [ 127.090442738499092, 37.702914557031924 ], [ 127.090103112906363, 37.703289700066492 ], [ 127.089581881773881, 37.703450108275241 ], [ 127.088435844314432, 37.70375481905922 ], [ 127.088207066655741, 37.703711207148366 ], [ 127.086274529495014, 37.702901132182802 ], [ 127.084106089876968, 37.702190466640054 ], [ 127.083877425449458, 37.702129946802344 ], [ 127.083647990021873, 37.702079563757898 ], [ 127.083195982889833, 37.702019380428048 ], [ 127.08217878225129, 37.704633014870907 ], [ 127.082033707815782, 37.704962612528426 ], [ 127.081712074160365, 37.705292710432786 ], [ 127.080809684502242, 37.706011695634459 ], [ 127.079233930730226, 37.708942161303952 ], [ 127.078167356988544, 37.712094125699998 ], [ 127.076830976998863, 37.715412982695867 ], [ 127.075170453944253, 37.716980953733135 ], [ 127.07379059207436, 37.718442883188786 ], [ 127.073425457404113, 37.719915203033132 ], [ 127.074046114247125, 37.720510098203917 ], [ 127.074046267442284, 37.72072311827759 ], [ 127.073841981432039, 37.721108742631415 ], [ 127.073357307490298, 37.721656798766844 ], [ 127.073366298144293, 37.721943002423288 ], [ 127.073460958015133, 37.722627226268642 ], [ 127.073515929237132, 37.722935002717051 ], [ 127.073564712751107, 37.723207830354497 ], [ 127.073761455016992, 37.723900309633926 ], [ 127.074213347829684, 37.724620750105458 ], [ 127.074606024405341, 37.726025982729787 ], [ 127.07438618621326, 37.728996183504847 ], [ 127.073432187843451, 37.729497477442095 ], [ 127.072134593584551, 37.73042113975805 ], [ 127.071017199051155, 37.732075475978768 ], [ 127.071266104927417, 37.73355125053412 ], [ 127.073048870318516, 37.736970336732462 ], [ 127.073678556556686, 37.737371439050939 ], [ 127.074229520008799, 37.737776772910507 ], [ 127.074458368734511, 37.737947724191685 ], [ 127.074656943639141, 37.738450928973613 ], [ 127.074985393942711, 37.739686927281383 ], [ 127.074449201681176, 37.740373892391979 ], [ 127.074155081366811, 37.741360393189758 ], [ 127.07309617429118, 37.742190282394795 ], [ 127.073204639859185, 37.743068343140571 ], [ 127.07331368799403, 37.743702998987303 ], [ 127.073414218338641, 37.744249834988722 ], [ 127.074642302367891, 37.744976458209727 ], [ 127.075227354276507, 37.744764503879971 ], [ 127.076398236171613, 37.744453254633299 ], [ 127.077077488301711, 37.744676094316297 ], [ 127.078407716027201, 37.745126311632774 ], [ 127.082300599369034, 37.74672867114824 ], [ 127.081925690561278, 37.747146538148677 ], [ 127.081627276094849, 37.747478968690231 ], [ 127.08140025204051, 37.747731659632336 ], [ 127.081218131166651, 37.747935009037462 ], [ 127.081150353332959, 37.748014688474328 ], [ 127.080838583870346, 37.748449594931294 ], [ 127.080228603085658, 37.749302553742467 ], [ 127.079938827894509, 37.749708238548124 ], [ 127.082681044237845, 37.752222475685066 ], [ 127.083385313727916, 37.750725769301098 ] ] ] ] } },
{ "type": "Feature", "properties": { "OBJECTID": 1254, "adm_nm": "경기도 의정부시 자금동", "adm_cd": "3103060", "adm_cd2": "4115058000", "sgg": "41150", "sido": "41", "sidonm": "경기도", "sggnm": "의정부시" }, "geometry": { "type": "MultiPolygon", "coordinates": [ [ [ [ 127.125434045432385, 37.763299335821984 ], [ 127.122154885516395, 37.765409089109333 ], [ 127.120186507850391, 37.765554111422205 ], [ 127.118477018732875, 37.765680029079327 ], [ 127.116313152939597, 37.76518469517594 ], [ 127.115055631602715, 37.765328730831939 ], [ 127.114819002712679, 37.765761154991537 ], [ 127.114780647070901, 37.765831255130664 ], [ 127.114831740462591, 37.766366694911994 ], [ 127.114404307195315, 37.767287212042888 ], [ 127.114353853643038, 37.767395819213448 ], [ 127.114275942482607, 37.767542235216645 ], [ 127.11382634629561, 37.768386869236778 ], [ 127.112814943289223, 37.768976024441749 ], [ 127.112681386069767, 37.769053793111695 ], [ 127.112644761338714, 37.769074754611509 ], [ 127.111215086399852, 37.768363321310382 ], [ 127.110531985023101, 37.768023386010356 ], [ 127.108481377319848, 37.765423041269443 ], [ 127.104511891656912, 37.762345295900907 ], [ 127.104428296130052, 37.76032267584489 ], [ 127.10500181687263, 37.758684194312956 ], [ 127.103400359682198, 37.757225434750133 ], [ 127.097944900695623, 37.754843233577439 ], [ 127.095177043039087, 37.753944830092571 ], [ 127.089883617776664, 37.753149139079625 ], [ 127.088557455672245, 37.753683056858975 ], [ 127.087515745426501, 37.75423113282244 ], [ 127.08529403996576, 37.752238517274549 ], [ 127.085244616187595, 37.751412570048984 ], [ 127.085164834737611, 37.751108029028323 ], [ 127.08508293451483, 37.751022449515055 ], [ 127.085037171110557, 37.750974635494664 ], [ 127.084338130114745, 37.750758108235331 ], [ 127.08422199614418, 37.750723077921315 ], [ 127.083385313727916, 37.750725769301098 ], [ 127.082681044237845, 37.752222475685066 ], [ 127.078865249316706, 37.754219521063462 ], [ 127.078580512896878, 37.754312529158312 ], [ 127.077266335688392, 37.754094885588621 ], [ 127.076037497088976, 37.753843734828408 ], [ 127.07527024921464, 37.753643808293191 ], [ 127.074789930824863, 37.753518144671759 ], [ 127.073654712930747, 37.752533857234852 ], [ 127.073607494480626, 37.752479607116854 ], [ 127.073157791574332, 37.751966479256538 ], [ 127.071909736767253, 37.750947190556992 ], [ 127.070707125446447, 37.750357527683477 ], [ 127.0701370380865, 37.75021369535893 ], [ 127.069962761867743, 37.750170246826045 ], [ 127.068837696906741, 37.749901373193985 ], [ 127.06767218979806, 37.749633467145522 ], [ 127.067359420570469, 37.74973796342163 ], [ 127.067238577657889, 37.7497783406506 ], [ 127.06694570951241, 37.749876410362219 ], [ 127.066729946707625, 37.749891390537599 ], [ 127.066216807588717, 37.749926682621584 ], [ 127.059707915404985, 37.748063851935171 ], [ 127.058774216616769, 37.74735958340537 ], [ 127.057118485046587, 37.745887409269898 ], [ 127.054532044442183, 37.743767630003163 ], [ 127.054618624902531, 37.745519006520048 ], [ 127.054588594384441, 37.745580568714658 ], [ 127.054446355985505, 37.745871893651852 ], [ 127.053643444359736, 37.747511577282211 ], [ 127.053593101400836, 37.74761384979 ], [ 127.053539982101611, 37.747713812485749 ], [ 127.051422976847761, 37.747959379380568 ], [ 127.051003579135227, 37.748684472135594 ], [ 127.050302037499236, 37.749370181867178 ], [ 127.050005151472249, 37.749659724908348 ], [ 127.048616470861944, 37.750640234972309 ], [ 127.047430913060921, 37.751477243109129 ], [ 127.046075165073248, 37.753774958237457 ], [ 127.047231419582289, 37.752997510055486 ], [ 127.048603922479586, 37.753873675878111 ], [ 127.048780061980153, 37.754824648774196 ], [ 127.048807947974524, 37.754975194949203 ], [ 127.052249571415672, 37.760775922703793 ], [ 127.052761615614671, 37.761371560904436 ], [ 127.054217839979046, 37.762323514353461 ], [ 127.054585799320407, 37.762374478212841 ], [ 127.055368822239757, 37.762196044477065 ], [ 127.055894580524921, 37.761965937096093 ], [ 127.056472262014353, 37.761713489781613 ], [ 127.058723124311499, 37.761954434813056 ], [ 127.060246210434798, 37.762117453376163 ], [ 127.060375599895963, 37.762177432239589 ], [ 127.0606750375606, 37.762316216462622 ], [ 127.062166047546015, 37.763005641671654 ], [ 127.064293462473856, 37.763588159972748 ], [ 127.065400983462638, 37.763664565055365 ], [ 127.066276583944585, 37.763993140212357 ], [ 127.070452554792311, 37.765831354399694 ], [ 127.071860906482769, 37.767100580013782 ], [ 127.072285836088426, 37.76737139222007 ], [ 127.074053450481557, 37.768495430470907 ], [ 127.078052870927849, 37.76963534102422 ], [ 127.078188205215, 37.769623062845568 ], [ 127.078327640500518, 37.769610411618658 ], [ 127.078874885928755, 37.769558478665864 ], [ 127.079139925551559, 37.769533323315891 ], [ 127.081540044112529, 37.770674346685915 ], [ 127.082997634870139, 37.772679121483435 ], [ 127.084677941293279, 37.77360552756496 ], [ 127.08523844902578, 37.773757345998007 ], [ 127.089845932193811, 37.775264029121359 ], [ 127.092726950935386, 37.776607923931053 ], [ 127.094711134645593, 37.77717813883384 ], [ 127.099462704995986, 37.778100211119934 ], [ 127.103461768167904, 37.778681567490295 ], [ 127.103798616217162, 37.778998162074636 ], [ 127.10434295102165, 37.779670346705096 ], [ 127.110693045254379, 37.779398569424657 ], [ 127.111492833071651, 37.779028703133605 ], [ 127.111745292950019, 37.778911949208734 ], [ 127.115410443912992, 37.776432948278497 ], [ 127.115772232464863, 37.774683315670664 ], [ 127.115642890688534, 37.773756788013834 ], [ 127.118921025366561, 37.773601817313491 ], [ 127.120121231610895, 37.773993260046382 ], [ 127.121391685542974, 37.773749368696436 ], [ 127.128066375973916, 37.771839632382651 ], [ 127.128672071607767, 37.770632678171744 ], [ 127.128824093236872, 37.769322862354329 ], [ 127.129080228445588, 37.767060226902395 ], [ 127.129098120069102, 37.766887905570684 ], [ 127.128889538295482, 37.766570578768416 ], [ 127.127348420955045, 37.765430096892572 ], [ 127.12698514574825, 37.765541062039851 ], [ 127.126505007921978, 37.7656209846878 ], [ 127.125434045432385, 37.763299335821984 ] ] ] ] } },
{ "type": "Feature", "properties": { "OBJECTID": 1255, "adm_nm": "경기도 의정부시 가능동", "adm_cd": "3103068", "adm_cd2": "4115059500", "sgg": "41150", "sido": "41", "sidonm": "경기도", "sggnm": "의정부시" }, "geometry": { "type": "MultiPolygon", "coordinates": [ [ [ [ 127.04231923643141, 37.757898583990759 ], [ 127.042297514979595, 37.756587115077387 ], [ 127.042285486229375, 37.754854280203752 ], [ 127.042393645006214, 37.753767482401976 ], [ 127.042597113395303, 37.752812872372132 ], [ 127.042881330138854, 37.75187885384873 ], [ 127.042973464622506, 37.751664020797847 ], [ 127.043673090478777, 37.750033087290717 ], [ 127.044899684150408, 37.746910244551493 ], [ 127.044385473092319, 37.746895864798724 ], [ 127.042378275045721, 37.746839643676033 ], [ 127.041621974658682, 37.746364669219076 ], [ 127.041490703819022, 37.746346094349938 ], [ 127.039776121977539, 37.746124228698733 ], [ 127.039320267996743, 37.746074000943672 ], [ 127.038595718824553, 37.745994878066547 ], [ 127.038561327456677, 37.746736882578709 ], [ 127.037942115567859, 37.746718683645049 ], [ 127.032696864139112, 37.746563932952299 ], [ 127.030822912794562, 37.746508042385727 ], [ 127.030257963779576, 37.747893826767559 ], [ 127.028101560144663, 37.748518390777527 ], [ 127.022311507575196, 37.748318200430532 ], [ 127.021639683875875, 37.748289742991112 ], [ 127.01854455250556, 37.748093298159041 ], [ 127.018336178860039, 37.748079666077466 ], [ 127.018195655800739, 37.748070466094134 ], [ 127.014296434808927, 37.7471137000502 ], [ 127.013408498716885, 37.746314631192 ], [ 127.012329535467302, 37.745654461086126 ], [ 127.009865566944882, 37.744604341871778 ], [ 127.007716994633128, 37.743713229016556 ], [ 127.005253398028273, 37.743158732471549 ], [ 127.004570803120018, 37.74317608469071 ], [ 127.002896828763923, 37.743896913662525 ], [ 127.002749720373671, 37.744081218022025 ], [ 127.002485468089446, 37.744412310795461 ], [ 127.002429727317491, 37.744579946469756 ], [ 127.002413142515024, 37.744831119572225 ], [ 127.00247937394272, 37.745641460966915 ], [ 127.002707897904074, 37.747748134906921 ], [ 127.002913030662839, 37.749596444852102 ], [ 127.002980532278357, 37.749838093964506 ], [ 127.002930440764601, 37.750538658846367 ], [ 127.002874421087043, 37.750745726107645 ], [ 127.002773158588241, 37.750930069483083 ], [ 127.002100931190512, 37.751402696620438 ], [ 127.002487684825326, 37.751924588578461 ], [ 127.003337059439602, 37.753070827640649 ], [ 127.003309379198754, 37.753158111928308 ], [ 127.003289955539842, 37.753219346823968 ], [ 127.002905909399161, 37.754417608869069 ], [ 127.002711613189845, 37.754693349968427 ], [ 127.002491161405374, 37.755006222825266 ], [ 127.002176026033268, 37.755765379995111 ], [ 127.001395661465338, 37.758076216909565 ], [ 127.001279509059088, 37.758995070263111 ], [ 127.001369097079717, 37.760235888635009 ], [ 127.00205761619074, 37.762422242737834 ], [ 127.00226780893739, 37.762762752648563 ], [ 127.00469643709387, 37.763181457662874 ], [ 127.00796867089457, 37.762486502883547 ], [ 127.01011480879842, 37.760816738389387 ], [ 127.011309724022837, 37.759951927022954 ], [ 127.015557490937013, 37.757064964208908 ], [ 127.017107955958778, 37.756218345678569 ], [ 127.017672987188163, 37.755909812406863 ], [ 127.019041465114938, 37.75582752632468 ], [ 127.020392114679026, 37.755979494863247 ], [ 127.021713667551651, 37.756132456505263 ], [ 127.02251059374322, 37.756442136555648 ], [ 127.024879492480622, 37.756692813274057 ], [ 127.03043403417557, 37.75618104294589 ], [ 127.032418859857955, 37.755794606803448 ], [ 127.034653881483848, 37.75522097473069 ], [ 127.036260653345025, 37.754808195884088 ], [ 127.037871001205986, 37.755301234105275 ], [ 127.038136818273841, 37.755512959687486 ], [ 127.038836735804324, 37.756191740137972 ], [ 127.039623773342399, 37.757774329898027 ], [ 127.039611417010846, 37.757822727570854 ], [ 127.03942130412554, 37.758616273701776 ], [ 127.039423141531373, 37.758779698254806 ], [ 127.039458954937402, 37.758952161517605 ], [ 127.039485368810944, 37.759042522883377 ], [ 127.039531413429103, 37.759053843106116 ], [ 127.03998208755371, 37.759150241656513 ], [ 127.041010021537332, 37.759167773834115 ], [ 127.041587029275149, 37.758808351580086 ], [ 127.04231923643141, 37.757898583990759 ] ] ] ] } },
{ "type": "Feature", "properties": { "OBJECTID": 1256, "adm_nm": "경기도 의정부시 흥선동", "adm_cd": "3103067", "adm_cd2": "4115061500", "sgg": "41150", "sido": "41", "sidonm": "경기도", "sggnm": "의정부시" }, "geometry": { "type": "MultiPolygon", "coordinates": [ [ [ [ 127.039320267996743, 37.746074000943672 ], [ 127.039312757143932, 37.745230217325513 ], [ 127.040651432343907, 37.742024463306564 ], [ 127.04057160040216, 37.741653654626518 ], [ 127.040545798679474, 37.741533867463119 ], [ 127.040205326246905, 37.740274068392409 ], [ 127.03969147652127, 37.739630998093375 ], [ 127.034888840671499, 37.741146610657999 ], [ 127.034262828134885, 37.741768339550106 ], [ 127.032958057455247, 37.741802610604765 ], [ 127.031511417618006, 37.741163690938947 ], [ 127.029711385177762, 37.739824017191921 ], [ 127.028684718488805, 37.736325840770313 ], [ 127.027256881635154, 37.733857104160542 ], [ 127.025471900071906, 37.730032981142998 ], [ 127.025282651057239, 37.729572617140839 ], [ 127.02488120362807, 37.728457796510185 ], [ 127.024965744342467, 37.727760680171087 ], [ 127.024914314566217, 37.727716586553804 ], [ 127.024856720941315, 37.727661968547793 ], [ 127.024743710961303, 37.727554787233608 ], [ 127.024625211111058, 37.727367374851553 ], [ 127.024355620045014, 37.726799489811107 ], [ 127.024285786301576, 37.726629083109657 ], [ 127.024262540433583, 37.726383378484364 ], [ 127.024142025957275, 37.726153054428345 ], [ 127.024068396440427, 37.726020938538014 ], [ 127.024003480646428, 37.725968850304405 ], [ 127.023883662763168, 37.725934828180506 ], [ 127.023786148024385, 37.7259071331952 ], [ 127.023675214783083, 37.725841339018928 ], [ 127.023604519315313, 37.725770412069849 ], [ 127.023546084238731, 37.725627879355521 ], [ 127.02338443591394, 37.725176563808873 ], [ 127.023245524742862, 37.724835806275124 ], [ 127.023174795100672, 37.7246890009325 ], [ 127.023139112257994, 37.724615660050503 ], [ 127.022924827332673, 37.724408579072843 ], [ 127.022651807757285, 37.72426010736261 ], [ 127.022432219106591, 37.724140693859773 ], [ 127.022065873726319, 37.724229945559173 ], [ 127.021699845568392, 37.724319139718574 ], [ 127.020320657325172, 37.72307869815139 ], [ 127.020303818521711, 37.723010002788357 ], [ 127.020291634555946, 37.72296028121773 ], [ 127.020178985431087, 37.72249496465173 ], [ 127.020109215025016, 37.722206910252694 ], [ 127.018800035722265, 37.721558275903107 ], [ 127.018429162281123, 37.721456128628169 ], [ 127.018152279277359, 37.721379871869509 ], [ 127.017004687238256, 37.720865098202196 ], [ 127.014887525911689, 37.719915350281383 ], [ 127.014139693636196, 37.719210364008063 ], [ 127.013601395015684, 37.719325326519375 ], [ 127.01154481052896, 37.722242738602432 ], [ 127.011495165086259, 37.72234842047822 ], [ 127.011522788670561, 37.722463471813079 ], [ 127.01166899100447, 37.722668255396137 ], [ 127.011789828123, 37.72283750089462 ], [ 127.011900480126855, 37.722943864673589 ], [ 127.012340078382508, 37.723283680492855 ], [ 127.012506153706795, 37.723481532020983 ], [ 127.012628744575863, 37.723715252007935 ], [ 127.012690116369512, 37.723980274177087 ], [ 127.012673761439288, 37.725610476308987 ], [ 127.012629523604943, 37.725760138517693 ], [ 127.012529274520759, 37.725906189145306 ], [ 127.012216425933573, 37.726133605993112 ], [ 127.011670677875557, 37.726182524644734 ], [ 127.011183177190233, 37.726226218478949 ], [ 127.011149783575959, 37.726229262582272 ], [ 127.010887959633607, 37.726253160361026 ], [ 127.010561201771054, 37.72646188561562 ], [ 127.010488356083457, 37.726508433957875 ], [ 127.008725556385713, 37.728071602104052 ], [ 127.009059381917425, 37.728537174323023 ], [ 127.009094541722476, 37.728565865651973 ], [ 127.009275951379365, 37.728713834084147 ], [ 127.00939112401835, 37.728804861298912 ], [ 127.009553948865488, 37.728933561880119 ], [ 127.009675843020801, 37.729056874236214 ], [ 127.009787141048065, 37.729290821285687 ], [ 127.009865295768705, 37.729582682846534 ], [ 127.009870604202064, 37.729960133974799 ], [ 127.009798632245293, 37.730118692903694 ], [ 127.009382080544583, 37.730688173448328 ], [ 127.009237643726891, 37.730864456852977 ], [ 127.007658317998306, 37.73275853561146 ], [ 127.005693797928046, 37.735278605339431 ], [ 127.003107937000095, 37.738645366588329 ], [ 127.002196223959672, 37.740570335776212 ], [ 127.002196048745731, 37.740703271801969 ], [ 127.002997875509863, 37.742258062462604 ], [ 127.003164825576476, 37.742523360780943 ], [ 127.004570803120018, 37.74317608469071 ], [ 127.005253398028273, 37.743158732471549 ], [ 127.007716994633128, 37.743713229016556 ], [ 127.009865566944882, 37.744604341871778 ], [ 127.012329535467302, 37.745654461086126 ], [ 127.013408498716885, 37.746314631192 ], [ 127.014296434808927, 37.7471137000502 ], [ 127.018195655800739, 37.748070466094134 ], [ 127.018336178860039, 37.748079666077466 ], [ 127.01854455250556, 37.748093298159041 ], [ 127.021639683875875, 37.748289742991112 ], [ 127.022311507575196, 37.748318200430532 ], [ 127.028101560144663, 37.748518390777527 ], [ 127.030257963779576, 37.747893826767559 ], [ 127.030822912794562, 37.746508042385727 ], [ 127.032696864139112, 37.746563932952299 ], [ 127.037942115567859, 37.746718683645049 ], [ 127.038561327456677, 37.746736882578709 ], [ 127.038595718824553, 37.745994878066547 ], [ 127.039320267996743, 37.746074000943672 ] ] ] ] } },
{ "type": "Feature", "properties": { "OBJECTID": 1257, "adm_nm": "경기도 의정부시 녹양동", "adm_cd": "3103064", "adm_cd2": "4115062000", "sgg": "41150", "sido": "41", "sidonm": "경기도", "sggnm": "의정부시" }, "geometry": { "type": "MultiPolygon", "coordinates": [ [ [ [ 127.052761615614671, 37.761371560904436 ], [ 127.052249571415672, 37.760775922703793 ], [ 127.048807947974524, 37.754975194949203 ], [ 127.048780061980153, 37.754824648774196 ], [ 127.048603922479586, 37.753873675878111 ], [ 127.047231419582289, 37.752997510055486 ], [ 127.046075165073248, 37.753774958237457 ], [ 127.04231923643141, 37.757898583990759 ], [ 127.041587029275149, 37.758808351580086 ], [ 127.041010021537332, 37.759167773834115 ], [ 127.03998208755371, 37.759150241656513 ], [ 127.039531413429103, 37.759053843106116 ], [ 127.039485368810944, 37.759042522883377 ], [ 127.039458954937402, 37.758952161517605 ], [ 127.039423141531373, 37.758779698254806 ], [ 127.03942130412554, 37.758616273701776 ], [ 127.039611417010846, 37.757822727570854 ], [ 127.039623773342399, 37.757774329898027 ], [ 127.038836735804324, 37.756191740137972 ], [ 127.038136818273841, 37.755512959687486 ], [ 127.037871001205986, 37.755301234105275 ], [ 127.036260653345025, 37.754808195884088 ], [ 127.034653881483848, 37.75522097473069 ], [ 127.032418859857955, 37.755794606803448 ], [ 127.03043403417557, 37.75618104294589 ], [ 127.024879492480622, 37.756692813274057 ], [ 127.02251059374322, 37.756442136555648 ], [ 127.021713667551651, 37.756132456505263 ], [ 127.020392114679026, 37.755979494863247 ], [ 127.019041465114938, 37.75582752632468 ], [ 127.017672987188163, 37.755909812406863 ], [ 127.017107955958778, 37.756218345678569 ], [ 127.015557490937013, 37.757064964208908 ], [ 127.011309724022837, 37.759951927022954 ], [ 127.01011480879842, 37.760816738389387 ], [ 127.00796867089457, 37.762486502883547 ], [ 127.00469643709387, 37.763181457662874 ], [ 127.00509780637266, 37.763429875147622 ], [ 127.008597194607589, 37.765193079936196 ], [ 127.010602778155217, 37.766172622724341 ], [ 127.017284975250391, 37.768561608845914 ], [ 127.018706916701035, 37.768587704558364 ], [ 127.020173400037805, 37.768199358396402 ], [ 127.02263749370789, 37.767280990450331 ], [ 127.02547242662672, 37.766946577341393 ], [ 127.028420510709225, 37.766967830362972 ], [ 127.029071358781096, 37.767324921467406 ], [ 127.032283250578402, 37.76761957325408 ], [ 127.035076530918062, 37.767723939112507 ], [ 127.041169103123991, 37.766739468325895 ], [ 127.041735865228858, 37.766430718754044 ], [ 127.042724129410303, 37.765777721686035 ], [ 127.043804195463323, 37.764961707577619 ], [ 127.046475947526616, 37.763198629498355 ], [ 127.050863501867198, 37.760941899230524 ], [ 127.051798452044451, 37.761153537335453 ], [ 127.052761615614671, 37.761371560904436 ] ] ] ] } },
{ "type": "Feature", "properties": { "OBJECTID": 1258, "adm_nm": "경기도 의정부시 호원2동", "adm_cd": "3103065", "adm_cd2": "4115055500", "sgg": "41150", "sido": "41", "sidonm": "경기도", "sggnm": "의정부시" }, "geometry": { "type": "MultiPolygon", "coordinates": [ [ [ [ 127.043476860032897, 37.730927668266141 ], [ 127.045164275648091, 37.730225524911624 ], [ 127.046563034084556, 37.73009571487836 ], [ 127.046602585733098, 37.730093397377964 ], [ 127.04679789171972, 37.730081971500816 ], [ 127.050180086680356, 37.728374522615489 ], [ 127.051127267314897, 37.727614260287737 ], [ 127.051436846570851, 37.727321381433704 ], [ 127.052017668542362, 37.726513467488665 ], [ 127.0504234410366, 37.723667154369551 ], [ 127.048242814085697, 37.724894777675871 ], [ 127.047119595739133, 37.724419388711233 ], [ 127.046953188124874, 37.721856412050279 ], [ 127.046845113953168, 37.721050878575412 ], [ 127.046728726289558, 37.720250504571496 ], [ 127.046492341070433, 37.718775927668979 ], [ 127.04460415868833, 37.718608663932116 ], [ 127.044053691027088, 37.718634701887588 ], [ 127.043900364289527, 37.718644060355643 ], [ 127.042545235041388, 37.718761804942268 ], [ 127.042424512008267, 37.718773972141427 ], [ 127.042222360704073, 37.718794350509953 ], [ 127.041834561127203, 37.718870890785652 ], [ 127.041690557665021, 37.718899317709223 ], [ 127.041084460956469, 37.719063911669231 ], [ 127.038087480054742, 37.719014027443372 ], [ 127.036359386417971, 37.718961844341202 ], [ 127.035211751164027, 37.718926355956278 ], [ 127.034939916429479, 37.71891794717493 ], [ 127.033501828592719, 37.718676794282622 ], [ 127.032511786147026, 37.718365908188439 ], [ 127.031118094769766, 37.717928251056556 ], [ 127.028856736089196, 37.717123815913681 ], [ 127.025916820098033, 37.714866602887 ], [ 127.025560785719961, 37.714430280933932 ], [ 127.024525894372658, 37.713032436483068 ], [ 127.024473280052277, 37.712944344986148 ], [ 127.024443650923999, 37.712762364895781 ], [ 127.024424830190569, 37.71264671192101 ], [ 127.024398979550355, 37.712475355661837 ], [ 127.024385514713558, 37.712347177818891 ], [ 127.024368905677377, 37.712189063255131 ], [ 127.02433517605381, 37.711917393618414 ], [ 127.024157147899999, 37.711481794296361 ], [ 127.023509301470952, 37.710444941839995 ], [ 127.02013916569517, 37.707565019054641 ], [ 127.019393763158419, 37.707264545181125 ], [ 127.019527722096953, 37.708041357957271 ], [ 127.019510765201417, 37.708142688115238 ], [ 127.019438462552046, 37.708248299337626 ], [ 127.018110180147659, 37.709485582076148 ], [ 127.0169803397782, 37.710404818426078 ], [ 127.013523153565529, 37.713938448780993 ], [ 127.01338341935049, 37.714162076881514 ], [ 127.013105555274436, 37.715119714743196 ], [ 127.012772351516134, 37.716406106816812 ], [ 127.012763684637576, 37.71645783410856 ], [ 127.012755383400432, 37.716507435782688 ], [ 127.01302787938441, 37.716837752645446 ], [ 127.013574530172889, 37.71736031729457 ], [ 127.014139693636196, 37.719210364008063 ], [ 127.014887525911689, 37.719915350281383 ], [ 127.017004687238256, 37.720865098202196 ], [ 127.018152279277359, 37.721379871869509 ], [ 127.018429162281123, 37.721456128628169 ], [ 127.018800035722265, 37.721558275903107 ], [ 127.020109215025016, 37.722206910252694 ], [ 127.020178985431087, 37.72249496465173 ], [ 127.020291634555946, 37.72296028121773 ], [ 127.020303818521711, 37.723010002788357 ], [ 127.020320657325172, 37.72307869815139 ], [ 127.021699845568392, 37.724319139718574 ], [ 127.022065873726319, 37.724229945559173 ], [ 127.022432219106591, 37.724140693859773 ], [ 127.022651807757285, 37.72426010736261 ], [ 127.022924827332673, 37.724408579072843 ], [ 127.023139112257994, 37.724615660050503 ], [ 127.023174795100672, 37.7246890009325 ], [ 127.023245524742862, 37.724835806275124 ], [ 127.02338443591394, 37.725176563808873 ], [ 127.023546084238731, 37.725627879355521 ], [ 127.023604519315313, 37.725770412069849 ], [ 127.023675214783083, 37.725841339018928 ], [ 127.023786148024385, 37.7259071331952 ], [ 127.023883662763168, 37.725934828180506 ], [ 127.024003480646428, 37.725968850304405 ], [ 127.024068396440427, 37.726020938538014 ], [ 127.024142025957275, 37.726153054428345 ], [ 127.024262540433583, 37.726383378484364 ], [ 127.024285786301576, 37.726629083109657 ], [ 127.024355620045014, 37.726799489811107 ], [ 127.024625211111058, 37.727367374851553 ], [ 127.024743710961303, 37.727554787233608 ], [ 127.024856720941315, 37.727661968547793 ], [ 127.024914314566217, 37.727716586553804 ], [ 127.024965744342467, 37.727760680171087 ], [ 127.026762609170149, 37.726714538721566 ], [ 127.028692252083843, 37.726743674711948 ], [ 127.030000290148536, 37.726824379249301 ], [ 127.030222071047376, 37.726856814108537 ], [ 127.033087955208714, 37.72755883863509 ], [ 127.033411408668286, 37.727670568468781 ], [ 127.036738789581676, 37.729185107140324 ], [ 127.040084441860913, 37.730804069471134 ], [ 127.040566489833168, 37.73153489490339 ], [ 127.041983005427156, 37.732098101270999 ], [ 127.042023696323213, 37.732056573137449 ], [ 127.042500553307534, 37.731560443343156 ], [ 127.043476860032897, 37.730927668266141 ] ] ] ] } },
{ "type": "Feature", "properties": { "OBJECTID": 1259, "adm_nm": "경기도 의정부시 송산2동", "adm_cd": "3103070", "adm_cd2": "4115057600", "sgg": "41150", "sido": "41", "sidonm": "경기도", "sggnm": "의정부시" }, "geometry": { "type": "MultiPolygon", "coordinates": [ [ [ [ 127.084560037515146, 37.745826608458955 ], [ 127.086316346604505, 37.745396097580148 ], [ 127.08802273716843, 37.745622868221758 ], [ 127.089154668301887, 37.745742740611995 ], [ 127.090861059004865, 37.745956056461061 ], [ 127.091824108535022, 37.746102860627794 ], [ 127.100433397263131, 37.741763219339113 ], [ 127.101550010528001, 37.743063390320316 ], [ 127.10327177572394, 37.742203418452625 ], [ 127.105338744099569, 37.740803074444393 ], [ 127.101920160973862, 37.737777774931217 ], [ 127.100881588213284, 37.736697918933231 ], [ 127.10079818470355, 37.736551558783731 ], [ 127.100240548289989, 37.735909728274351 ], [ 127.099973367009952, 37.73560349803536 ], [ 127.099020993295085, 37.734636971081983 ], [ 127.098731712147639, 37.734352069280774 ], [ 127.098523453450738, 37.734147422730103 ], [ 127.098296090655339, 37.734239046606319 ], [ 127.09784536725563, 37.734425661421035 ], [ 127.09707941797059, 37.734801602379122 ], [ 127.097018627502322, 37.734831832323884 ], [ 127.091266453260516, 37.733146811572702 ], [ 127.09114607286115, 37.733110341104378 ], [ 127.090826780700183, 37.73299994757415 ], [ 127.089959453047186, 37.732587956627917 ], [ 127.089810527057494, 37.732486589229694 ], [ 127.08855728075703, 37.737953840723357 ], [ 127.087888988366046, 37.739888226493647 ], [ 127.087664729850061, 37.740069861191593 ], [ 127.086027010522869, 37.741910923446582 ], [ 127.084560037515146, 37.745826608458955 ] ] ] ] } },
{ "type": "Feature", "properties": { "OBJECTID": 3483, "adm_nm": "경기도 의정부시 송산3동", "adm_cd": "3103071", "adm_cd2": "4115057800", "sgg": "41150", "sido": "41", "sidonm": "경기도", "sggnm": "의정부시" }, "geometry": { "type": "MultiPolygon", "coordinates": [ [ [ [ 127.105338744099569, 37.740803074444393 ], [ 127.10327177572394, 37.742203418452625 ], [ 127.101550010528001, 37.743063390320316 ], [ 127.100433397263131, 37.741763219339113 ], [ 127.091824108535022, 37.746102860627794 ], [ 127.090861059004865, 37.745956056461061 ], [ 127.089154668301887, 37.745742740611995 ], [ 127.08802273716843, 37.745622868221758 ], [ 127.086316346604505, 37.745396097580148 ], [ 127.084560037515146, 37.745826608458955 ], [ 127.083709672546348, 37.747569714271108 ], [ 127.083100186118486, 37.750365039776263 ], [ 127.083385313727916, 37.750725769301098 ], [ 127.08422199614418, 37.750723077921315 ], [ 127.084338130114745, 37.750758108235331 ], [ 127.085037171110557, 37.750974635494664 ], [ 127.08508293451483, 37.751022449515055 ], [ 127.085164834737611, 37.751108029028323 ], [ 127.085244616187595, 37.751412570048984 ], [ 127.08529403996576, 37.752238517274549 ], [ 127.087515745426501, 37.75423113282244 ], [ 127.088557455672245, 37.753683056858975 ], [ 127.089883617776664, 37.753149139079625 ], [ 127.095177043039087, 37.753944830092571 ], [ 127.097944900695623, 37.754843233577439 ], [ 127.103400359682198, 37.757225434750133 ], [ 127.10500181687263, 37.758684194312956 ], [ 127.104428296130052, 37.76032267584489 ], [ 127.104511891656912, 37.762345295900907 ], [ 127.108481377319848, 37.765423041269443 ], [ 127.110531985023101, 37.768023386010356 ], [ 127.111215086399852, 37.768363321310382 ], [ 127.112644761338714, 37.769074754611509 ], [ 127.112681386069767, 37.769053793111695 ], [ 127.112814943289223, 37.768976024441749 ], [ 127.11382634629561, 37.768386869236778 ], [ 127.114275942482607, 37.767542235216645 ], [ 127.114353853643038, 37.767395819213448 ], [ 127.114404307195315, 37.767287212042888 ], [ 127.114831740462591, 37.766366694911994 ], [ 127.114780647070901, 37.765831255130664 ], [ 127.114819002712679, 37.765761154991537 ], [ 127.115055631602715, 37.765328730831939 ], [ 127.116313152939597, 37.76518469517594 ], [ 127.118477018732875, 37.765680029079327 ], [ 127.120186507850391, 37.765554111422205 ], [ 127.122154885516395, 37.765409089109333 ], [ 127.125434045432385, 37.763299335821984 ], [ 127.126094923215391, 37.763508583380229 ], [ 127.12667195423839, 37.763634362467386 ], [ 127.126825138648286, 37.763651747410492 ], [ 127.127005970266495, 37.763645559973114 ], [ 127.127235479665373, 37.763612486594958 ], [ 127.133427525066438, 37.762286687077697 ], [ 127.139660316401518, 37.764072500121877 ], [ 127.140222517676079, 37.763426474776999 ], [ 127.140561992825468, 37.762946348982489 ], [ 127.140631540889615, 37.762796716309417 ], [ 127.140596278454296, 37.762459806387 ], [ 127.141372874289686, 37.761365872480319 ], [ 127.14318207347452, 37.758839161811856 ], [ 127.144816526957015, 37.756889968054267 ], [ 127.146706540418634, 37.754836124521987 ], [ 127.145884508422341, 37.754031479740355 ], [ 127.142043200180183, 37.749923359773319 ], [ 127.142484186671567, 37.74777052728048 ], [ 127.141468894814793, 37.747644644157127 ], [ 127.139960109598888, 37.74745865348801 ], [ 127.13825675773802, 37.747311479466944 ], [ 127.137995211034877, 37.747467110298118 ], [ 127.137930891402647, 37.747505390265083 ], [ 127.13751386477162, 37.747771125765588 ], [ 127.13703964773498, 37.748111367386898 ], [ 127.136808671190622, 37.748374734820743 ], [ 127.136716108154019, 37.748566341446654 ], [ 127.13622365516224, 37.749311794802381 ], [ 127.135278764089421, 37.749290848222415 ], [ 127.134813454663785, 37.749278888991768 ], [ 127.134680763713831, 37.749275476383318 ], [ 127.134312063687659, 37.749231520140285 ], [ 127.134131372124187, 37.749188146501261 ], [ 127.128484544330277, 37.747825256814394 ], [ 127.128247625852822, 37.747251042432445 ], [ 127.128239137054848, 37.747203047194517 ], [ 127.128229688074228, 37.747149586903483 ], [ 127.124241479104157, 37.74710426695524 ], [ 127.120641692836486, 37.746752089510217 ], [ 127.115314522363875, 37.746038947379581 ], [ 127.115216329370256, 37.746016535417326 ], [ 127.115084226459572, 37.745986369413409 ], [ 127.113322195900778, 37.74486183375857 ], [ 127.10690357174542, 37.741752440662381 ], [ 127.106728870370645, 37.741653838897456 ], [ 127.105338744099569, 37.740803074444393 ] ] ] ] } }
]
}
