{
"type": "FeatureCollection",
"name": "uiwangshi",
"crs": { "type": "name", "properties": { "name": "urn:ogc:def:crs:OGC:1.3:CRS84" } },
"features": [
{ "type": "Feature", "properties": { "OBJECTID": 1467, "adm_nm": "경기도 의왕시 고천동", "adm_cd": "3117051", "adm_cd2": "4143051000", "sgg": "41430", "sido": "41", "sidonm": "경기도", "sggnm": "의왕시" }, "geometry": { "type": "MultiPolygon", "coordinates": [ [ [ [ 127.016870510232749, 37.353745547647371 ], [ 127.018807694064407, 37.351563117375406 ], [ 127.018509935478278, 37.350443073873905 ], [ 127.017764907046512, 37.350086247016229 ], [ 127.017012327724871, 37.350027967120212 ], [ 127.015889256373001, 37.349763327981535 ], [ 127.014610205536343, 37.349150555875731 ], [ 127.013305501236317, 37.347825798588211 ], [ 127.012695587137785, 37.346879090817119 ], [ 127.012688233684969, 37.346706671333742 ], [ 127.012629670155619, 37.345394919982837 ], [ 127.012617958611855, 37.345133471061608 ], [ 127.011586496843634, 37.343799679073449 ], [ 127.010938992796341, 37.343215612787603 ], [ 127.010902106142709, 37.34313771610627 ], [ 127.010420352237674, 37.342114457673816 ], [ 127.010343916002981, 37.341950089801877 ], [ 127.01028762488852, 37.341828548805431 ], [ 127.010154389703402, 37.341507131332158 ], [ 127.010179811992614, 37.341468297785376 ], [ 127.010192812416832, 37.341422155776904 ], [ 127.010223244237494, 37.341299468451275 ], [ 127.010229279762811, 37.341274065447536 ], [ 127.010238484046496, 37.341235308064171 ], [ 127.010258224017704, 37.341128350650564 ], [ 127.01025660314221, 37.341052853183513 ], [ 127.010246956057912, 37.341007685548497 ], [ 127.010218148125205, 37.340977697186304 ], [ 127.010183229328248, 37.340942130100856 ], [ 127.010084422507745, 37.340838062020005 ], [ 127.010011738408807, 37.340730721867871 ], [ 127.010002790297435, 37.340701544922567 ], [ 127.009989332403507, 37.340651812204719 ], [ 127.009984825919716, 37.340528926125899 ], [ 127.00997867043526, 37.340437085833379 ], [ 127.00994771756757, 37.340366483050595 ], [ 127.00990249757217, 37.340276198064345 ], [ 127.009864041177636, 37.340223082538628 ], [ 127.009817070143185, 37.340175565360788 ], [ 127.009709658880965, 37.340092869136534 ], [ 127.009663062777534, 37.340060640894862 ], [ 127.009569839215828, 37.340001024649318 ], [ 127.009535411422846, 37.339979474096786 ], [ 127.009503772633764, 37.339961315281101 ], [ 127.009433480068736, 37.3399204616248 ], [ 127.009297282484354, 37.339815111098858 ], [ 127.00921798480104, 37.339749431948945 ], [ 127.00917729317716, 37.339713771207904 ], [ 127.009146596552597, 37.339674902438873 ], [ 127.009125598599283, 37.339634122410608 ], [ 127.009119211938568, 37.339585083245396 ], [ 127.009122355865088, 37.33953566898807 ], [ 127.009126669211952, 37.339469624570519 ], [ 127.009153073901786, 37.339315372389478 ], [ 127.009169992649902, 37.339208403421004 ], [ 127.00917881310005, 37.339147136995763 ], [ 127.009188473055175, 37.339080033093786 ], [ 127.009172529558029, 37.338927858660533 ], [ 127.009143465882445, 37.338842814330178 ], [ 127.009100024569364, 37.338793477191864 ], [ 127.009058424819472, 37.3387725457345 ], [ 127.009025111389107, 37.33875767439271 ], [ 127.008903433757766, 37.338752099095046 ], [ 127.008822995543269, 37.338757768376041 ], [ 127.008762280891915, 37.338763910699981 ], [ 127.008717769007006, 37.338768229176488 ], [ 127.008546247995653, 37.338777657352018 ], [ 127.008357890175148, 37.338777406575687 ], [ 127.008285110473565, 37.338777185233553 ], [ 127.008004508468318, 37.338756251338118 ], [ 127.007946682567137, 37.338751503937097 ], [ 127.00660900722005, 37.338631006609923 ], [ 127.006529340639261, 37.338620533790291 ], [ 127.00648519145426, 37.338575280512181 ], [ 127.006273752485995, 37.338324264694634 ], [ 127.006246140914172, 37.338291267030613 ], [ 127.006101592701768, 37.33811499775716 ], [ 127.006118815356629, 37.338069987009796 ], [ 127.0039878212568, 37.338199776683552 ], [ 127.001054220442569, 37.338391378843781 ], [ 127.000701357186685, 37.338452806655383 ], [ 127.000466510308172, 37.33849368449755 ], [ 126.991413944010617, 37.334012427818877 ], [ 126.991353566747947, 37.333968225863288 ], [ 126.990472146422832, 37.333294034430743 ], [ 126.990338802243016, 37.333165008566027 ], [ 126.989755757459292, 37.332476317985225 ], [ 126.989669427349426, 37.332305809654628 ], [ 126.98710775533263, 37.329448508020306 ], [ 126.982779358783219, 37.326747023477566 ], [ 126.982338188008413, 37.326691020167118 ], [ 126.982036508532829, 37.326653644585477 ], [ 126.981471937375645, 37.326622706085239 ], [ 126.981050649392998, 37.326599748697156 ], [ 126.980937818408961, 37.326593620128591 ], [ 126.976702231116121, 37.328519120169602 ], [ 126.973544995167885, 37.330181136095725 ], [ 126.971194322046742, 37.3317886345082 ], [ 126.972033828364232, 37.333912884819519 ], [ 126.97204050489951, 37.333966997523092 ], [ 126.972016582290706, 37.334059282405178 ], [ 126.970777136423763, 37.336649722778532 ], [ 126.969534754288702, 37.337839615707352 ], [ 126.968760781679478, 37.33833640937975 ], [ 126.967329683716528, 37.338965449117673 ], [ 126.966823387950853, 37.339022884955163 ], [ 126.966569874562353, 37.3390521637752 ], [ 126.964590939562385, 37.340316424691352 ], [ 126.96456465943443, 37.340338157923348 ], [ 126.96422528950994, 37.340934468431463 ], [ 126.964209616123156, 37.341254387507476 ], [ 126.964232164337716, 37.34254909711396 ], [ 126.963328070684994, 37.343672806017359 ], [ 126.96280230174979, 37.344276642808218 ], [ 126.962481726863558, 37.344307861687327 ], [ 126.962435802553969, 37.344312159914324 ], [ 126.962366300925922, 37.344318586398082 ], [ 126.962331324123028, 37.344321825638929 ], [ 126.961859545158788, 37.344480802152923 ], [ 126.959112427303467, 37.346563981383483 ], [ 126.958238976389566, 37.347231513953894 ], [ 126.958639260347951, 37.347501504961784 ], [ 126.959018375965712, 37.347771399612796 ], [ 126.959087139863328, 37.347825796808401 ], [ 126.959554264151109, 37.348222285211634 ], [ 126.959432656158796, 37.350617143357816 ], [ 126.961387570258722, 37.353802856931296 ], [ 126.962365049502083, 37.355339073533543 ], [ 126.962544491357789, 37.355383237158456 ], [ 126.963091650299575, 37.355517025721987 ], [ 126.963840317106886, 37.355483239671585 ], [ 126.964211118469095, 37.35544097760625 ], [ 126.96455109586293, 37.355368153334972 ], [ 126.964750544170158, 37.355307086234504 ], [ 126.965009694943035, 37.355186572514732 ], [ 126.965144473744232, 37.355089157110484 ], [ 126.96561669308646, 37.354755446769936 ], [ 126.96653597954797, 37.354117445083091 ], [ 126.967054170842928, 37.353889929335885 ], [ 126.968114396420688, 37.353517393213536 ], [ 126.969497363931978, 37.35368683420387 ], [ 126.969666594292761, 37.35370674733376 ], [ 126.970232939549916, 37.353754354012167 ], [ 126.970255125189254, 37.353731809832823 ], [ 126.970274878300302, 37.353711726336549 ], [ 126.971394524612762, 37.352547204878874 ], [ 126.971557254798427, 37.352377859758505 ], [ 126.971792116985355, 37.3520047642957 ], [ 126.971824948923782, 37.351951954872504 ], [ 126.972060150475215, 37.351520342821892 ], [ 126.974934699586015, 37.349758546205109 ], [ 126.98059249000886, 37.349392550069801 ], [ 126.984819211135559, 37.34984144286571 ], [ 126.985241103273651, 37.350165522785595 ], [ 126.986480641958977, 37.350525828460306 ], [ 126.991947454062981, 37.350541546604852 ], [ 126.992546138244691, 37.351340710928291 ], [ 126.992615226141666, 37.351423195105568 ], [ 126.992642747099325, 37.351456051265423 ], [ 126.992719047499648, 37.351518799052705 ], [ 126.992790126640969, 37.351577242848535 ], [ 126.992833406556358, 37.351600548808598 ], [ 126.99287660776659, 37.351623809346414 ], [ 126.996480559520236, 37.35321098586433 ], [ 126.99673380884289, 37.353226710994285 ], [ 126.997431356086892, 37.353180362124384 ], [ 126.998933051169118, 37.353080559076943 ], [ 127.00067590458498, 37.352264292664231 ], [ 127.003495296851469, 37.352459816177664 ], [ 127.004166815462867, 37.352506575093948 ], [ 127.004387591598629, 37.35252214771792 ], [ 127.005484241815765, 37.352848710311015 ], [ 127.006816825465791, 37.35324551770708 ], [ 127.010145751427416, 37.35312076262165 ], [ 127.013626929519035, 37.352912035492885 ], [ 127.016870510232749, 37.353745547647371 ] ] ] ] } },
{ "type": "Feature", "properties": { "OBJECTID": 1468, "adm_nm": "경기도 의왕시 부곡동", "adm_cd": "3117052", "adm_cd2": "4143052000", "sgg": "41430", "sido": "41", "sidonm": "경기도", "sggnm": "의왕시" }, "geometry": { "type": "MultiPolygon", "coordinates": [ [ [ [ 126.971194322046742, 37.3317886345082 ], [ 126.970698409127579, 37.330056142589768 ], [ 126.967266543476967, 37.324428125908355 ], [ 126.967014845959298, 37.324207280282138 ], [ 126.966976477240692, 37.324162038289771 ], [ 126.966955432877654, 37.324129261138438 ], [ 126.966943495959228, 37.324080185641243 ], [ 126.966922026593565, 37.323238361971136 ], [ 126.968739277272249, 37.319050081362441 ], [ 126.970003414514977, 37.316924000041809 ], [ 126.967705239803209, 37.315937940425385 ], [ 126.966662684363357, 37.313048815510761 ], [ 126.966633325321368, 37.312594421292914 ], [ 126.966359424036838, 37.308353485270551 ], [ 126.966349860096742, 37.308205988996754 ], [ 126.96595157085703, 37.307397981324151 ], [ 126.96575057369823, 37.306990306712152 ], [ 126.963975063294825, 37.304370307144232 ], [ 126.961619338851364, 37.302419359703293 ], [ 126.961075216673606, 37.301968712146291 ], [ 126.959386381242126, 37.30222959477252 ], [ 126.955770731814752, 37.302807938032927 ], [ 126.955528908060671, 37.302895838501904 ], [ 126.954509004031394, 37.303109727988257 ], [ 126.954302098471913, 37.303142571590826 ], [ 126.954100943634842, 37.303072917737452 ], [ 126.952906951880735, 37.302133881275822 ], [ 126.952293281766487, 37.300649693413781 ], [ 126.951737551371536, 37.300647120269979 ], [ 126.941587575366341, 37.301022473194784 ], [ 126.934746497324227, 37.303065436315457 ], [ 126.932953209264099, 37.303047843714332 ], [ 126.931542526498319, 37.303807365047028 ], [ 126.931354641673678, 37.303958459326246 ], [ 126.931275067276516, 37.304051397309642 ], [ 126.931203803042621, 37.304134631209578 ], [ 126.930524295160467, 37.305210772340544 ], [ 126.930510938276583, 37.305298592153655 ], [ 126.930427008629536, 37.307064914201277 ], [ 126.930910084283155, 37.307079619632894 ], [ 126.931371197446609, 37.307097610376957 ], [ 126.932363713552078, 37.307421377794618 ], [ 126.932777861896227, 37.307710564411643 ], [ 126.932889701314735, 37.307842905321529 ], [ 126.933005563602222, 37.30800460996079 ], [ 126.933020873821491, 37.308125216406204 ], [ 126.933005728251999, 37.308358376991606 ], [ 126.932939783972955, 37.308592420891735 ], [ 126.932857408211774, 37.308822793982962 ], [ 126.932846864336312, 37.308851123528378 ], [ 126.931177961940975, 37.311590080523679 ], [ 126.930859732101283, 37.311712465434404 ], [ 126.930790036085412, 37.311777505757405 ], [ 126.930729437798107, 37.311863972423609 ], [ 126.930290521076785, 37.312826340423008 ], [ 126.930259583744274, 37.312913670729245 ], [ 126.930241514708868, 37.312964692167306 ], [ 126.929526118151202, 37.315790461686461 ], [ 126.929470605674311, 37.316042581248063 ], [ 126.929454854134718, 37.316167567661068 ], [ 126.929481836523635, 37.316514676943882 ], [ 126.929524642376848, 37.316732399592063 ], [ 126.929566136732944, 37.316841892282902 ], [ 126.929602790354551, 37.316937840883313 ], [ 126.929639528122195, 37.31703043222624 ], [ 126.930251172206567, 37.317292504677233 ], [ 126.930572318344971, 37.317451792486054 ], [ 126.932161093779072, 37.318446441269067 ], [ 126.935501838247617, 37.321643164584124 ], [ 126.935587315347718, 37.3217269853481 ], [ 126.93566446621351, 37.321781415531952 ], [ 126.935743081899744, 37.321833619926892 ], [ 126.936029183293499, 37.321966811050487 ], [ 126.937091248664018, 37.322289604684883 ], [ 126.937388612660115, 37.322332708785908 ], [ 126.937422493352457, 37.32233674131276 ], [ 126.938458591352543, 37.322445957326678 ], [ 126.938522335144611, 37.322450956022315 ], [ 126.938611571980715, 37.322457950511833 ], [ 126.93867361297427, 37.322462751756916 ], [ 126.938780966656424, 37.322445233340879 ], [ 126.938870724643252, 37.322423124474 ], [ 126.938946455601837, 37.32238855412141 ], [ 126.938992470825454, 37.322367365371456 ], [ 126.939083812384837, 37.322320475837628 ], [ 126.939174454083826, 37.322273582915408 ], [ 126.939358918609742, 37.322131362633712 ], [ 126.939644819093402, 37.321818359822927 ], [ 126.940703075057144, 37.321228454232077 ], [ 126.940942705611931, 37.321161982965442 ], [ 126.943523907991704, 37.320570223788394 ], [ 126.944764577668039, 37.320300003479602 ], [ 126.945051371803402, 37.320341911096477 ], [ 126.94529215587184, 37.320883869783387 ], [ 126.946960902644534, 37.324766499067394 ], [ 126.9474012390843, 37.326963421735172 ], [ 126.947416641607518, 37.327075038778851 ], [ 126.947433423519087, 37.327480738993152 ], [ 126.947410255028913, 37.328139767123446 ], [ 126.947900139733022, 37.331185342505499 ], [ 126.948120452810514, 37.331834239031053 ], [ 126.948403735094359, 37.336896813440887 ], [ 126.948563481509836, 37.339751508241598 ], [ 126.951338772014196, 37.341754253873582 ], [ 126.953653626498493, 37.341022641710154 ], [ 126.954444370360278, 37.341101347837849 ], [ 126.957579883342717, 37.344340897530003 ], [ 126.957985109614441, 37.346105529682291 ], [ 126.958238976389566, 37.347231513953894 ], [ 126.959112427303467, 37.346563981383483 ], [ 126.961859545158788, 37.344480802152923 ], [ 126.962331324123028, 37.344321825638929 ], [ 126.962366300925922, 37.344318586398082 ], [ 126.962435802553969, 37.344312159914324 ], [ 126.962481726863558, 37.344307861687327 ], [ 126.96280230174979, 37.344276642808218 ], [ 126.963328070684994, 37.343672806017359 ], [ 126.964232164337716, 37.34254909711396 ], [ 126.964209616123156, 37.341254387507476 ], [ 126.96422528950994, 37.340934468431463 ], [ 126.96456465943443, 37.340338157923348 ], [ 126.964590939562385, 37.340316424691352 ], [ 126.966569874562353, 37.3390521637752 ], [ 126.966823387950853, 37.339022884955163 ], [ 126.967329683716528, 37.338965449117673 ], [ 126.968760781679478, 37.33833640937975 ], [ 126.969534754288702, 37.337839615707352 ], [ 126.970777136423763, 37.336649722778532 ], [ 126.972016582290706, 37.334059282405178 ], [ 126.97204050489951, 37.333966997523092 ], [ 126.972033828364232, 37.333912884819519 ], [ 126.971194322046742, 37.3317886345082 ] ] ] ] } },
{ "type": "Feature", "properties": { "OBJECTID": 1469, "adm_nm": "경기도 의왕시 오전동", "adm_cd": "3117053", "adm_cd2": "4143053000", "sgg": "41430", "sido": "41", "sidonm": "경기도", "sggnm": "의왕시" }, "geometry": { "type": "MultiPolygon", "coordinates": [ [ [ [ 127.016131539502609, 37.35664268299994 ], [ 127.016870510232749, 37.353745547647371 ], [ 127.013626929519035, 37.352912035492885 ], [ 127.010145751427416, 37.35312076262165 ], [ 127.006816825465791, 37.35324551770708 ], [ 127.005484241815765, 37.352848710311015 ], [ 127.004387591598629, 37.35252214771792 ], [ 127.004166815462867, 37.352506575093948 ], [ 127.003495296851469, 37.352459816177664 ], [ 127.00067590458498, 37.352264292664231 ], [ 126.998933051169118, 37.353080559076943 ], [ 126.997431356086892, 37.353180362124384 ], [ 126.99673380884289, 37.353226710994285 ], [ 126.996480559520236, 37.35321098586433 ], [ 126.99287660776659, 37.351623809346414 ], [ 126.992833406556358, 37.351600548808598 ], [ 126.992790126640969, 37.351577242848535 ], [ 126.992719047499648, 37.351518799052705 ], [ 126.992642747099325, 37.351456051265423 ], [ 126.992615226141666, 37.351423195105568 ], [ 126.992546138244691, 37.351340710928291 ], [ 126.991947454062981, 37.350541546604852 ], [ 126.986480641958977, 37.350525828460306 ], [ 126.985241103273651, 37.350165522785595 ], [ 126.984819211135559, 37.34984144286571 ], [ 126.98059249000886, 37.349392550069801 ], [ 126.974934699586015, 37.349758546205109 ], [ 126.972060150475215, 37.351520342821892 ], [ 126.971824948923782, 37.351951954872504 ], [ 126.971792116985355, 37.3520047642957 ], [ 126.971557254798427, 37.352377859758505 ], [ 126.971394524612762, 37.352547204878874 ], [ 126.970274878300302, 37.353711726336549 ], [ 126.970255125189254, 37.353731809832823 ], [ 126.970232939549916, 37.353754354012167 ], [ 126.969666594292761, 37.35370674733376 ], [ 126.969497363931978, 37.35368683420387 ], [ 126.968114396420688, 37.353517393213536 ], [ 126.967054170842928, 37.353889929335885 ], [ 126.96653597954797, 37.354117445083091 ], [ 126.96561669308646, 37.354755446769936 ], [ 126.965144473744232, 37.355089157110484 ], [ 126.965009694943035, 37.355186572514732 ], [ 126.964750544170158, 37.355307086234504 ], [ 126.96455109586293, 37.355368153334972 ], [ 126.964211118469095, 37.35544097760625 ], [ 126.963840317106886, 37.355483239671585 ], [ 126.963091650299575, 37.355517025721987 ], [ 126.962544491357789, 37.355383237158456 ], [ 126.962365049502083, 37.355339073533543 ], [ 126.962227073800946, 37.35537676482879 ], [ 126.961953667197278, 37.355516361874436 ], [ 126.96051616918426, 37.356394291769554 ], [ 126.962007374139375, 37.361438658717375 ], [ 126.962020559750826, 37.361482728435355 ], [ 126.962136276020942, 37.361555267521119 ], [ 126.964367993002767, 37.361768235300396 ], [ 126.964442000806741, 37.361783217798646 ], [ 126.965853449776418, 37.362098321899929 ], [ 126.966013951465044, 37.362150803686141 ], [ 126.966125965531603, 37.362187436528401 ], [ 126.966242491504772, 37.362476403160784 ], [ 126.966170690974423, 37.363247882478433 ], [ 126.9661028839637, 37.363352362424074 ], [ 126.965973518740725, 37.36348867056477 ], [ 126.965899506204622, 37.36356664712185 ], [ 126.965707628287376, 37.363767345570999 ], [ 126.965410164157291, 37.364021361607698 ], [ 126.965063225361646, 37.36424904204361 ], [ 126.964827179925294, 37.364392194565383 ], [ 126.964533446637333, 37.364607195613878 ], [ 126.964502043970342, 37.364635831704845 ], [ 126.964417035905484, 37.364798211132992 ], [ 126.964359065515936, 37.365063980980899 ], [ 126.964340434548291, 37.365149401210779 ], [ 126.964607633116884, 37.365689183626856 ], [ 126.965005101467725, 37.366372648261127 ], [ 126.965353896435374, 37.367351092310606 ], [ 126.965445469887285, 37.368770046442314 ], [ 126.965337928597336, 37.370993706848971 ], [ 126.965315822439777, 37.371721467055515 ], [ 126.965320331134834, 37.371766962751423 ], [ 126.96532701556761, 37.371834189637731 ], [ 126.965348344180001, 37.371913157343734 ], [ 126.965366210609901, 37.371978521154091 ], [ 126.96572943091337, 37.372721610783728 ], [ 126.965757357904906, 37.37275301377359 ], [ 126.966068508294256, 37.372885388771607 ], [ 126.96614754947008, 37.372887999018602 ], [ 126.966665560134345, 37.372885874305354 ], [ 126.966886778409958, 37.372864292217031 ], [ 126.96705137866779, 37.372847006542131 ], [ 126.967675718484543, 37.372400257125136 ], [ 126.967691605731702, 37.372349626240144 ], [ 126.967918391813015, 37.372017119634926 ], [ 126.970199807779196, 37.371116989595926 ], [ 126.970644809754148, 37.371175318166138 ], [ 126.971065315335025, 37.371135582966204 ], [ 126.971134299583412, 37.371129059026778 ], [ 126.971454719959638, 37.371035846893285 ], [ 126.971716900941331, 37.37099194945629 ], [ 126.971999573519838, 37.371047294303303 ], [ 126.972041806130278, 37.371064383639045 ], [ 126.972092354360043, 37.371087941396212 ], [ 126.972182633294224, 37.371098338783312 ], [ 126.972218307196457, 37.371109676849777 ], [ 126.972236045345596, 37.371150649640036 ], [ 126.972259024461408, 37.371191545760581 ], [ 126.972293563866089, 37.37119846019597 ], [ 126.972331788126539, 37.371183983376511 ], [ 126.972424069660335, 37.371110031517226 ], [ 126.972648104581722, 37.370970190624789 ], [ 126.972908850698346, 37.370829386194721 ], [ 126.973999629844712, 37.370596504330692 ], [ 126.974456611231673, 37.370184190208121 ], [ 126.974490480032699, 37.370153630803756 ], [ 126.974383807461223, 37.369558249209298 ], [ 126.976596531857737, 37.368054874960663 ], [ 126.976817006431162, 37.368121200245071 ], [ 126.978378748125508, 37.369285240700968 ], [ 126.978820435901966, 37.369937945764171 ], [ 126.979293554158971, 37.370609788528746 ], [ 126.980620176587962, 37.372405908599049 ], [ 126.981480909637909, 37.373298757863743 ], [ 126.981567958700836, 37.373362204262719 ], [ 126.984400384590259, 37.374032564815515 ], [ 126.984330188768098, 37.373356266221229 ], [ 126.986401815047984, 37.370069622249233 ], [ 126.987291590700138, 37.369285904587542 ], [ 126.987886611114092, 37.369490264733393 ], [ 126.988434536658133, 37.369678445798129 ], [ 126.989525414862229, 37.369753196123256 ], [ 126.989698140857044, 37.369765028431353 ], [ 126.990292719507622, 37.369590507759838 ], [ 126.990587167618031, 37.369504054313872 ], [ 126.992116627024359, 37.367849871229019 ], [ 126.992646826412084, 37.36668035592222 ], [ 126.992821408648098, 37.366114289527914 ], [ 126.993788619254005, 37.364721371204844 ], [ 126.995145736640254, 37.363165533963191 ], [ 126.995562306349186, 37.363108018599334 ], [ 126.996222369185645, 37.363016890111176 ], [ 126.996855467134068, 37.363118006389143 ], [ 126.997258788503743, 37.363182421235763 ], [ 127.000137715788128, 37.362867873120734 ], [ 127.003355295309106, 37.361847906211011 ], [ 127.004732497899923, 37.361077800903551 ], [ 127.009263659909422, 37.358586516632549 ], [ 127.016131539502609, 37.35664268299994 ] ] ] ] } },
{ "type": "Feature", "properties": { "OBJECTID": 1470, "adm_nm": "경기도 의왕시 내손1동", "adm_cd": "3117054", "adm_cd2": "4143054000", "sgg": "41430", "sido": "41", "sidonm": "경기도", "sggnm": "의왕시" }, "geometry": { "type": "MultiPolygon", "coordinates": [ [ [ [ 126.988649431644234, 37.379606893868072 ], [ 126.988429834481053, 37.377839794071704 ], [ 126.987209038563179, 37.374984500410221 ], [ 126.984400384590259, 37.374032564815515 ], [ 126.981567958700836, 37.373362204262719 ], [ 126.981480909637909, 37.373298757863743 ], [ 126.980620176587962, 37.372405908599049 ], [ 126.979293554158971, 37.370609788528746 ], [ 126.978820435901966, 37.369937945764171 ], [ 126.978378748125508, 37.369285240700968 ], [ 126.976817006431162, 37.368121200245071 ], [ 126.976596531857737, 37.368054874960663 ], [ 126.974383807461223, 37.369558249209298 ], [ 126.974490480032699, 37.370153630803756 ], [ 126.974456611231673, 37.370184190208121 ], [ 126.973999629844712, 37.370596504330692 ], [ 126.972908850698346, 37.370829386194721 ], [ 126.972648104581722, 37.370970190624789 ], [ 126.972424069660335, 37.371110031517226 ], [ 126.972331788126539, 37.371183983376511 ], [ 126.972293563866089, 37.37119846019597 ], [ 126.972259024461408, 37.371191545760581 ], [ 126.972236045345596, 37.371150649640036 ], [ 126.972218307196457, 37.371109676849777 ], [ 126.972182633294224, 37.371098338783312 ], [ 126.972092354360043, 37.371087941396212 ], [ 126.972041806130278, 37.371064383639045 ], [ 126.971999573519838, 37.371047294303303 ], [ 126.971716900941331, 37.37099194945629 ], [ 126.971454719959638, 37.371035846893285 ], [ 126.971134299583412, 37.371129059026778 ], [ 126.971065315335025, 37.371135582966204 ], [ 126.970644809754148, 37.371175318166138 ], [ 126.970199807779196, 37.371116989595926 ], [ 126.967918391813015, 37.372017119634926 ], [ 126.967691605731702, 37.372349626240144 ], [ 126.967675718484543, 37.372400257125136 ], [ 126.96705137866779, 37.372847006542131 ], [ 126.966886778409958, 37.372864292217031 ], [ 126.966665560134345, 37.372885874305354 ], [ 126.96614754947008, 37.372887999018602 ], [ 126.966068508294256, 37.372885388771607 ], [ 126.965757357904906, 37.37275301377359 ], [ 126.966245553038618, 37.373301947445633 ], [ 126.967778717468136, 37.375206251421091 ], [ 126.971437798584759, 37.380267032611982 ], [ 126.971468738166607, 37.380305428842313 ], [ 126.972227341970665, 37.381255260231939 ], [ 126.972336601746377, 37.382588655443058 ], [ 126.972339220318659, 37.382617961797344 ], [ 126.97244913224624, 37.383687887815505 ], [ 126.972488002735872, 37.384048872325572 ], [ 126.972796575932961, 37.386768576237102 ], [ 126.97292657317108, 37.386757888549347 ], [ 126.974163654335598, 37.388466981541619 ], [ 126.975434097179914, 37.386895230666127 ], [ 126.976409582427848, 37.385405526264677 ], [ 126.977287351211814, 37.382849420410103 ], [ 126.978158332397868, 37.381539598933806 ], [ 126.978496953626603, 37.381142739047533 ], [ 126.978778973840321, 37.380812222289642 ], [ 126.98450190385833, 37.379638382289833 ], [ 126.98695390655017, 37.379484639530219 ], [ 126.988192829911085, 37.379488881021629 ], [ 126.988308110020498, 37.379518674571521 ], [ 126.988649431644234, 37.379606893868072 ] ] ] ] } },
{ "type": "Feature", "properties": { "OBJECTID": 1471, "adm_nm": "경기도 의왕시 내손2동", "adm_cd": "3117055", "adm_cd2": "4143055000", "sgg": "41430", "sido": "41", "sidonm": "경기도", "sggnm": "의왕시" }, "geometry": { "type": "MultiPolygon", "coordinates": [ [ [ [ 126.988649431644234, 37.379606893868072 ], [ 126.988308110020498, 37.379518674571521 ], [ 126.988192829911085, 37.379488881021629 ], [ 126.98695390655017, 37.379484639530219 ], [ 126.98450190385833, 37.379638382289833 ], [ 126.978778973840321, 37.380812222289642 ], [ 126.978496953626603, 37.381142739047533 ], [ 126.978158332397868, 37.381539598933806 ], [ 126.977287351211814, 37.382849420410103 ], [ 126.976409582427848, 37.385405526264677 ], [ 126.975434097179914, 37.386895230666127 ], [ 126.974163654335598, 37.388466981541619 ], [ 126.978416663670686, 37.39169218223428 ], [ 126.978703733001581, 37.392189485566398 ], [ 126.978736968360181, 37.392228760692952 ], [ 126.978773097141698, 37.392271108726199 ], [ 126.97880531239143, 37.392305985142087 ], [ 126.978887509119772, 37.392364936668301 ], [ 126.979441532505049, 37.392706518603632 ], [ 126.97949281692712, 37.392723572998605 ], [ 126.979549241127842, 37.392742331054514 ], [ 126.980140483787892, 37.392920289505184 ], [ 126.980538477175472, 37.393002598794098 ], [ 126.980821931999515, 37.393102397117481 ], [ 126.981009907074153, 37.393193389360697 ], [ 126.981089194683321, 37.393265851692576 ], [ 126.981177599142299, 37.393347363197471 ], [ 126.981502226819501, 37.393823098664548 ], [ 126.981710810073906, 37.394149670185477 ], [ 126.981829978956426, 37.394378916777164 ], [ 126.983666137314955, 37.392840372632868 ], [ 126.983929256663842, 37.3929267461154 ], [ 126.984741074441573, 37.392539315653188 ], [ 126.985937216191829, 37.39191130592252 ], [ 126.988200588898962, 37.38914486076019 ], [ 126.988007177927429, 37.388935612298368 ], [ 126.987055318022925, 37.388330946711832 ], [ 126.986402520187795, 37.388081362089252 ], [ 126.986379638208476, 37.387916725861174 ], [ 126.986383666405501, 37.387616029592543 ], [ 126.986898925438879, 37.387036796165653 ], [ 126.989213875467613, 37.384449732347193 ], [ 126.990148112537781, 37.381082620942557 ], [ 126.988649431644234, 37.379606893868072 ] ] ] ] } },
{ "type": "Feature", "properties": { "OBJECTID": 1472, "adm_nm": "경기도 의왕시 청계동", "adm_cd": "3117056", "adm_cd2": "4143056000", "sgg": "41430", "sido": "41", "sidonm": "경기도", "sggnm": "의왕시" }, "geometry": { "type": "MultiPolygon", "coordinates": [ [ [ [ 127.04675185046257, 37.413600374572304 ], [ 127.046895728928504, 37.413494996792345 ], [ 127.046959746701063, 37.413419752183039 ], [ 127.046999962002374, 37.413309488153693 ], [ 127.047011714061696, 37.413262625758996 ], [ 127.047039757018894, 37.413150773726166 ], [ 127.047052304949958, 37.413061811265067 ], [ 127.047039913194325, 37.412887073285638 ], [ 127.046908318553434, 37.411286682134097 ], [ 127.046900420549974, 37.411190881006874 ], [ 127.046856096755292, 37.410941854715944 ], [ 127.046801559104935, 37.410837839970235 ], [ 127.046746948206447, 37.410758760495909 ], [ 127.046657746851565, 37.410676168216753 ], [ 127.046634569120471, 37.410655798450875 ], [ 127.046596635296339, 37.410622973708243 ], [ 127.044960427130505, 37.409544058323227 ], [ 127.044109824690011, 37.409008971417869 ], [ 127.043950636842723, 37.408939627796173 ], [ 127.043858456383163, 37.408885189810441 ], [ 127.042791014466232, 37.408241091850073 ], [ 127.042720668971185, 37.408176389647565 ], [ 127.042678891111393, 37.408097565224864 ], [ 127.042372064741087, 37.407225453218174 ], [ 127.04236639503327, 37.407112635226135 ], [ 127.042395547, 37.40696186538301 ], [ 127.042965338426626, 37.405120760613556 ], [ 127.043046916963931, 37.404944181356427 ], [ 127.043699716568852, 37.40420642770929 ], [ 127.043711657641182, 37.404093273866991 ], [ 127.043672429840413, 37.403925791446092 ], [ 127.04352698884253, 37.403628903391251 ], [ 127.043471118228538, 37.403584745704649 ], [ 127.040825104839698, 37.40230468901288 ], [ 127.040749785313906, 37.402272696065936 ], [ 127.040565688322019, 37.402230444653853 ], [ 127.040474041517612, 37.4022143234777 ], [ 127.040428127825734, 37.40220624899144 ], [ 127.040313848489021, 37.402186650553872 ], [ 127.040039416577969, 37.402143894751411 ], [ 127.039819770835251, 37.402147546966589 ], [ 127.039602892039909, 37.402162476721792 ], [ 127.039551109433432, 37.402166304219605 ], [ 127.039515988602176, 37.402168898607698 ], [ 127.039450315422712, 37.402169769538865 ], [ 127.039279905200559, 37.402169087621438 ], [ 127.039232848876566, 37.40216441541245 ], [ 127.039181261279182, 37.402158535711116 ], [ 127.03903959850571, 37.402125353775816 ], [ 127.038535525191151, 37.40198818144232 ], [ 127.038457987115777, 37.401965344449977 ], [ 127.038391764927908, 37.401932334511883 ], [ 127.03834324318936, 37.401907433904206 ], [ 127.037828493276706, 37.401554450484483 ], [ 127.037749810004058, 37.401488234436407 ], [ 127.037644572399401, 37.401385338548458 ], [ 127.037460222718821, 37.401153589068301 ], [ 127.037409895773024, 37.401068852314566 ], [ 127.037384992624368, 37.400991311530582 ], [ 127.037385330976988, 37.400930206004475 ], [ 127.037404954000095, 37.40084237717609 ], [ 127.037706507874816, 37.399744703977397 ], [ 127.038033379912974, 37.398921818940771 ], [ 127.038090084503921, 37.398857547134455 ], [ 127.038202174447477, 37.398658555875151 ], [ 127.038241834751418, 37.398523504600007 ], [ 127.038281428014045, 37.398170996455022 ], [ 127.03871949204202, 37.391329016363812 ], [ 127.038718111349439, 37.391209578717401 ], [ 127.03871709277179, 37.391145351735034 ], [ 127.038711913863239, 37.391068714608565 ], [ 127.038537025142361, 37.390687201053893 ], [ 127.038465061373557, 37.390564107768377 ], [ 127.038390138030024, 37.390461283836487 ], [ 127.037141592969647, 37.389467142631972 ], [ 127.037108563222063, 37.389441098789717 ], [ 127.037035464506829, 37.389384464921804 ], [ 127.036950266464089, 37.389350341461068 ], [ 127.035364389305599, 37.388793154927704 ], [ 127.032699300022657, 37.384094370943565 ], [ 127.031456171015677, 37.381236595157489 ], [ 127.029691121882792, 37.379335570714268 ], [ 127.029616554986859, 37.3793493581693 ], [ 127.029419895128243, 37.379358152935126 ], [ 127.029373289345088, 37.379360220919573 ], [ 127.029129169718502, 37.37933784149088 ], [ 127.029061477489662, 37.379325178016892 ], [ 127.028992131458352, 37.37931037976643 ], [ 127.028939942532787, 37.379294738523775 ], [ 127.028886892032162, 37.379246738897123 ], [ 127.028054018382917, 37.377871071466259 ], [ 127.027414195793057, 37.376784610282272 ], [ 127.027399005096754, 37.376730466937765 ], [ 127.027084382301453, 37.375570939236077 ], [ 127.02708883980182, 37.375519389251075 ], [ 127.027091993047605, 37.375483085358383 ], [ 127.027101100453137, 37.375381716799851 ], [ 127.027169643074657, 37.375031580311216 ], [ 127.027719613182825, 37.372658647234388 ], [ 127.027942374270154, 37.37214238803066 ], [ 127.027972315997829, 37.37198362251754 ], [ 127.027635275807427, 37.370234729838451 ], [ 127.027482546456952, 37.369714700459014 ], [ 127.027376587624104, 37.369444728879778 ], [ 127.027305378137157, 37.369263303283923 ], [ 127.0272553494611, 37.369136910337346 ], [ 127.02704309433841, 37.368766496557832 ], [ 127.027013692201777, 37.368738472300443 ], [ 127.026981348656847, 37.368707660026075 ], [ 127.026959273475086, 37.368687254665232 ], [ 127.026918895809374, 37.368649947356452 ], [ 127.026885033486948, 37.368631342660457 ], [ 127.026812662996448, 37.368593186232665 ], [ 127.0267176995808, 37.368542103725062 ], [ 127.02657746009163, 37.368462284248196 ], [ 127.026404710059992, 37.368363955321392 ], [ 127.025695097111736, 37.367840565619353 ], [ 127.025611170876815, 37.367731811205687 ], [ 127.025592183371401, 37.36770719952024 ], [ 127.024967890523413, 37.366510619362032 ], [ 127.024584739753095, 37.365501536599005 ], [ 127.023997197264478, 37.364207948036899 ], [ 127.023791208547962, 37.363856707726775 ], [ 127.023701686517626, 37.363726774006473 ], [ 127.023366814189899, 37.36333107163285 ], [ 127.022897747234822, 37.362950601217953 ], [ 127.022430144739559, 37.362895758125838 ], [ 127.022320221619594, 37.362867146148439 ], [ 127.022136326000606, 37.362817954204509 ], [ 127.02183280156278, 37.362710815490573 ], [ 127.021578387618931, 37.362575598379934 ], [ 127.021484613200002, 37.362525751349985 ], [ 127.020832088541852, 37.362140023508246 ], [ 127.018247615525553, 37.360352681264146 ], [ 127.018187966391451, 37.360298355535086 ], [ 127.017546009249699, 37.359481117080328 ], [ 127.017037991310218, 37.358802986621086 ], [ 127.016365805569023, 37.357746775077295 ], [ 127.016131905859382, 37.357243299218474 ], [ 127.016114037496394, 37.357105053592797 ], [ 127.016091565961062, 37.356931031386416 ], [ 127.016131539502609, 37.35664268299994 ], [ 127.009263659909422, 37.358586516632549 ], [ 127.004732497899923, 37.361077800903551 ], [ 127.003355295309106, 37.361847906211011 ], [ 127.000137715788128, 37.362867873120734 ], [ 126.997258788503743, 37.363182421235763 ], [ 126.996855467134068, 37.363118006389143 ], [ 126.996222369185645, 37.363016890111176 ], [ 126.995562306349186, 37.363108018599334 ], [ 126.995145736640254, 37.363165533963191 ], [ 126.993788619254005, 37.364721371204844 ], [ 126.992821408648098, 37.366114289527914 ], [ 126.992646826412084, 37.36668035592222 ], [ 126.992116627024359, 37.367849871229019 ], [ 126.990587167618031, 37.369504054313872 ], [ 126.990292719507622, 37.369590507759838 ], [ 126.989698140857044, 37.369765028431353 ], [ 126.989525414862229, 37.369753196123256 ], [ 126.988434536658133, 37.369678445798129 ], [ 126.987886611114092, 37.369490264733393 ], [ 126.987291590700138, 37.369285904587542 ], [ 126.986401815047984, 37.370069622249233 ], [ 126.984330188768098, 37.373356266221229 ], [ 126.984400384590259, 37.374032564815515 ], [ 126.987209038563179, 37.374984500410221 ], [ 126.988429834481053, 37.377839794071704 ], [ 126.988649431644234, 37.379606893868072 ], [ 126.990148112537781, 37.381082620942557 ], [ 126.989213875467613, 37.384449732347193 ], [ 126.986898925438879, 37.387036796165653 ], [ 126.986383666405501, 37.387616029592543 ], [ 126.986379638208476, 37.387916725861174 ], [ 126.986402520187795, 37.388081362089252 ], [ 126.987055318022925, 37.388330946711832 ], [ 126.988007177927429, 37.388935612298368 ], [ 126.988200588898962, 37.38914486076019 ], [ 126.985937216191829, 37.39191130592252 ], [ 126.984741074441573, 37.392539315653188 ], [ 126.983929256663842, 37.3929267461154 ], [ 126.983666137314955, 37.392840372632868 ], [ 126.981829978956426, 37.394378916777164 ], [ 126.979506300942404, 37.395892049395037 ], [ 126.980870823556842, 37.397696268364285 ], [ 126.981364419845065, 37.397897863084729 ], [ 126.981551955086516, 37.398044032724449 ], [ 126.981733950152872, 37.398221588810074 ], [ 126.982190073969122, 37.398838343004364 ], [ 126.982234153335554, 37.398955153788123 ], [ 126.982467524799233, 37.399624317711556 ], [ 126.982561369163562, 37.3999424639523 ], [ 126.982680053017276, 37.400346346437722 ], [ 126.982569746822449, 37.400674863707884 ], [ 126.983473340438238, 37.402155937953474 ], [ 126.985784308593807, 37.406644701515312 ], [ 126.9859305255859, 37.40674336148497 ], [ 126.987522455096396, 37.40765727731727 ], [ 126.988274060005139, 37.407939957879712 ], [ 126.989877787229105, 37.408058432941992 ], [ 126.990166092403769, 37.408033762097105 ], [ 126.991667232945574, 37.407763054080775 ], [ 126.991770440551363, 37.407743261987569 ], [ 126.991897045794374, 37.407718973364467 ], [ 126.991943776525929, 37.407701146754277 ], [ 126.991990514843181, 37.40768219344384 ], [ 126.992021693994118, 37.407666553408895 ], [ 126.992123294189355, 37.407576852746111 ], [ 126.992186017360282, 37.40749149187733 ], [ 126.99223698537223, 37.407421733706713 ], [ 126.99225326331387, 37.407392269276293 ], [ 126.99235680682898, 37.407193646007372 ], [ 126.992454467863965, 37.406954075119465 ], [ 126.992479684787284, 37.406919381412528 ], [ 126.992544283686854, 37.406830522057618 ], [ 126.992676523644164, 37.406699263968278 ], [ 126.994540085420596, 37.40535068115404 ], [ 126.994774091534495, 37.405207461818705 ], [ 126.994837980806224, 37.405184966152881 ], [ 126.994868945724022, 37.405174065656368 ], [ 126.994902037343408, 37.405162795660793 ], [ 126.994980077708803, 37.405136232087372 ], [ 126.995066306428328, 37.40512533322083 ], [ 126.995140509416302, 37.405116636371851 ], [ 126.997784391574172, 37.404815796123415 ], [ 126.999539103610005, 37.404628313838089 ], [ 126.999714199197399, 37.404623672755982 ], [ 126.999773656624598, 37.40462711157501 ], [ 126.999928272305112, 37.404725731254182 ], [ 127.000182045179599, 37.404901445165393 ], [ 127.000385083181087, 37.405058916711511 ], [ 127.00041392297895, 37.405088864977955 ], [ 127.000477662216994, 37.405155078668066 ], [ 127.000516729276072, 37.405227353482744 ], [ 127.000754918349912, 37.405736620654977 ], [ 127.00167515325316, 37.406680070429353 ], [ 127.001777238149927, 37.406769484087427 ], [ 127.00184577795595, 37.406829515819659 ], [ 127.002086438205367, 37.407033392320542 ], [ 127.002122473362093, 37.407063911289519 ], [ 127.002308416130504, 37.407139057332571 ], [ 127.002613491744228, 37.407246252335923 ], [ 127.004126980087563, 37.407770898540129 ], [ 127.007038947515255, 37.410539019833621 ], [ 127.008449968516004, 37.412175290044999 ], [ 127.00849000486528, 37.412202457976939 ], [ 127.008601496709588, 37.412227721767294 ], [ 127.008655059158073, 37.412234692049083 ], [ 127.012903743528923, 37.412698451970094 ], [ 127.01814044177091, 37.413178485119971 ], [ 127.019458184331697, 37.412817323861795 ], [ 127.020856367528808, 37.412463919221487 ], [ 127.021154833071051, 37.412397525576608 ], [ 127.026047182917338, 37.41204993048882 ], [ 127.026146757278866, 37.412050329625245 ], [ 127.028129120079626, 37.412089815359018 ], [ 127.028220069947821, 37.412092422742951 ], [ 127.028342198920555, 37.412101923752068 ], [ 127.028403558620695, 37.412114562392233 ], [ 127.029083764189195, 37.412440640936538 ], [ 127.029499899319461, 37.412643979730447 ], [ 127.030491083237521, 37.412957983109017 ], [ 127.033754852561955, 37.41383600926094 ], [ 127.033964305328496, 37.41388076796693 ], [ 127.034858727311601, 37.414064564741011 ], [ 127.035028742521092, 37.414095654828074 ], [ 127.035311737102504, 37.414116219099881 ], [ 127.035471386171892, 37.4141278161987 ], [ 127.035820062590361, 37.414135944193298 ], [ 127.035948065466371, 37.414136448498994 ], [ 127.036540301647818, 37.414075675605375 ], [ 127.036742556065334, 37.414033653131447 ], [ 127.036876685175514, 37.41401279808899 ], [ 127.037159659058005, 37.413968810604608 ], [ 127.037591584599284, 37.413906278009442 ], [ 127.037809216469256, 37.413890228298264 ], [ 127.037926365599674, 37.413905333522088 ], [ 127.037979218708784, 37.413923567524812 ], [ 127.038020803740693, 37.413938377327625 ], [ 127.040096238560977, 37.414798265774621 ], [ 127.040981702079733, 37.415180292273064 ], [ 127.041675340274111, 37.415633660359624 ], [ 127.04675185046257, 37.413600374572304 ] ] ] ] } }
]
}
