{
"type": "FeatureCollection",
"name": "bukgu",
"crs": { "type": "name", "properties": { "name": "urn:ogc:def:crs:OGC:1.3:CRS84" } },
"features": [
{ "type": "Feature", "properties": { "OBJECTID": 1123, "adm_nm": "울산광역시 북구 농소1동", "adm_cd": "2604051", "adm_cd2": "3120051000", "sgg": "31200", "sido": "31", "sidonm": "울산광역시", "sggnm": "북구" }, "geometry": { "type": "MultiPolygon", "coordinates": [ [ [ [ 129.383704645708889, 35.608847099849555 ], [ 129.382341886702733, 35.609968498474792 ], [ 129.380063719716929, 35.610955378027157 ], [ 129.379778183504641, 35.61099999240983 ], [ 129.379224324106815, 35.610958001187015 ], [ 129.373915448335993, 35.609983425186556 ], [ 129.367934408779689, 35.6091243951983 ], [ 129.356143366993109, 35.606474241816812 ], [ 129.353873929864051, 35.605721019432593 ], [ 129.353273386031134, 35.605286562302517 ], [ 129.350821593402458, 35.60526029032598 ], [ 129.349343842957921, 35.605244432174658 ], [ 129.350354040394961, 35.610707210862536 ], [ 129.351222140679596, 35.617435359337534 ], [ 129.351306286333596, 35.618087490643092 ], [ 129.351015201861713, 35.619899763934519 ], [ 129.350134633249382, 35.624419973571747 ], [ 129.349763306634344, 35.625260665943749 ], [ 129.347275598978143, 35.628745934520715 ], [ 129.34671768717547, 35.629527518716095 ], [ 129.345324549213899, 35.631479103639464 ], [ 129.345291304859416, 35.631516559153674 ], [ 129.349346798412114, 35.633290167006649 ], [ 129.357662325084988, 35.644164529827343 ], [ 129.359435367744481, 35.647453737123897 ], [ 129.359499992966505, 35.647730519967659 ], [ 129.359585562209389, 35.648096997040994 ], [ 129.361055414734494, 35.65270163749242 ], [ 129.361225864519866, 35.653164608299072 ], [ 129.361342477812286, 35.653353072734113 ], [ 129.361458681414803, 35.653451432870732 ], [ 129.363761562466408, 35.654816524010684 ], [ 129.364045749552304, 35.654824250220649 ], [ 129.364245552530377, 35.654789330209752 ], [ 129.364895187644208, 35.654615599543376 ], [ 129.366340501703235, 35.654416858365906 ], [ 129.36659840259361, 35.654439962532074 ], [ 129.366942429521231, 35.654507467787511 ], [ 129.367782499701036, 35.655102153932404 ], [ 129.367930361347732, 35.655217577535218 ], [ 129.368115300633264, 35.65538437045268 ], [ 129.368284857712183, 35.655641351679407 ], [ 129.368445139931623, 35.656168702182008 ], [ 129.368530096145548, 35.656450578973185 ], [ 129.36886639887723, 35.657854468608676 ], [ 129.368992865322014, 35.658790672376739 ], [ 129.36904270093126, 35.658999753993406 ], [ 129.36953529714711, 35.659845181259747 ], [ 129.369953273723837, 35.660401873105627 ], [ 129.370104652084308, 35.660566723735194 ], [ 129.372053912904619, 35.661985572179944 ], [ 129.375534777682049, 35.665603206194959 ], [ 129.376359416509473, 35.665979897269096 ], [ 129.377372882560707, 35.666139424288843 ], [ 129.37709469543654, 35.665110511609903 ], [ 129.37622772451644, 35.663016007675132 ], [ 129.375947123105021, 35.662691733009744 ], [ 129.375419908174251, 35.66077501113363 ], [ 129.375358136720251, 35.66035250868341 ], [ 129.375795601768857, 35.658904423125939 ], [ 129.377081624223564, 35.656948068739958 ], [ 129.377395007740716, 35.656606793957401 ], [ 129.378215826853705, 35.656318911376225 ], [ 129.379076139242187, 35.656444001181974 ], [ 129.379880950537711, 35.656470009653859 ], [ 129.380177031460505, 35.656193275965741 ], [ 129.380548651926205, 35.65576271966976 ], [ 129.380745775020898, 35.655524330036755 ], [ 129.380422225837805, 35.654921423304145 ], [ 129.380303157976073, 35.65447674373462 ], [ 129.380284273336059, 35.654181967651013 ], [ 129.380277685121797, 35.654020300958805 ], [ 129.381075133968409, 35.649671097986648 ], [ 129.381231607630838, 35.649190938327436 ], [ 129.381497532338017, 35.648548572236002 ], [ 129.381787047773315, 35.648140156658862 ], [ 129.381893221547813, 35.647890692897292 ], [ 129.381920982055419, 35.647473406370665 ], [ 129.381806384406246, 35.647146438480242 ], [ 129.381561151201197, 35.646856151756189 ], [ 129.380558884458338, 35.645761237050699 ], [ 129.379378904510531, 35.644682899153239 ], [ 129.379235144732519, 35.644416343609578 ], [ 129.377740240216127, 35.640293759779858 ], [ 129.3777186415833, 35.63993615927366 ], [ 129.377775980053343, 35.639415735369219 ], [ 129.378128896565414, 35.63817906923569 ], [ 129.378326651378387, 35.637792088813903 ], [ 129.378990871048558, 35.637349265921046 ], [ 129.379061571437717, 35.637300039238902 ], [ 129.379259044243895, 35.636895022878996 ], [ 129.381032588956913, 35.632678762636885 ], [ 129.38130802035522, 35.6319300654147 ], [ 129.381424651842735, 35.631311915534333 ], [ 129.381499504895231, 35.630013732838634 ], [ 129.381277476027606, 35.629412894983808 ], [ 129.381017214849777, 35.629153595637732 ], [ 129.380658171043677, 35.629073444167766 ], [ 129.380080341022563, 35.62907525450386 ], [ 129.380018418868616, 35.628620251483945 ], [ 129.379997266012225, 35.628360193568206 ], [ 129.380353466447076, 35.62783882972554 ], [ 129.384534629405152, 35.627175311825255 ], [ 129.385690502968174, 35.627220403465735 ], [ 129.386447802211876, 35.627250519506276 ], [ 129.386906779595733, 35.627395360308967 ], [ 129.387904203532599, 35.627636027974255 ], [ 129.388442804873961, 35.627764360448772 ], [ 129.388881469500319, 35.627827969513184 ], [ 129.391165923250014, 35.627732878359602 ], [ 129.391603011948348, 35.62747134427913 ], [ 129.391999300440915, 35.627014847693282 ], [ 129.39243512225633, 35.626493198083963 ], [ 129.392728604459336, 35.625386741998177 ], [ 129.392982623767296, 35.624361695272789 ], [ 129.392858882811879, 35.623500458524219 ], [ 129.392679174448915, 35.623419757843372 ], [ 129.390146543306571, 35.622956479956564 ], [ 129.388012511060879, 35.622508135914906 ], [ 129.387433001335779, 35.62215232920385 ], [ 129.385641815032756, 35.619412907327735 ], [ 129.385620101941754, 35.61903905003151 ], [ 129.386293510065173, 35.618207769691409 ], [ 129.386452267358749, 35.618077208090774 ], [ 129.386930410566748, 35.618075682456109 ], [ 129.387506209850955, 35.617667390771949 ], [ 129.389251701424655, 35.616068559502061 ], [ 129.390241836369114, 35.61482979964579 ], [ 129.390558210143553, 35.614341055182507 ], [ 129.390754989287814, 35.613836433308265 ], [ 129.39035513575277, 35.61175973509598 ], [ 129.390223086898317, 35.61144363786336 ], [ 129.390113496548793, 35.611212963357126 ], [ 129.389996480111762, 35.611087596940763 ], [ 129.389009148369809, 35.610144425492209 ], [ 129.388732714947679, 35.610004303111346 ], [ 129.388445430219519, 35.609900217043617 ], [ 129.388071954302148, 35.609770140800556 ], [ 129.386244827205473, 35.60936572981641 ], [ 129.383704645708889, 35.608847099849555 ] ] ] ] } },
{ "type": "Feature", "properties": { "OBJECTID": 1124, "adm_nm": "울산광역시 북구 농소2동", "adm_cd": "2604052", "adm_cd2": "3120052000", "sgg": "31200", "sido": "31", "sidonm": "울산광역시", "sggnm": "북구" }, "geometry": { "type": "MultiPolygon", "coordinates": [ [ [ [ 129.36455070753226, 35.6787678771502 ], [ 129.364410035115526, 35.677761525528339 ], [ 129.364409486242238, 35.677639358836338 ], [ 129.364436884870884, 35.67754268514765 ], [ 129.364695534209034, 35.677012064469835 ], [ 129.367593994847994, 35.674535921859658 ], [ 129.370532412285797, 35.673215850641384 ], [ 129.370598514408442, 35.673209951728637 ], [ 129.370845340985426, 35.673149539951346 ], [ 129.37172094261021, 35.672830085680658 ], [ 129.372082200337559, 35.672678401163715 ], [ 129.372359977785237, 35.672536912769722 ], [ 129.372568267326415, 35.672422624520991 ], [ 129.37266878705384, 35.672334251862232 ], [ 129.372706662290597, 35.672282556320582 ], [ 129.372820495947536, 35.672115247617654 ], [ 129.372940306456343, 35.67189585968152 ], [ 129.373012047286039, 35.671734104452 ], [ 129.373366540863856, 35.670801233905756 ], [ 129.373399477855031, 35.67062561617638 ], [ 129.373473264893107, 35.669835824902897 ], [ 129.374654185036377, 35.669069661640364 ], [ 129.377654193234235, 35.666672878994156 ], [ 129.377372882560707, 35.666139424288843 ], [ 129.376359416509473, 35.665979897269096 ], [ 129.375534777682049, 35.665603206194959 ], [ 129.372053912904619, 35.661985572179944 ], [ 129.370104652084308, 35.660566723735194 ], [ 129.369953273723837, 35.660401873105627 ], [ 129.36953529714711, 35.659845181259747 ], [ 129.36904270093126, 35.658999753993406 ], [ 129.368992865322014, 35.658790672376739 ], [ 129.36886639887723, 35.657854468608676 ], [ 129.368530096145548, 35.656450578973185 ], [ 129.368445139931623, 35.656168702182008 ], [ 129.368284857712183, 35.655641351679407 ], [ 129.368115300633264, 35.65538437045268 ], [ 129.367930361347732, 35.655217577535218 ], [ 129.367782499701036, 35.655102153932404 ], [ 129.366942429521231, 35.654507467787511 ], [ 129.36659840259361, 35.654439962532074 ], [ 129.366340501703235, 35.654416858365906 ], [ 129.364895187644208, 35.654615599543376 ], [ 129.364245552530377, 35.654789330209752 ], [ 129.364045749552304, 35.654824250220649 ], [ 129.363761562466408, 35.654816524010684 ], [ 129.361458681414803, 35.653451432870732 ], [ 129.361342477812286, 35.653353072734113 ], [ 129.361225864519866, 35.653164608299072 ], [ 129.361055414734494, 35.65270163749242 ], [ 129.359585562209389, 35.648096997040994 ], [ 129.359499992966505, 35.647730519967659 ], [ 129.359435367744481, 35.647453737123897 ], [ 129.357662325084988, 35.644164529827343 ], [ 129.349346798412114, 35.633290167006649 ], [ 129.345291304859416, 35.631516559153674 ], [ 129.344955449742798, 35.631889481169907 ], [ 129.341826871342448, 35.63536319307557 ], [ 129.339575279324805, 35.639343024312204 ], [ 129.337179273992376, 35.643577681553012 ], [ 129.337188379509115, 35.645755002562325 ], [ 129.337189134441758, 35.645934527018241 ], [ 129.33719184999353, 35.646584887297983 ], [ 129.337169679885818, 35.647106422799837 ], [ 129.337139062781432, 35.647826649177347 ], [ 129.336978739147924, 35.651597548468949 ], [ 129.336870844613003, 35.651903170390618 ], [ 129.335868209917379, 35.654742999919968 ], [ 129.334144502320044, 35.65962471438678 ], [ 129.335149571406674, 35.66205636067771 ], [ 129.335494613687075, 35.662462710642458 ], [ 129.337090580322865, 35.664342196339305 ], [ 129.337272590425783, 35.664746083070547 ], [ 129.338035866728944, 35.666439845111114 ], [ 129.337205419872049, 35.668900363705511 ], [ 129.337364615328937, 35.668921778409299 ], [ 129.337564706131388, 35.668966878321676 ], [ 129.33762270841666, 35.668979956121994 ], [ 129.341618881151419, 35.670830261931435 ], [ 129.346678631236557, 35.674656707650925 ], [ 129.347529908286475, 35.675583745288257 ], [ 129.34825760523978, 35.676942330592738 ], [ 129.348414869089851, 35.677089606464627 ], [ 129.348791818253488, 35.677332829717592 ], [ 129.349236691691374, 35.677546753625336 ], [ 129.35122927267517, 35.678438468241161 ], [ 129.353887980579742, 35.679552765334265 ], [ 129.355713572548808, 35.679721658663119 ], [ 129.356289662809786, 35.679711449747529 ], [ 129.358609896223811, 35.679725833494111 ], [ 129.359253594848752, 35.679677162624259 ], [ 129.35953500950751, 35.67964656550059 ], [ 129.360016997581823, 35.67958138819872 ], [ 129.360334807932418, 35.679529423073866 ], [ 129.360696751086095, 35.679434845671253 ], [ 129.361282529620524, 35.67926308749977 ], [ 129.361821512411098, 35.67911695854572 ], [ 129.362196572370095, 35.679043581433909 ], [ 129.362584669500279, 35.678970165478709 ], [ 129.364104424879429, 35.678784178072178 ], [ 129.36455070753226, 35.6787678771502 ] ] ] ] } },
{ "type": "Feature", "properties": { "OBJECTID": 1125, "adm_nm": "울산광역시 북구 농소3동", "adm_cd": "2604053", "adm_cd2": "3120053000", "sgg": "31200", "sido": "31", "sidonm": "울산광역시", "sggnm": "북구" }, "geometry": { "type": "MultiPolygon", "coordinates": [ [ [ [ 129.345291304859416, 35.631516559153674 ], [ 129.345324549213899, 35.631479103639464 ], [ 129.34671768717547, 35.629527518716095 ], [ 129.347275598978143, 35.628745934520715 ], [ 129.349763306634344, 35.625260665943749 ], [ 129.350134633249382, 35.624419973571747 ], [ 129.351015201861713, 35.619899763934519 ], [ 129.351306286333596, 35.618087490643092 ], [ 129.351222140679596, 35.617435359337534 ], [ 129.350354040394961, 35.610707210862536 ], [ 129.349343842957921, 35.605244432174658 ], [ 129.349014662306246, 35.60240759219473 ], [ 129.348339957722885, 35.59917381567552 ], [ 129.348439833384646, 35.595281102298152 ], [ 129.347094480519701, 35.595547326184295 ], [ 129.341352614184672, 35.596405060004926 ], [ 129.339775994856495, 35.59610413560705 ], [ 129.339120372739842, 35.5959496662989 ], [ 129.338224073838234, 35.595616665511926 ], [ 129.337243436128631, 35.594662793262536 ], [ 129.335742114726543, 35.593710357346168 ], [ 129.334960154282157, 35.593553097522836 ], [ 129.334500357164984, 35.593720194229526 ], [ 129.332749847502612, 35.594356357136249 ], [ 129.331321415685665, 35.595316879932817 ], [ 129.330933602070559, 35.596008827151202 ], [ 129.331918736194581, 35.598078791470364 ], [ 129.331037425353173, 35.599089492014521 ], [ 129.325993296392937, 35.597988593270266 ], [ 129.32495304458854, 35.598363402009596 ], [ 129.323782531274304, 35.598738552097672 ], [ 129.322607802297483, 35.598050815498397 ], [ 129.322474180049454, 35.597200848287144 ], [ 129.322491352079254, 35.597136629325568 ], [ 129.322598731540097, 35.59676558008379 ], [ 129.321972267316852, 35.595222972806269 ], [ 129.321535225666167, 35.594780012331761 ], [ 129.321349462861917, 35.594591731881593 ], [ 129.319764834264248, 35.593861764412473 ], [ 129.318927558240517, 35.593889293604008 ], [ 129.318207352077451, 35.594057273971977 ], [ 129.317624839042082, 35.594382627940078 ], [ 129.317513163340237, 35.594432116945448 ], [ 129.317358123578998, 35.594397381206342 ], [ 129.314235809060307, 35.5925856977222 ], [ 129.312276517895441, 35.591080114280722 ], [ 129.311939831049386, 35.590799923452948 ], [ 129.311741175160677, 35.590610727065162 ], [ 129.311680345459592, 35.59045630357798 ], [ 129.311696956577322, 35.590301682951974 ], [ 129.311515355754182, 35.590070283369805 ], [ 129.310565616575047, 35.589250642764888 ], [ 129.310358797655368, 35.589173883006687 ], [ 129.310186501330435, 35.589125146028572 ], [ 129.309704306398345, 35.589042050982719 ], [ 129.309187825637366, 35.589001206920514 ], [ 129.307337908638999, 35.589048091206777 ], [ 129.307234747859951, 35.58907644499773 ], [ 129.305630320729477, 35.590331193833336 ], [ 129.304747323376688, 35.59145763634767 ], [ 129.304302600617063, 35.592189492706311 ], [ 129.304208805730383, 35.592421595580007 ], [ 129.303256331091376, 35.593147705520217 ], [ 129.303076102998432, 35.593281644732386 ], [ 129.302887151371323, 35.593380488604289 ], [ 129.302689463917176, 35.593444221050099 ], [ 129.301416651892822, 35.59366520954633 ], [ 129.301072396803534, 35.593659058556206 ], [ 129.298273308084163, 35.593047657936488 ], [ 129.294669484230809, 35.592389784887551 ], [ 129.294348105310917, 35.592384997514174 ], [ 129.293459362598611, 35.592431807877063 ], [ 129.293377383676386, 35.59245432726842 ], [ 129.290128518093951, 35.594827401882768 ], [ 129.289472956036576, 35.595430472701779 ], [ 129.289537707780937, 35.596189780479342 ], [ 129.290099881113946, 35.59727701741874 ], [ 129.291405721364413, 35.598159944982079 ], [ 129.291592272221521, 35.598286079864238 ], [ 129.292809406548372, 35.600359040561472 ], [ 129.292855043037207, 35.600530381433423 ], [ 129.292903733632812, 35.600713232396238 ], [ 129.292906945694114, 35.601599285967289 ], [ 129.29304509684107, 35.602551714278974 ], [ 129.296075092652444, 35.607188056904597 ], [ 129.296525282017399, 35.607674881497715 ], [ 129.297422953514427, 35.607916652894204 ], [ 129.298471243785002, 35.60846299297733 ], [ 129.299070689727387, 35.608888459100022 ], [ 129.299371649496464, 35.609436634753251 ], [ 129.300136667317588, 35.614192044439804 ], [ 129.299914500994817, 35.614741524137656 ], [ 129.297829689334151, 35.616881360923095 ], [ 129.296635185923407, 35.617250244150448 ], [ 129.295367039256007, 35.617924257865397 ], [ 129.294621629904896, 35.618474980517789 ], [ 129.294554675379544, 35.620609844286172 ], [ 129.29465251534856, 35.625827508078139 ], [ 129.295703032080127, 35.626922793736618 ], [ 129.296526395142564, 35.62722573801306 ], [ 129.296976686340997, 35.627712567113299 ], [ 129.297578972513804, 35.628869901168635 ], [ 129.298259849460777, 35.631063916232918 ], [ 129.298190057938342, 35.632405883496602 ], [ 129.297819202041495, 35.633199677338986 ], [ 129.296999361899395, 35.633872596819998 ], [ 129.296807516061762, 35.634937847020744 ], [ 129.296779584619259, 35.635092950434455 ], [ 129.296193603960774, 35.638387901701421 ], [ 129.296213325052179, 35.638906167808024 ], [ 129.296641086866828, 35.641916015600735 ], [ 129.297120550014057, 35.642788988047869 ], [ 129.295807960640985, 35.644303098946303 ], [ 129.295899458856439, 35.644727899844156 ], [ 129.296552885879834, 35.646363026213052 ], [ 129.296590155350572, 35.646426929475908 ], [ 129.296721137517011, 35.646511928707987 ], [ 129.296943692974622, 35.646628702288488 ], [ 129.297402676729376, 35.646856482416794 ], [ 129.298879348749125, 35.647492955851256 ], [ 129.299372041269862, 35.64769877068462 ], [ 129.300387458861792, 35.648083771756163 ], [ 129.300605742860142, 35.648158369540589 ], [ 129.300674682920999, 35.648180895730412 ], [ 129.300990726625997, 35.648195711603648 ], [ 129.301618550193012, 35.648223927991964 ], [ 129.302301737446925, 35.648232151839544 ], [ 129.302615354687191, 35.648232797480063 ], [ 129.302699563586259, 35.648252421849314 ], [ 129.302737947113457, 35.648286366612879 ], [ 129.302772485304587, 35.648318904897764 ], [ 129.302787905192332, 35.648347224618085 ], [ 129.30343649529803, 35.654601171157132 ], [ 129.303616813482336, 35.656387976378262 ], [ 129.303442436606929, 35.656829243117279 ], [ 129.303464367229708, 35.656899871797684 ], [ 129.303570103912449, 35.656968549059926 ], [ 129.310752939891699, 35.660225843951004 ], [ 129.310826390529201, 35.660253569122595 ], [ 129.310886216129944, 35.660251341319324 ], [ 129.311056207514241, 35.660245006870078 ], [ 129.315459488971783, 35.659569365260268 ], [ 129.318789261615478, 35.658414450593199 ], [ 129.321297301055523, 35.658689230593495 ], [ 129.323994370989283, 35.659210286292954 ], [ 129.325254795517537, 35.661234882876741 ], [ 129.325339514809514, 35.661483033707221 ], [ 129.325481015854166, 35.661697737920889 ], [ 129.325978780739518, 35.662244360966838 ], [ 129.326016765840194, 35.662285980286278 ], [ 129.33020122032255, 35.665528332834477 ], [ 129.330503470607908, 35.665742589748163 ], [ 129.330671342443878, 35.665849682295679 ], [ 129.33412842111295, 35.667791319656246 ], [ 129.334416992056447, 35.667933906716691 ], [ 129.334638453481716, 35.668040842179579 ], [ 129.335091381795877, 35.668247002087014 ], [ 129.335299381614874, 35.668338602452252 ], [ 129.336174655982973, 35.668640887513931 ], [ 129.336503249824688, 35.668742388136685 ], [ 129.336875369158889, 35.668841219644612 ], [ 129.337130081934134, 35.668891721493559 ], [ 129.337205419872049, 35.668900363705511 ], [ 129.338035866728944, 35.666439845111114 ], [ 129.337272590425783, 35.664746083070547 ], [ 129.337090580322865, 35.664342196339305 ], [ 129.335494613687075, 35.662462710642458 ], [ 129.335149571406674, 35.66205636067771 ], [ 129.334144502320044, 35.65962471438678 ], [ 129.335868209917379, 35.654742999919968 ], [ 129.336870844613003, 35.651903170390618 ], [ 129.336978739147924, 35.651597548468949 ], [ 129.337139062781432, 35.647826649177347 ], [ 129.337169679885818, 35.647106422799837 ], [ 129.33719184999353, 35.646584887297983 ], [ 129.337189134441758, 35.645934527018241 ], [ 129.337188379509115, 35.645755002562325 ], [ 129.337179273992376, 35.643577681553012 ], [ 129.339575279324805, 35.639343024312204 ], [ 129.341826871342448, 35.63536319307557 ], [ 129.344955449742798, 35.631889481169907 ], [ 129.345291304859416, 35.631516559153674 ] ] ] ] } },
{ "type": "Feature", "properties": { "OBJECTID": 1126, "adm_nm": "울산광역시 북구 강동동", "adm_cd": "2604054", "adm_cd2": "3120054000", "sgg": "31200", "sido": "31", "sidonm": "울산광역시", "sggnm": "북구" }, "geometry": { "type": "MultiPolygon", "coordinates": [ [ [ [ 129.450008155318073, 35.650948468950105 ], [ 129.449490816479312, 35.650323720965524 ], [ 129.448965474607149, 35.649595451743927 ], [ 129.448936347179654, 35.649550023578989 ], [ 129.448906961629831, 35.649497879964116 ], [ 129.448842768712041, 35.649316493180287 ], [ 129.448834864746118, 35.649269700066753 ], [ 129.448828280509872, 35.649163990196037 ], [ 129.448823902245465, 35.649086478021609 ], [ 129.448842810036751, 35.648871218013838 ], [ 129.448841217121981, 35.648586553259975 ], [ 129.448436972918131, 35.6476142505635 ], [ 129.448394081793111, 35.647550400593964 ], [ 129.446048455751082, 35.646028727905069 ], [ 129.445789709078952, 35.645995098115904 ], [ 129.444390567882294, 35.646034581604333 ], [ 129.442820971480671, 35.645852678022521 ], [ 129.442785207081045, 35.645843916688143 ], [ 129.442640106251417, 35.645789528699652 ], [ 129.442497156553685, 35.645716786850997 ], [ 129.442352811048238, 35.645623880501383 ], [ 129.442189736292676, 35.645490425520677 ], [ 129.442079863206033, 35.645394224056183 ], [ 129.442017414487367, 35.645336653153144 ], [ 129.441942239883844, 35.645247515700987 ], [ 129.4418827691525, 35.64517412529532 ], [ 129.441833971520481, 35.645109313392773 ], [ 129.441808955189089, 35.645067546505075 ], [ 129.44158637214457, 35.644611947200211 ], [ 129.44155320866443, 35.644533250870232 ], [ 129.441525147592472, 35.644452958666449 ], [ 129.441433400579484, 35.644063758081145 ], [ 129.44134185522887, 35.643630366266812 ], [ 129.441298535539886, 35.64337450065095 ], [ 129.441254928633413, 35.643080553882804 ], [ 129.441250865030696, 35.642972723885912 ], [ 129.441250346573952, 35.641606263239531 ], [ 129.441272985719564, 35.64125330113643 ], [ 129.441368688967088, 35.640402600970475 ], [ 129.440812676034597, 35.63247165529247 ], [ 129.440804725877285, 35.632435730450567 ], [ 129.440812970625586, 35.632391323078835 ], [ 129.441242776244536, 35.630698852470971 ], [ 129.441282093851356, 35.630546052052637 ], [ 129.441378419624613, 35.630261521195294 ], [ 129.441464695574695, 35.630029630273349 ], [ 129.441613157248298, 35.629653089972251 ], [ 129.443329394977866, 35.625645058383007 ], [ 129.443385051848765, 35.625527684198943 ], [ 129.443620508267884, 35.62512611602385 ], [ 129.443787113757622, 35.624895604391547 ], [ 129.444083168934668, 35.624504413217629 ], [ 129.444193420093285, 35.624369288817725 ], [ 129.444879650684868, 35.623537272677076 ], [ 129.445284149965119, 35.623127191931452 ], [ 129.446168975200777, 35.622300064137939 ], [ 129.446415361295124, 35.62208080475925 ], [ 129.450615690939628, 35.618029141414141 ], [ 129.44976320329954, 35.616840046388766 ], [ 129.449717979937986, 35.615732615515682 ], [ 129.449950951385915, 35.61493174207309 ], [ 129.449997272970307, 35.614816728281845 ], [ 129.450409860566282, 35.614477130187531 ], [ 129.450470845350054, 35.614446528012373 ], [ 129.450571871876548, 35.614410988996838 ], [ 129.451884115178217, 35.613964548019617 ], [ 129.453186961767472, 35.613689230387521 ], [ 129.453264287969745, 35.613678689348482 ], [ 129.453344947819375, 35.613678393633236 ], [ 129.45533109157995, 35.61380592837471 ], [ 129.456949028254542, 35.613935212354725 ], [ 129.457556224045305, 35.611202363548919 ], [ 129.457323314309036, 35.610704881273421 ], [ 129.45737469985724, 35.60960278206543 ], [ 129.457462870930328, 35.608883384380142 ], [ 129.457787375620114, 35.608126586994906 ], [ 129.458458340244988, 35.607164960145234 ], [ 129.458607862259953, 35.606971924071495 ], [ 129.459072099079918, 35.606497112030119 ], [ 129.459641892734567, 35.606531394288595 ], [ 129.459722928082186, 35.606546157477744 ], [ 129.459801633543748, 35.606716683265795 ], [ 129.460117673056402, 35.607501207712893 ], [ 129.460312797268983, 35.608030638749511 ], [ 129.460357211841085, 35.608164967834085 ], [ 129.460400716105966, 35.608202506977726 ], [ 129.460468370123834, 35.6082018638321 ], [ 129.460501453992634, 35.608174417030305 ], [ 129.461305232804932, 35.607321953306297 ], [ 129.461492276779296, 35.606897175460858 ], [ 129.462485900939612, 35.604412646315062 ], [ 129.463598941973714, 35.601475500731965 ], [ 129.464374684317022, 35.599353190971996 ], [ 129.464379899030746, 35.599321650512636 ], [ 129.464377562055262, 35.599283259326747 ], [ 129.464319897953715, 35.599067204674952 ], [ 129.464291807618707, 35.598981252011413 ], [ 129.464236558772143, 35.598868096404701 ], [ 129.463745787053028, 35.598074961654099 ], [ 129.462647626286895, 35.59338750046215 ], [ 129.462628159174102, 35.593289905672073 ], [ 129.462619875031606, 35.593160008840449 ], [ 129.462625366059171, 35.593097370853883 ], [ 129.464072780320294, 35.587861954233652 ], [ 129.464688058149392, 35.587107495158875 ], [ 129.464807214013661, 35.587125557790138 ], [ 129.464922123503783, 35.587111029694107 ], [ 129.465007740469844, 35.587040440868265 ], [ 129.46506451441644, 35.586937106334375 ], [ 129.465164614214729, 35.586654213401808 ], [ 129.465171349467624, 35.586602474658314 ], [ 129.465061169568884, 35.585887500866427 ], [ 129.465003807428275, 35.585813314835477 ], [ 129.464946573081335, 35.585776276850574 ], [ 129.464065344094308, 35.585370201093397 ], [ 129.46399147583773, 35.585338385645251 ], [ 129.461528830480631, 35.584388128225648 ], [ 129.460846262057828, 35.584197930562205 ], [ 129.460763506898985, 35.584181499125535 ], [ 129.460696293680286, 35.584183323108157 ], [ 129.460237039702605, 35.584219039203596 ], [ 129.460169116355445, 35.584233562849064 ], [ 129.460099936731751, 35.58425983972306 ], [ 129.459244293782746, 35.584602095307226 ], [ 129.459176642576637, 35.584645470517678 ], [ 129.459059713135275, 35.584729814420236 ], [ 129.458993102458493, 35.584809154494728 ], [ 129.45890621949269, 35.584945629419174 ], [ 129.458820363166922, 35.585042721533256 ], [ 129.458762725924714, 35.585100123092417 ], [ 129.458704832253858, 35.585136402485915 ], [ 129.458650778395054, 35.585152227834286 ], [ 129.458536001339382, 35.585148709046543 ], [ 129.458409114266317, 35.585139054053847 ], [ 129.458284721993351, 35.585125304398893 ], [ 129.458118170803402, 35.585097546468639 ], [ 129.4579216746302, 35.58504886914799 ], [ 129.457569934304701, 35.584914654977275 ], [ 129.457351559904794, 35.584737574789663 ], [ 129.45367072904196, 35.580314590276764 ], [ 129.453583000638787, 35.580207420464042 ], [ 129.453476611467693, 35.580068878474194 ], [ 129.453339706625343, 35.57988351112833 ], [ 129.453204969966322, 35.579699426439731 ], [ 129.452886578171416, 35.579056700995892 ], [ 129.452837152418226, 35.57894844733687 ], [ 129.452793564563365, 35.578846386014263 ], [ 129.452760088053452, 35.578765636035406 ], [ 129.452677134352683, 35.578514866843726 ], [ 129.45263630993685, 35.578325631926937 ], [ 129.452647069065819, 35.578192024841528 ], [ 129.452779023615335, 35.577611165871581 ], [ 129.45288543987968, 35.577473545638981 ], [ 129.453047130221819, 35.577334811276877 ], [ 129.452806949033629, 35.572683150344155 ], [ 129.451795397598801, 35.571895659010075 ], [ 129.449531302260226, 35.570329486921437 ], [ 129.445036788647997, 35.567330303268022 ], [ 129.444841130269054, 35.567411100009224 ], [ 129.444744973538832, 35.567758404742676 ], [ 129.44396217800778, 35.568054839791216 ], [ 129.440826062379614, 35.568359895390095 ], [ 129.440695324582578, 35.568360362836628 ], [ 129.440368334679533, 35.56833487203636 ], [ 129.439975837605942, 35.568282915981605 ], [ 129.438283034248883, 35.567875521429215 ], [ 129.43765103849023, 35.567517381275415 ], [ 129.436800102091496, 35.566935274191884 ], [ 129.434936249170107, 35.566781867904893 ], [ 129.433054858065674, 35.566968158218707 ], [ 129.431584930794941, 35.567133540878572 ], [ 129.430114580846407, 35.567218842774523 ], [ 129.429164876863638, 35.567061109610769 ], [ 129.428734576422841, 35.566234320702655 ], [ 129.428471143184936, 35.565703231650048 ], [ 129.427163119505082, 35.565361109548178 ], [ 129.422010522036032, 35.564308313616849 ], [ 129.417216740207152, 35.563340798927804 ], [ 129.416233514196023, 35.562810416387478 ], [ 129.413393486691973, 35.560973051199937 ], [ 129.412345904310854, 35.560629683198478 ], [ 129.412104463038048, 35.560703849570238 ], [ 129.411675335186004, 35.561166085809347 ], [ 129.410957717448184, 35.561539610032305 ], [ 129.408330511364966, 35.561808441735764 ], [ 129.407723986216837, 35.561686784057059 ], [ 129.406623916582419, 35.561319385857416 ], [ 129.40518211363198, 35.560767585766776 ], [ 129.404387035257201, 35.560801167094226 ], [ 129.403480810209317, 35.561329910118431 ], [ 129.402727595060213, 35.562167382977179 ], [ 129.400027041982071, 35.567433444186094 ], [ 129.39961596334058, 35.568548072622143 ], [ 129.397877040382383, 35.569203222988364 ], [ 129.396886231540265, 35.569455334235613 ], [ 129.39595959087282, 35.569913437108475 ], [ 129.395350887094821, 35.570262146707655 ], [ 129.395352895977794, 35.570673870784447 ], [ 129.395859271403253, 35.571105620232615 ], [ 129.396657162530175, 35.571449726510927 ], [ 129.397187858129712, 35.571426316047017 ], [ 129.39779805758161, 35.571380963664225 ], [ 129.398489050621293, 35.571573729868042 ], [ 129.399261815875917, 35.572199620427391 ], [ 129.399396128876134, 35.572524216916719 ], [ 129.399703580173991, 35.574054511837119 ], [ 129.400335503739569, 35.578386431364109 ], [ 129.398366445875467, 35.5827702747373 ], [ 129.397019979156994, 35.584243769462617 ], [ 129.396943002644434, 35.584785767181188 ], [ 129.396894175025068, 35.585652736440288 ], [ 129.397760046162972, 35.588987066549265 ], [ 129.398403126043405, 35.590198465013877 ], [ 129.397637624071507, 35.593202867300882 ], [ 129.397705969055977, 35.596129805308927 ], [ 129.397531419425263, 35.597008150858102 ], [ 129.3974299375881, 35.597205310375045 ], [ 129.397333031060469, 35.597275476379266 ], [ 129.397054792218427, 35.597460837564142 ], [ 129.396181033921295, 35.597711477230753 ], [ 129.394560791769749, 35.598678746253285 ], [ 129.393281987735008, 35.600096705295584 ], [ 129.393158273795137, 35.600359469923895 ], [ 129.393001820707241, 35.601234498531362 ], [ 129.393003454982448, 35.601569717888097 ], [ 129.393145099036161, 35.601751178699743 ], [ 129.393219098002533, 35.601845957302615 ], [ 129.393630951826424, 35.602077809302962 ], [ 129.393792378030895, 35.602223036502629 ], [ 129.393990165630697, 35.6024993216529 ], [ 129.394369737559856, 35.603430898010153 ], [ 129.394352941909005, 35.603649601315539 ], [ 129.393788145935417, 35.605952728525949 ], [ 129.393630198460443, 35.606521676824258 ], [ 129.393362309826216, 35.606522549531626 ], [ 129.392665688607934, 35.606495652213049 ], [ 129.392058072903751, 35.606410172018435 ], [ 129.39141425164064, 35.60622277989394 ], [ 129.390591563720875, 35.605977663553965 ], [ 129.389841294887276, 35.605936354713819 ], [ 129.385330006436675, 35.607393766700895 ], [ 129.384955735796922, 35.607555286880789 ], [ 129.383704645708889, 35.608847099849555 ], [ 129.386244827205473, 35.60936572981641 ], [ 129.388071954302148, 35.609770140800556 ], [ 129.388445430219519, 35.609900217043617 ], [ 129.388732714947679, 35.610004303111346 ], [ 129.389009148369809, 35.610144425492209 ], [ 129.389996480111762, 35.611087596940763 ], [ 129.390113496548793, 35.611212963357126 ], [ 129.390223086898317, 35.61144363786336 ], [ 129.39035513575277, 35.61175973509598 ], [ 129.390754989287814, 35.613836433308265 ], [ 129.390558210143553, 35.614341055182507 ], [ 129.390241836369114, 35.61482979964579 ], [ 129.389251701424655, 35.616068559502061 ], [ 129.387506209850955, 35.617667390771949 ], [ 129.386930410566748, 35.618075682456109 ], [ 129.386452267358749, 35.618077208090774 ], [ 129.386293510065173, 35.618207769691409 ], [ 129.385620101941754, 35.61903905003151 ], [ 129.385641815032756, 35.619412907327735 ], [ 129.387433001335779, 35.62215232920385 ], [ 129.388012511060879, 35.622508135914906 ], [ 129.390146543306571, 35.622956479956564 ], [ 129.392679174448915, 35.623419757843372 ], [ 129.392858882811879, 35.623500458524219 ], [ 129.392982623767296, 35.624361695272789 ], [ 129.392728604459336, 35.625386741998177 ], [ 129.39243512225633, 35.626493198083963 ], [ 129.391999300440915, 35.627014847693282 ], [ 129.391603011948348, 35.62747134427913 ], [ 129.391165923250014, 35.627732878359602 ], [ 129.388881469500319, 35.627827969513184 ], [ 129.388442804873961, 35.627764360448772 ], [ 129.387904203532599, 35.627636027974255 ], [ 129.386906779595733, 35.627395360308967 ], [ 129.386447802211876, 35.627250519506276 ], [ 129.385690502968174, 35.627220403465735 ], [ 129.384534629405152, 35.627175311825255 ], [ 129.380353466447076, 35.62783882972554 ], [ 129.379997266012225, 35.628360193568206 ], [ 129.380018418868616, 35.628620251483945 ], [ 129.380080341022563, 35.62907525450386 ], [ 129.380658171043677, 35.629073444167766 ], [ 129.381017214849777, 35.629153595637732 ], [ 129.381277476027606, 35.629412894983808 ], [ 129.381499504895231, 35.630013732838634 ], [ 129.381424651842735, 35.631311915534333 ], [ 129.38130802035522, 35.6319300654147 ], [ 129.381032588956913, 35.632678762636885 ], [ 129.379259044243895, 35.636895022878996 ], [ 129.379061571437717, 35.637300039238902 ], [ 129.378990871048558, 35.637349265921046 ], [ 129.378326651378387, 35.637792088813903 ], [ 129.378128896565414, 35.63817906923569 ], [ 129.377775980053343, 35.639415735369219 ], [ 129.3777186415833, 35.63993615927366 ], [ 129.377740240216127, 35.640293759779858 ], [ 129.379235144732519, 35.644416343609578 ], [ 129.379378904510531, 35.644682899153239 ], [ 129.380558884458338, 35.645761237050699 ], [ 129.381561151201197, 35.646856151756189 ], [ 129.381806384406246, 35.647146438480242 ], [ 129.381920982055419, 35.647473406370665 ], [ 129.381893221547813, 35.647890692897292 ], [ 129.381787047773315, 35.648140156658862 ], [ 129.381497532338017, 35.648548572236002 ], [ 129.381231607630838, 35.649190938327436 ], [ 129.381075133968409, 35.649671097986648 ], [ 129.380277685121797, 35.654020300958805 ], [ 129.380284273336059, 35.654181967651013 ], [ 129.380303157976073, 35.65447674373462 ], [ 129.380422225837805, 35.654921423304145 ], [ 129.380745775020898, 35.655524330036755 ], [ 129.380548651926205, 35.65576271966976 ], [ 129.380177031460505, 35.656193275965741 ], [ 129.379880950537711, 35.656470009653859 ], [ 129.379076139242187, 35.656444001181974 ], [ 129.378215826853705, 35.656318911376225 ], [ 129.377395007740716, 35.656606793957401 ], [ 129.377081624223564, 35.656948068739958 ], [ 129.375795601768857, 35.658904423125939 ], [ 129.375358136720251, 35.66035250868341 ], [ 129.375419908174251, 35.66077501113363 ], [ 129.375947123105021, 35.662691733009744 ], [ 129.37622772451644, 35.663016007675132 ], [ 129.37709469543654, 35.665110511609903 ], [ 129.377372882560707, 35.666139424288843 ], [ 129.377654193234235, 35.666672878994156 ], [ 129.374654185036377, 35.669069661640364 ], [ 129.373473264893107, 35.669835824902897 ], [ 129.373745387352017, 35.66981239563799 ], [ 129.373910590371992, 35.669804625016269 ], [ 129.374114914608299, 35.669800377498817 ], [ 129.374399215906067, 35.669799495380779 ], [ 129.376309487036451, 35.669815321950878 ], [ 129.376421467580968, 35.669823673038216 ], [ 129.378431531579423, 35.670280137680912 ], [ 129.379310983089169, 35.670626962811696 ], [ 129.3796421934004, 35.670776781234494 ], [ 129.379955411201848, 35.670877321373567 ], [ 129.380261396109489, 35.670953249478451 ], [ 129.380659789902808, 35.671027411189044 ], [ 129.380986969060871, 35.67107571285937 ], [ 129.381217876735747, 35.671056119101621 ], [ 129.38150560363573, 35.671026205406157 ], [ 129.381818015382152, 35.670955591513895 ], [ 129.382400065443932, 35.670789835483696 ], [ 129.385382466500261, 35.670192889769169 ], [ 129.391128675849615, 35.668657165443676 ], [ 129.39156172271808, 35.668552768134127 ], [ 129.393837170293381, 35.668037678727828 ], [ 129.393943706500096, 35.668021377732529 ], [ 129.394885007494736, 35.667931276043163 ], [ 129.395069822222922, 35.667935021338579 ], [ 129.395343593816563, 35.667963139157223 ], [ 129.396211274045299, 35.668074901933053 ], [ 129.398680301181628, 35.667799252402538 ], [ 129.399009203674296, 35.667750710755847 ], [ 129.399931680118073, 35.667544267770104 ], [ 129.400211339742498, 35.667447951546848 ], [ 129.400461922162634, 35.667324411879555 ], [ 129.400687984284247, 35.6672009523718 ], [ 129.400800580046166, 35.667110045583449 ], [ 129.400873659632765, 35.667012093790227 ], [ 129.401150067299341, 35.666591500664914 ], [ 129.401378098610792, 35.666218053331477 ], [ 129.40241506144838, 35.664381433882227 ], [ 129.403035679663077, 35.663249082276089 ], [ 129.403102578605171, 35.663144124077782 ], [ 129.4032818407116, 35.662988102489606 ], [ 129.403425564749199, 35.662919434789096 ], [ 129.403590961691009, 35.662898443572217 ], [ 129.405947999432271, 35.66284314079568 ], [ 129.40630582048891, 35.662857152515592 ], [ 129.406477799056574, 35.662875457879259 ], [ 129.406704254792544, 35.662924689160583 ], [ 129.406916140578488, 35.663003513043911 ], [ 129.407078045932735, 35.663102701379557 ], [ 129.408864072667114, 35.663555108460358 ], [ 129.410486323520985, 35.663924110000387 ], [ 129.410728723766937, 35.663973291506764 ], [ 129.411040222428568, 35.664031083642357 ], [ 129.411343749735494, 35.66404595211629 ], [ 129.41241649593502, 35.664023967871145 ], [ 129.412634092835873, 35.664018680728631 ], [ 129.412859035542596, 35.663967829115151 ], [ 129.41301499495782, 35.663896854276253 ], [ 129.413244020901658, 35.663732455718304 ], [ 129.41342097421952, 35.663570510722288 ], [ 129.413605877021553, 35.66334076479982 ], [ 129.413697214516048, 35.663222281426236 ], [ 129.413899821015889, 35.66300238358167 ], [ 129.414198790494368, 35.662726394500531 ], [ 129.414853639053234, 35.662165626367717 ], [ 129.415002316843413, 35.662038413161888 ], [ 129.417401602349059, 35.660541741134708 ], [ 129.41754528597076, 35.660466265656645 ], [ 129.417860611137826, 35.660396993829018 ], [ 129.41811389164738, 35.660373440440075 ], [ 129.418359083708367, 35.660372590332884 ], [ 129.421413154237115, 35.659374245966134 ], [ 129.421584207600233, 35.659264581919025 ], [ 129.424597173821383, 35.657641582354444 ], [ 129.42838828288879, 35.655935546527758 ], [ 129.431370786394524, 35.656526645327972 ], [ 129.431596640254583, 35.656607774419896 ], [ 129.431721064487391, 35.656631590967478 ], [ 129.432074394836917, 35.656644872738674 ], [ 129.432695941701326, 35.656657201303155 ], [ 129.432732268128632, 35.656643889208183 ], [ 129.432829905357153, 35.65655137852859 ], [ 129.432979085464382, 35.656313144361974 ], [ 129.433410161437621, 35.654972761411592 ], [ 129.433684224590735, 35.654088207439344 ], [ 129.433961703864554, 35.653383836353477 ], [ 129.434117740160559, 35.653203785805474 ], [ 129.435136113437949, 35.652222742376544 ], [ 129.435177020461822, 35.652184637350373 ], [ 129.435207730359338, 35.652209092191065 ], [ 129.436104951936613, 35.653031486560302 ], [ 129.436322721413376, 35.653321837926548 ], [ 129.436468740463084, 35.653666896304301 ], [ 129.436627833928469, 35.653931039154919 ], [ 129.436822753674988, 35.654158264043311 ], [ 129.437037625831749, 35.65432659481128 ], [ 129.437281557936984, 35.654454408412263 ], [ 129.437417035050231, 35.654516421739089 ], [ 129.438986542755231, 35.654668806279474 ], [ 129.439144157585787, 35.654660887600755 ], [ 129.442843027895435, 35.654375329553339 ], [ 129.44295104735474, 35.654360220058642 ], [ 129.444639839577405, 35.653883436059985 ], [ 129.444711713114941, 35.653846400734615 ], [ 129.445104387760153, 35.653584854776526 ], [ 129.446590438378422, 35.652580780237727 ], [ 129.446854691325854, 35.652370834987209 ], [ 129.447156023139684, 35.652128860340198 ], [ 129.447433870302916, 35.6518482164023 ], [ 129.447700387690617, 35.651580481303235 ], [ 129.447904912305233, 35.651420550408815 ], [ 129.448346723582745, 35.651172930154424 ], [ 129.448588575424367, 35.65109969951574 ], [ 129.448795157285844, 35.651055514306158 ], [ 129.450008155318073, 35.650948468950105 ] ] ] ] } },
{ "type": "Feature", "properties": { "OBJECTID": 1127, "adm_nm": "울산광역시 북구 효문동", "adm_cd": "2604056", "adm_cd2": "3120056000", "sgg": "31200", "sido": "31", "sidonm": "울산광역시", "sggnm": "북구" }, "geometry": { "type": "MultiPolygon", "coordinates": [ [ [ [ 129.397877040382383, 35.569203222988364 ], [ 129.396474546329017, 35.568960416540357 ], [ 129.394654698644359, 35.56856435618225 ], [ 129.39366685435661, 35.567918169913732 ], [ 129.393581983504788, 35.567856297597778 ], [ 129.392906711225521, 35.567364001155298 ], [ 129.392525739226443, 35.566901374383953 ], [ 129.392559862764131, 35.566128169909199 ], [ 129.391341688603148, 35.564833288704442 ], [ 129.38948469744679, 35.564560959784608 ], [ 129.384838494359343, 35.563053638919484 ], [ 129.384437198831876, 35.562855115641 ], [ 129.384265031586978, 35.562758640551259 ], [ 129.384154927069488, 35.562617563227732 ], [ 129.383987085973502, 35.562290956098835 ], [ 129.383835130702806, 35.561696121939335 ], [ 129.381552167088643, 35.559782406394753 ], [ 129.381367321340718, 35.559662325239884 ], [ 129.376785266988293, 35.559211581081321 ], [ 129.376575557404749, 35.559264064832689 ], [ 129.375158821223948, 35.559618655739428 ], [ 129.37453455989089, 35.559787786408833 ], [ 129.372965178703936, 35.560212988463725 ], [ 129.371262380865005, 35.560496545710592 ], [ 129.37617221272302, 35.549534179915348 ], [ 129.377962537408621, 35.545607482117624 ], [ 129.378001195987309, 35.54553256885162 ], [ 129.378904171419862, 35.543782468296492 ], [ 129.378903137028118, 35.543563133046732 ], [ 129.378755631345598, 35.542939374030006 ], [ 129.378316821585145, 35.541860986866922 ], [ 129.378563991265622, 35.536785684013573 ], [ 129.376297934828926, 35.534642099313068 ], [ 129.372812550077469, 35.538185123536806 ], [ 129.368326387658726, 35.540941134650268 ], [ 129.363670352113047, 35.543260190432783 ], [ 129.359993267360636, 35.544597220818851 ], [ 129.359044765539835, 35.545030415585678 ], [ 129.357983479034118, 35.545621767413195 ], [ 129.35404650538004, 35.548023249427516 ], [ 129.352723990522378, 35.548949928124124 ], [ 129.351582544044732, 35.55127249233518 ], [ 129.350832343067282, 35.552798909647521 ], [ 129.349916693249099, 35.555813718783973 ], [ 129.350063187928157, 35.556968835732675 ], [ 129.350136479239325, 35.557546690414092 ], [ 129.350573899887024, 35.558008248824109 ], [ 129.351221017676636, 35.558691044016776 ], [ 129.35294939045724, 35.560686007741417 ], [ 129.352991581071251, 35.56073778892101 ], [ 129.353769118201541, 35.56169210118302 ], [ 129.353356751961883, 35.564488759688707 ], [ 129.353306902500407, 35.5646305217955 ], [ 129.351915012110965, 35.568588613730178 ], [ 129.352044128513967, 35.56983361642223 ], [ 129.35228749273827, 35.572179805668419 ], [ 129.351548796341035, 35.576542644415923 ], [ 129.352121604178478, 35.577145894881355 ], [ 129.354568247483087, 35.579290044544997 ], [ 129.356244066956663, 35.580706155099357 ], [ 129.356532451974346, 35.580962508113103 ], [ 129.35761660674001, 35.582279827258738 ], [ 129.358845608589291, 35.585693284297776 ], [ 129.362642626224698, 35.588236685310463 ], [ 129.36313334653849, 35.588246814398815 ], [ 129.370408390903918, 35.588467508362598 ], [ 129.371939557116178, 35.588906236168597 ], [ 129.374490179110978, 35.589620760724451 ], [ 129.383175252209213, 35.590982645066958 ], [ 129.383903412625926, 35.591024355123416 ], [ 129.38589759983418, 35.590819935774391 ], [ 129.387379615024543, 35.590639137165539 ], [ 129.389890186445342, 35.591291335448929 ], [ 129.391564672212326, 35.591880153568816 ], [ 129.393616856360865, 35.592511752385597 ], [ 129.39677483316251, 35.593205708145142 ], [ 129.397637624071507, 35.593202867300882 ], [ 129.398403126043405, 35.590198465013877 ], [ 129.397760046162972, 35.588987066549265 ], [ 129.396894175025068, 35.585652736440288 ], [ 129.396943002644434, 35.584785767181188 ], [ 129.397019979156994, 35.584243769462617 ], [ 129.398366445875467, 35.5827702747373 ], [ 129.400335503739569, 35.578386431364109 ], [ 129.399703580173991, 35.574054511837119 ], [ 129.399396128876134, 35.572524216916719 ], [ 129.399261815875917, 35.572199620427391 ], [ 129.398489050621293, 35.571573729868042 ], [ 129.39779805758161, 35.571380963664225 ], [ 129.397187858129712, 35.571426316047017 ], [ 129.396657162530175, 35.571449726510927 ], [ 129.395859271403253, 35.571105620232615 ], [ 129.395352895977794, 35.570673870784447 ], [ 129.395350887094821, 35.570262146707655 ], [ 129.39595959087282, 35.569913437108475 ], [ 129.396886231540265, 35.569455334235613 ], [ 129.397877040382383, 35.569203222988364 ] ] ] ] } },
{ "type": "Feature", "properties": { "OBJECTID": 1128, "adm_nm": "울산광역시 북구 송정동", "adm_cd": "2604057", "adm_cd2": "3120057000", "sgg": "31200", "sido": "31", "sidonm": "울산광역시", "sggnm": "북구" }, "geometry": { "type": "MultiPolygon", "coordinates": [ [ [ [ 129.383704645708889, 35.608847099849555 ], [ 129.384955735796922, 35.607555286880789 ], [ 129.385330006436675, 35.607393766700895 ], [ 129.389841294887276, 35.605936354713819 ], [ 129.390591563720875, 35.605977663553965 ], [ 129.39141425164064, 35.60622277989394 ], [ 129.392058072903751, 35.606410172018435 ], [ 129.392665688607934, 35.606495652213049 ], [ 129.393362309826216, 35.606522549531626 ], [ 129.393630198460443, 35.606521676824258 ], [ 129.393788145935417, 35.605952728525949 ], [ 129.394352941909005, 35.603649601315539 ], [ 129.394369737559856, 35.603430898010153 ], [ 129.393990165630697, 35.6024993216529 ], [ 129.393792378030895, 35.602223036502629 ], [ 129.393630951826424, 35.602077809302962 ], [ 129.393219098002533, 35.601845957302615 ], [ 129.393145099036161, 35.601751178699743 ], [ 129.393003454982448, 35.601569717888097 ], [ 129.393001820707241, 35.601234498531362 ], [ 129.393158273795137, 35.600359469923895 ], [ 129.393281987735008, 35.600096705295584 ], [ 129.394560791769749, 35.598678746253285 ], [ 129.396181033921295, 35.597711477230753 ], [ 129.397054792218427, 35.597460837564142 ], [ 129.397333031060469, 35.597275476379266 ], [ 129.3974299375881, 35.597205310375045 ], [ 129.397531419425263, 35.597008150858102 ], [ 129.397705969055977, 35.596129805308927 ], [ 129.397637624071507, 35.593202867300882 ], [ 129.39677483316251, 35.593205708145142 ], [ 129.393616856360865, 35.592511752385597 ], [ 129.391564672212326, 35.591880153568816 ], [ 129.389890186445342, 35.591291335448929 ], [ 129.387379615024543, 35.590639137165539 ], [ 129.38589759983418, 35.590819935774391 ], [ 129.383903412625926, 35.591024355123416 ], [ 129.383175252209213, 35.590982645066958 ], [ 129.374490179110978, 35.589620760724451 ], [ 129.371939557116178, 35.588906236168597 ], [ 129.370408390903918, 35.588467508362598 ], [ 129.36313334653849, 35.588246814398815 ], [ 129.362642626224698, 35.588236685310463 ], [ 129.358845608589291, 35.585693284297776 ], [ 129.35761660674001, 35.582279827258738 ], [ 129.356532451974346, 35.580962508113103 ], [ 129.356244066956663, 35.580706155099357 ], [ 129.354568247483087, 35.579290044544997 ], [ 129.352121604178478, 35.577145894881355 ], [ 129.351548796341035, 35.576542644415923 ], [ 129.350380337875066, 35.57918439185238 ], [ 129.349297223875681, 35.580651409295669 ], [ 129.349279418900267, 35.58067552463897 ], [ 129.349160013261354, 35.581201272733942 ], [ 129.348088997748221, 35.58591703844877 ], [ 129.348133384757091, 35.586459070215774 ], [ 129.348332540259548, 35.588891273416316 ], [ 129.348595792883657, 35.592106018804287 ], [ 129.348439833384646, 35.595281102298152 ], [ 129.348339957722885, 35.59917381567552 ], [ 129.349014662306246, 35.60240759219473 ], [ 129.349343842957921, 35.605244432174658 ], [ 129.350821593402458, 35.60526029032598 ], [ 129.353273386031134, 35.605286562302517 ], [ 129.353873929864051, 35.605721019432593 ], [ 129.356143366993109, 35.606474241816812 ], [ 129.367934408779689, 35.6091243951983 ], [ 129.373915448335993, 35.609983425186556 ], [ 129.379224324106815, 35.610958001187015 ], [ 129.379778183504641, 35.61099999240983 ], [ 129.380063719716929, 35.610955378027157 ], [ 129.382341886702733, 35.609968498474792 ], [ 129.383704645708889, 35.608847099849555 ] ] ] ] } },
{ "type": "Feature", "properties": { "OBJECTID": 1129, "adm_nm": "울산광역시 북구 양정동", "adm_cd": "2604058", "adm_cd2": "3120058000", "sgg": "31200", "sido": "31", "sidonm": "울산광역시", "sggnm": "북구" }, "geometry": { "type": "MultiPolygon", "coordinates": [ [ [ [ 129.412104463038048, 35.560703849570238 ], [ 129.413719712772661, 35.559066319156692 ], [ 129.411542516883742, 35.557393781869131 ], [ 129.408052827072027, 35.556230480781274 ], [ 129.407484049676299, 35.556077779986495 ], [ 129.406005557130669, 35.555742576630252 ], [ 129.405286405979467, 35.555806830434463 ], [ 129.404073763870059, 35.555625342988229 ], [ 129.403049830499981, 35.555319518545055 ], [ 129.400811301546383, 35.554430150204823 ], [ 129.39731960286079, 35.552802670927406 ], [ 129.396634092440166, 35.552000884897865 ], [ 129.39648157737571, 35.551784921377418 ], [ 129.396211376494733, 35.550734384200929 ], [ 129.396110600034575, 35.549139889447446 ], [ 129.396409568471483, 35.548334879795405 ], [ 129.396634770425635, 35.547932124072823 ], [ 129.396413243659225, 35.546647858421132 ], [ 129.395706602123539, 35.544915031506889 ], [ 129.395251682151525, 35.544188084696771 ], [ 129.393778355686919, 35.542336931838392 ], [ 129.391259490883783, 35.540373154268657 ], [ 129.391481555432534, 35.539321018682088 ], [ 129.391300594990412, 35.537884590070981 ], [ 129.38710819344189, 35.535112484443708 ], [ 129.385170104724438, 35.535171628105616 ], [ 129.383169723102839, 35.533642466680362 ], [ 129.38315520795561, 35.533021554536738 ], [ 129.379979222887812, 35.530285877789368 ], [ 129.376297934828926, 35.534642099313068 ], [ 129.378563991265622, 35.536785684013573 ], [ 129.378316821585145, 35.541860986866922 ], [ 129.378755631345598, 35.542939374030006 ], [ 129.378903137028118, 35.543563133046732 ], [ 129.378904171419862, 35.543782468296492 ], [ 129.378001195987309, 35.54553256885162 ], [ 129.377962537408621, 35.545607482117624 ], [ 129.37617221272302, 35.549534179915348 ], [ 129.371262380865005, 35.560496545710592 ], [ 129.372965178703936, 35.560212988463725 ], [ 129.37453455989089, 35.559787786408833 ], [ 129.375158821223948, 35.559618655739428 ], [ 129.376575557404749, 35.559264064832689 ], [ 129.376785266988293, 35.559211581081321 ], [ 129.381367321340718, 35.559662325239884 ], [ 129.381552167088643, 35.559782406394753 ], [ 129.383835130702806, 35.561696121939335 ], [ 129.383987085973502, 35.562290956098835 ], [ 129.384154927069488, 35.562617563227732 ], [ 129.384265031586978, 35.562758640551259 ], [ 129.384437198831876, 35.562855115641 ], [ 129.384838494359343, 35.563053638919484 ], [ 129.38948469744679, 35.564560959784608 ], [ 129.391341688603148, 35.564833288704442 ], [ 129.392559862764131, 35.566128169909199 ], [ 129.392525739226443, 35.566901374383953 ], [ 129.392906711225521, 35.567364001155298 ], [ 129.393581983504788, 35.567856297597778 ], [ 129.39366685435661, 35.567918169913732 ], [ 129.394654698644359, 35.56856435618225 ], [ 129.396474546329017, 35.568960416540357 ], [ 129.397877040382383, 35.569203222988364 ], [ 129.39961596334058, 35.568548072622143 ], [ 129.400027041982071, 35.567433444186094 ], [ 129.402727595060213, 35.562167382977179 ], [ 129.403480810209317, 35.561329910118431 ], [ 129.404387035257201, 35.560801167094226 ], [ 129.40518211363198, 35.560767585766776 ], [ 129.406623916582419, 35.561319385857416 ], [ 129.407723986216837, 35.561686784057059 ], [ 129.408330511364966, 35.561808441735764 ], [ 129.410957717448184, 35.561539610032305 ], [ 129.411675335186004, 35.561166085809347 ], [ 129.412104463038048, 35.560703849570238 ] ] ] ] } },
{ "type": "Feature", "properties": { "OBJECTID": 1130, "adm_nm": "울산광역시 북구 염포동", "adm_cd": "2604059", "adm_cd2": "3120059000", "sgg": "31200", "sido": "31", "sidonm": "울산광역시", "sggnm": "북구" }, "geometry": { "type": "MultiPolygon", "coordinates": [ [ [ [ 129.407731706738844, 35.544741016382659 ], [ 129.408025484151011, 35.543705434514585 ], [ 129.407971472110262, 35.543553418513604 ], [ 129.407292325683443, 35.542656972139952 ], [ 129.407158625858841, 35.542541456113462 ], [ 129.406936188668737, 35.542426254658466 ], [ 129.40683961192164, 35.542407472443365 ], [ 129.406643038921658, 35.542369241563783 ], [ 129.406355823448962, 35.542263993803608 ], [ 129.405972876231374, 35.541997125302387 ], [ 129.405669987930708, 35.541766200310221 ], [ 129.405656841143326, 35.541732351259007 ], [ 129.405625030409766, 35.541650388480861 ], [ 129.405505266826765, 35.540773801994682 ], [ 129.405642302012978, 35.539732898237766 ], [ 129.40574751070946, 35.539478881687096 ], [ 129.406056354638366, 35.539129944958276 ], [ 129.406321224686138, 35.538860879807686 ], [ 129.406435314701099, 35.538606826808298 ], [ 129.406531721978979, 35.538367325904368 ], [ 129.406584090670492, 35.538193202259897 ], [ 129.406644679647741, 35.537888589801028 ], [ 129.406696575004048, 35.537507388085274 ], [ 129.406651286418025, 35.537326336581415 ], [ 129.405902995120499, 35.535019499360878 ], [ 129.404976943326687, 35.533997234093 ], [ 129.404245557791256, 35.533389117848849 ], [ 129.403532879662777, 35.532687019314437 ], [ 129.402587648518931, 35.531469036280711 ], [ 129.402583908375732, 35.530717599490202 ], [ 129.40264078152876, 35.530592155861719 ], [ 129.404927936808946, 35.527727345838649 ], [ 129.405310445264917, 35.527369432969003 ], [ 129.406204732761495, 35.526532648293546 ], [ 129.409117833449187, 35.525194439239854 ], [ 129.410405398847359, 35.524231998024341 ], [ 129.41074382501003, 35.522490707251727 ], [ 129.410708481053774, 35.522108797913141 ], [ 129.410590900288156, 35.521855869547366 ], [ 129.410473790435191, 35.521697942888181 ], [ 129.410279323870043, 35.521571945011715 ], [ 129.410176387713904, 35.52151639525632 ], [ 129.410046088804251, 35.521446088542717 ], [ 129.409618539577764, 35.521225869338416 ], [ 129.409463475668929, 35.521226388551327 ], [ 129.409114580119081, 35.521227576812919 ], [ 129.408973016902877, 35.521240908349846 ], [ 129.408765865105096, 35.521260412956117 ], [ 129.408686286715636, 35.52126068279663 ], [ 129.408610792340113, 35.521260934818578 ], [ 129.407795114985447, 35.520947042981582 ], [ 129.405581876867984, 35.520052404629524 ], [ 129.405542112815709, 35.520036322761335 ], [ 129.405501377755542, 35.519921664233728 ], [ 129.405463474638339, 35.519814939240874 ], [ 129.405428593544855, 35.519675495101758 ], [ 129.405345868588569, 35.519021168713302 ], [ 129.405494417569514, 35.517722407263925 ], [ 129.405609373614368, 35.517564448467155 ], [ 129.406764763401895, 35.516485743249298 ], [ 129.405915946603386, 35.515985384365798 ], [ 129.405401423747804, 35.515982125826049 ], [ 129.400147016016206, 35.519213324604628 ], [ 129.398043708464257, 35.520938189837899 ], [ 129.397540426802806, 35.521311864699882 ], [ 129.396937108693834, 35.521600376664466 ], [ 129.396657571562002, 35.521686285281845 ], [ 129.396056045869614, 35.521803342730593 ], [ 129.395450248508723, 35.521796994276308 ], [ 129.394120189587795, 35.521771998245768 ], [ 129.388811451282066, 35.519590606612987 ], [ 129.385886479986482, 35.524562065333967 ], [ 129.384770344529358, 35.525596516040387 ], [ 129.3831633785299, 35.526906362846127 ], [ 129.382346032332805, 35.52753634913087 ], [ 129.381901642599615, 35.528022275161028 ], [ 129.379979222887812, 35.530285877789368 ], [ 129.38315520795561, 35.533021554536738 ], [ 129.383169723102839, 35.533642466680362 ], [ 129.385170104724438, 35.535171628105616 ], [ 129.38710819344189, 35.535112484443708 ], [ 129.391300594990412, 35.537884590070981 ], [ 129.391481555432534, 35.539321018682088 ], [ 129.391259490883783, 35.540373154268657 ], [ 129.393778355686919, 35.542336931838392 ], [ 129.395251682151525, 35.544188084696771 ], [ 129.395706602123539, 35.544915031506889 ], [ 129.396413243659225, 35.546647858421132 ], [ 129.396634770425635, 35.547932124072823 ], [ 129.396409568471483, 35.548334879795405 ], [ 129.396110600034575, 35.549139889447446 ], [ 129.396211376494733, 35.550734384200929 ], [ 129.39648157737571, 35.551784921377418 ], [ 129.396634092440166, 35.552000884897865 ], [ 129.39731960286079, 35.552802670927406 ], [ 129.400811301546383, 35.554430150204823 ], [ 129.403049830499981, 35.555319518545055 ], [ 129.404073763870059, 35.555625342988229 ], [ 129.405286405979467, 35.555806830434463 ], [ 129.406005557130669, 35.555742576630252 ], [ 129.407484049676299, 35.556077779986495 ], [ 129.408052827072027, 35.556230480781274 ], [ 129.411542516883742, 35.557393781869131 ], [ 129.413719712772661, 35.559066319156692 ], [ 129.413819218495746, 35.556143672547407 ], [ 129.413562279335224, 35.555453712954893 ], [ 129.413472530002792, 35.55528153920698 ], [ 129.413344177175418, 35.555071333712227 ], [ 129.413216901437352, 35.554882836147534 ], [ 129.413070492084358, 35.554708271858807 ], [ 129.411485635966073, 35.552914980935093 ], [ 129.411357264311107, 35.552839254340931 ], [ 129.411118812293893, 35.5527133314163 ], [ 129.410324793970034, 35.552393624256958 ], [ 129.410142242063301, 35.552323916981884 ], [ 129.409945756340932, 35.552254191316507 ], [ 129.40979360908193, 35.552205942382628 ], [ 129.409556048032613, 35.552167156307156 ], [ 129.40931292190308, 35.552130649453588 ], [ 129.409163777234681, 35.552103207412209 ], [ 129.408958896796605, 35.552046035722562 ], [ 129.408453089960204, 35.551848332341194 ], [ 129.408167446119137, 35.551726050738374 ], [ 129.40807967761836, 35.551681497070312 ], [ 129.408012818719072, 35.551644937691897 ], [ 129.407955720169014, 35.551601529252522 ], [ 129.407873589219719, 35.551513795464871 ], [ 129.407801875389765, 35.551430955048836 ], [ 129.40774497462283, 35.551360690435438 ], [ 129.407676629369234, 35.551273680381549 ], [ 129.407616057712175, 35.551193363492253 ], [ 129.407577349985047, 35.551125428820825 ], [ 129.407553642539369, 35.551076208956779 ], [ 129.407213560931865, 35.550172993236551 ], [ 129.407199690666545, 35.550131886187266 ], [ 129.40687711727486, 35.548773157769851 ], [ 129.406813440165394, 35.548500266217474 ], [ 129.406803826014425, 35.548418075370705 ], [ 129.406810882406916, 35.548364420107774 ], [ 129.406852586490288, 35.548302517951953 ], [ 129.407337550781619, 35.547549009833041 ], [ 129.408526229693081, 35.545654120964237 ], [ 129.408548294075757, 35.545572086784937 ], [ 129.408554355110226, 35.545514840279587 ], [ 129.40855584314005, 35.545458905738016 ], [ 129.408523916839187, 35.545369840952581 ], [ 129.408464124402855, 35.545283050982725 ], [ 129.408351352611788, 35.545183670970886 ], [ 129.407731706738844, 35.544741016382659 ] ] ] ] } }
]
}
