{
"type": "FeatureCollection",
"name": "donggu",
"crs": { "type": "name", "properties": { "name": "urn:ogc:def:crs:OGC:1.3:CRS84" } },
"features": [
{ "type": "Feature", "properties": { "OBJECTID": 1114, "adm_nm": "울산광역시 동구 방어동", "adm_cd": "2603051", "adm_cd2": "3117051000", "sgg": "31170", "sido": "31", "sidonm": "울산광역시", "sggnm": "동구" }, "geometry": { "type": "MultiPolygon", "coordinates": [ [ [ [ 129.41081240214055, 35.494823773295181 ], [ 129.412274008509939, 35.494038777386301 ], [ 129.414000087779272, 35.492680966701847 ], [ 129.413970926490038, 35.491729488418109 ], [ 129.415456535779811, 35.490033424689017 ], [ 129.416212663917378, 35.489490243928898 ], [ 129.416648163113507, 35.489221144661727 ], [ 129.416782638534073, 35.489594644388063 ], [ 129.41704998956078, 35.49045034153 ], [ 129.417345353012706, 35.491545016995353 ], [ 129.421602202582278, 35.490720540186139 ], [ 129.422376047415611, 35.49039620739606 ], [ 129.424429934221592, 35.490387441650284 ], [ 129.427163951011494, 35.491354942511109 ], [ 129.427229785014418, 35.491580380726063 ], [ 129.427441704418015, 35.492349717072052 ], [ 129.428891589079257, 35.491538809614035 ], [ 129.432852130299523, 35.489460198497227 ], [ 129.432697127645241, 35.488974147975512 ], [ 129.43240928157735, 35.488495077284234 ], [ 129.432472291248985, 35.488394988209549 ], [ 129.435085055749539, 35.486620230131798 ], [ 129.438070188114381, 35.484645592892925 ], [ 129.437852191601223, 35.48462132968001 ], [ 129.43697961211393, 35.484434248443698 ], [ 129.432150503870361, 35.480428308179839 ], [ 129.431232779812035, 35.478100635799123 ], [ 129.427474815844107, 35.478050332371133 ], [ 129.427478210964182, 35.478163297996446 ], [ 129.427482385232395, 35.478302107233091 ], [ 129.427679182688394, 35.478439860827123 ], [ 129.427986727434757, 35.478417913237308 ], [ 129.428252009692841, 35.478270873247205 ], [ 129.430236877698832, 35.478293912746089 ], [ 129.431092037799743, 35.478544370694642 ], [ 129.431844825139336, 35.480513191328114 ], [ 129.431682454824028, 35.48087861690896 ], [ 129.430449930934714, 35.483539348678157 ], [ 129.429818865931907, 35.484247966907994 ], [ 129.428869442123812, 35.484707975262808 ], [ 129.428081446136588, 35.484771058588116 ], [ 129.425273225878783, 35.484922027352866 ], [ 129.424843497541019, 35.484725951874914 ], [ 129.424478693889057, 35.484449988078978 ], [ 129.424133826114229, 35.484189098338035 ], [ 129.42478484299366, 35.481489777227559 ], [ 129.427743188954366, 35.481209863224208 ], [ 129.42909293352082, 35.479970268203438 ], [ 129.428675864121345, 35.479553510881203 ], [ 129.424655614743983, 35.481035736101887 ], [ 129.42037823326217, 35.48165695330141 ], [ 129.41973819698535, 35.481730864018594 ], [ 129.419551634925426, 35.481752391119869 ], [ 129.418030092318901, 35.481121562333911 ], [ 129.416407607027509, 35.480335256114607 ], [ 129.414866892166685, 35.47838197292625 ], [ 129.416300842644631, 35.476731423394725 ], [ 129.41640145843246, 35.475893136449045 ], [ 129.411649451397409, 35.471588425579775 ], [ 129.410496040760762, 35.471172539403959 ], [ 129.410463647038796, 35.471160861243952 ], [ 129.40928793957508, 35.471071538207582 ], [ 129.406130814386529, 35.471642161380011 ], [ 129.405590861554344, 35.472047766896772 ], [ 129.406798493395399, 35.473208237194974 ], [ 129.404655589561855, 35.476297302560795 ], [ 129.404615493129995, 35.476355038057825 ], [ 129.40402500490913, 35.477382133618399 ], [ 129.403956404989771, 35.486667905172808 ], [ 129.404112636752018, 35.486920781362805 ], [ 129.408018170261101, 35.493240029108549 ], [ 129.403035650344549, 35.499711537500886 ], [ 129.397021486913104, 35.500795257509743 ], [ 129.397820316115286, 35.503754237204241 ], [ 129.402003710902875, 35.503928522125157 ], [ 129.40230421737553, 35.503937619823738 ], [ 129.403000767394957, 35.503958703994073 ], [ 129.406117383529761, 35.50234952974904 ], [ 129.406816715099211, 35.501607413927097 ], [ 129.40712387783671, 35.501258247158681 ], [ 129.407104195681967, 35.50115832180154 ], [ 129.407071926706578, 35.501097496322068 ], [ 129.407301852159378, 35.500217713547535 ], [ 129.40749413091828, 35.499588468103504 ], [ 129.407547003017442, 35.499470412749652 ], [ 129.407612196638155, 35.49935119337561 ], [ 129.407778269183467, 35.499160241223152 ], [ 129.407903977014371, 35.499065833129826 ], [ 129.40834603594385, 35.498823433072303 ], [ 129.408531963595181, 35.498750740771165 ], [ 129.409305573180262, 35.498328401235575 ], [ 129.409728012150396, 35.496980713174977 ], [ 129.410411532552331, 35.495237780395996 ], [ 129.410477553124139, 35.495160680084346 ], [ 129.410538605222058, 35.495089395618223 ], [ 129.41081240214055, 35.494823773295181 ] ] ] ] } },
{ "type": "Feature", "properties": { "OBJECTID": 1115, "adm_nm": "울산광역시 동구 일산동", "adm_cd": "2603052", "adm_cd2": "3117052000", "sgg": "31170", "sido": "31", "sidonm": "울산광역시", "sggnm": "동구" }, "geometry": { "type": "MultiPolygon", "coordinates": [ [ [ [ 129.432494852997735, 35.508302016135538 ], [ 129.432079123854862, 35.505384895359278 ], [ 129.433717698661383, 35.50426423126622 ], [ 129.437257319376357, 35.506730847727738 ], [ 129.441537628452835, 35.507732064681186 ], [ 129.44175860226639, 35.507699768087619 ], [ 129.443491448222346, 35.505740063858909 ], [ 129.443588183552635, 35.504744080844432 ], [ 129.443448612642271, 35.502130244617398 ], [ 129.44310006873593, 35.501594227328113 ], [ 129.442635263885904, 35.501208672110508 ], [ 129.43988304505919, 35.500104148459954 ], [ 129.439091375163002, 35.499897987743893 ], [ 129.434784207740819, 35.499318598822455 ], [ 129.434644473852984, 35.499691567193416 ], [ 129.434324294395964, 35.500092985261283 ], [ 129.433949053041886, 35.500149199255823 ], [ 129.43375174633627, 35.500178593852318 ], [ 129.433049929300495, 35.499945888108535 ], [ 129.432366394809549, 35.499317860072843 ], [ 129.431668767438765, 35.498221065522337 ], [ 129.43121563081246, 35.497218094639621 ], [ 129.431119572749992, 35.496035148492744 ], [ 129.431433531796074, 35.494424251629034 ], [ 129.431981830713141, 35.493573892240285 ], [ 129.43294828972617, 35.492566998638623 ], [ 129.433663130263653, 35.492231683756849 ], [ 129.434296317763597, 35.492194221381062 ], [ 129.439023816044482, 35.493703306679627 ], [ 129.439432660027819, 35.494238122569676 ], [ 129.439507960428955, 35.494730316601498 ], [ 129.439674561422095, 35.495245335061433 ], [ 129.440808691765966, 35.495790166561896 ], [ 129.441565644839557, 35.495848902402919 ], [ 129.442431405403056, 35.495510487854482 ], [ 129.444626495849747, 35.494182384799146 ], [ 129.446525204887365, 35.491050851818045 ], [ 129.446212117105858, 35.490686917219904 ], [ 129.445841651003178, 35.490422897483676 ], [ 129.445388849508475, 35.490432073496038 ], [ 129.444404643647204, 35.49084697915999 ], [ 129.444111005872287, 35.491124475536616 ], [ 129.443970529238413, 35.49147290216905 ], [ 129.443674631626635, 35.491676379293622 ], [ 129.443315375975004, 35.491782397491491 ], [ 129.442618085120102, 35.49169777026264 ], [ 129.441554070461109, 35.491472442202259 ], [ 129.441063617177349, 35.491235516922821 ], [ 129.44072410222978, 35.490995527436695 ], [ 129.440070044671785, 35.490342251242915 ], [ 129.439970545716335, 35.49004805186901 ], [ 129.439559373104743, 35.486437523698008 ], [ 129.439727811648197, 35.486293800595597 ], [ 129.439730048215409, 35.486088474661784 ], [ 129.439509802819032, 35.485796698477444 ], [ 129.439321981101187, 35.485578321943741 ], [ 129.439135668285445, 35.48540930150785 ], [ 129.43851705931047, 35.484928087756856 ], [ 129.438239435341785, 35.484736210660003 ], [ 129.438070188114381, 35.484645592892925 ], [ 129.435085055749539, 35.486620230131798 ], [ 129.432472291248985, 35.488394988209549 ], [ 129.43240928157735, 35.488495077284234 ], [ 129.432697127645241, 35.488974147975512 ], [ 129.432852130299523, 35.489460198497227 ], [ 129.428891589079257, 35.491538809614035 ], [ 129.427441704418015, 35.492349717072052 ], [ 129.427553654410161, 35.492719242786727 ], [ 129.427565532844966, 35.492762282735775 ], [ 129.4277547293932, 35.493447811709402 ], [ 129.428614182367198, 35.496705295223947 ], [ 129.427692007344376, 35.496885249256707 ], [ 129.427658743461876, 35.496891392738704 ], [ 129.426955870480612, 35.496955013056343 ], [ 129.425014635698886, 35.497772830957018 ], [ 129.425181139100289, 35.498488416798693 ], [ 129.425464626421046, 35.499706800352421 ], [ 129.424856163463005, 35.503191943557574 ], [ 129.423872567639506, 35.505202493252398 ], [ 129.423812150971401, 35.505214723086816 ], [ 129.4211445291335, 35.505871721549674 ], [ 129.421084561620376, 35.505924362633039 ], [ 129.42117432306145, 35.506695078478323 ], [ 129.424903039677076, 35.506299050845293 ], [ 129.425329507745062, 35.506246899520598 ], [ 129.42528040151285, 35.505931439415058 ], [ 129.425231827819374, 35.505619379345426 ], [ 129.425890274124498, 35.505553896433916 ], [ 129.42965571874177, 35.505179412379526 ], [ 129.430181842120447, 35.508641473974428 ], [ 129.432494852997735, 35.508302016135538 ] ] ] ] } },
{ "type": "Feature", "properties": { "OBJECTID": 1116, "adm_nm": "울산광역시 동구 화정동", "adm_cd": "2603053", "adm_cd2": "3117053000", "sgg": "31170", "sido": "31", "sidonm": "울산광역시", "sggnm": "동구" }, "geometry": { "type": "MultiPolygon", "coordinates": [ [ [ [ 129.425014635698886, 35.497772830957018 ], [ 129.426955870480612, 35.496955013056343 ], [ 129.427658743461876, 35.496891392738704 ], [ 129.427692007344376, 35.496885249256707 ], [ 129.428614182367198, 35.496705295223947 ], [ 129.4277547293932, 35.493447811709402 ], [ 129.427565532844966, 35.492762282735775 ], [ 129.427553654410161, 35.492719242786727 ], [ 129.427441704418015, 35.492349717072052 ], [ 129.427229785014418, 35.491580380726063 ], [ 129.427163951011494, 35.491354942511109 ], [ 129.424429934221592, 35.490387441650284 ], [ 129.422376047415611, 35.49039620739606 ], [ 129.421602202582278, 35.490720540186139 ], [ 129.417345353012706, 35.491545016995353 ], [ 129.41704998956078, 35.49045034153 ], [ 129.416782638534073, 35.489594644388063 ], [ 129.416648163113507, 35.489221144661727 ], [ 129.416212663917378, 35.489490243928898 ], [ 129.415456535779811, 35.490033424689017 ], [ 129.413970926490038, 35.491729488418109 ], [ 129.414000087779272, 35.492680966701847 ], [ 129.412274008509939, 35.494038777386301 ], [ 129.41081240214055, 35.494823773295181 ], [ 129.411400983769767, 35.494748763927376 ], [ 129.412351610474303, 35.494907454674056 ], [ 129.41758903489216, 35.497824160437666 ], [ 129.417691650792705, 35.498000273069188 ], [ 129.417766503825192, 35.498128739017282 ], [ 129.41991445878736, 35.498619379948998 ], [ 129.420600579441611, 35.498748385796702 ], [ 129.420672121074517, 35.498761223466126 ], [ 129.420763217996779, 35.498758822580172 ], [ 129.422200889331037, 35.498567432395213 ], [ 129.423487386519838, 35.498374788651674 ], [ 129.423586054878967, 35.498347412259612 ], [ 129.423959067774376, 35.498243911951562 ], [ 129.425014635698886, 35.497772830957018 ] ] ] ] } },
{ "type": "Feature", "properties": { "OBJECTID": 1117, "adm_nm": "울산광역시 동구 대송동", "adm_cd": "2603054", "adm_cd2": "3117054000", "sgg": "31170", "sido": "31", "sidonm": "울산광역시", "sggnm": "동구" }, "geometry": { "type": "MultiPolygon", "coordinates": [ [ [ [ 129.406764763401895, 35.516485743249298 ], [ 129.408005866120362, 35.516105441377142 ], [ 129.408586355643081, 35.515913511420152 ], [ 129.408895505155328, 35.515722469320302 ], [ 129.409088518434629, 35.515563499720464 ], [ 129.409397017180339, 35.515245800971812 ], [ 129.409587022786837, 35.515026610031086 ], [ 129.409660783995122, 35.51488646984879 ], [ 129.409773251643969, 35.514731030246857 ], [ 129.409935482976522, 35.51454379067269 ], [ 129.410322812765486, 35.514414538926644 ], [ 129.410748636237088, 35.514348664707633 ], [ 129.410964256286832, 35.514331426164013 ], [ 129.411135990938249, 35.514318041616555 ], [ 129.412610584844202, 35.514345443617152 ], [ 129.41370935091922, 35.514401453445991 ], [ 129.413849111810123, 35.514417895612638 ], [ 129.414083672091351, 35.514495160100481 ], [ 129.414663444769872, 35.514778081630389 ], [ 129.414904537348548, 35.5148191274927 ], [ 129.41520267125631, 35.514769874892579 ], [ 129.418490728192097, 35.513399982997626 ], [ 129.418784205077429, 35.513179203881911 ], [ 129.419753117662708, 35.512363424555836 ], [ 129.41965636927344, 35.510671087812597 ], [ 129.41937639869343, 35.507399900670009 ], [ 129.419244558473906, 35.50694735674896 ], [ 129.419257890642399, 35.506870537598552 ], [ 129.419910318980556, 35.50680983557654 ], [ 129.420260112383005, 35.50677748194758 ], [ 129.420971449324696, 35.506711685696736 ], [ 129.42117432306145, 35.506695078478323 ], [ 129.421084561620376, 35.505924362633039 ], [ 129.4211445291335, 35.505871721549674 ], [ 129.423812150971401, 35.505214723086816 ], [ 129.423872567639506, 35.505202493252398 ], [ 129.424856163463005, 35.503191943557574 ], [ 129.425464626421046, 35.499706800352421 ], [ 129.425181139100289, 35.498488416798693 ], [ 129.425014635698886, 35.497772830957018 ], [ 129.423959067774376, 35.498243911951562 ], [ 129.423586054878967, 35.498347412259612 ], [ 129.423487386519838, 35.498374788651674 ], [ 129.422200889331037, 35.498567432395213 ], [ 129.420763217996779, 35.498758822580172 ], [ 129.420672121074517, 35.498761223466126 ], [ 129.420600579441611, 35.498748385796702 ], [ 129.41991445878736, 35.498619379948998 ], [ 129.417766503825192, 35.498128739017282 ], [ 129.417691650792705, 35.498000273069188 ], [ 129.41758903489216, 35.497824160437666 ], [ 129.412351610474303, 35.494907454674056 ], [ 129.411400983769767, 35.494748763927376 ], [ 129.41081240214055, 35.494823773295181 ], [ 129.410538605222058, 35.495089395618223 ], [ 129.410477553124139, 35.495160680084346 ], [ 129.410411532552331, 35.495237780395996 ], [ 129.409728012150396, 35.496980713174977 ], [ 129.409305573180262, 35.498328401235575 ], [ 129.408531963595181, 35.498750740771165 ], [ 129.40834603594385, 35.498823433072303 ], [ 129.407903977014371, 35.499065833129826 ], [ 129.407778269183467, 35.499160241223152 ], [ 129.407612196638155, 35.49935119337561 ], [ 129.407547003017442, 35.499470412749652 ], [ 129.40749413091828, 35.499588468103504 ], [ 129.407301852159378, 35.500217713547535 ], [ 129.407071926706578, 35.501097496322068 ], [ 129.407104195681967, 35.50115832180154 ], [ 129.40712387783671, 35.501258247158681 ], [ 129.406816715099211, 35.501607413927097 ], [ 129.406117383529761, 35.50234952974904 ], [ 129.403000767394957, 35.503958703994073 ], [ 129.40230421737553, 35.503937619823738 ], [ 129.402003710902875, 35.503928522125157 ], [ 129.397820316115286, 35.503754237204241 ], [ 129.397021486913104, 35.500795257509743 ], [ 129.394044863784018, 35.501329840092097 ], [ 129.393680844631717, 35.501098363114558 ], [ 129.390855945250024, 35.499281844223773 ], [ 129.3907296434964, 35.499506145198772 ], [ 129.390521614562147, 35.500437916463 ], [ 129.389732785463679, 35.503970985344267 ], [ 129.389749242382351, 35.504198091397697 ], [ 129.390294717361428, 35.510706067004421 ], [ 129.390376479212307, 35.519377237185402 ], [ 129.388811451282066, 35.519590606612987 ], [ 129.394120189587795, 35.521771998245768 ], [ 129.395450248508723, 35.521796994276308 ], [ 129.396056045869614, 35.521803342730593 ], [ 129.396657571562002, 35.521686285281845 ], [ 129.396937108693834, 35.521600376664466 ], [ 129.397540426802806, 35.521311864699882 ], [ 129.398043708464257, 35.520938189837899 ], [ 129.400147016016206, 35.519213324604628 ], [ 129.405401423747804, 35.515982125826049 ], [ 129.405915946603386, 35.515985384365798 ], [ 129.406764763401895, 35.516485743249298 ] ] ] ] } },
{ "type": "Feature", "properties": { "OBJECTID": 1118, "adm_nm": "울산광역시 동구 전하1동", "adm_cd": "2603055", "adm_cd2": "3117055000", "sgg": "31170", "sido": "31", "sidonm": "울산광역시", "sggnm": "동구" }, "geometry": { "type": "MultiPolygon", "coordinates": [ [ [ [ 129.453246622501126, 35.544467809726875 ], [ 129.452531009273656, 35.54339024137353 ], [ 129.453585657040151, 35.542861022189605 ], [ 129.45398099484845, 35.542232354599442 ], [ 129.45201058331412, 35.538774389375106 ], [ 129.451477584577646, 35.53714906471513 ], [ 129.451312080912345, 35.536249695370998 ], [ 129.451970865788923, 35.534064138839057 ], [ 129.45471751630879, 35.526847710029109 ], [ 129.454093636366991, 35.52612247082638 ], [ 129.450329564393627, 35.527789783995082 ], [ 129.448558630755457, 35.529311137699139 ], [ 129.445273680257657, 35.529106624353638 ], [ 129.438825015526675, 35.528561518966633 ], [ 129.438914684932655, 35.519464426445921 ], [ 129.439572071057086, 35.519507491329115 ], [ 129.439563150955422, 35.520353983882373 ], [ 129.440106018471909, 35.522317718657064 ], [ 129.445842471510275, 35.522455427984575 ], [ 129.446653670834309, 35.52415985552134 ], [ 129.446705516996786, 35.524722931790933 ], [ 129.44733842160403, 35.526233442014963 ], [ 129.450621317342751, 35.525312977108484 ], [ 129.448392973363042, 35.52034600153484 ], [ 129.446923766482485, 35.515984727316273 ], [ 129.445494809905966, 35.510992285903839 ], [ 129.442045812704464, 35.508833555490803 ], [ 129.441522253087015, 35.508646845459381 ], [ 129.441305959093029, 35.510625762706084 ], [ 129.434658894611857, 35.511183234720058 ], [ 129.433623933325435, 35.511204117040755 ], [ 129.432958111337427, 35.510879018636267 ], [ 129.432494852997735, 35.508302016135538 ], [ 129.430181842120447, 35.508641473974428 ], [ 129.430765709935287, 35.512204574932952 ], [ 129.427460713916872, 35.51257604071931 ], [ 129.426336261673868, 35.512698193548594 ], [ 129.425384698359437, 35.512779062664755 ], [ 129.425080650139847, 35.512770238305443 ], [ 129.419753117662708, 35.512363424555836 ], [ 129.418784205077429, 35.513179203881911 ], [ 129.418490728192097, 35.513399982997626 ], [ 129.41520267125631, 35.514769874892579 ], [ 129.414904537348548, 35.5148191274927 ], [ 129.414663444769872, 35.514778081630389 ], [ 129.414083672091351, 35.514495160100481 ], [ 129.413849111810123, 35.514417895612638 ], [ 129.41370935091922, 35.514401453445991 ], [ 129.412610584844202, 35.514345443617152 ], [ 129.411135990938249, 35.514318041616555 ], [ 129.410964256286832, 35.514331426164013 ], [ 129.410748636237088, 35.514348664707633 ], [ 129.410322812765486, 35.514414538926644 ], [ 129.409935482976522, 35.51454379067269 ], [ 129.409773251643969, 35.514731030246857 ], [ 129.409660783995122, 35.51488646984879 ], [ 129.409587022786837, 35.515026610031086 ], [ 129.409397017180339, 35.515245800971812 ], [ 129.409088518434629, 35.515563499720464 ], [ 129.408895505155328, 35.515722469320302 ], [ 129.408586355643081, 35.515913511420152 ], [ 129.408005866120362, 35.516105441377142 ], [ 129.406764763401895, 35.516485743249298 ], [ 129.405609373614368, 35.517564448467155 ], [ 129.405494417569514, 35.517722407263925 ], [ 129.405345868588569, 35.519021168713302 ], [ 129.405428593544855, 35.519675495101758 ], [ 129.405463474638339, 35.519814939240874 ], [ 129.405501377755542, 35.519921664233728 ], [ 129.405542112815709, 35.520036322761335 ], [ 129.405581876867984, 35.520052404629524 ], [ 129.407795114985447, 35.520947042981582 ], [ 129.408610792340113, 35.521260934818578 ], [ 129.408686286715636, 35.52126068279663 ], [ 129.408765865105096, 35.521260412956117 ], [ 129.408973016902877, 35.521240908349846 ], [ 129.409114580119081, 35.521227576812919 ], [ 129.409463475668929, 35.521226388551327 ], [ 129.409618539577764, 35.521225869338416 ], [ 129.410046088804251, 35.521446088542717 ], [ 129.410176387713904, 35.52151639525632 ], [ 129.410279323870043, 35.521571945011715 ], [ 129.410473790435191, 35.521697942888181 ], [ 129.410590900288156, 35.521855869547366 ], [ 129.410708481053774, 35.522108797913141 ], [ 129.41074382501003, 35.522490707251727 ], [ 129.411784362716844, 35.522314570510957 ], [ 129.414924640969133, 35.521915466040255 ], [ 129.415632902915803, 35.52381063640992 ], [ 129.416180114584648, 35.524442515408793 ], [ 129.417697148630054, 35.525869376392507 ], [ 129.418189621843425, 35.526096635874467 ], [ 129.419473054168719, 35.525094050096229 ], [ 129.420048412007731, 35.524297910465187 ], [ 129.421183546478971, 35.522892613597364 ], [ 129.421906262674952, 35.522538174641731 ], [ 129.428011202386813, 35.520698233607362 ], [ 129.431433994952727, 35.519721435897651 ], [ 129.432741197783599, 35.522408501150956 ], [ 129.432862631211549, 35.523092138487193 ], [ 129.432882513214423, 35.523204077008259 ], [ 129.432900512464016, 35.523311031573279 ], [ 129.433024108802897, 35.524050642199832 ], [ 129.433063441356296, 35.524410482741843 ], [ 129.433115539453041, 35.524887708143744 ], [ 129.433184255522917, 35.525517845913562 ], [ 129.433249956625332, 35.526412992850759 ], [ 129.433117525974353, 35.531125725801722 ], [ 129.433114522371113, 35.531158839064361 ], [ 129.433070925515722, 35.531638647610272 ], [ 129.433025318668598, 35.532141611733856 ], [ 129.433022362906144, 35.532174147265437 ], [ 129.433011482175488, 35.532292911816228 ], [ 129.430525131085659, 35.535299241606737 ], [ 129.428907321637013, 35.537240363617236 ], [ 129.428861535047076, 35.537294809181439 ], [ 129.430716357891839, 35.538193208864556 ], [ 129.431548954982446, 35.537017099230098 ], [ 129.43336089216632, 35.534603845168732 ], [ 129.434193277547735, 35.53515435344562 ], [ 129.43482002469716, 35.535568851612716 ], [ 129.436073063775922, 35.538568707667856 ], [ 129.436711989490448, 35.540168692034683 ], [ 129.440451032649264, 35.543215294111988 ], [ 129.442057561452003, 35.544327136891326 ], [ 129.443470336964282, 35.544895832305023 ], [ 129.444336251855191, 35.544232958429781 ], [ 129.44609528132915, 35.543169559327275 ], [ 129.447612528337231, 35.544000236736501 ], [ 129.449372987095899, 35.54495556668185 ], [ 129.450527548936435, 35.545130701078442 ], [ 129.45208159076293, 35.544914631581037 ], [ 129.452613138257988, 35.544719037864077 ], [ 129.453081806746553, 35.544545368021538 ], [ 129.453141415157063, 35.544521909103857 ], [ 129.453246622501126, 35.544467809726875 ] ] ] ] } },
{ "type": "Feature", "properties": { "OBJECTID": 1119, "adm_nm": "울산광역시 동구 남목1동", "adm_cd": "2603058", "adm_cd2": "3117058000", "sgg": "31170", "sido": "31", "sidonm": "울산광역시", "sggnm": "동구" }, "geometry": { "type": "MultiPolygon", "coordinates": [ [ [ [ 129.430716357891839, 35.538193208864556 ], [ 129.428861535047076, 35.537294809181439 ], [ 129.428432245978627, 35.537804757240693 ], [ 129.427922822736178, 35.538409885267548 ], [ 129.427203897685928, 35.538932918468092 ], [ 129.42709495121187, 35.539012177981299 ], [ 129.427040125016362, 35.539033625643832 ], [ 129.42515117588411, 35.538425028915583 ], [ 129.424082681834932, 35.537787662985124 ], [ 129.423033738970588, 35.53661348498251 ], [ 129.422865330696425, 35.536399377146772 ], [ 129.419246333807394, 35.535707234280807 ], [ 129.418677682811023, 35.535436305344156 ], [ 129.415649650917544, 35.533530823795843 ], [ 129.413222802652342, 35.531710616713802 ], [ 129.410151480260566, 35.52913140094784 ], [ 129.406627675567194, 35.526957317100383 ], [ 129.406204732761495, 35.526532648293546 ], [ 129.405310445264917, 35.527369432969003 ], [ 129.404927936808946, 35.527727345838649 ], [ 129.40264078152876, 35.530592155861719 ], [ 129.402583908375732, 35.530717599490202 ], [ 129.402587648518931, 35.531469036280711 ], [ 129.403532879662777, 35.532687019314437 ], [ 129.404245557791256, 35.533389117848849 ], [ 129.404976943326687, 35.533997234093 ], [ 129.405902995120499, 35.535019499360878 ], [ 129.406651286418025, 35.537326336581415 ], [ 129.406696575004048, 35.537507388085274 ], [ 129.406644679647741, 35.537888589801028 ], [ 129.406584090670492, 35.538193202259897 ], [ 129.406531721978979, 35.538367325904368 ], [ 129.406435314701099, 35.538606826808298 ], [ 129.406321224686138, 35.538860879807686 ], [ 129.406056354638366, 35.539129944958276 ], [ 129.40574751070946, 35.539478881687096 ], [ 129.405642302012978, 35.539732898237766 ], [ 129.405505266826765, 35.540773801994682 ], [ 129.405625030409766, 35.541650388480861 ], [ 129.405656841143326, 35.541732351259007 ], [ 129.405669987930708, 35.541766200310221 ], [ 129.405972876231374, 35.541997125302387 ], [ 129.406355823448962, 35.542263993803608 ], [ 129.406643038921658, 35.542369241563783 ], [ 129.40683961192164, 35.542407472443365 ], [ 129.406936188668737, 35.542426254658466 ], [ 129.407158625858841, 35.542541456113462 ], [ 129.407292325683443, 35.542656972139952 ], [ 129.407971472110262, 35.543553418513604 ], [ 129.408025484151011, 35.543705434514585 ], [ 129.407731706738844, 35.544741016382659 ], [ 129.409566869105049, 35.544337567959303 ], [ 129.41019361367205, 35.544317933515195 ], [ 129.410431355168157, 35.544310485192831 ], [ 129.410903229609517, 35.544462758815044 ], [ 129.413404789441245, 35.545749276139183 ], [ 129.414642678554202, 35.546808450739384 ], [ 129.41580547066593, 35.546965393906085 ], [ 129.42250137064309, 35.547682855959344 ], [ 129.424098896292634, 35.547780771550499 ], [ 129.425033326346039, 35.547674089118928 ], [ 129.425800222709768, 35.547253424774077 ], [ 129.427132447666907, 35.546279426400986 ], [ 129.426993649647244, 35.546084459278326 ], [ 129.426615435627212, 35.54589239830274 ], [ 129.426581211068509, 35.545877905639529 ], [ 129.42584903288261, 35.54464666918895 ], [ 129.426105424134562, 35.542704312146519 ], [ 129.427083284045807, 35.542257260331453 ], [ 129.429074357013036, 35.542205584599301 ], [ 129.429417378492843, 35.54218839622655 ], [ 129.42940778479516, 35.541652680654209 ], [ 129.429397668980613, 35.541088208451804 ], [ 129.429363180475633, 35.539162367288789 ], [ 129.430716357891839, 35.538193208864556 ] ] ] ] } },
{ "type": "Feature", "properties": { "OBJECTID": 1120, "adm_nm": "울산광역시 동구 남목2동", "adm_cd": "2603059", "adm_cd2": "3117059000", "sgg": "31170", "sido": "31", "sidonm": "울산광역시", "sggnm": "동구" }, "geometry": { "type": "MultiPolygon", "coordinates": [ [ [ [ 129.428861535047076, 35.537294809181439 ], [ 129.428907321637013, 35.537240363617236 ], [ 129.430525131085659, 35.535299241606737 ], [ 129.433011482175488, 35.532292911816228 ], [ 129.433022362906144, 35.532174147265437 ], [ 129.433025318668598, 35.532141611733856 ], [ 129.433070925515722, 35.531638647610272 ], [ 129.433114522371113, 35.531158839064361 ], [ 129.433117525974353, 35.531125725801722 ], [ 129.433249956625332, 35.526412992850759 ], [ 129.433184255522917, 35.525517845913562 ], [ 129.433115539453041, 35.524887708143744 ], [ 129.433063441356296, 35.524410482741843 ], [ 129.433024108802897, 35.524050642199832 ], [ 129.432900512464016, 35.523311031573279 ], [ 129.432882513214423, 35.523204077008259 ], [ 129.432862631211549, 35.523092138487193 ], [ 129.432741197783599, 35.522408501150956 ], [ 129.431433994952727, 35.519721435897651 ], [ 129.428011202386813, 35.520698233607362 ], [ 129.421906262674952, 35.522538174641731 ], [ 129.421183546478971, 35.522892613597364 ], [ 129.420048412007731, 35.524297910465187 ], [ 129.419473054168719, 35.525094050096229 ], [ 129.418189621843425, 35.526096635874467 ], [ 129.417697148630054, 35.525869376392507 ], [ 129.416180114584648, 35.524442515408793 ], [ 129.415632902915803, 35.52381063640992 ], [ 129.414924640969133, 35.521915466040255 ], [ 129.411784362716844, 35.522314570510957 ], [ 129.41074382501003, 35.522490707251727 ], [ 129.410405398847359, 35.524231998024341 ], [ 129.409117833449187, 35.525194439239854 ], [ 129.406204732761495, 35.526532648293546 ], [ 129.406627675567194, 35.526957317100383 ], [ 129.410151480260566, 35.52913140094784 ], [ 129.413222802652342, 35.531710616713802 ], [ 129.415649650917544, 35.533530823795843 ], [ 129.418677682811023, 35.535436305344156 ], [ 129.419246333807394, 35.535707234280807 ], [ 129.422865330696425, 35.536399377146772 ], [ 129.423033738970588, 35.53661348498251 ], [ 129.424082681834932, 35.537787662985124 ], [ 129.42515117588411, 35.538425028915583 ], [ 129.427040125016362, 35.539033625643832 ], [ 129.42709495121187, 35.539012177981299 ], [ 129.427203897685928, 35.538932918468092 ], [ 129.427922822736178, 35.538409885267548 ], [ 129.428432245978627, 35.537804757240693 ], [ 129.428861535047076, 35.537294809181439 ] ] ] ] } },
{ "type": "Feature", "properties": { "OBJECTID": 1121, "adm_nm": "울산광역시 동구 남목3동", "adm_cd": "2603060", "adm_cd2": "3117060000", "sgg": "31170", "sido": "31", "sidonm": "울산광역시", "sggnm": "동구" }, "geometry": { "type": "MultiPolygon", "coordinates": [ [ [ [ 129.453246622501126, 35.544467809726875 ], [ 129.453141415157063, 35.544521909103857 ], [ 129.453081806746553, 35.544545368021538 ], [ 129.452613138257988, 35.544719037864077 ], [ 129.45208159076293, 35.544914631581037 ], [ 129.450527548936435, 35.545130701078442 ], [ 129.449372987095899, 35.54495556668185 ], [ 129.447612528337231, 35.544000236736501 ], [ 129.44609528132915, 35.543169559327275 ], [ 129.444336251855191, 35.544232958429781 ], [ 129.443470336964282, 35.544895832305023 ], [ 129.442057561452003, 35.544327136891326 ], [ 129.440451032649264, 35.543215294111988 ], [ 129.436711989490448, 35.540168692034683 ], [ 129.436073063775922, 35.538568707667856 ], [ 129.43482002469716, 35.535568851612716 ], [ 129.434193277547735, 35.53515435344562 ], [ 129.43336089216632, 35.534603845168732 ], [ 129.431548954982446, 35.537017099230098 ], [ 129.430716357891839, 35.538193208864556 ], [ 129.429363180475633, 35.539162367288789 ], [ 129.429397668980613, 35.541088208451804 ], [ 129.42940778479516, 35.541652680654209 ], [ 129.429417378492843, 35.54218839622655 ], [ 129.429074357013036, 35.542205584599301 ], [ 129.427083284045807, 35.542257260331453 ], [ 129.426105424134562, 35.542704312146519 ], [ 129.42584903288261, 35.54464666918895 ], [ 129.426581211068509, 35.545877905639529 ], [ 129.426615435627212, 35.54589239830274 ], [ 129.426993649647244, 35.546084459278326 ], [ 129.427132447666907, 35.546279426400986 ], [ 129.425800222709768, 35.547253424774077 ], [ 129.425033326346039, 35.547674089118928 ], [ 129.424098896292634, 35.547780771550499 ], [ 129.42250137064309, 35.547682855959344 ], [ 129.41580547066593, 35.546965393906085 ], [ 129.414642678554202, 35.546808450739384 ], [ 129.413404789441245, 35.545749276139183 ], [ 129.410903229609517, 35.544462758815044 ], [ 129.410431355168157, 35.544310485192831 ], [ 129.41019361367205, 35.544317933515195 ], [ 129.409566869105049, 35.544337567959303 ], [ 129.407731706738844, 35.544741016382659 ], [ 129.408351352611788, 35.545183670970886 ], [ 129.408464124402855, 35.545283050982725 ], [ 129.408523916839187, 35.545369840952581 ], [ 129.40855584314005, 35.545458905738016 ], [ 129.408554355110226, 35.545514840279587 ], [ 129.408548294075757, 35.545572086784937 ], [ 129.408526229693081, 35.545654120964237 ], [ 129.407337550781619, 35.547549009833041 ], [ 129.406852586490288, 35.548302517951953 ], [ 129.406810882406916, 35.548364420107774 ], [ 129.406803826014425, 35.548418075370705 ], [ 129.406813440165394, 35.548500266217474 ], [ 129.40687711727486, 35.548773157769851 ], [ 129.407199690666545, 35.550131886187266 ], [ 129.407213560931865, 35.550172993236551 ], [ 129.407553642539369, 35.551076208956779 ], [ 129.407577349985047, 35.551125428820825 ], [ 129.407616057712175, 35.551193363492253 ], [ 129.407676629369234, 35.551273680381549 ], [ 129.40774497462283, 35.551360690435438 ], [ 129.407801875389765, 35.551430955048836 ], [ 129.407873589219719, 35.551513795464871 ], [ 129.407955720169014, 35.551601529252522 ], [ 129.408012818719072, 35.551644937691897 ], [ 129.40807967761836, 35.551681497070312 ], [ 129.408167446119137, 35.551726050738374 ], [ 129.408453089960204, 35.551848332341194 ], [ 129.408958896796605, 35.552046035722562 ], [ 129.409163777234681, 35.552103207412209 ], [ 129.40931292190308, 35.552130649453588 ], [ 129.409556048032613, 35.552167156307156 ], [ 129.40979360908193, 35.552205942382628 ], [ 129.409945756340932, 35.552254191316507 ], [ 129.410142242063301, 35.552323916981884 ], [ 129.410324793970034, 35.552393624256958 ], [ 129.411118812293893, 35.5527133314163 ], [ 129.411357264311107, 35.552839254340931 ], [ 129.411485635966073, 35.552914980935093 ], [ 129.413070492084358, 35.554708271858807 ], [ 129.413216901437352, 35.554882836147534 ], [ 129.413344177175418, 35.555071333712227 ], [ 129.413472530002792, 35.55528153920698 ], [ 129.413562279335224, 35.555453712954893 ], [ 129.413819218495746, 35.556143672547407 ], [ 129.413719712772661, 35.559066319156692 ], [ 129.412104463038048, 35.560703849570238 ], [ 129.412345904310854, 35.560629683198478 ], [ 129.413393486691973, 35.560973051199937 ], [ 129.416233514196023, 35.562810416387478 ], [ 129.417216740207152, 35.563340798927804 ], [ 129.422010522036032, 35.564308313616849 ], [ 129.427163119505082, 35.565361109548178 ], [ 129.428471143184936, 35.565703231650048 ], [ 129.428734576422841, 35.566234320702655 ], [ 129.429164876863638, 35.567061109610769 ], [ 129.430114580846407, 35.567218842774523 ], [ 129.431584930794941, 35.567133540878572 ], [ 129.433054858065674, 35.566968158218707 ], [ 129.434936249170107, 35.566781867904893 ], [ 129.436800102091496, 35.566935274191884 ], [ 129.43765103849023, 35.567517381275415 ], [ 129.438283034248883, 35.567875521429215 ], [ 129.439975837605942, 35.568282915981605 ], [ 129.440368334679533, 35.56833487203636 ], [ 129.440695324582578, 35.568360362836628 ], [ 129.440826062379614, 35.568359895390095 ], [ 129.44396217800778, 35.568054839791216 ], [ 129.444744973538832, 35.567758404742676 ], [ 129.444841130269054, 35.567411100009224 ], [ 129.445036788647997, 35.567330303268022 ], [ 129.449531302260226, 35.570329486921437 ], [ 129.451795397598801, 35.571895659010075 ], [ 129.452806949033629, 35.572683150344155 ], [ 129.453402066454061, 35.570374955609516 ], [ 129.45438991758391, 35.56824753721606 ], [ 129.455633149672536, 35.565972690698153 ], [ 129.455907548840287, 35.565595710151356 ], [ 129.456286183501589, 35.565227222031318 ], [ 129.458351484295378, 35.558838843678735 ], [ 129.457962063469267, 35.554596036559204 ], [ 129.456468103952574, 35.552052264233069 ], [ 129.456031170467611, 35.551785276475272 ], [ 129.455665614281884, 35.551107793814381 ], [ 129.45562056230213, 35.551024247142102 ], [ 129.45545794330485, 35.550537386973758 ], [ 129.455343731391764, 35.549746743990895 ], [ 129.454047776033917, 35.546067111332533 ], [ 129.453246622501126, 35.544467809726875 ] ] ] ] } },
{ "type": "Feature", "properties": { "OBJECTID": 1122, "adm_nm": "울산광역시 동구 전하2동", "adm_cd": "2603061", "adm_cd2": "3117056000", "sgg": "31170", "sido": "31", "sidonm": "울산광역시", "sggnm": "동구" }, "geometry": { "type": "MultiPolygon", "coordinates": [ [ [ [ 129.430181842120447, 35.508641473974428 ], [ 129.42965571874177, 35.505179412379526 ], [ 129.425890274124498, 35.505553896433916 ], [ 129.425231827819374, 35.505619379345426 ], [ 129.42528040151285, 35.505931439415058 ], [ 129.425329507745062, 35.506246899520598 ], [ 129.424903039677076, 35.506299050845293 ], [ 129.42117432306145, 35.506695078478323 ], [ 129.420971449324696, 35.506711685696736 ], [ 129.420260112383005, 35.50677748194758 ], [ 129.419910318980556, 35.50680983557654 ], [ 129.419257890642399, 35.506870537598552 ], [ 129.419244558473906, 35.50694735674896 ], [ 129.41937639869343, 35.507399900670009 ], [ 129.41965636927344, 35.510671087812597 ], [ 129.419753117662708, 35.512363424555836 ], [ 129.425080650139847, 35.512770238305443 ], [ 129.425384698359437, 35.512779062664755 ], [ 129.426336261673868, 35.512698193548594 ], [ 129.427460713916872, 35.51257604071931 ], [ 129.430765709935287, 35.512204574932952 ], [ 129.430181842120447, 35.508641473974428 ] ] ] ] } }
]
}
