{
"type": "FeatureCollection",
"name": "junggu",
"crs": { "type": "name", "properties": { "name": "urn:ogc:def:crs:OGC:1.3:CRS84" } },
"features": [
{ "type": "Feature", "properties": { "OBJECTID": 1087, "adm_nm": "울산광역시 중구 학성동", "adm_cd": "2601051", "adm_cd2": "3111051000", "sgg": "31110", "sido": "31", "sidonm": "울산광역시", "sggnm": "중구" }, "geometry": { "type": "MultiPolygon", "coordinates": [ [ [ [ 129.331495551383114, 35.561006093956628 ], [ 129.332693955998735, 35.560524257823324 ], [ 129.335860005430249, 35.559188987526674 ], [ 129.338217382972886, 35.556668071399756 ], [ 129.339756094193831, 35.556446857056798 ], [ 129.341106514630411, 35.556032753818862 ], [ 129.34101337916033, 35.555303623977359 ], [ 129.340982839555323, 35.55506896688933 ], [ 129.340779864544317, 35.553509714927785 ], [ 129.340542216170604, 35.551683896766953 ], [ 129.340538380741208, 35.551654424573194 ], [ 129.340477021434509, 35.551136135043883 ], [ 129.340450773182425, 35.550900648527225 ], [ 129.340279411730506, 35.549253343573433 ], [ 129.330986289748409, 35.549962291519066 ], [ 129.331291276898924, 35.551745875922549 ], [ 129.331313100888849, 35.55187678007092 ], [ 129.331582232911813, 35.554001310200761 ], [ 129.331656990524436, 35.554627337349103 ], [ 129.331742378650006, 35.555342460508506 ], [ 129.330280725011761, 35.555314903392208 ], [ 129.328396030818197, 35.556145898105221 ], [ 129.328215736981463, 35.556408448415489 ], [ 129.328242154032694, 35.558602619563317 ], [ 129.330837015059899, 35.558005260013232 ], [ 129.330906664168992, 35.558064523013158 ], [ 129.331172705746269, 35.558559777626293 ], [ 129.331211889854586, 35.558647946830128 ], [ 129.331224678762766, 35.558737994622412 ], [ 129.33119278416936, 35.559670164908539 ], [ 129.331175411643329, 35.560739309856629 ], [ 129.33118682903725, 35.56098245037051 ], [ 129.331254394382768, 35.561060943319553 ], [ 129.331495551383114, 35.561006093956628 ] ] ] ] } },
{ "type": "Feature", "properties": { "OBJECTID": 1088, "adm_nm": "울산광역시 중구 반구1동", "adm_cd": "2601052", "adm_cd2": "3111052000", "sgg": "31110", "sido": "31", "sidonm": "울산광역시", "sggnm": "중구" }, "geometry": { "type": "MultiPolygon", "coordinates": [ [ [ [ 129.35404650538004, 35.548023249427516 ], [ 129.353028703656889, 35.548435530732817 ], [ 129.351621952401814, 35.548810768650874 ], [ 129.348238366914444, 35.549639157617108 ], [ 129.347185695884832, 35.549612023594769 ], [ 129.346268051796756, 35.549588358400122 ], [ 129.344911782958945, 35.549507045042212 ], [ 129.344695035932091, 35.549494037643605 ], [ 129.341547497618109, 35.549156928221734 ], [ 129.340279411730506, 35.549253343573433 ], [ 129.340450773182425, 35.550900648527225 ], [ 129.340477021434509, 35.551136135043883 ], [ 129.340538380741208, 35.551654424573194 ], [ 129.340542216170604, 35.551683896766953 ], [ 129.340779864544317, 35.553509714927785 ], [ 129.340982839555323, 35.55506896688933 ], [ 129.34101337916033, 35.555303623977359 ], [ 129.341106514630411, 35.556032753818862 ], [ 129.339756094193831, 35.556446857056798 ], [ 129.338217382972886, 35.556668071399756 ], [ 129.33988157755914, 35.558072951877378 ], [ 129.340968863626614, 35.558648975482761 ], [ 129.343642994622343, 35.559318496030528 ], [ 129.345918758976865, 35.560464444273208 ], [ 129.346189581486414, 35.56059240134541 ], [ 129.346491012485103, 35.560650868542197 ], [ 129.347178646628862, 35.560654628892486 ], [ 129.348360222414328, 35.560661077740178 ], [ 129.349610410612968, 35.560667888259914 ], [ 129.35294939045724, 35.560686007741417 ], [ 129.351221017676636, 35.558691044016776 ], [ 129.350573899887024, 35.558008248824109 ], [ 129.350136479239325, 35.557546690414092 ], [ 129.350063187928157, 35.556968835732675 ], [ 129.349916693249099, 35.555813718783973 ], [ 129.350832343067282, 35.552798909647521 ], [ 129.351582544044732, 35.55127249233518 ], [ 129.352723990522378, 35.548949928124124 ], [ 129.35404650538004, 35.548023249427516 ] ] ] ] } },
{ "type": "Feature", "properties": { "OBJECTID": 1089, "adm_nm": "울산광역시 중구 반구2동", "adm_cd": "2601053", "adm_cd2": "3111053000", "sgg": "31110", "sido": "31", "sidonm": "울산광역시", "sggnm": "중구" }, "geometry": { "type": "MultiPolygon", "coordinates": [ [ [ [ 129.343642994622343, 35.559318496030528 ], [ 129.340968863626614, 35.558648975482761 ], [ 129.33988157755914, 35.558072951877378 ], [ 129.338217382972886, 35.556668071399756 ], [ 129.335860005430249, 35.559188987526674 ], [ 129.336399277839973, 35.560444644331447 ], [ 129.334999045439787, 35.563413897272909 ], [ 129.33590406767604, 35.564211279795693 ], [ 129.337127327841642, 35.564961981811948 ], [ 129.337280631144324, 35.565056049498487 ], [ 129.34067884905599, 35.567024016743098 ], [ 129.341298408907022, 35.567381716772559 ], [ 129.341772145615124, 35.567638698075356 ], [ 129.342763890393712, 35.56817186524723 ], [ 129.343281908435245, 35.568186579260832 ], [ 129.342575743730578, 35.567069493062277 ], [ 129.342508500755798, 35.566900030727282 ], [ 129.34247865006833, 35.566723659101548 ], [ 129.341977354960136, 35.56306052625667 ], [ 129.342014188706003, 35.561528305455155 ], [ 129.343642994622343, 35.559318496030528 ] ] ] ] } },
{ "type": "Feature", "properties": { "OBJECTID": 1090, "adm_nm": "울산광역시 중구 복산1동", "adm_cd": "2601054", "adm_cd2": "3111054000", "sgg": "31110", "sido": "31", "sidonm": "울산광역시", "sggnm": "중구" }, "geometry": { "type": "MultiPolygon", "coordinates": [ [ [ [ 129.325909335883892, 35.571256529161253 ], [ 129.325862357280272, 35.571227470383455 ], [ 129.325733393896172, 35.571084781501597 ], [ 129.325679242112813, 35.571015121848625 ], [ 129.325651891372218, 35.570837681850641 ], [ 129.325620168086317, 35.570065063716562 ], [ 129.325631447500257, 35.569999251214789 ], [ 129.325670009493052, 35.569858175754916 ], [ 129.325871026276843, 35.569165903575644 ], [ 129.325909682033284, 35.569039882729676 ], [ 129.325938105200549, 35.568947224023006 ], [ 129.325984910809268, 35.568844608180207 ], [ 129.326188424848596, 35.568398431460167 ], [ 129.326859490756362, 35.567173660211893 ], [ 129.328194006387292, 35.564752797412815 ], [ 129.328235733313761, 35.564690123425187 ], [ 129.330347308894062, 35.56230053958101 ], [ 129.330764533584443, 35.561829000068911 ], [ 129.331095767487739, 35.561456132290346 ], [ 129.331495551383114, 35.561006093956628 ], [ 129.331254394382768, 35.561060943319553 ], [ 129.33118682903725, 35.56098245037051 ], [ 129.331175411643329, 35.560739309856629 ], [ 129.33119278416936, 35.559670164908539 ], [ 129.331224678762766, 35.558737994622412 ], [ 129.331211889854586, 35.558647946830128 ], [ 129.331172705746269, 35.558559777626293 ], [ 129.330906664168992, 35.558064523013158 ], [ 129.330837015059899, 35.558005260013232 ], [ 129.328242154032694, 35.558602619563317 ], [ 129.328108292514599, 35.559410616004698 ], [ 129.326525931820925, 35.559030838845935 ], [ 129.325488546509376, 35.558622905144212 ], [ 129.325008911914779, 35.558429063809335 ], [ 129.324151177942468, 35.558044259685758 ], [ 129.323590469720756, 35.557790986734197 ], [ 129.323286249558805, 35.558439584019695 ], [ 129.322827075787217, 35.5594323565875 ], [ 129.322540137700486, 35.560257759246511 ], [ 129.32252108307901, 35.560314262936039 ], [ 129.322501682728188, 35.560377570149356 ], [ 129.322476276612662, 35.560495801713813 ], [ 129.322664773036877, 35.561415205747451 ], [ 129.322994348887477, 35.562495479549078 ], [ 129.323254442349395, 35.563251744525907 ], [ 129.3226956207304, 35.568604054812397 ], [ 129.322640803317967, 35.571150572308035 ], [ 129.325093059328509, 35.571790707627891 ], [ 129.325909335883892, 35.571256529161253 ] ] ] ] } },
{ "type": "Feature", "properties": { "OBJECTID": 1091, "adm_nm": "울산광역시 중구 복산2동", "adm_cd": "2601055", "adm_cd2": "3111055000", "sgg": "31110", "sido": "31", "sidonm": "울산광역시", "sggnm": "중구" }, "geometry": { "type": "MultiPolygon", "coordinates": [ [ [ [ 129.33590406767604, 35.564211279795693 ], [ 129.334999045439787, 35.563413897272909 ], [ 129.336399277839973, 35.560444644331447 ], [ 129.335860005430249, 35.559188987526674 ], [ 129.332693955998735, 35.560524257823324 ], [ 129.331495551383114, 35.561006093956628 ], [ 129.331095767487739, 35.561456132290346 ], [ 129.330764533584443, 35.561829000068911 ], [ 129.330347308894062, 35.56230053958101 ], [ 129.328235733313761, 35.564690123425187 ], [ 129.328194006387292, 35.564752797412815 ], [ 129.326859490756362, 35.567173660211893 ], [ 129.326188424848596, 35.568398431460167 ], [ 129.325984910809268, 35.568844608180207 ], [ 129.325938105200549, 35.568947224023006 ], [ 129.325909682033284, 35.569039882729676 ], [ 129.325871026276843, 35.569165903575644 ], [ 129.325670009493052, 35.569858175754916 ], [ 129.325631447500257, 35.569999251214789 ], [ 129.325620168086317, 35.570065063716562 ], [ 129.325651891372218, 35.570837681850641 ], [ 129.325679242112813, 35.571015121848625 ], [ 129.325733393896172, 35.571084781501597 ], [ 129.325862357280272, 35.571227470383455 ], [ 129.325909335883892, 35.571256529161253 ], [ 129.330109143342128, 35.568567131615573 ], [ 129.331354066940861, 35.569350103514694 ], [ 129.33351213511645, 35.570920390281543 ], [ 129.333752207574605, 35.570781752858643 ], [ 129.333902285359841, 35.570695084353936 ], [ 129.333998621296871, 35.570470656373523 ], [ 129.334280182973714, 35.569090556618249 ], [ 129.334212018452263, 35.568021926180826 ], [ 129.334070899058787, 35.56790809117517 ], [ 129.333946423098865, 35.567843672254654 ], [ 129.333360022849661, 35.567529536778899 ], [ 129.333130925317249, 35.567404390788809 ], [ 129.335427313593499, 35.56474604656357 ], [ 129.335641979236755, 35.564505253056026 ], [ 129.33590406767604, 35.564211279795693 ] ] ] ] } },
{ "type": "Feature", "properties": { "OBJECTID": 1092, "adm_nm": "울산광역시 중구 우정동", "adm_cd": "2601059", "adm_cd2": "3111059000", "sgg": "31110", "sido": "31", "sidonm": "울산광역시", "sggnm": "중구" }, "geometry": { "type": "MultiPolygon", "coordinates": [ [ [ [ 129.314088172058121, 35.562762931690663 ], [ 129.313644369529555, 35.562667048389613 ], [ 129.313265372655906, 35.562558792448954 ], [ 129.315621109993145, 35.55786102589596 ], [ 129.317044634894813, 35.55561084308583 ], [ 129.316841769438213, 35.555334539262525 ], [ 129.316494941823777, 35.554863902725621 ], [ 129.315804220359155, 35.554013498025213 ], [ 129.315419807949894, 35.553779579420102 ], [ 129.314404138041368, 35.553179145391468 ], [ 129.314344300937023, 35.553166360189948 ], [ 129.313025521364921, 35.55288486488611 ], [ 129.312030712741148, 35.552768304445543 ], [ 129.311953736429444, 35.552779434134131 ], [ 129.311410959710201, 35.552857916399091 ], [ 129.310321641033795, 35.553034987979494 ], [ 129.310006715292644, 35.553086230043107 ], [ 129.308963110212432, 35.553340927479866 ], [ 129.309479520707924, 35.55584573075749 ], [ 129.308325189354861, 35.556376159212938 ], [ 129.306642378725144, 35.556531484327238 ], [ 129.306412825227284, 35.557400264417517 ], [ 129.306360896558971, 35.557726081949923 ], [ 129.306356235690657, 35.55791013560232 ], [ 129.306337153503222, 35.560854140999652 ], [ 129.306403561029782, 35.563302164439946 ], [ 129.306467518445857, 35.563891271859326 ], [ 129.30643249633215, 35.564744324032787 ], [ 129.306329529391519, 35.565443602768894 ], [ 129.306112143192053, 35.566819826079524 ], [ 129.306046800466106, 35.567072435713975 ], [ 129.305545220892469, 35.568865758915386 ], [ 129.305427795998042, 35.569092496120113 ], [ 129.304067140763351, 35.571489095217338 ], [ 129.304026720284071, 35.572847378925154 ], [ 129.305027838731888, 35.573597256862662 ], [ 129.30654948393834, 35.572560876155556 ], [ 129.306882276675537, 35.572382812722303 ], [ 129.307656070151722, 35.572266774515604 ], [ 129.308465872983135, 35.572211164780548 ], [ 129.308690642730625, 35.572275508646712 ], [ 129.309004985186874, 35.572398155193653 ], [ 129.309376738444655, 35.572614861856941 ], [ 129.309701098655665, 35.572807673173806 ], [ 129.309880649011973, 35.572903411941169 ], [ 129.310596166829725, 35.572747562828319 ], [ 129.313366661242611, 35.571449338800832 ], [ 129.313211190703356, 35.57000512136144 ], [ 129.312960886346076, 35.569449410579544 ], [ 129.312654063292285, 35.568302535285333 ], [ 129.312593248187397, 35.567712910790981 ], [ 129.312270767041269, 35.564427475983429 ], [ 129.312633432508449, 35.563191271486851 ], [ 129.313266699557829, 35.562939951933714 ], [ 129.314088172058121, 35.562762931690663 ] ] ] ] } },
{ "type": "Feature", "properties": { "OBJECTID": 1093, "adm_nm": "울산광역시 중구 태화동", "adm_cd": "2601060", "adm_cd2": "3111060000", "sgg": "31110", "sido": "31", "sidonm": "울산광역시", "sggnm": "중구" }, "geometry": { "type": "MultiPolygon", "coordinates": [ [ [ [ 129.287596475493075, 35.578065803278179 ], [ 129.288747334388916, 35.577922621733947 ], [ 129.293547934354763, 35.576843702326819 ], [ 129.294163826500096, 35.576609438701119 ], [ 129.29710925135663, 35.575328297805875 ], [ 129.297508086748905, 35.575110351242564 ], [ 129.297758070333657, 35.574940759924907 ], [ 129.29797943489811, 35.574774297833983 ], [ 129.298548750846123, 35.574324927031043 ], [ 129.298714071286724, 35.574187354243946 ], [ 129.301922683883134, 35.572840723544729 ], [ 129.304026720284071, 35.572847378925154 ], [ 129.304067140763351, 35.571489095217338 ], [ 129.305427795998042, 35.569092496120113 ], [ 129.305545220892469, 35.568865758915386 ], [ 129.306046800466106, 35.567072435713975 ], [ 129.306112143192053, 35.566819826079524 ], [ 129.306329529391519, 35.565443602768894 ], [ 129.30643249633215, 35.564744324032787 ], [ 129.306467518445857, 35.563891271859326 ], [ 129.306403561029782, 35.563302164439946 ], [ 129.306337153503222, 35.560854140999652 ], [ 129.306356235690657, 35.55791013560232 ], [ 129.306360896558971, 35.557726081949923 ], [ 129.306412825227284, 35.557400264417517 ], [ 129.306642378725144, 35.556531484327238 ], [ 129.308325189354861, 35.556376159212938 ], [ 129.309479520707924, 35.55584573075749 ], [ 129.308963110212432, 35.553340927479866 ], [ 129.308742776120511, 35.55228424713286 ], [ 129.307815395913053, 35.552593858844268 ], [ 129.307429615673897, 35.552674207444539 ], [ 129.306686958202761, 35.552828872058278 ], [ 129.30559095244115, 35.552790678777725 ], [ 129.304719744250349, 35.552471943596657 ], [ 129.304561977442319, 35.552331362155755 ], [ 129.304539683073727, 35.552307021431346 ], [ 129.303677822050673, 35.550726765526726 ], [ 129.303208734873579, 35.549865317926859 ], [ 129.303335810719034, 35.548585845821215 ], [ 129.303407375038461, 35.54786520919383 ], [ 129.303392179830098, 35.547235698423101 ], [ 129.303386155204436, 35.546986314590072 ], [ 129.302885450757515, 35.546413800680909 ], [ 129.302504086950222, 35.545977736956985 ], [ 129.301944006890977, 35.545804555510749 ], [ 129.301517111503699, 35.545672557516788 ], [ 129.299049744213079, 35.544916913438705 ], [ 129.298473473828523, 35.544785714621639 ], [ 129.298063095387789, 35.544692295174173 ], [ 129.297794260667388, 35.544700267700442 ], [ 129.29640338355307, 35.544968205374552 ], [ 129.294577750497581, 35.545319888834761 ], [ 129.292620724189192, 35.545702478973176 ], [ 129.29175512508354, 35.546512913825687 ], [ 129.289523030789724, 35.548602665200626 ], [ 129.290810992871798, 35.549509685235932 ], [ 129.294068481799599, 35.553839408758591 ], [ 129.294102035060575, 35.553908855362302 ], [ 129.294186352370815, 35.554083378147602 ], [ 129.29419745503543, 35.554266170361458 ], [ 129.294158150179356, 35.554490308186907 ], [ 129.294136324893458, 35.554561095615476 ], [ 129.294049293750618, 35.554843357782865 ], [ 129.292835819674224, 35.557485024644194 ], [ 129.291039119688577, 35.557027068349356 ], [ 129.289966627447058, 35.556811102622405 ], [ 129.288678106481001, 35.560191451450557 ], [ 129.288389864329901, 35.561327071298585 ], [ 129.288690874601429, 35.562553421204491 ], [ 129.28710299726913, 35.563212953755396 ], [ 129.286080699605463, 35.563454761648039 ], [ 129.285529914774258, 35.563447811316713 ], [ 129.285060769284598, 35.563441888727645 ], [ 129.284277452077646, 35.563274403008364 ], [ 129.28344712849605, 35.562851845375512 ], [ 129.281811131799941, 35.562705273272115 ], [ 129.281227785546321, 35.562906011075256 ], [ 129.278170138708305, 35.566356968204687 ], [ 129.278064076902069, 35.566653610636735 ], [ 129.277120585054178, 35.569943070769092 ], [ 129.277132962173255, 35.570591384121876 ], [ 129.277533467404396, 35.573138439380926 ], [ 129.277714704136031, 35.573486144250758 ], [ 129.279813787398552, 35.575068665289947 ], [ 129.284320436199266, 35.578427807921663 ], [ 129.286107722491977, 35.57779368723584 ], [ 129.287596475493075, 35.578065803278179 ] ] ] ] } },
{ "type": "Feature", "properties": { "OBJECTID": 1094, "adm_nm": "울산광역시 중구 다운동", "adm_cd": "2601061", "adm_cd2": "3111061000", "sgg": "31110", "sido": "31", "sidonm": "울산광역시", "sggnm": "중구" }, "geometry": { "type": "MultiPolygon", "coordinates": [ [ [ [ 129.283895052494643, 35.583990485642332 ], [ 129.285059487276101, 35.580531030690942 ], [ 129.285343862696351, 35.57903818025504 ], [ 129.285390797113337, 35.578965370881512 ], [ 129.285456398003959, 35.57887185297843 ], [ 129.285522585553139, 35.578804765982845 ], [ 129.285617142925759, 35.578756491495049 ], [ 129.287596475493075, 35.578065803278179 ], [ 129.286107722491977, 35.57779368723584 ], [ 129.284320436199266, 35.578427807921663 ], [ 129.279813787398552, 35.575068665289947 ], [ 129.277714704136031, 35.573486144250758 ], [ 129.277533467404396, 35.573138439380926 ], [ 129.277132962173255, 35.570591384121876 ], [ 129.277120585054178, 35.569943070769092 ], [ 129.278064076902069, 35.566653610636735 ], [ 129.278170138708305, 35.566356968204687 ], [ 129.281227785546321, 35.562906011075256 ], [ 129.281811131799941, 35.562705273272115 ], [ 129.28344712849605, 35.562851845375512 ], [ 129.284277452077646, 35.563274403008364 ], [ 129.285060769284598, 35.563441888727645 ], [ 129.285529914774258, 35.563447811316713 ], [ 129.286080699605463, 35.563454761648039 ], [ 129.28710299726913, 35.563212953755396 ], [ 129.288690874601429, 35.562553421204491 ], [ 129.288389864329901, 35.561327071298585 ], [ 129.288678106481001, 35.560191451450557 ], [ 129.289966627447058, 35.556811102622405 ], [ 129.291039119688577, 35.557027068349356 ], [ 129.292835819674224, 35.557485024644194 ], [ 129.294049293750618, 35.554843357782865 ], [ 129.294136324893458, 35.554561095615476 ], [ 129.294158150179356, 35.554490308186907 ], [ 129.29419745503543, 35.554266170361458 ], [ 129.294186352370815, 35.554083378147602 ], [ 129.294102035060575, 35.553908855362302 ], [ 129.294068481799599, 35.553839408758591 ], [ 129.290810992871798, 35.549509685235932 ], [ 129.289523030789724, 35.548602665200626 ], [ 129.287178157148418, 35.550202478144683 ], [ 129.281413517078875, 35.552375153952468 ], [ 129.280544439938353, 35.552637086967351 ], [ 129.27908222122241, 35.553077769990729 ], [ 129.278830711157923, 35.553105676806524 ], [ 129.275516545930799, 35.55347327309299 ], [ 129.274287821752608, 35.553388159513467 ], [ 129.272562970954453, 35.553268648189615 ], [ 129.271834816553252, 35.553218195336683 ], [ 129.271026383049019, 35.553365322921309 ], [ 129.270829812664175, 35.553401100137009 ], [ 129.27069397186051, 35.553445843985415 ], [ 129.27036115554435, 35.553555578467382 ], [ 129.269728124582457, 35.553815735821424 ], [ 129.269167400703566, 35.554075868113316 ], [ 129.269060070426832, 35.554125663920956 ], [ 129.267745594993869, 35.554890966095911 ], [ 129.267572836471658, 35.555030293670939 ], [ 129.267319291503753, 35.555252103796754 ], [ 129.267003582162204, 35.555529118822449 ], [ 129.266941049844064, 35.555583987028101 ], [ 129.266651069122929, 35.555868032697362 ], [ 129.265117737448094, 35.557279005010052 ], [ 129.265191661371261, 35.557395391562729 ], [ 129.262293106946601, 35.561091222494753 ], [ 129.261069520728284, 35.562455373617603 ], [ 129.260810229875517, 35.565486357766488 ], [ 129.260944867144133, 35.566221932027318 ], [ 129.261483985790875, 35.567423084796793 ], [ 129.261887394315977, 35.568969816955821 ], [ 129.261889123548031, 35.569499261672448 ], [ 129.261598724141237, 35.572106371659991 ], [ 129.261301859162671, 35.572717904108728 ], [ 129.259170386615153, 35.575899140180276 ], [ 129.256948823105773, 35.578487448705822 ], [ 129.256908706919603, 35.578503929182808 ], [ 129.256909279669003, 35.578684370811359 ], [ 129.256980907358979, 35.57910251147198 ], [ 129.257082414460143, 35.579438585591397 ], [ 129.257112808716045, 35.579520537681908 ], [ 129.257807463887474, 35.58003577965836 ], [ 129.257968478901773, 35.580133861834597 ], [ 129.259366484726513, 35.58072962176233 ], [ 129.260099188457303, 35.58093645651514 ], [ 129.261878878460351, 35.581167117958408 ], [ 129.262099845441924, 35.581166656402992 ], [ 129.262170964046476, 35.581154400615802 ], [ 129.26234076746573, 35.581125125116017 ], [ 129.263313497383251, 35.580655500139351 ], [ 129.265483824698805, 35.580913230073655 ], [ 129.265297822263165, 35.582389994590919 ], [ 129.265298630615263, 35.582636041216993 ], [ 129.265370268409782, 35.583037779022916 ], [ 129.26601754446358, 35.58438968856305 ], [ 129.266786147105677, 35.585979167909969 ], [ 129.267058796590362, 35.586413267394498 ], [ 129.267331121420568, 35.5867571489444 ], [ 129.267472207436043, 35.586896278661399 ], [ 129.267783986436768, 35.587010416597671 ], [ 129.270226105376025, 35.587390488152764 ], [ 129.270557549361655, 35.587381545182971 ], [ 129.271009344488419, 35.587314929398083 ], [ 129.271310312449998, 35.587207622514967 ], [ 129.271751710748902, 35.587034384834908 ], [ 129.272523289819389, 35.586483133292099 ], [ 129.272704354667326, 35.58637544836904 ], [ 129.273032228594445, 35.586220538020264 ], [ 129.273285818032718, 35.58612645991213 ], [ 129.27356439371377, 35.586056731269601 ], [ 129.277823156445407, 35.585193314026874 ], [ 129.28216561243687, 35.583915130635795 ], [ 129.283895052494643, 35.583990485642332 ] ] ] ] } },
{ "type": "Feature", "properties": { "OBJECTID": 1095, "adm_nm": "울산광역시 중구 병영1동", "adm_cd": "2601062", "adm_cd2": "3111062000", "sgg": "31110", "sido": "31", "sidonm": "울산광역시", "sggnm": "중구" }, "geometry": { "type": "MultiPolygon", "coordinates": [ [ [ [ 129.35228749273827, 35.572179805668419 ], [ 129.352044128513967, 35.56983361642223 ], [ 129.351915012110965, 35.568588613730178 ], [ 129.353306902500407, 35.5646305217955 ], [ 129.353356751961883, 35.564488759688707 ], [ 129.353769118201541, 35.56169210118302 ], [ 129.352991581071251, 35.56073778892101 ], [ 129.35294939045724, 35.560686007741417 ], [ 129.349610410612968, 35.560667888259914 ], [ 129.348360222414328, 35.560661077740178 ], [ 129.347178646628862, 35.560654628892486 ], [ 129.346491012485103, 35.560650868542197 ], [ 129.346189581486414, 35.56059240134541 ], [ 129.345918758976865, 35.560464444273208 ], [ 129.343642994622343, 35.559318496030528 ], [ 129.342014188706003, 35.561528305455155 ], [ 129.341977354960136, 35.56306052625667 ], [ 129.34247865006833, 35.566723659101548 ], [ 129.342508500755798, 35.566900030727282 ], [ 129.342575743730578, 35.567069493062277 ], [ 129.343281908435245, 35.568186579260832 ], [ 129.340911120258227, 35.568883706694912 ], [ 129.340832836281834, 35.568944010724167 ], [ 129.340752329967586, 35.569011017098582 ], [ 129.340365897836421, 35.569543842787581 ], [ 129.340228947283464, 35.569935550271964 ], [ 129.34021585590753, 35.569972997757525 ], [ 129.339709332962286, 35.571541192725611 ], [ 129.339293791863128, 35.572864240170588 ], [ 129.338842702911251, 35.574450072454489 ], [ 129.339088709197341, 35.574622560260266 ], [ 129.339987049026888, 35.575252421993845 ], [ 129.341395111104276, 35.577296145524748 ], [ 129.34137462895302, 35.577051436317198 ], [ 129.342327537877139, 35.57452141465064 ], [ 129.342399157849911, 35.574361393118153 ], [ 129.342643960871499, 35.574141797048966 ], [ 129.343023357165862, 35.573903690534621 ], [ 129.343588729903843, 35.573563525259395 ], [ 129.343628130710471, 35.573529017728433 ], [ 129.343700713244289, 35.573465442808171 ], [ 129.344398928946589, 35.572609432281311 ], [ 129.344621909891941, 35.572149339660911 ], [ 129.344664103683954, 35.571952205071092 ], [ 129.344645411506804, 35.571834592180331 ], [ 129.346947429446573, 35.57122279862611 ], [ 129.349734805261733, 35.57191828667812 ], [ 129.351534748050881, 35.572206634003223 ], [ 129.35228749273827, 35.572179805668419 ] ] ] ] } },
{ "type": "Feature", "properties": { "OBJECTID": 1096, "adm_nm": "울산광역시 중구 병영2동", "adm_cd": "2601063", "adm_cd2": "3111063000", "sgg": "31110", "sido": "31", "sidonm": "울산광역시", "sggnm": "중구" }, "geometry": { "type": "MultiPolygon", "coordinates": [ [ [ [ 129.348439833384646, 35.595281102298152 ], [ 129.348595792883657, 35.592106018804287 ], [ 129.348332540259548, 35.588891273416316 ], [ 129.348133384757091, 35.586459070215774 ], [ 129.348088997748221, 35.58591703844877 ], [ 129.349160013261354, 35.581201272733942 ], [ 129.349279418900267, 35.58067552463897 ], [ 129.349297223875681, 35.580651409295669 ], [ 129.350380337875066, 35.57918439185238 ], [ 129.351548796341035, 35.576542644415923 ], [ 129.35228749273827, 35.572179805668419 ], [ 129.351534748050881, 35.572206634003223 ], [ 129.349734805261733, 35.57191828667812 ], [ 129.346947429446573, 35.57122279862611 ], [ 129.344645411506804, 35.571834592180331 ], [ 129.344664103683954, 35.571952205071092 ], [ 129.344621909891941, 35.572149339660911 ], [ 129.344398928946589, 35.572609432281311 ], [ 129.343700713244289, 35.573465442808171 ], [ 129.343628130710471, 35.573529017728433 ], [ 129.343588729903843, 35.573563525259395 ], [ 129.343023357165862, 35.573903690534621 ], [ 129.342643960871499, 35.574141797048966 ], [ 129.342399157849911, 35.574361393118153 ], [ 129.342327537877139, 35.57452141465064 ], [ 129.34137462895302, 35.577051436317198 ], [ 129.341395111104276, 35.577296145524748 ], [ 129.340582708131706, 35.577713389278756 ], [ 129.338434035401576, 35.579560216242641 ], [ 129.334187196985567, 35.582204815381353 ], [ 129.331070204318451, 35.583778401201485 ], [ 129.330850447052569, 35.583792184462666 ], [ 129.330688415579033, 35.58384341877769 ], [ 129.33050608501577, 35.583907422788975 ], [ 129.330344740638793, 35.583971505307119 ], [ 129.330053771388975, 35.584094427094882 ], [ 129.329786529953566, 35.584242972912087 ], [ 129.329401592264503, 35.584494667907656 ], [ 129.32903324830977, 35.584958428295295 ], [ 129.326604045027437, 35.58825569874314 ], [ 129.326533611923082, 35.58840815208687 ], [ 129.326495522533463, 35.588643446806493 ], [ 129.326604096422614, 35.590544930859522 ], [ 129.326513130816608, 35.592654723267223 ], [ 129.326023036010469, 35.594176440714548 ], [ 129.326038198635047, 35.594622554867954 ], [ 129.326037585461989, 35.594922424125812 ], [ 129.325975179625857, 35.595076847821858 ], [ 129.325801329983278, 35.595264171476977 ], [ 129.325075579578595, 35.595932365063696 ], [ 129.324871891327547, 35.59611617820407 ], [ 129.323956822370434, 35.596716034396962 ], [ 129.323608019118552, 35.596932166176849 ], [ 129.323249098016703, 35.597081451022177 ], [ 129.322900572919679, 35.597171408930606 ], [ 129.322684891395483, 35.597187199520882 ], [ 129.322491352079254, 35.597136629325568 ], [ 129.322474180049454, 35.597200848287144 ], [ 129.322607802297483, 35.598050815498397 ], [ 129.323782531274304, 35.598738552097672 ], [ 129.32495304458854, 35.598363402009596 ], [ 129.325993296392937, 35.597988593270266 ], [ 129.331037425353173, 35.599089492014521 ], [ 129.331918736194581, 35.598078791470364 ], [ 129.330933602070559, 35.596008827151202 ], [ 129.331321415685665, 35.595316879932817 ], [ 129.332749847502612, 35.594356357136249 ], [ 129.334500357164984, 35.593720194229526 ], [ 129.334960154282157, 35.593553097522836 ], [ 129.335742114726543, 35.593710357346168 ], [ 129.337243436128631, 35.594662793262536 ], [ 129.338224073838234, 35.595616665511926 ], [ 129.339120372739842, 35.5959496662989 ], [ 129.339775994856495, 35.59610413560705 ], [ 129.341352614184672, 35.596405060004926 ], [ 129.347094480519701, 35.595547326184295 ], [ 129.348439833384646, 35.595281102298152 ] ] ] ] } },
{ "type": "Feature", "properties": { "OBJECTID": 1097, "adm_nm": "울산광역시 중구 약사동", "adm_cd": "2601064", "adm_cd2": "3111064000", "sgg": "31110", "sido": "31", "sidonm": "울산광역시", "sggnm": "중구" }, "geometry": { "type": "MultiPolygon", "coordinates": [ [ [ [ 129.341395111104276, 35.577296145524748 ], [ 129.339987049026888, 35.575252421993845 ], [ 129.339088709197341, 35.574622560260266 ], [ 129.338842702911251, 35.574450072454489 ], [ 129.339293791863128, 35.572864240170588 ], [ 129.339709332962286, 35.571541192725611 ], [ 129.34021585590753, 35.569972997757525 ], [ 129.340228947283464, 35.569935550271964 ], [ 129.340365897836421, 35.569543842787581 ], [ 129.340752329967586, 35.569011017098582 ], [ 129.340832836281834, 35.568944010724167 ], [ 129.340911120258227, 35.568883706694912 ], [ 129.343281908435245, 35.568186579260832 ], [ 129.342763890393712, 35.56817186524723 ], [ 129.341772145615124, 35.567638698075356 ], [ 129.341298408907022, 35.567381716772559 ], [ 129.34067884905599, 35.567024016743098 ], [ 129.337280631144324, 35.565056049498487 ], [ 129.337127327841642, 35.564961981811948 ], [ 129.33590406767604, 35.564211279795693 ], [ 129.335641979236755, 35.564505253056026 ], [ 129.335427313593499, 35.56474604656357 ], [ 129.333130925317249, 35.567404390788809 ], [ 129.333360022849661, 35.567529536778899 ], [ 129.333946423098865, 35.567843672254654 ], [ 129.334070899058787, 35.56790809117517 ], [ 129.334212018452263, 35.568021926180826 ], [ 129.334280182973714, 35.569090556618249 ], [ 129.333998621296871, 35.570470656373523 ], [ 129.333902285359841, 35.570695084353936 ], [ 129.333752207574605, 35.570781752858643 ], [ 129.33351213511645, 35.570920390281543 ], [ 129.331354066940861, 35.569350103514694 ], [ 129.330109143342128, 35.568567131615573 ], [ 129.325909335883892, 35.571256529161253 ], [ 129.325093059328509, 35.571790707627891 ], [ 129.325305603861125, 35.572177227379278 ], [ 129.325494011356255, 35.572462783567595 ], [ 129.326693056600362, 35.573115241812083 ], [ 129.327346877800068, 35.573310749944589 ], [ 129.327499450959294, 35.573352344299785 ], [ 129.327968606566685, 35.573547397530632 ], [ 129.328251621872425, 35.573750217770417 ], [ 129.328545990712087, 35.574154955369018 ], [ 129.328547936882558, 35.574327645001681 ], [ 129.32850604707923, 35.574399561111349 ], [ 129.328185004842823, 35.574754904325175 ], [ 129.326567255695409, 35.576155523485433 ], [ 129.324910585686069, 35.577489717929033 ], [ 129.324661231871971, 35.57788541318665 ], [ 129.325270218657607, 35.57863305022186 ], [ 129.326299797125046, 35.579931513624139 ], [ 129.326680958471201, 35.582725896977387 ], [ 129.32525629908713, 35.583627777039943 ], [ 129.325140943403341, 35.583686102137818 ], [ 129.324936645301648, 35.583781090805132 ], [ 129.323674569657726, 35.584870700136968 ], [ 129.322765574098298, 35.586419410940522 ], [ 129.320828511132561, 35.589273601873806 ], [ 129.319531196344371, 35.5906789696527 ], [ 129.318400485581691, 35.591353899374674 ], [ 129.317976991661368, 35.59377788588435 ], [ 129.317993409697465, 35.593833619980039 ], [ 129.318090838105888, 35.5939627530351 ], [ 129.318207352077451, 35.594057273971977 ], [ 129.318927558240517, 35.593889293604008 ], [ 129.319764834264248, 35.593861764412473 ], [ 129.321349462861917, 35.594591731881593 ], [ 129.321535225666167, 35.594780012331761 ], [ 129.321972267316852, 35.595222972806269 ], [ 129.322598731540097, 35.59676558008379 ], [ 129.322491352079254, 35.597136629325568 ], [ 129.322684891395483, 35.597187199520882 ], [ 129.322900572919679, 35.597171408930606 ], [ 129.323249098016703, 35.597081451022177 ], [ 129.323608019118552, 35.596932166176849 ], [ 129.323956822370434, 35.596716034396962 ], [ 129.324871891327547, 35.59611617820407 ], [ 129.325075579578595, 35.595932365063696 ], [ 129.325801329983278, 35.595264171476977 ], [ 129.325975179625857, 35.595076847821858 ], [ 129.326037585461989, 35.594922424125812 ], [ 129.326038198635047, 35.594622554867954 ], [ 129.326023036010469, 35.594176440714548 ], [ 129.326513130816608, 35.592654723267223 ], [ 129.326604096422614, 35.590544930859522 ], [ 129.326495522533463, 35.588643446806493 ], [ 129.326533611923082, 35.58840815208687 ], [ 129.326604045027437, 35.58825569874314 ], [ 129.32903324830977, 35.584958428295295 ], [ 129.329401592264503, 35.584494667907656 ], [ 129.329786529953566, 35.584242972912087 ], [ 129.330053771388975, 35.584094427094882 ], [ 129.330344740638793, 35.583971505307119 ], [ 129.33050608501577, 35.583907422788975 ], [ 129.330688415579033, 35.58384341877769 ], [ 129.330850447052569, 35.583792184462666 ], [ 129.331070204318451, 35.583778401201485 ], [ 129.334187196985567, 35.582204815381353 ], [ 129.338434035401576, 35.579560216242641 ], [ 129.340582708131706, 35.577713389278756 ], [ 129.341395111104276, 35.577296145524748 ] ] ] ] } },
{ "type": "Feature", "properties": { "OBJECTID": 1098, "adm_nm": "울산광역시 중구 성안동", "adm_cd": "2601066", "adm_cd2": "3111065000", "sgg": "31110", "sido": "31", "sidonm": "울산광역시", "sggnm": "중구" }, "geometry": { "type": "MultiPolygon", "coordinates": [ [ [ [ 129.318207352077451, 35.594057273971977 ], [ 129.318090838105888, 35.5939627530351 ], [ 129.317993409697465, 35.593833619980039 ], [ 129.317976991661368, 35.59377788588435 ], [ 129.318400485581691, 35.591353899374674 ], [ 129.319531196344371, 35.5906789696527 ], [ 129.320828511132561, 35.589273601873806 ], [ 129.322765574098298, 35.586419410940522 ], [ 129.323674569657726, 35.584870700136968 ], [ 129.324936645301648, 35.583781090805132 ], [ 129.325140943403341, 35.583686102137818 ], [ 129.32525629908713, 35.583627777039943 ], [ 129.326680958471201, 35.582725896977387 ], [ 129.326299797125046, 35.579931513624139 ], [ 129.325270218657607, 35.57863305022186 ], [ 129.324661231871971, 35.57788541318665 ], [ 129.324910585686069, 35.577489717929033 ], [ 129.326567255695409, 35.576155523485433 ], [ 129.328185004842823, 35.574754904325175 ], [ 129.32850604707923, 35.574399561111349 ], [ 129.328547936882558, 35.574327645001681 ], [ 129.328545990712087, 35.574154955369018 ], [ 129.328251621872425, 35.573750217770417 ], [ 129.327968606566685, 35.573547397530632 ], [ 129.327499450959294, 35.573352344299785 ], [ 129.327346877800068, 35.573310749944589 ], [ 129.326693056600362, 35.573115241812083 ], [ 129.325494011356255, 35.572462783567595 ], [ 129.325305603861125, 35.572177227379278 ], [ 129.325093059328509, 35.571790707627891 ], [ 129.322640803317967, 35.571150572308035 ], [ 129.3226956207304, 35.568604054812397 ], [ 129.323254442349395, 35.563251744525907 ], [ 129.322994348887477, 35.562495479549078 ], [ 129.31870740931501, 35.561664431622276 ], [ 129.314088172058121, 35.562762931690663 ], [ 129.313266699557829, 35.562939951933714 ], [ 129.312633432508449, 35.563191271486851 ], [ 129.312270767041269, 35.564427475983429 ], [ 129.312593248187397, 35.567712910790981 ], [ 129.312654063292285, 35.568302535285333 ], [ 129.312960886346076, 35.569449410579544 ], [ 129.313211190703356, 35.57000512136144 ], [ 129.313366661242611, 35.571449338800832 ], [ 129.310596166829725, 35.572747562828319 ], [ 129.309880649011973, 35.572903411941169 ], [ 129.309701098655665, 35.572807673173806 ], [ 129.309376738444655, 35.572614861856941 ], [ 129.309004985186874, 35.572398155193653 ], [ 129.308690642730625, 35.572275508646712 ], [ 129.308465872983135, 35.572211164780548 ], [ 129.307656070151722, 35.572266774515604 ], [ 129.306882276675537, 35.572382812722303 ], [ 129.30654948393834, 35.572560876155556 ], [ 129.305027838731888, 35.573597256862662 ], [ 129.304026720284071, 35.572847378925154 ], [ 129.301922683883134, 35.572840723544729 ], [ 129.298714071286724, 35.574187354243946 ], [ 129.298548750846123, 35.574324927031043 ], [ 129.29797943489811, 35.574774297833983 ], [ 129.297758070333657, 35.574940759924907 ], [ 129.297508086748905, 35.575110351242564 ], [ 129.29710925135663, 35.575328297805875 ], [ 129.294163826500096, 35.576609438701119 ], [ 129.293547934354763, 35.576843702326819 ], [ 129.288747334388916, 35.577922621733947 ], [ 129.287596475493075, 35.578065803278179 ], [ 129.285617142925759, 35.578756491495049 ], [ 129.285522585553139, 35.578804765982845 ], [ 129.285456398003959, 35.57887185297843 ], [ 129.285390797113337, 35.578965370881512 ], [ 129.285343862696351, 35.57903818025504 ], [ 129.285059487276101, 35.580531030690942 ], [ 129.283895052494643, 35.583990485642332 ], [ 129.28569033312715, 35.58345030742781 ], [ 129.285899857009014, 35.583412593088958 ], [ 129.286127799304069, 35.583426934676929 ], [ 129.288628100826173, 35.584135635811045 ], [ 129.288728503302025, 35.584172619310628 ], [ 129.289139421425574, 35.58436517079938 ], [ 129.289203374261405, 35.584409672817003 ], [ 129.290656802914413, 35.58551534840479 ], [ 129.290720884487257, 35.585589633671646 ], [ 129.290959669748446, 35.586080338472193 ], [ 129.290996570823637, 35.586199357683583 ], [ 129.291024338716909, 35.58631839093345 ], [ 129.291099497708331, 35.586936052527662 ], [ 129.291143535755879, 35.588724349445293 ], [ 129.291170055455751, 35.590393568536783 ], [ 129.290315488785126, 35.59423108156372 ], [ 129.290128518093951, 35.594827401882768 ], [ 129.293377383676386, 35.59245432726842 ], [ 129.293459362598611, 35.592431807877063 ], [ 129.294348105310917, 35.592384997514174 ], [ 129.294669484230809, 35.592389784887551 ], [ 129.298273308084163, 35.593047657936488 ], [ 129.301072396803534, 35.593659058556206 ], [ 129.301416651892822, 35.59366520954633 ], [ 129.302689463917176, 35.593444221050099 ], [ 129.302887151371323, 35.593380488604289 ], [ 129.303076102998432, 35.593281644732386 ], [ 129.303256331091376, 35.593147705520217 ], [ 129.304208805730383, 35.592421595580007 ], [ 129.304302600617063, 35.592189492706311 ], [ 129.304747323376688, 35.59145763634767 ], [ 129.305630320729477, 35.590331193833336 ], [ 129.307234747859951, 35.58907644499773 ], [ 129.307337908638999, 35.589048091206777 ], [ 129.309187825637366, 35.589001206920514 ], [ 129.309704306398345, 35.589042050982719 ], [ 129.310186501330435, 35.589125146028572 ], [ 129.310358797655368, 35.589173883006687 ], [ 129.310565616575047, 35.589250642764888 ], [ 129.311515355754182, 35.590070283369805 ], [ 129.311696956577322, 35.590301682951974 ], [ 129.311680345459592, 35.59045630357798 ], [ 129.311741175160677, 35.590610727065162 ], [ 129.311939831049386, 35.590799923452948 ], [ 129.312276517895441, 35.591080114280722 ], [ 129.314235809060307, 35.5925856977222 ], [ 129.317358123578998, 35.594397381206342 ], [ 129.317513163340237, 35.594432116945448 ], [ 129.317624839042082, 35.594382627940078 ], [ 129.318207352077451, 35.594057273971977 ] ] ] ] } },
{ "type": "Feature", "properties": { "OBJECTID": 1099, "adm_nm": "울산광역시 중구 중앙동", "adm_cd": "2601067", "adm_cd2": "3111058500", "sgg": "31110", "sido": "31", "sidonm": "울산광역시", "sggnm": "중구" }, "geometry": { "type": "MultiPolygon", "coordinates": [ [ [ [ 129.322994348887477, 35.562495479549078 ], [ 129.322664773036877, 35.561415205747451 ], [ 129.322476276612662, 35.560495801713813 ], [ 129.322501682728188, 35.560377570149356 ], [ 129.32252108307901, 35.560314262936039 ], [ 129.322540137700486, 35.560257759246511 ], [ 129.322827075787217, 35.5594323565875 ], [ 129.323286249558805, 35.558439584019695 ], [ 129.323590469720756, 35.557790986734197 ], [ 129.324151177942468, 35.558044259685758 ], [ 129.325008911914779, 35.558429063809335 ], [ 129.325488546509376, 35.558622905144212 ], [ 129.326525931820925, 35.559030838845935 ], [ 129.328108292514599, 35.559410616004698 ], [ 129.328242154032694, 35.558602619563317 ], [ 129.328215736981463, 35.556408448415489 ], [ 129.328396030818197, 35.556145898105221 ], [ 129.330280725011761, 35.555314903392208 ], [ 129.331742378650006, 35.555342460508506 ], [ 129.331656990524436, 35.554627337349103 ], [ 129.331582232911813, 35.554001310200761 ], [ 129.331313100888849, 35.55187678007092 ], [ 129.331291276898924, 35.551745875922549 ], [ 129.330986289748409, 35.549962291519066 ], [ 129.321851566110468, 35.551086913249307 ], [ 129.316153684506418, 35.550564441577031 ], [ 129.308742776120511, 35.55228424713286 ], [ 129.308963110212432, 35.553340927479866 ], [ 129.310006715292644, 35.553086230043107 ], [ 129.310321641033795, 35.553034987979494 ], [ 129.311410959710201, 35.552857916399091 ], [ 129.311953736429444, 35.552779434134131 ], [ 129.312030712741148, 35.552768304445543 ], [ 129.313025521364921, 35.55288486488611 ], [ 129.314344300937023, 35.553166360189948 ], [ 129.314404138041368, 35.553179145391468 ], [ 129.315419807949894, 35.553779579420102 ], [ 129.315804220359155, 35.554013498025213 ], [ 129.316494941823777, 35.554863902725621 ], [ 129.316841769438213, 35.555334539262525 ], [ 129.317044634894813, 35.55561084308583 ], [ 129.315621109993145, 35.55786102589596 ], [ 129.313265372655906, 35.562558792448954 ], [ 129.313644369529555, 35.562667048389613 ], [ 129.314088172058121, 35.562762931690663 ], [ 129.31870740931501, 35.561664431622276 ], [ 129.322994348887477, 35.562495479549078 ] ] ] ] } }
]
}
