{
"type": "FeatureCollection",
"name": "namgu",
"crs": { "type": "name", "properties": { "name": "urn:ogc:def:crs:OGC:1.3:CRS84" } },
"features": [
{ "type": "Feature", "properties": { "OBJECTID": 1100, "adm_nm": "울산광역시 남구 신정1동", "adm_cd": "2602051", "adm_cd2": "3114051000", "sgg": "31140", "sido": "31", "sidonm": "울산광역시", "sggnm": "남구" }, "geometry": { "type": "MultiPolygon", "coordinates": [ [ [ [ 129.308742776120511, 35.55228424713286 ], [ 129.308116627091721, 35.549108978888071 ], [ 129.308352122987856, 35.548533729547501 ], [ 129.308367860628408, 35.548496241035437 ], [ 129.308919145618148, 35.54779875656466 ], [ 129.309749798743638, 35.54606850251885 ], [ 129.310303651269948, 35.544654573073608 ], [ 129.312872796541797, 35.538095282671698 ], [ 129.306044415994648, 35.536359262131406 ], [ 129.305824764874728, 35.536934467835287 ], [ 129.305550376579816, 35.537809163826864 ], [ 129.3042832469865, 35.538418330522092 ], [ 129.298899889023687, 35.540569603844894 ], [ 129.298751985314539, 35.540614910483363 ], [ 129.297842249138228, 35.540079634436687 ], [ 129.295501892063413, 35.540631100919398 ], [ 129.294670171317136, 35.542754823806455 ], [ 129.294577750497581, 35.545319888834761 ], [ 129.29640338355307, 35.544968205374552 ], [ 129.297794260667388, 35.544700267700442 ], [ 129.298063095387789, 35.544692295174173 ], [ 129.298473473828523, 35.544785714621639 ], [ 129.299049744213079, 35.544916913438705 ], [ 129.301517111503699, 35.545672557516788 ], [ 129.301944006890977, 35.545804555510749 ], [ 129.302504086950222, 35.545977736956985 ], [ 129.302885450757515, 35.546413800680909 ], [ 129.303386155204436, 35.546986314590072 ], [ 129.303392179830098, 35.547235698423101 ], [ 129.303407375038461, 35.54786520919383 ], [ 129.303335810719034, 35.548585845821215 ], [ 129.303208734873579, 35.549865317926859 ], [ 129.303677822050673, 35.550726765526726 ], [ 129.304539683073727, 35.552307021431346 ], [ 129.304561977442319, 35.552331362155755 ], [ 129.304719744250349, 35.552471943596657 ], [ 129.30559095244115, 35.552790678777725 ], [ 129.306686958202761, 35.552828872058278 ], [ 129.307429615673897, 35.552674207444539 ], [ 129.307815395913053, 35.552593858844268 ], [ 129.308742776120511, 35.55228424713286 ] ] ] ] } },
{ "type": "Feature", "properties": { "OBJECTID": 1101, "adm_nm": "울산광역시 남구 신정2동", "adm_cd": "2602052", "adm_cd2": "3114052000", "sgg": "31140", "sido": "31", "sidonm": "울산광역시", "sggnm": "남구" }, "geometry": { "type": "MultiPolygon", "coordinates": [ [ [ [ 129.312872796541797, 35.538095282671698 ], [ 129.314457421148035, 35.534004772117619 ], [ 129.30899184731345, 35.532597259181003 ], [ 129.307493522072605, 35.532209772534749 ], [ 129.307807646230032, 35.531488010090619 ], [ 129.307907102831251, 35.531305273144682 ], [ 129.308043640009146, 35.531062946876268 ], [ 129.310378206754876, 35.526761116522124 ], [ 129.312216544830591, 35.523356962529327 ], [ 129.312435258087049, 35.522916787811297 ], [ 129.312553260394481, 35.521956771298619 ], [ 129.311709887191341, 35.520734648083597 ], [ 129.308006116689114, 35.517922432129069 ], [ 129.307884033128317, 35.518131185591386 ], [ 129.30776861022747, 35.518233983540469 ], [ 129.307699562290793, 35.51826438022551 ], [ 129.307582222093856, 35.51828833999339 ], [ 129.30574300567946, 35.518638842142529 ], [ 129.30535886163625, 35.518679736923623 ], [ 129.305308558631054, 35.518667615404375 ], [ 129.305114971480975, 35.518616599804467 ], [ 129.303830215553461, 35.518061715869202 ], [ 129.303577569760677, 35.51794234891014 ], [ 129.303529611406162, 35.51779921958056 ], [ 129.302876613531225, 35.517831439067393 ], [ 129.302145846214444, 35.51794790682154 ], [ 129.300744928050648, 35.518414967564652 ], [ 129.30051307282622, 35.519245567738466 ], [ 129.300503366094176, 35.51954886974945 ], [ 129.300540164414116, 35.520089516680251 ], [ 129.300600977162929, 35.520598366239078 ], [ 129.300632022724869, 35.521004359494036 ], [ 129.300560972162828, 35.522806249756179 ], [ 129.299869389114292, 35.524272931918794 ], [ 129.299779447888255, 35.524446386330787 ], [ 129.2997540950808, 35.524492900037771 ], [ 129.299362853057232, 35.525010132629063 ], [ 129.299273302704592, 35.525090296041355 ], [ 129.29921173316302, 35.525142751061097 ], [ 129.299106805714786, 35.525215229353641 ], [ 129.298125907864147, 35.525161800601033 ], [ 129.297091444388968, 35.524728395972687 ], [ 129.295316717871231, 35.524031886202486 ], [ 129.291714299254352, 35.525006262480098 ], [ 129.291664656868306, 35.525390288233943 ], [ 129.291659602896402, 35.52574011663971 ], [ 129.291669034730745, 35.525871784314603 ], [ 129.291715021205562, 35.526343841604749 ], [ 129.291727939984611, 35.52636891206609 ], [ 129.292203164657906, 35.527197542431011 ], [ 129.292346436248096, 35.52732359197055 ], [ 129.29266235963334, 35.527468658777288 ], [ 129.296974479118916, 35.529298521867887 ], [ 129.298922471871663, 35.529395776106533 ], [ 129.299406966279719, 35.529427318253305 ], [ 129.299477205278549, 35.529457289486551 ], [ 129.299775695482452, 35.529584658127057 ], [ 129.29974527587342, 35.529709181103968 ], [ 129.298673911319554, 35.531221768142068 ], [ 129.298031641994555, 35.532102587938915 ], [ 129.297141806286078, 35.533356049708324 ], [ 129.297132131783684, 35.535620327010058 ], [ 129.297015708771653, 35.539588503598445 ], [ 129.295757001768237, 35.539698154585366 ], [ 129.29571388820591, 35.539701911513959 ], [ 129.295410546812121, 35.539778383203306 ], [ 129.29539120533147, 35.540064391393052 ], [ 129.295393907685565, 35.540223613450834 ], [ 129.295501892063413, 35.540631100919398 ], [ 129.297842249138228, 35.540079634436687 ], [ 129.298751985314539, 35.540614910483363 ], [ 129.298899889023687, 35.540569603844894 ], [ 129.3042832469865, 35.538418330522092 ], [ 129.305550376579816, 35.537809163826864 ], [ 129.305824764874728, 35.536934467835287 ], [ 129.306044415994648, 35.536359262131406 ], [ 129.312872796541797, 35.538095282671698 ] ] ] ] } },
{ "type": "Feature", "properties": { "OBJECTID": 1102, "adm_nm": "울산광역시 남구 신정3동", "adm_cd": "2602053", "adm_cd2": "3114053000", "sgg": "31140", "sido": "31", "sidonm": "울산광역시", "sggnm": "남구" }, "geometry": { "type": "MultiPolygon", "coordinates": [ [ [ [ 129.316153684506418, 35.550564441577031 ], [ 129.32025388768227, 35.540047761305935 ], [ 129.3134689448747, 35.538252997281056 ], [ 129.312872796541797, 35.538095282671698 ], [ 129.310303651269948, 35.544654573073608 ], [ 129.309749798743638, 35.54606850251885 ], [ 129.308919145618148, 35.54779875656466 ], [ 129.308367860628408, 35.548496241035437 ], [ 129.308352122987856, 35.548533729547501 ], [ 129.308116627091721, 35.549108978888071 ], [ 129.308742776120511, 35.55228424713286 ], [ 129.316153684506418, 35.550564441577031 ] ] ] ] } },
{ "type": "Feature", "properties": { "OBJECTID": 1103, "adm_nm": "울산광역시 남구 신정4동", "adm_cd": "2602054", "adm_cd2": "3114054000", "sgg": "31140", "sido": "31", "sidonm": "울산광역시", "sggnm": "남구" }, "geometry": { "type": "MultiPolygon", "coordinates": [ [ [ [ 129.323817244131334, 35.531231069750149 ], [ 129.321302953081954, 35.527848906019898 ], [ 129.321061482254663, 35.527948399745732 ], [ 129.320695420536993, 35.528099227081348 ], [ 129.319981393947899, 35.527956602183266 ], [ 129.319270817387093, 35.527307675228911 ], [ 129.319228627246446, 35.527249554549741 ], [ 129.319063557378684, 35.526950688704986 ], [ 129.319006824919285, 35.526848554413995 ], [ 129.314251462715021, 35.523197000164615 ], [ 129.312553260394481, 35.521956771298619 ], [ 129.312435258087049, 35.522916787811297 ], [ 129.312216544830591, 35.523356962529327 ], [ 129.310378206754876, 35.526761116522124 ], [ 129.308043640009146, 35.531062946876268 ], [ 129.307907102831251, 35.531305273144682 ], [ 129.307807646230032, 35.531488010090619 ], [ 129.307493522072605, 35.532209772534749 ], [ 129.30899184731345, 35.532597259181003 ], [ 129.314457421148035, 35.534004772117619 ], [ 129.315184612264204, 35.532156902368357 ], [ 129.316450484432011, 35.532233432761608 ], [ 129.321923079993724, 35.532194637530338 ], [ 129.322053913257264, 35.532181959431782 ], [ 129.322356796085927, 35.532152592850501 ], [ 129.322681844444872, 35.532063128971203 ], [ 129.322889893035438, 35.531926261860207 ], [ 129.323817244131334, 35.531231069750149 ] ] ] ] } },
{ "type": "Feature", "properties": { "OBJECTID": 1104, "adm_nm": "울산광역시 남구 신정5동", "adm_cd": "2602055", "adm_cd2": "3114055000", "sgg": "31140", "sido": "31", "sidonm": "울산광역시", "sggnm": "남구" }, "geometry": { "type": "MultiPolygon", "coordinates": [ [ [ [ 129.326199189275854, 35.541602263426576 ], [ 129.32025388768227, 35.540047761305935 ], [ 129.316153684506418, 35.550564441577031 ], [ 129.321851566110468, 35.551086913249307 ], [ 129.321905350743833, 35.549554560347232 ], [ 129.32194493194001, 35.54945654729741 ], [ 129.322832146785515, 35.548845527595894 ], [ 129.32335618957535, 35.548509406230039 ], [ 129.323828046450728, 35.547195759188071 ], [ 129.326199189275854, 35.541602263426576 ] ] ] ] } },
{ "type": "Feature", "properties": { "OBJECTID": 1105, "adm_nm": "울산광역시 남구 달동", "adm_cd": "2602056", "adm_cd2": "3114056000", "sgg": "31140", "sido": "31", "sidonm": "울산광역시", "sggnm": "남구" }, "geometry": { "type": "MultiPolygon", "coordinates": [ [ [ [ 129.330446412652321, 35.531697086509759 ], [ 129.330402302797438, 35.531653664010378 ], [ 129.330330700439902, 35.531583191520333 ], [ 129.32896907553598, 35.530785596562666 ], [ 129.328123698659709, 35.530378711839134 ], [ 129.327626859450817, 35.530273593436135 ], [ 129.32756069294436, 35.530259595171138 ], [ 129.327273060240657, 35.530293897557648 ], [ 129.324406433433268, 35.530994465534107 ], [ 129.323817244131334, 35.531231069750149 ], [ 129.322889893035438, 35.531926261860207 ], [ 129.322681844444872, 35.532063128971203 ], [ 129.322356796085927, 35.532152592850501 ], [ 129.322053913257264, 35.532181959431782 ], [ 129.321923079993724, 35.532194637530338 ], [ 129.316450484432011, 35.532233432761608 ], [ 129.315184612264204, 35.532156902368357 ], [ 129.314457421148035, 35.534004772117619 ], [ 129.312872796541797, 35.538095282671698 ], [ 129.3134689448747, 35.538252997281056 ], [ 129.32025388768227, 35.540047761305935 ], [ 129.326199189275854, 35.541602263426576 ], [ 129.330167249517558, 35.532348223011368 ], [ 129.330446412652321, 35.531697086509759 ] ] ] ] } },
{ "type": "Feature", "properties": { "OBJECTID": 1106, "adm_nm": "울산광역시 남구 삼산동", "adm_cd": "2602057", "adm_cd2": "3114057000", "sgg": "31140", "sido": "31", "sidonm": "울산광역시", "sggnm": "남구" }, "geometry": { "type": "MultiPolygon", "coordinates": [ [ [ [ 129.330986289748409, 35.549962291519066 ], [ 129.340279411730506, 35.549253343573433 ], [ 129.341547497618109, 35.549156928221734 ], [ 129.344695035932091, 35.549494037643605 ], [ 129.344911782958945, 35.549507045042212 ], [ 129.346268051796756, 35.549588358400122 ], [ 129.347185695884832, 35.549612023594769 ], [ 129.348238366914444, 35.549639157617108 ], [ 129.351621952401814, 35.548810768650874 ], [ 129.353028703656889, 35.548435530732817 ], [ 129.35404650538004, 35.548023249427516 ], [ 129.357983479034118, 35.545621767413195 ], [ 129.359044765539835, 35.545030415585678 ], [ 129.359993267360636, 35.544597220818851 ], [ 129.363670352113047, 35.543260190432783 ], [ 129.360411084319651, 35.540190856536277 ], [ 129.356785419603625, 35.538030821280117 ], [ 129.354932911988982, 35.5372994977904 ], [ 129.353293037938528, 35.535780366691569 ], [ 129.352659510241125, 35.534995892322563 ], [ 129.352165938498104, 35.534340247480252 ], [ 129.351971150544074, 35.534287516508066 ], [ 129.341352251406846, 35.532924139004606 ], [ 129.334962784425841, 35.533244297902407 ], [ 129.330446412652321, 35.531697086509759 ], [ 129.330167249517558, 35.532348223011368 ], [ 129.326199189275854, 35.541602263426576 ], [ 129.323828046450728, 35.547195759188071 ], [ 129.32335618957535, 35.548509406230039 ], [ 129.322832146785515, 35.548845527595894 ], [ 129.32194493194001, 35.54945654729741 ], [ 129.321905350743833, 35.549554560347232 ], [ 129.321851566110468, 35.551086913249307 ], [ 129.330986289748409, 35.549962291519066 ] ] ] ] } },
{ "type": "Feature", "properties": { "OBJECTID": 1107, "adm_nm": "울산광역시 남구 삼호동", "adm_cd": "2602058", "adm_cd2": "3114058500", "sgg": "31140", "sido": "31", "sidonm": "울산광역시", "sggnm": "남구" }, "geometry": { "type": "MultiPolygon", "coordinates": [ [ [ [ 129.289523030789724, 35.548602665200626 ], [ 129.29175512508354, 35.546512913825687 ], [ 129.292620724189192, 35.545702478973176 ], [ 129.294577750497581, 35.545319888834761 ], [ 129.294670171317136, 35.542754823806455 ], [ 129.290298150381403, 35.542801354203455 ], [ 129.288537186644447, 35.544044819639659 ], [ 129.287353207393664, 35.544453478477678 ], [ 129.286466060135467, 35.54433953575969 ], [ 129.284979486065765, 35.544108851080573 ], [ 129.281662342703555, 35.544615338988748 ], [ 129.28052736848241, 35.544980589462654 ], [ 129.279474083951413, 35.54559403644447 ], [ 129.274676894074588, 35.547136341349528 ], [ 129.274606664151037, 35.547110893945543 ], [ 129.274563557162026, 35.547095260568199 ], [ 129.273357645722967, 35.546392363524362 ], [ 129.27393142769472, 35.544624048851219 ], [ 129.274309072682399, 35.543839184414466 ], [ 129.274547428870278, 35.542266509930194 ], [ 129.272955598505263, 35.541063046499275 ], [ 129.27269965584486, 35.540983898089294 ], [ 129.270458842227583, 35.542078943556028 ], [ 129.268175476508162, 35.543334864670385 ], [ 129.265988558858623, 35.543713119586137 ], [ 129.264203290497306, 35.543342868727301 ], [ 129.263966246118912, 35.543258639921348 ], [ 129.264032374869515, 35.543792716466385 ], [ 129.264138814601608, 35.544652353370871 ], [ 129.264197525663661, 35.545126513923314 ], [ 129.264023453679243, 35.547189597383962 ], [ 129.26389216291409, 35.548664619270369 ], [ 129.263877946423975, 35.54877410625631 ], [ 129.263844219981507, 35.549033838880206 ], [ 129.263780053374717, 35.549332427147959 ], [ 129.263690957762776, 35.549610516174404 ], [ 129.263659848598479, 35.549668232429134 ], [ 129.263562196874091, 35.549849402148041 ], [ 129.263508358852704, 35.549949282427775 ], [ 129.263329016940332, 35.55021883686095 ], [ 129.263068819526751, 35.550467298822127 ], [ 129.262853992301189, 35.550631352515204 ], [ 129.262819514592223, 35.550653464407191 ], [ 129.262725209342676, 35.550713931963443 ], [ 129.26055288229233, 35.55210671634574 ], [ 129.261811406172285, 35.554106770564395 ], [ 129.264371856058773, 35.55589295027319 ], [ 129.265117737448094, 35.557279005010052 ], [ 129.266651069122929, 35.555868032697362 ], [ 129.266941049844064, 35.555583987028101 ], [ 129.267003582162204, 35.555529118822449 ], [ 129.267319291503753, 35.555252103796754 ], [ 129.267572836471658, 35.555030293670939 ], [ 129.267745594993869, 35.554890966095911 ], [ 129.269060070426832, 35.554125663920956 ], [ 129.269167400703566, 35.554075868113316 ], [ 129.269728124582457, 35.553815735821424 ], [ 129.27036115554435, 35.553555578467382 ], [ 129.27069397186051, 35.553445843985415 ], [ 129.270829812664175, 35.553401100137009 ], [ 129.271026383049019, 35.553365322921309 ], [ 129.271834816553252, 35.553218195336683 ], [ 129.272562970954453, 35.553268648189615 ], [ 129.274287821752608, 35.553388159513467 ], [ 129.275516545930799, 35.55347327309299 ], [ 129.278830711157923, 35.553105676806524 ], [ 129.27908222122241, 35.553077769990729 ], [ 129.280544439938353, 35.552637086967351 ], [ 129.281413517078875, 35.552375153952468 ], [ 129.287178157148418, 35.550202478144683 ], [ 129.289523030789724, 35.548602665200626 ] ] ] ] } },
{ "type": "Feature", "properties": { "OBJECTID": 1108, "adm_nm": "울산광역시 남구 무거동", "adm_cd": "2602059", "adm_cd2": "3114059500", "sgg": "31140", "sido": "31", "sidonm": "울산광역시", "sggnm": "남구" }, "geometry": { "type": "MultiPolygon", "coordinates": [ [ [ [ 129.26055288229233, 35.55210671634574 ], [ 129.262725209342676, 35.550713931963443 ], [ 129.262819514592223, 35.550653464407191 ], [ 129.262853992301189, 35.550631352515204 ], [ 129.263068819526751, 35.550467298822127 ], [ 129.263329016940332, 35.55021883686095 ], [ 129.263508358852704, 35.549949282427775 ], [ 129.263562196874091, 35.549849402148041 ], [ 129.263659848598479, 35.549668232429134 ], [ 129.263690957762776, 35.549610516174404 ], [ 129.263780053374717, 35.549332427147959 ], [ 129.263844219981507, 35.549033838880206 ], [ 129.263877946423975, 35.54877410625631 ], [ 129.26389216291409, 35.548664619270369 ], [ 129.264023453679243, 35.547189597383962 ], [ 129.264197525663661, 35.545126513923314 ], [ 129.264138814601608, 35.544652353370871 ], [ 129.264032374869515, 35.543792716466385 ], [ 129.263966246118912, 35.543258639921348 ], [ 129.264043181353799, 35.542659533722386 ], [ 129.264318603723012, 35.542149090525228 ], [ 129.264828841167628, 35.541625267497601 ], [ 129.265442318656795, 35.541094416849262 ], [ 129.266096361920688, 35.540408685790688 ], [ 129.266426999522281, 35.53990325827462 ], [ 129.266438071851894, 35.539874664699767 ], [ 129.266651432827814, 35.539323649214694 ], [ 129.266836332434025, 35.53855428585684 ], [ 129.266853401471138, 35.538469937986847 ], [ 129.26354248541017, 35.538509232539056 ], [ 129.262209635657655, 35.538378379902845 ], [ 129.262165203064825, 35.53837261500346 ], [ 129.261821137991546, 35.538320221760216 ], [ 129.260529987556026, 35.537274105562624 ], [ 129.258917103131893, 35.536339104921808 ], [ 129.255565373176523, 35.534845139482357 ], [ 129.25511222246115, 35.533828346266795 ], [ 129.254469233706573, 35.533127094514683 ], [ 129.253972900606584, 35.532821583599201 ], [ 129.249309848079633, 35.533181370673091 ], [ 129.248373535446916, 35.533277519844354 ], [ 129.247897757425108, 35.533375499412401 ], [ 129.247851143234527, 35.533385117416579 ], [ 129.247620112936289, 35.533609440591313 ], [ 129.244577722380626, 35.535823638959783 ], [ 129.2382772435476, 35.536288715963565 ], [ 129.238105038596643, 35.536287630378311 ], [ 129.236672844549361, 35.53622137933872 ], [ 129.237415343473714, 35.53717081053302 ], [ 129.23881632046357, 35.539462031088483 ], [ 129.239004487522664, 35.539481378361323 ], [ 129.240161698346498, 35.539553702296423 ], [ 129.240897242343124, 35.53959396915397 ], [ 129.241338313888036, 35.539600266662376 ], [ 129.241492977533369, 35.539614323262953 ], [ 129.241591458614323, 35.539639988867236 ], [ 129.241735716399916, 35.539702893275738 ], [ 129.241848400243924, 35.53977590634063 ], [ 129.241920608498503, 35.539832489589514 ], [ 129.241971725777006, 35.539884810399442 ], [ 129.243233135397332, 35.541453681768509 ], [ 129.244179680026463, 35.54283751537055 ], [ 129.247185140921232, 35.543927090317673 ], [ 129.249401490165752, 35.54549402673269 ], [ 129.252312539739989, 35.549547808607208 ], [ 129.252895193183122, 35.551336905388972 ], [ 129.253932603698189, 35.552634891924249 ], [ 129.254395731601193, 35.553171517720457 ], [ 129.256253486389511, 35.554745014767171 ], [ 129.257791068281222, 35.553934514570088 ], [ 129.257824540781229, 35.553916863255971 ], [ 129.259883689798443, 35.552553827714547 ], [ 129.260285735093589, 35.552285220210756 ], [ 129.26055288229233, 35.55210671634574 ] ] ] ] } },
{ "type": "Feature", "properties": { "OBJECTID": 1109, "adm_nm": "울산광역시 남구 옥동", "adm_cd": "2602060", "adm_cd2": "3114060000", "sgg": "31140", "sido": "31", "sidonm": "울산광역시", "sggnm": "남구" }, "geometry": { "type": "MultiPolygon", "coordinates": [ [ [ [ 129.294670171317136, 35.542754823806455 ], [ 129.295501892063413, 35.540631100919398 ], [ 129.295393907685565, 35.540223613450834 ], [ 129.29539120533147, 35.540064391393052 ], [ 129.295410546812121, 35.539778383203306 ], [ 129.29571388820591, 35.539701911513959 ], [ 129.295757001768237, 35.539698154585366 ], [ 129.297015708771653, 35.539588503598445 ], [ 129.297132131783684, 35.535620327010058 ], [ 129.297141806286078, 35.533356049708324 ], [ 129.298031641994555, 35.532102587938915 ], [ 129.298673911319554, 35.531221768142068 ], [ 129.29974527587342, 35.529709181103968 ], [ 129.299775695482452, 35.529584658127057 ], [ 129.299477205278549, 35.529457289486551 ], [ 129.299406966279719, 35.529427318253305 ], [ 129.298922471871663, 35.529395776106533 ], [ 129.296974479118916, 35.529298521867887 ], [ 129.29266235963334, 35.527468658777288 ], [ 129.292346436248096, 35.52732359197055 ], [ 129.292203164657906, 35.527197542431011 ], [ 129.291727939984611, 35.52636891206609 ], [ 129.291715021205562, 35.526343841604749 ], [ 129.291669034730745, 35.525871784314603 ], [ 129.291659602896402, 35.52574011663971 ], [ 129.291664656868306, 35.525390288233943 ], [ 129.291714299254352, 35.525006262480098 ], [ 129.295316717871231, 35.524031886202486 ], [ 129.297091444388968, 35.524728395972687 ], [ 129.298125907864147, 35.525161800601033 ], [ 129.299106805714786, 35.525215229353641 ], [ 129.29921173316302, 35.525142751061097 ], [ 129.299273302704592, 35.525090296041355 ], [ 129.299362853057232, 35.525010132629063 ], [ 129.2997540950808, 35.524492900037771 ], [ 129.299779447888255, 35.524446386330787 ], [ 129.299869389114292, 35.524272931918794 ], [ 129.300560972162828, 35.522806249756179 ], [ 129.300632022724869, 35.521004359494036 ], [ 129.300600977162929, 35.520598366239078 ], [ 129.300540164414116, 35.520089516680251 ], [ 129.300503366094176, 35.51954886974945 ], [ 129.30051307282622, 35.519245567738466 ], [ 129.300744928050648, 35.518414967564652 ], [ 129.302145846214444, 35.51794790682154 ], [ 129.302876613531225, 35.517831439067393 ], [ 129.303529611406162, 35.51779921958056 ], [ 129.303577569760677, 35.51794234891014 ], [ 129.303830215553461, 35.518061715869202 ], [ 129.305114971480975, 35.518616599804467 ], [ 129.305308558631054, 35.518667615404375 ], [ 129.30535886163625, 35.518679736923623 ], [ 129.30574300567946, 35.518638842142529 ], [ 129.307582222093856, 35.51828833999339 ], [ 129.307699562290793, 35.51826438022551 ], [ 129.30776861022747, 35.518233983540469 ], [ 129.307884033128317, 35.518131185591386 ], [ 129.308006116689114, 35.517922432129069 ], [ 129.309021440200581, 35.517507761533608 ], [ 129.30941149087252, 35.517173931358492 ], [ 129.309546361126706, 35.517007515513789 ], [ 129.309633937046755, 35.516874437045857 ], [ 129.309714400786731, 35.516652818827211 ], [ 129.309761020016168, 35.516442348210731 ], [ 129.309395633900095, 35.514454434709208 ], [ 129.3087592307904, 35.510256123740831 ], [ 129.30869493086189, 35.509535148530937 ], [ 129.308661620382821, 35.509029634405152 ], [ 129.308633103128329, 35.507702891696617 ], [ 129.308750962949091, 35.503486442907878 ], [ 129.309214636010438, 35.501119842170141 ], [ 129.308568601680975, 35.499903772185192 ], [ 129.308567378658836, 35.499807682864038 ], [ 129.308692915466537, 35.498495168470406 ], [ 129.308894543996757, 35.497674722885868 ], [ 129.309072714053855, 35.497269391243748 ], [ 129.307864317893149, 35.497393869739504 ], [ 129.30443467105178, 35.49607086955438 ], [ 129.303794894888, 35.494537896857821 ], [ 129.301482250475146, 35.494469377667869 ], [ 129.297783004509313, 35.497979541192151 ], [ 129.294208690430054, 35.502206266539176 ], [ 129.292407415371201, 35.504500117726835 ], [ 129.291034507375258, 35.506532163194024 ], [ 129.290164163995485, 35.507756064254274 ], [ 129.289405014134189, 35.507785448936154 ], [ 129.288865111431676, 35.507806343717824 ], [ 129.28827163948506, 35.507829308757934 ], [ 129.287421531312333, 35.515222591383584 ], [ 129.286763338811937, 35.515966329518847 ], [ 129.286326687152439, 35.516126571220077 ], [ 129.283535813855963, 35.517113624240288 ], [ 129.283178816434685, 35.517123556427606 ], [ 129.282834526158865, 35.517036868193202 ], [ 129.28267711198859, 35.516990982712315 ], [ 129.282187621151905, 35.516848677438908 ], [ 129.281731509094755, 35.517049253990464 ], [ 129.281320315961125, 35.517232375343994 ], [ 129.280352796341106, 35.518832781357645 ], [ 129.280520678036197, 35.519139060218357 ], [ 129.281478317157678, 35.519355686921521 ], [ 129.28191708441895, 35.519454006255522 ], [ 129.280641715397422, 35.52064913212827 ], [ 129.279260575897894, 35.521530881629481 ], [ 129.277730484650078, 35.521945434070496 ], [ 129.276859342237941, 35.521822710699091 ], [ 129.274700537988736, 35.523638565658871 ], [ 129.272873958234356, 35.526075482846373 ], [ 129.27370663520071, 35.52703660275111 ], [ 129.274050475712755, 35.527433466246364 ], [ 129.274829423655831, 35.528363646392812 ], [ 129.274277502007976, 35.529172494412101 ], [ 129.272412614691973, 35.529784247522123 ], [ 129.267203930026852, 35.530655070987592 ], [ 129.264338977701243, 35.530786600575851 ], [ 129.264218761181212, 35.53077988260128 ], [ 129.263863818640885, 35.530759053969042 ], [ 129.262559607457405, 35.530415555316928 ], [ 129.262485474729857, 35.530194922342758 ], [ 129.262355309962345, 35.529804196218102 ], [ 129.258952286007087, 35.531137000854457 ], [ 129.255854369080794, 35.533286949317649 ], [ 129.25511222246115, 35.533828346266795 ], [ 129.255565373176523, 35.534845139482357 ], [ 129.258917103131893, 35.536339104921808 ], [ 129.260529987556026, 35.537274105562624 ], [ 129.261821137991546, 35.538320221760216 ], [ 129.262165203064825, 35.53837261500346 ], [ 129.262209635657655, 35.538378379902845 ], [ 129.26354248541017, 35.538509232539056 ], [ 129.266853401471138, 35.538469937986847 ], [ 129.266836332434025, 35.53855428585684 ], [ 129.266651432827814, 35.539323649214694 ], [ 129.266438071851894, 35.539874664699767 ], [ 129.266426999522281, 35.53990325827462 ], [ 129.266096361920688, 35.540408685790688 ], [ 129.265442318656795, 35.541094416849262 ], [ 129.264828841167628, 35.541625267497601 ], [ 129.264318603723012, 35.542149090525228 ], [ 129.264043181353799, 35.542659533722386 ], [ 129.263966246118912, 35.543258639921348 ], [ 129.264203290497306, 35.543342868727301 ], [ 129.265988558858623, 35.543713119586137 ], [ 129.268175476508162, 35.543334864670385 ], [ 129.270458842227583, 35.542078943556028 ], [ 129.27269965584486, 35.540983898089294 ], [ 129.272955598505263, 35.541063046499275 ], [ 129.274547428870278, 35.542266509930194 ], [ 129.274309072682399, 35.543839184414466 ], [ 129.27393142769472, 35.544624048851219 ], [ 129.273357645722967, 35.546392363524362 ], [ 129.274563557162026, 35.547095260568199 ], [ 129.274606664151037, 35.547110893945543 ], [ 129.274676894074588, 35.547136341349528 ], [ 129.279474083951413, 35.54559403644447 ], [ 129.28052736848241, 35.544980589462654 ], [ 129.281662342703555, 35.544615338988748 ], [ 129.284979486065765, 35.544108851080573 ], [ 129.286466060135467, 35.54433953575969 ], [ 129.287353207393664, 35.544453478477678 ], [ 129.288537186644447, 35.544044819639659 ], [ 129.290298150381403, 35.542801354203455 ], [ 129.294670171317136, 35.542754823806455 ] ] ] ] } },
{ "type": "Feature", "properties": { "OBJECTID": 1110, "adm_nm": "울산광역시 남구 야음장생포동", "adm_cd": "2602061", "adm_cd2": "3114067000", "sgg": "31140", "sido": "31", "sidonm": "울산광역시", "sggnm": "남구" }, "geometry": { "type": "MultiPolygon", "coordinates": [ [ [ [ 129.376297934828926, 35.534642099313068 ], [ 129.379979222887812, 35.530285877789368 ], [ 129.381901642599615, 35.528022275161028 ], [ 129.382346032332805, 35.52753634913087 ], [ 129.3831633785299, 35.526906362846127 ], [ 129.384770344529358, 35.525596516040387 ], [ 129.385886479986482, 35.524562065333967 ], [ 129.388811451282066, 35.519590606612987 ], [ 129.390376479212307, 35.519377237185402 ], [ 129.390294717361428, 35.510706067004421 ], [ 129.389749242382351, 35.504198091397697 ], [ 129.389732785463679, 35.503970985344267 ], [ 129.390521614562147, 35.500437916463 ], [ 129.3907296434964, 35.499506145198772 ], [ 129.390855945250024, 35.499281844223773 ], [ 129.38426515159918, 35.500967541779325 ], [ 129.378202994160347, 35.501480393337268 ], [ 129.374051835949132, 35.500494881508565 ], [ 129.371403867733051, 35.499866141745478 ], [ 129.370419971500269, 35.499632503523685 ], [ 129.368555023810728, 35.500005425273827 ], [ 129.367587813301668, 35.500795457330753 ], [ 129.366650202812082, 35.501561309429377 ], [ 129.36624289213654, 35.501894005988888 ], [ 129.365838748025681, 35.502589352223644 ], [ 129.36499328486309, 35.504043926076761 ], [ 129.362636951129303, 35.505233733309055 ], [ 129.362341829037547, 35.505309904286939 ], [ 129.359294478355196, 35.506096283318605 ], [ 129.354545153358742, 35.508037516915401 ], [ 129.351481270173082, 35.509311087855814 ], [ 129.349055895051151, 35.510016027436272 ], [ 129.347187019940634, 35.509497256747117 ], [ 129.346304420389941, 35.509580696189396 ], [ 129.34417992438992, 35.510550590979612 ], [ 129.339945372516382, 35.51397823296324 ], [ 129.339517191633661, 35.514387567462947 ], [ 129.340089789230774, 35.515165169965243 ], [ 129.339316017722723, 35.515772998280028 ], [ 129.338900773734366, 35.516084634511714 ], [ 129.338372220495728, 35.516470426286936 ], [ 129.338293657500884, 35.516515600738991 ], [ 129.336469847138318, 35.517412209325464 ], [ 129.335969539073517, 35.517574950390816 ], [ 129.335175815416306, 35.517832710516721 ], [ 129.334463352055252, 35.518030926518755 ], [ 129.33390668376498, 35.518321244320774 ], [ 129.332814339063958, 35.519404202261029 ], [ 129.331094924840045, 35.520324890531178 ], [ 129.330899772051652, 35.520458858435674 ], [ 129.330442860377445, 35.520916589890462 ], [ 129.330268395072636, 35.521108953968884 ], [ 129.33057268853787, 35.524366911793749 ], [ 129.330657633426, 35.525165278668062 ], [ 129.331205181382018, 35.524709423476978 ], [ 129.332304084691856, 35.523812375100114 ], [ 129.335452702114026, 35.525426640868339 ], [ 129.335481177069454, 35.525467842043412 ], [ 129.335519957621528, 35.525555280054164 ], [ 129.335539553702517, 35.525629769557632 ], [ 129.335502373445621, 35.525703992858261 ], [ 129.335169530351351, 35.525893214166608 ], [ 129.334626832457587, 35.526151368917361 ], [ 129.334463942953903, 35.526222603037112 ], [ 129.334207261085538, 35.526324965037766 ], [ 129.333908365012633, 35.526301120091517 ], [ 129.333630827539196, 35.526314375967168 ], [ 129.333492666533033, 35.526347447561534 ], [ 129.333307794043066, 35.526486270090047 ], [ 129.333194046016388, 35.526851610038158 ], [ 129.333196687183516, 35.526929018982521 ], [ 129.333198654801805, 35.526986420039982 ], [ 129.333227533927101, 35.527125145931549 ], [ 129.333248097831216, 35.527207686949779 ], [ 129.333702295817886, 35.528755402743208 ], [ 129.333885844455494, 35.529226574005975 ], [ 129.3340856863434, 35.529709848719854 ], [ 129.33429060287574, 35.530165179137825 ], [ 129.334962784425841, 35.533244297902407 ], [ 129.341352251406846, 35.532924139004606 ], [ 129.351971150544074, 35.534287516508066 ], [ 129.352165938498104, 35.534340247480252 ], [ 129.352659510241125, 35.534995892322563 ], [ 129.353293037938528, 35.535780366691569 ], [ 129.354932911988982, 35.5372994977904 ], [ 129.356785419603625, 35.538030821280117 ], [ 129.360411084319651, 35.540190856536277 ], [ 129.363670352113047, 35.543260190432783 ], [ 129.368326387658726, 35.540941134650268 ], [ 129.372812550077469, 35.538185123536806 ], [ 129.376297934828926, 35.534642099313068 ] ] ] ] } },
{ "type": "Feature", "properties": { "OBJECTID": 1111, "adm_nm": "울산광역시 남구 대현동", "adm_cd": "2602062", "adm_cd2": "3114062500", "sgg": "31140", "sido": "31", "sidonm": "울산광역시", "sggnm": "남구" }, "geometry": { "type": "MultiPolygon", "coordinates": [ [ [ [ 129.332814339063958, 35.519404202261029 ], [ 129.332812399830004, 35.519364554237974 ], [ 129.332793311746343, 35.519269445092526 ], [ 129.332370487627514, 35.519292291968284 ], [ 129.329282377314769, 35.519745853511203 ], [ 129.329068277352178, 35.520060682267264 ], [ 129.328797515772521, 35.52045884068032 ], [ 129.3286702967184, 35.520765853847294 ], [ 129.328340179984309, 35.521292577745406 ], [ 129.328269708698315, 35.521384237773717 ], [ 129.328168288584607, 35.521470622522635 ], [ 129.327895157093451, 35.52158989757654 ], [ 129.327710407670594, 35.521637692675533 ], [ 129.327508080431471, 35.521681255332702 ], [ 129.327303216551826, 35.521712945263083 ], [ 129.327017561091566, 35.521722566519664 ], [ 129.324258160999563, 35.521606490326825 ], [ 129.323481332352912, 35.52268736764016 ], [ 129.32062573514068, 35.524352623730465 ], [ 129.319831609354509, 35.524624428754983 ], [ 129.319853833924725, 35.524693540780689 ], [ 129.320222866368852, 35.525635817135964 ], [ 129.321302953081954, 35.527848906019898 ], [ 129.323817244131334, 35.531231069750149 ], [ 129.324406433433268, 35.530994465534107 ], [ 129.327273060240657, 35.530293897557648 ], [ 129.32756069294436, 35.530259595171138 ], [ 129.327626859450817, 35.530273593436135 ], [ 129.328123698659709, 35.530378711839134 ], [ 129.32896907553598, 35.530785596562666 ], [ 129.330330700439902, 35.531583191520333 ], [ 129.330402302797438, 35.531653664010378 ], [ 129.330446412652321, 35.531697086509759 ], [ 129.334962784425841, 35.533244297902407 ], [ 129.33429060287574, 35.530165179137825 ], [ 129.3340856863434, 35.529709848719854 ], [ 129.333885844455494, 35.529226574005975 ], [ 129.333702295817886, 35.528755402743208 ], [ 129.333248097831216, 35.527207686949779 ], [ 129.333227533927101, 35.527125145931549 ], [ 129.333198654801805, 35.526986420039982 ], [ 129.333196687183516, 35.526929018982521 ], [ 129.333194046016388, 35.526851610038158 ], [ 129.333307794043066, 35.526486270090047 ], [ 129.333492666533033, 35.526347447561534 ], [ 129.333630827539196, 35.526314375967168 ], [ 129.333908365012633, 35.526301120091517 ], [ 129.334207261085538, 35.526324965037766 ], [ 129.334463942953903, 35.526222603037112 ], [ 129.334626832457587, 35.526151368917361 ], [ 129.335169530351351, 35.525893214166608 ], [ 129.335502373445621, 35.525703992858261 ], [ 129.335539553702517, 35.525629769557632 ], [ 129.335519957621528, 35.525555280054164 ], [ 129.335481177069454, 35.525467842043412 ], [ 129.335452702114026, 35.525426640868339 ], [ 129.332304084691856, 35.523812375100114 ], [ 129.331205181382018, 35.524709423476978 ], [ 129.330657633426, 35.525165278668062 ], [ 129.33057268853787, 35.524366911793749 ], [ 129.330268395072636, 35.521108953968884 ], [ 129.330442860377445, 35.520916589890462 ], [ 129.330899772051652, 35.520458858435674 ], [ 129.331094924840045, 35.520324890531178 ], [ 129.332814339063958, 35.519404202261029 ] ] ] ] } },
{ "type": "Feature", "properties": { "OBJECTID": 1112, "adm_nm": "울산광역시 남구 수암동", "adm_cd": "2602063", "adm_cd2": "3114063500", "sgg": "31140", "sido": "31", "sidonm": "울산광역시", "sggnm": "남구" }, "geometry": { "type": "MultiPolygon", "coordinates": [ [ [ [ 129.321302953081954, 35.527848906019898 ], [ 129.320222866368852, 35.525635817135964 ], [ 129.319853833924725, 35.524693540780689 ], [ 129.319831609354509, 35.524624428754983 ], [ 129.32062573514068, 35.524352623730465 ], [ 129.323481332352912, 35.52268736764016 ], [ 129.324258160999563, 35.521606490326825 ], [ 129.32473746305746, 35.520929239233844 ], [ 129.324278589941457, 35.520045873195969 ], [ 129.322571040828905, 35.519171806601406 ], [ 129.31889491706238, 35.519317136639749 ], [ 129.318122035487107, 35.519347685179888 ], [ 129.318020325785795, 35.519351705029358 ], [ 129.317018534750588, 35.519675260504052 ], [ 129.315045043231635, 35.520312622635743 ], [ 129.314736224748799, 35.520412355488169 ], [ 129.31470641710672, 35.520425574978873 ], [ 129.314665123353109, 35.520546973711923 ], [ 129.314486824002955, 35.520962298813792 ], [ 129.313572701394975, 35.52090531558602 ], [ 129.312355025145081, 35.520801539406655 ], [ 129.311709887191341, 35.520734648083597 ], [ 129.312553260394481, 35.521956771298619 ], [ 129.314251462715021, 35.523197000164615 ], [ 129.319006824919285, 35.526848554413995 ], [ 129.319063557378684, 35.526950688704986 ], [ 129.319228627246446, 35.527249554549741 ], [ 129.319270817387093, 35.527307675228911 ], [ 129.319981393947899, 35.527956602183266 ], [ 129.320695420536993, 35.528099227081348 ], [ 129.321061482254663, 35.527948399745732 ], [ 129.321302953081954, 35.527848906019898 ] ] ] ] } },
{ "type": "Feature", "properties": { "OBJECTID": 1113, "adm_nm": "울산광역시 남구 선암동", "adm_cd": "2602064", "adm_cd2": "3114064000", "sgg": "31140", "sido": "31", "sidonm": "울산광역시", "sggnm": "남구" }, "geometry": { "type": "MultiPolygon", "coordinates": [ [ [ [ 129.332814339063958, 35.519404202261029 ], [ 129.33390668376498, 35.518321244320774 ], [ 129.334463352055252, 35.518030926518755 ], [ 129.335175815416306, 35.517832710516721 ], [ 129.335969539073517, 35.517574950390816 ], [ 129.336469847138318, 35.517412209325464 ], [ 129.338293657500884, 35.516515600738991 ], [ 129.338372220495728, 35.516470426286936 ], [ 129.338900773734366, 35.516084634511714 ], [ 129.339316017722723, 35.515772998280028 ], [ 129.340089789230774, 35.515165169965243 ], [ 129.339517191633661, 35.514387567462947 ], [ 129.339945372516382, 35.51397823296324 ], [ 129.34417992438992, 35.510550590979612 ], [ 129.346304420389941, 35.509580696189396 ], [ 129.347187019940634, 35.509497256747117 ], [ 129.349055895051151, 35.510016027436272 ], [ 129.351481270173082, 35.509311087855814 ], [ 129.354545153358742, 35.508037516915401 ], [ 129.359294478355196, 35.506096283318605 ], [ 129.362341829037547, 35.505309904286939 ], [ 129.362765037941898, 35.504503800909617 ], [ 129.365180334628917, 35.501010603435738 ], [ 129.367589033256394, 35.498014652425248 ], [ 129.372097124569535, 35.498646156928274 ], [ 129.37405814611455, 35.498984845960244 ], [ 129.376478177764369, 35.499948684852271 ], [ 129.379319672049917, 35.499978416905691 ], [ 129.382566504057309, 35.496481837291803 ], [ 129.382259932435261, 35.49624308243262 ], [ 129.387289841289629, 35.489778596140013 ], [ 129.389326463981519, 35.487744803079693 ], [ 129.384497565478142, 35.483719589427103 ], [ 129.384225443336788, 35.48020060825057 ], [ 129.384064598844446, 35.47765074340078 ], [ 129.3842319694254, 35.476073693755403 ], [ 129.384465833776261, 35.475299675070687 ], [ 129.384130413423122, 35.47408223696759 ], [ 129.380664824687955, 35.471177912407569 ], [ 129.37908330198249, 35.471888314853906 ], [ 129.378384706671824, 35.472202107184394 ], [ 129.37466154365481, 35.469257214867731 ], [ 129.370208339049043, 35.465604856184591 ], [ 129.362760501590003, 35.460451492514913 ], [ 129.364791538770874, 35.459622413370766 ], [ 129.367733298511268, 35.458516316387644 ], [ 129.364915084122572, 35.45666239714398 ], [ 129.361308959337237, 35.459146139741271 ], [ 129.360165443810104, 35.459062788941978 ], [ 129.358639328151867, 35.45853026996425 ], [ 129.356808741781094, 35.458849269903745 ], [ 129.354396304836229, 35.459735707341459 ], [ 129.353038277022023, 35.463339929225235 ], [ 129.352780717237522, 35.464778869878749 ], [ 129.352670778844697, 35.465410527984552 ], [ 129.349976015812302, 35.468365820368476 ], [ 129.349352949098005, 35.469007468607344 ], [ 129.346122369008924, 35.470298513604291 ], [ 129.339339092259081, 35.475267156963547 ], [ 129.339645279912787, 35.476974917109843 ], [ 129.339602288277149, 35.478444636324816 ], [ 129.339052192498315, 35.48013404098792 ], [ 129.33746863157279, 35.481598619482149 ], [ 129.336549047344079, 35.482350872251487 ], [ 129.335704352940382, 35.482405994451661 ], [ 129.33515420989292, 35.482443135556387 ], [ 129.333478811723438, 35.482580038783361 ], [ 129.33328362424578, 35.482651096025393 ], [ 129.333102647609422, 35.48275896156138 ], [ 129.332967621669525, 35.482879319715956 ], [ 129.332866093801869, 35.483021436341602 ], [ 129.332583862035222, 35.483456865263058 ], [ 129.332446715006796, 35.48367466794744 ], [ 129.332300208748478, 35.483886467870519 ], [ 129.332140759922964, 35.484070223157758 ], [ 129.331982680579813, 35.484247040979042 ], [ 129.331825068753261, 35.484376259340593 ], [ 129.331693176949898, 35.484472704371065 ], [ 129.331441755622421, 35.484606077276993 ], [ 129.331261995866384, 35.48468043557213 ], [ 129.331207962769554, 35.48469385092681 ], [ 129.330822346118509, 35.484766838245591 ], [ 129.330146067075873, 35.484809698831974 ], [ 129.326636206315982, 35.484816718427389 ], [ 129.319376587211593, 35.484830916608992 ], [ 129.319430475537359, 35.490986253346797 ], [ 129.319431387167242, 35.491106114905357 ], [ 129.319341989082233, 35.491106786228009 ], [ 129.314031040705345, 35.491137162720563 ], [ 129.313986071232819, 35.492375564126668 ], [ 129.312165518008328, 35.495377283565404 ], [ 129.311998640643907, 35.495574539146709 ], [ 129.311772804004931, 35.495810136547476 ], [ 129.311485946048663, 35.496000680459758 ], [ 129.310154555266763, 35.496788261006309 ], [ 129.309740573131705, 35.49699720911164 ], [ 129.309072714053855, 35.497269391243748 ], [ 129.308894543996757, 35.497674722885868 ], [ 129.308692915466537, 35.498495168470406 ], [ 129.308567378658836, 35.499807682864038 ], [ 129.308568601680975, 35.499903772185192 ], [ 129.309214636010438, 35.501119842170141 ], [ 129.308750962949091, 35.503486442907878 ], [ 129.308633103128329, 35.507702891696617 ], [ 129.308661620382821, 35.509029634405152 ], [ 129.30869493086189, 35.509535148530937 ], [ 129.3087592307904, 35.510256123740831 ], [ 129.309395633900095, 35.514454434709208 ], [ 129.309761020016168, 35.516442348210731 ], [ 129.309714400786731, 35.516652818827211 ], [ 129.309633937046755, 35.516874437045857 ], [ 129.309546361126706, 35.517007515513789 ], [ 129.30941149087252, 35.517173931358492 ], [ 129.309021440200581, 35.517507761533608 ], [ 129.308006116689114, 35.517922432129069 ], [ 129.311709887191341, 35.520734648083597 ], [ 129.312355025145081, 35.520801539406655 ], [ 129.313572701394975, 35.52090531558602 ], [ 129.314486824002955, 35.520962298813792 ], [ 129.314665123353109, 35.520546973711923 ], [ 129.31470641710672, 35.520425574978873 ], [ 129.314736224748799, 35.520412355488169 ], [ 129.315045043231635, 35.520312622635743 ], [ 129.317018534750588, 35.519675260504052 ], [ 129.318020325785795, 35.519351705029358 ], [ 129.318122035487107, 35.519347685179888 ], [ 129.31889491706238, 35.519317136639749 ], [ 129.322571040828905, 35.519171806601406 ], [ 129.324278589941457, 35.520045873195969 ], [ 129.32473746305746, 35.520929239233844 ], [ 129.324258160999563, 35.521606490326825 ], [ 129.327017561091566, 35.521722566519664 ], [ 129.327303216551826, 35.521712945263083 ], [ 129.327508080431471, 35.521681255332702 ], [ 129.327710407670594, 35.521637692675533 ], [ 129.327895157093451, 35.52158989757654 ], [ 129.328168288584607, 35.521470622522635 ], [ 129.328269708698315, 35.521384237773717 ], [ 129.328340179984309, 35.521292577745406 ], [ 129.3286702967184, 35.520765853847294 ], [ 129.328797515772521, 35.52045884068032 ], [ 129.329068277352178, 35.520060682267264 ], [ 129.329282377314769, 35.519745853511203 ], [ 129.332370487627514, 35.519292291968284 ], [ 129.332793311746343, 35.519269445092526 ], [ 129.332812399830004, 35.519364554237974 ], [ 129.332814339063958, 35.519404202261029 ] ] ] ] } }
]
}
