{
"type": "FeatureCollection",
"name": "ulleunggun",
"crs": { "type": "name", "properties": { "name": "urn:ogc:def:crs:OGC:1.3:CRS84" } },
"features": [
{ "type": "Feature", "properties": { "OBJECTID": 3088, "adm_nm": "경상북도 울릉군 울릉읍", "adm_cd": "3743011", "adm_cd2": "4794025000", "sgg": "47940", "sido": "47", "sidonm": "경상북도", "sggnm": "울릉군" }, "geometry": { "type": "MultiPolygon", "coordinates": [ [ [ [ 131.870327892922774, 37.241253908147641 ], [ 131.869951142043078, 37.240393907636204 ], [ 131.870493152392669, 37.240656035885387 ], [ 131.870985995713909, 37.240798668119581 ], [ 131.87129425048721, 37.240114812691438 ], [ 131.86998991614746, 37.238370579513592 ], [ 131.869828244206843, 37.23832752641686 ], [ 131.86962920225514, 37.238294301459206 ], [ 131.86949731579071, 37.238338406424617 ], [ 131.868309333120948, 37.239254619994874 ], [ 131.868102750415119, 37.239426087235003 ], [ 131.86840868698377, 37.240474056339139 ], [ 131.8687856551972, 37.241016435428129 ], [ 131.868838870092816, 37.241091565694227 ], [ 131.869124907070329, 37.241295210335153 ], [ 131.869370748483021, 37.241464605833094 ], [ 131.870296836674243, 37.241843477120355 ], [ 131.870374118182269, 37.241809910939523 ], [ 131.87034741136722, 37.241449199604112 ], [ 131.870327892922774, 37.241253908147641 ] ] ], [ [ [ 131.865265395916907, 37.240203924135479 ], [ 131.865206996571459, 37.240190996979997 ], [ 131.863386049163495, 37.240578937662477 ], [ 131.863196783589387, 37.240798442146392 ], [ 131.863244250507165, 37.242291313704477 ], [ 131.863464449601679, 37.242823989705919 ], [ 131.86528465131542, 37.244314578574354 ], [ 131.865488037922546, 37.244286909369535 ], [ 131.865743544031687, 37.244131663020013 ], [ 131.866185072917006, 37.243679272103137 ], [ 131.866231613588042, 37.24346509516706 ], [ 131.866259169878134, 37.242769248634822 ], [ 131.866153575371044, 37.242628875157457 ], [ 131.866864657960008, 37.241794914849955 ], [ 131.865717507039506, 37.24056160729716 ], [ 131.865636463678385, 37.240483204380546 ], [ 131.865265395916907, 37.240203924135479 ] ] ], [ [ [ 130.872554747456434, 37.45715930471755 ], [ 130.872360885654757, 37.457323560730622 ], [ 130.871760600773996, 37.458119972356599 ], [ 130.871694090867805, 37.458214171391383 ], [ 130.871218069486389, 37.459428974849473 ], [ 130.871206620194272, 37.459601382336096 ], [ 130.87124123352325, 37.459818428826459 ], [ 130.871258569924493, 37.459906438070902 ], [ 130.871259947967729, 37.460027727004828 ], [ 130.871242353300033, 37.460085381254885 ], [ 130.870808577562769, 37.460810831720487 ], [ 130.870720861354272, 37.46095639793942 ], [ 130.870545553119968, 37.461186883672262 ], [ 130.868415039284343, 37.463716618518575 ], [ 130.868045488758554, 37.46412812363603 ], [ 130.867866180634849, 37.464237909455129 ], [ 130.867590172851266, 37.464353616326918 ], [ 130.866586759965799, 37.465225249875452 ], [ 130.865315660881095, 37.466380175882271 ], [ 130.865157950122494, 37.466533369392209 ], [ 130.864966624745449, 37.46680722138246 ], [ 130.864894778254808, 37.466958163044168 ], [ 130.864848389956421, 37.467113281055106 ], [ 130.864835852385966, 37.467205735080988 ], [ 130.86481292192488, 37.46737483402714 ], [ 130.864806421949254, 37.467464603140129 ], [ 130.865736855719632, 37.46915774010197 ], [ 130.865822530064577, 37.469266627319847 ], [ 130.866005082505808, 37.469453525838205 ], [ 130.866230508813828, 37.469672574790366 ], [ 130.866640228953003, 37.470006583156675 ], [ 130.866873698196542, 37.470176291637863 ], [ 130.866946744385302, 37.470241778385677 ], [ 130.867011698831192, 37.470377408908952 ], [ 130.867030444590569, 37.470563518701134 ], [ 130.866996569094454, 37.470833395732349 ], [ 130.866970890298973, 37.470958815350514 ], [ 130.866836631774362, 37.471339164331901 ], [ 130.866728024233453, 37.471597666722687 ], [ 130.866635380366262, 37.471811599779919 ], [ 130.866451812035137, 37.472188921235499 ], [ 130.866306659059831, 37.472431916741925 ], [ 130.866121720550069, 37.472681398507071 ], [ 130.866008544229885, 37.472832866350046 ], [ 130.865874788335276, 37.472917137874546 ], [ 130.865583438273973, 37.473086840466642 ], [ 130.865376513516622, 37.473182330058869 ], [ 130.865263551375733, 37.473209550892285 ], [ 130.865109268419531, 37.473217682572987 ], [ 130.864789466428704, 37.473288061322407 ], [ 130.864641458501325, 37.473344962876183 ], [ 130.8644010423466, 37.473489744980483 ], [ 130.864144667622895, 37.473659485011822 ], [ 130.863991758817207, 37.473782385945675 ], [ 130.861642674591195, 37.475938934425237 ], [ 130.861597229481077, 37.476002489988076 ], [ 130.861572380744661, 37.476102933618378 ], [ 130.861566585141276, 37.47623819381775 ], [ 130.861576667278484, 37.476370179054484 ], [ 130.861597066537939, 37.476510817004474 ], [ 130.861629432563063, 37.476636894174305 ], [ 130.861710934195031, 37.476853089933293 ], [ 130.861813158279489, 37.477043170125611 ], [ 130.861917856107652, 37.477190441603845 ], [ 130.862165465513499, 37.477461553512704 ], [ 130.862319470916049, 37.477604703511133 ], [ 130.864233370652471, 37.481152391279885 ], [ 130.86473732203487, 37.482244047666832 ], [ 130.865130223411285, 37.484470229703724 ], [ 130.865212737075382, 37.485604879191264 ], [ 130.865243055567021, 37.486052971534512 ], [ 130.865253789193076, 37.486567970121584 ], [ 130.86524560804807, 37.486768729761906 ], [ 130.865229850343724, 37.486887990853091 ], [ 130.865190772550079, 37.486966504198378 ], [ 130.865120595186823, 37.487027519314893 ], [ 130.864972570279889, 37.487100084555145 ], [ 130.864727163116186, 37.487210356564226 ], [ 130.864668680596822, 37.487265580843534 ], [ 130.863573015449902, 37.488334975713542 ], [ 130.863350747431923, 37.488567478561819 ], [ 130.863054312788307, 37.488904626050129 ], [ 130.862937253745798, 37.489058691292236 ], [ 130.862839597648247, 37.489238953995269 ], [ 130.862819852086943, 37.489393148873106 ], [ 130.862830059236842, 37.490190358790542 ], [ 130.863554198926892, 37.494032813546362 ], [ 130.863618322365141, 37.499368872814912 ], [ 130.863637623807165, 37.499459080982199 ], [ 130.863680251240311, 37.499560978188022 ], [ 130.864622855453888, 37.501389229335444 ], [ 130.865031568319893, 37.501785405908329 ], [ 130.86568180592468, 37.502147379246374 ], [ 130.865961060688136, 37.502033080162597 ], [ 130.866238235853046, 37.501984293662709 ], [ 130.866431219295293, 37.501965159949066 ], [ 130.867078748102244, 37.502205451365747 ], [ 130.867321938798653, 37.502370797555315 ], [ 130.867613954311309, 37.502642634332297 ], [ 130.867890554084283, 37.502912169629049 ], [ 130.867936614547318, 37.502981264051058 ], [ 130.868663324285393, 37.504657236536424 ], [ 130.868706151534127, 37.504813752063569 ], [ 130.86873969929411, 37.504993258321029 ], [ 130.868766370594273, 37.505570854503937 ], [ 130.868753585636739, 37.505830846425738 ], [ 130.86875631671171, 37.506031025688841 ], [ 130.868771348009744, 37.506228945523581 ], [ 130.868844844657616, 37.506456837750626 ], [ 130.868952274290734, 37.50665483661367 ], [ 130.869124270959759, 37.506887417480328 ], [ 130.870503923091633, 37.508492778737264 ], [ 130.870593071847878, 37.508575718600497 ], [ 130.870709933110135, 37.50866099841712 ], [ 130.870955996843264, 37.50881312734289 ], [ 130.871601920709168, 37.509205010860555 ], [ 130.871755726695682, 37.509288036459267 ], [ 130.874352914660335, 37.510106871468977 ], [ 130.874581866663988, 37.510151486806116 ], [ 130.874782628513202, 37.510151705177307 ], [ 130.875294423258595, 37.510150148535885 ], [ 130.875574373025728, 37.510144107070083 ], [ 130.876173904742814, 37.510091924338191 ], [ 130.876445409811396, 37.510066864486227 ], [ 130.876903549030487, 37.510010303970127 ], [ 130.877125615501399, 37.509959837865075 ], [ 130.877176903006898, 37.509963086333542 ], [ 130.877452629993456, 37.510004158823932 ], [ 130.877568495847527, 37.510042306704726 ], [ 130.877661715015336, 37.510101566246412 ], [ 130.879700991687116, 37.51147497361471 ], [ 130.879822429074096, 37.511559598517508 ], [ 130.880404198833276, 37.512016600002099 ], [ 130.880678112611861, 37.512240829752166 ], [ 130.881177876767083, 37.512697733571017 ], [ 130.88128793559747, 37.512835179881371 ], [ 130.882230110823031, 37.514247546060972 ], [ 130.88228648863651, 37.514355352677967 ], [ 130.883492861622216, 37.516869016256514 ], [ 130.88350411044641, 37.516928198130444 ], [ 130.883075380600189, 37.518440040281057 ], [ 130.882839422514024, 37.519223678459021 ], [ 130.882745713494046, 37.519458111864289 ], [ 130.882643618168771, 37.519652385934009 ], [ 130.882581704565126, 37.521226424113792 ], [ 130.88277877676876, 37.523552899312868 ], [ 130.882787109107426, 37.523650093223402 ], [ 130.882812496394138, 37.523698713222231 ], [ 130.882871820599206, 37.523734694482201 ], [ 130.882945322496028, 37.523755895312711 ], [ 130.883007533708394, 37.523762301863982 ], [ 130.883131982514527, 37.523749750437311 ], [ 130.884303169949362, 37.523539636626168 ], [ 130.884634195584141, 37.523451215154267 ], [ 130.884866217378089, 37.523371164471222 ], [ 130.88515201882845, 37.52326158379006 ], [ 130.885585013876806, 37.523076070387404 ], [ 130.885941512657467, 37.522970779964261 ], [ 130.886719570016766, 37.522745471571277 ], [ 130.88712982820843, 37.52263178609445 ], [ 130.887554168647853, 37.52253922582161 ], [ 130.887721077256288, 37.522509798063084 ], [ 130.888575259905309, 37.52244937238693 ], [ 130.888651613973053, 37.522445197958909 ], [ 130.894934043354056, 37.522410126611476 ], [ 130.896842970967981, 37.522426643645744 ], [ 130.89712289740865, 37.522452241637971 ], [ 130.901876387861336, 37.523138623476804 ], [ 130.902049003159902, 37.523166930279302 ], [ 130.902234119291819, 37.523218675792748 ], [ 130.902419214973747, 37.523296213994726 ], [ 130.902507017054546, 37.523361963667725 ], [ 130.902582237988923, 37.52345348114136 ], [ 130.902666771214939, 37.523620058376252 ], [ 130.902694867845497, 37.523734996580146 ], [ 130.902694645591197, 37.5238944729157 ], [ 130.902574435637433, 37.524593231168062 ], [ 130.902505021389516, 37.524869918489422 ], [ 130.902438798784885, 37.525095003714497 ], [ 130.902341125380332, 37.525357570966833 ], [ 130.90226867116678, 37.525549814223098 ], [ 130.901288276425447, 37.528015752825759 ], [ 130.9006494261873, 37.529450865577118 ], [ 130.900629870933443, 37.529549874307222 ], [ 130.900653032289512, 37.529648898492042 ], [ 130.900715061867658, 37.529732508567051 ], [ 130.902864575029668, 37.531265919955011 ], [ 130.903035358826656, 37.531343419098114 ], [ 130.90491045917878, 37.531914304778702 ], [ 130.905426810531026, 37.532050878072297 ], [ 130.90615678391984, 37.532190696481777 ], [ 130.906385914935953, 37.532203269133376 ], [ 130.906859788438709, 37.532160328033846 ], [ 130.907060484398187, 37.5321411171264 ], [ 130.907148970152065, 37.532132646564413 ], [ 130.909469134676442, 37.528090987321633 ], [ 130.909976221023101, 37.527077840098421 ], [ 130.910243509444314, 37.525889106763913 ], [ 130.910562914742314, 37.524436455992593 ], [ 130.911746934889408, 37.524051994655949 ], [ 130.915696948168147, 37.522457023654283 ], [ 130.916097020061642, 37.521919349206826 ], [ 130.91746621660829, 37.517241061927791 ], [ 130.917404577586325, 37.516063224989054 ], [ 130.917162107133265, 37.514576786194652 ], [ 130.916352528511197, 37.512322559931938 ], [ 130.916048431766825, 37.511546085818679 ], [ 130.915126499820531, 37.510921191002154 ], [ 130.914155255544273, 37.51061255474346 ], [ 130.913827201305907, 37.510007362924981 ], [ 130.913845079898181, 37.509089102467186 ], [ 130.91412186564105, 37.508083580111339 ], [ 130.914579466659632, 37.506757426514241 ], [ 130.913567999417779, 37.501532526214383 ], [ 130.912708154937803, 37.500517826703565 ], [ 130.91236044030606, 37.498096731168566 ], [ 130.913070565171068, 37.496006613892689 ], [ 130.913039400376846, 37.495322621167588 ], [ 130.912325915696186, 37.493605035663613 ], [ 130.911835387348049, 37.490876128469033 ], [ 130.912533279859758, 37.490272267935239 ], [ 130.914311003653438, 37.490260572582528 ], [ 130.915876849486381, 37.490955840961178 ], [ 130.91599496853101, 37.491027225688669 ], [ 130.916256263426902, 37.491128684270592 ], [ 130.916449885557284, 37.491179996957783 ], [ 130.916571557436413, 37.491191611927661 ], [ 130.916794627220071, 37.491206419938756 ], [ 130.91698048000373, 37.491209989249072 ], [ 130.917195049511747, 37.491203183803783 ], [ 130.917371730202746, 37.491181916755757 ], [ 130.917519377728297, 37.491138978274407 ], [ 130.91872321500378, 37.490785705161834 ], [ 130.918840748831286, 37.490734546018786 ], [ 130.918916689598746, 37.490654455114338 ], [ 130.919063709573578, 37.49035447680243 ], [ 130.919110613821942, 37.490176366848964 ], [ 130.919393939179685, 37.488592702455868 ], [ 130.919409229958262, 37.488445831693959 ], [ 130.919163585130633, 37.488142952653533 ], [ 130.918665596375178, 37.487848456000968 ], [ 130.914997780857675, 37.486328693426032 ], [ 130.913826048588788, 37.485898349918891 ], [ 130.91144351845054, 37.485494099045098 ], [ 130.911315250046584, 37.485501053164583 ], [ 130.91117410511103, 37.485518537587588 ], [ 130.911079451698185, 37.485552959198536 ], [ 130.910937349347961, 37.48563935417225 ], [ 130.910737929807482, 37.485809546277615 ], [ 130.910548156140038, 37.485959227512836 ], [ 130.910082287481231, 37.486318147165825 ], [ 130.909979129335852, 37.486367678485678 ], [ 130.90970538098091, 37.486474189580811 ], [ 130.909565922231394, 37.486456051113279 ], [ 130.906924041010228, 37.48446040449808 ], [ 130.907800184430357, 37.483170938141598 ], [ 130.906083441093301, 37.480953160492021 ], [ 130.9052151872678, 37.480330262667103 ], [ 130.905099295595164, 37.480254914598049 ], [ 130.90499528489255, 37.480215351855023 ], [ 130.900244278976373, 37.478533596409861 ], [ 130.897752689021132, 37.47888796944364 ], [ 130.895359725467955, 37.479382783085661 ], [ 130.895056829838495, 37.479434965542218 ], [ 130.894799209388651, 37.479440159181806 ], [ 130.894539424134905, 37.47940384440475 ], [ 130.894271924960549, 37.479338781561097 ], [ 130.888342532648664, 37.477635675171932 ], [ 130.888146423994783, 37.47756758085751 ], [ 130.887848694558215, 37.477443431176347 ], [ 130.887620136772711, 37.477346459246178 ], [ 130.88193214676906, 37.474620910366276 ], [ 130.881847874150509, 37.474574580545067 ], [ 130.881778838308264, 37.474521820887048 ], [ 130.87994011186197, 37.472806517706346 ], [ 130.879851753351062, 37.472716997824975 ], [ 130.87835884965881, 37.471202341272736 ], [ 130.876206807251748, 37.469000609312097 ], [ 130.876056074619839, 37.468836710452329 ], [ 130.875896805682203, 37.468646413198776 ], [ 130.875075390738857, 37.467415927575942 ], [ 130.877827086879307, 37.464928870313983 ], [ 130.877631489974476, 37.464668801066892 ], [ 130.874189043516139, 37.46604059793647 ], [ 130.874136810144165, 37.465915541926414 ], [ 130.873874777871038, 37.465094214188895 ], [ 130.873749227313169, 37.46462815803465 ], [ 130.873702013572654, 37.464451777309804 ], [ 130.873658849789649, 37.464259387818288 ], [ 130.873285258101902, 37.460624307354031 ], [ 130.87345473735391, 37.459019346753479 ], [ 130.873460484098587, 37.458908485652145 ], [ 130.873459171290506, 37.458833757625023 ], [ 130.873452962256408, 37.458750531989601 ], [ 130.873419629414229, 37.458559571281569 ], [ 130.87340271677229, 37.458483268207416 ], [ 130.873372026118602, 37.458371938401662 ], [ 130.873344163624211, 37.45828056969475 ], [ 130.873318714584315, 37.45820408800229 ], [ 130.873245053219762, 37.458063137152543 ], [ 130.873158546881427, 37.457938762544281 ], [ 130.872554747456434, 37.45715930471755 ] ] ], [ [ [ 130.937690828558772, 37.528365436090766 ], [ 130.937349055251815, 37.52836756314592 ], [ 130.937222169242375, 37.528400396090944 ], [ 130.937159247166221, 37.528436648217472 ], [ 130.937099210291706, 37.528471263019831 ], [ 130.936514115179364, 37.528916595917899 ], [ 130.936474558412385, 37.528949842553821 ], [ 130.936438657699995, 37.52898330790638 ], [ 130.934980174406036, 37.530974647058571 ], [ 130.934945822883293, 37.53102451715462 ], [ 130.934866835722573, 37.53118022595374 ], [ 130.934752809993739, 37.531479047852869 ], [ 130.934693550692486, 37.531638575078212 ], [ 130.934657567860569, 37.531754517179671 ], [ 130.934635234513621, 37.531877269355377 ], [ 130.934629809760082, 37.531928124180588 ], [ 130.93463220947163, 37.53196814529165 ], [ 130.934640284545139, 37.532040362956955 ], [ 130.934826994543641, 37.533526930650375 ], [ 130.934892362121417, 37.533652055303222 ], [ 130.934960913771079, 37.533744615472877 ], [ 130.935190081451282, 37.534013359230379 ], [ 130.935309720323232, 37.534123062792958 ], [ 130.936435858508418, 37.535028685325102 ], [ 130.936521332258167, 37.535089836620351 ], [ 130.936562861576419, 37.535112485364387 ], [ 130.936660650120501, 37.535162995323887 ], [ 130.937188553691925, 37.5352021010277 ], [ 130.937353848879468, 37.53519033695045 ], [ 130.937517429188148, 37.535170603350096 ], [ 130.937726925635161, 37.53514194177648 ], [ 130.937808763601225, 37.535119086300604 ], [ 130.93942508654979, 37.53458281694904 ], [ 130.939510622951957, 37.534542814792211 ], [ 130.939550351996274, 37.534511070271869 ], [ 130.939639452010965, 37.534415268908916 ], [ 130.939753989560188, 37.534252786786773 ], [ 130.939824628807145, 37.534148394424157 ], [ 130.939943283711216, 37.533893757453001 ], [ 130.939994956462016, 37.533702737787721 ], [ 130.940003475125081, 37.5335722485896 ], [ 130.939990641617612, 37.533462114490248 ], [ 130.939983298110747, 37.533405136094984 ], [ 130.939974956165258, 37.533352916751156 ], [ 130.939352094465107, 37.529612746959572 ], [ 130.939322617313479, 37.529464290887141 ], [ 130.939219974697892, 37.529273061588555 ], [ 130.939105006801128, 37.529110608997883 ], [ 130.93893309418803, 37.528932034587775 ], [ 130.938698954774793, 37.528752236872961 ], [ 130.938609782066521, 37.52869487517885 ], [ 130.938454490956559, 37.528606320380369 ], [ 130.938387802132155, 37.52856992929091 ], [ 130.938209070443776, 37.528507827032762 ], [ 130.938039583699947, 37.528448951594136 ], [ 130.937863560812815, 37.528396525234648 ], [ 130.937813589757042, 37.528382408846419 ], [ 130.937771196934477, 37.528371468125499 ], [ 130.937690828558772, 37.528365436090766 ] ] ] ] } },
{ "type": "Feature", "properties": { "OBJECTID": 3089, "adm_nm": "경상북도 울릉군 서면", "adm_cd": "3743031", "adm_cd2": "4794031000", "sgg": "47940", "sido": "47", "sidonm": "경상북도", "sggnm": "울릉군" }, "geometry": { "type": "MultiPolygon", "coordinates": [ [ [ [ 130.800041251098634, 37.52428378521369 ], [ 130.800930341982991, 37.523089350965044 ], [ 130.80101854332375, 37.523018665824587 ], [ 130.801113468500063, 37.522978373344976 ], [ 130.801303146214252, 37.522948350254538 ], [ 130.802000832728083, 37.522868590329168 ], [ 130.804804883541266, 37.522630498321377 ], [ 130.80489970654537, 37.522625607640116 ], [ 130.804960563885828, 37.522656062150169 ], [ 130.805055002986791, 37.522792788066262 ], [ 130.805156331718109, 37.522884028056033 ], [ 130.805298432491384, 37.52292472710058 ], [ 130.80545414412498, 37.522940148029519 ], [ 130.807234648223073, 37.523104967162311 ], [ 130.807391426808607, 37.523086743013046 ], [ 130.807492036221362, 37.523075042439942 ], [ 130.810099915182093, 37.522755576577168 ], [ 130.810255789770736, 37.522710299790873 ], [ 130.811760484492225, 37.522152030552533 ], [ 130.812097818285082, 37.522008736590088 ], [ 130.816930643759434, 37.520738070591385 ], [ 130.823996578857788, 37.520051388109941 ], [ 130.826033769446866, 37.520074003250535 ], [ 130.826154175500932, 37.520093733839261 ], [ 130.826358327250119, 37.520141014380691 ], [ 130.828751494626857, 37.520226729821182 ], [ 130.835631585599089, 37.519949239512869 ], [ 130.835757315186527, 37.519933754911733 ], [ 130.838703449683379, 37.519365181086634 ], [ 130.841051298475435, 37.518597603182855 ], [ 130.84119807488446, 37.518531288889591 ], [ 130.84133972446736, 37.518418015360751 ], [ 130.841549833441547, 37.518124839547021 ], [ 130.842154117539877, 37.51717486520019 ], [ 130.842437921087395, 37.516701799284206 ], [ 130.84266899952766, 37.516389088330506 ], [ 130.842805496252652, 37.516232774973766 ], [ 130.842889413169985, 37.516174191471151 ], [ 130.843890455071147, 37.515795998538728 ], [ 130.844021468194256, 37.515757044856052 ], [ 130.844089557252659, 37.515745398024151 ], [ 130.845812222231615, 37.51586508371846 ], [ 130.846021684205596, 37.515881015184569 ], [ 130.84627293811937, 37.515928307367545 ], [ 130.846477054323032, 37.515987264720806 ], [ 130.846702163341064, 37.51601886217864 ], [ 130.846827863391638, 37.516015117122244 ], [ 130.846969278080849, 37.516003565248475 ], [ 130.847147457001682, 37.515949022210009 ], [ 130.847273237351828, 37.5158904912889 ], [ 130.847420163991416, 37.51575374492004 ], [ 130.847761398344431, 37.515351176650121 ], [ 130.848580824441171, 37.513356306115512 ], [ 130.848619350815369, 37.513233378009417 ], [ 130.848747035697272, 37.512564193894761 ], [ 130.848809043963541, 37.51220388447296 ], [ 130.848809433721499, 37.512006494727849 ], [ 130.848786825548302, 37.511829137474137 ], [ 130.848718505498084, 37.511543007769397 ], [ 130.848657585554491, 37.511388456497237 ], [ 130.848565967301653, 37.511265350664999 ], [ 130.84824524375631, 37.510873037186208 ], [ 130.848138441798881, 37.510689835096976 ], [ 130.848111820412612, 37.510606858526039 ], [ 130.848096657405819, 37.510532458319133 ], [ 130.848116175337196, 37.510343684001427 ], [ 130.848255751151925, 37.509480018476978 ], [ 130.849353771634128, 37.504129656225835 ], [ 130.849632316055846, 37.50391119547605 ], [ 130.850157657752504, 37.503838859506317 ], [ 130.854576334967447, 37.503740832202318 ], [ 130.854836638467958, 37.503819566186031 ], [ 130.859881777923647, 37.503008467112018 ], [ 130.862706506566042, 37.502109717992489 ], [ 130.863189021705665, 37.502020597658401 ], [ 130.864176239076215, 37.5020355225207 ], [ 130.8647455579287, 37.502047352155593 ], [ 130.86568180592468, 37.502147379246374 ], [ 130.865031568319893, 37.501785405908329 ], [ 130.864622855453888, 37.501389229335444 ], [ 130.863680251240311, 37.499560978188022 ], [ 130.863637623807165, 37.499459080982199 ], [ 130.863618322365141, 37.499368872814912 ], [ 130.863554198926892, 37.494032813546362 ], [ 130.862830059236842, 37.490190358790542 ], [ 130.862819852086943, 37.489393148873106 ], [ 130.862839597648247, 37.489238953995269 ], [ 130.862937253745798, 37.489058691292236 ], [ 130.863054312788307, 37.488904626050129 ], [ 130.863350747431923, 37.488567478561819 ], [ 130.863573015449902, 37.488334975713542 ], [ 130.864668680596822, 37.487265580843534 ], [ 130.864727163116186, 37.487210356564226 ], [ 130.864972570279889, 37.487100084555145 ], [ 130.865120595186823, 37.487027519314893 ], [ 130.865190772550079, 37.486966504198378 ], [ 130.865229850343724, 37.486887990853091 ], [ 130.86524560804807, 37.486768729761906 ], [ 130.865253789193076, 37.486567970121584 ], [ 130.865243055567021, 37.486052971534512 ], [ 130.865212737075382, 37.485604879191264 ], [ 130.865130223411285, 37.484470229703724 ], [ 130.86473732203487, 37.482244047666832 ], [ 130.864233370652471, 37.481152391279885 ], [ 130.862319470916049, 37.477604703511133 ], [ 130.862165465513499, 37.477461553512704 ], [ 130.861917856107652, 37.477190441603845 ], [ 130.861813158279489, 37.477043170125611 ], [ 130.861710934195031, 37.476853089933293 ], [ 130.861629432563063, 37.476636894174305 ], [ 130.861597066537939, 37.476510817004474 ], [ 130.861576667278484, 37.476370179054484 ], [ 130.861566585141276, 37.47623819381775 ], [ 130.861572380744661, 37.476102933618378 ], [ 130.861597229481077, 37.476002489988076 ], [ 130.861642674591195, 37.475938934425237 ], [ 130.863991758817207, 37.473782385945675 ], [ 130.864144667622895, 37.473659485011822 ], [ 130.8644010423466, 37.473489744980483 ], [ 130.864641458501325, 37.473344962876183 ], [ 130.864789466428704, 37.473288061322407 ], [ 130.865109268419531, 37.473217682572987 ], [ 130.865263551375733, 37.473209550892285 ], [ 130.865376513516622, 37.473182330058869 ], [ 130.865583438273973, 37.473086840466642 ], [ 130.865874788335276, 37.472917137874546 ], [ 130.866008544229885, 37.472832866350046 ], [ 130.866121720550069, 37.472681398507071 ], [ 130.866306659059831, 37.472431916741925 ], [ 130.866451812035137, 37.472188921235499 ], [ 130.866635380366262, 37.471811599779919 ], [ 130.866728024233453, 37.471597666722687 ], [ 130.866836631774362, 37.471339164331901 ], [ 130.866970890298973, 37.470958815350514 ], [ 130.866996569094454, 37.470833395732349 ], [ 130.867030444590569, 37.470563518701134 ], [ 130.867011698831192, 37.470377408908952 ], [ 130.866946744385302, 37.470241778385677 ], [ 130.866873698196542, 37.470176291637863 ], [ 130.866640228953003, 37.470006583156675 ], [ 130.866230508813828, 37.469672574790366 ], [ 130.866005082505808, 37.469453525838205 ], [ 130.865822530064577, 37.469266627319847 ], [ 130.865736855719632, 37.46915774010197 ], [ 130.864806421949254, 37.467464603140129 ], [ 130.86481292192488, 37.46737483402714 ], [ 130.864835852385966, 37.467205735080988 ], [ 130.864848389956421, 37.467113281055106 ], [ 130.864894778254808, 37.466958163044168 ], [ 130.864966624745449, 37.46680722138246 ], [ 130.865157950122494, 37.466533369392209 ], [ 130.865315660881095, 37.466380175882271 ], [ 130.866586759965799, 37.465225249875452 ], [ 130.867590172851266, 37.464353616326918 ], [ 130.867866180634849, 37.464237909455129 ], [ 130.868045488758554, 37.46412812363603 ], [ 130.868415039284343, 37.463716618518575 ], [ 130.870545553119968, 37.461186883672262 ], [ 130.870720861354272, 37.46095639793942 ], [ 130.870808577562769, 37.460810831720487 ], [ 130.871242353300033, 37.460085381254885 ], [ 130.871259947967729, 37.460027727004828 ], [ 130.871258569924493, 37.459906438070902 ], [ 130.87124123352325, 37.459818428826459 ], [ 130.871206620194272, 37.459601382336096 ], [ 130.871218069486389, 37.459428974849473 ], [ 130.871694090867805, 37.458214171391383 ], [ 130.871760600773996, 37.458119972356599 ], [ 130.872360885654757, 37.457323560730622 ], [ 130.872554747456434, 37.45715930471755 ], [ 130.872110864870109, 37.456893212406733 ], [ 130.871416281638488, 37.457116659545193 ], [ 130.870037060990654, 37.457977345516227 ], [ 130.869538075981211, 37.458534237544264 ], [ 130.868941447479756, 37.459634881390983 ], [ 130.868545543181938, 37.46072893397649 ], [ 130.86777017802774, 37.461775356109563 ], [ 130.866858425551584, 37.46261398759863 ], [ 130.865678878930055, 37.463133096516742 ], [ 130.864026731953061, 37.463747747341323 ], [ 130.862073487952244, 37.464372227974124 ], [ 130.860922760786963, 37.464670129235387 ], [ 130.86034260413328, 37.464629043926344 ], [ 130.857080325909067, 37.464235188536072 ], [ 130.856336281969703, 37.463939170406434 ], [ 130.856094030534706, 37.463626761212076 ], [ 130.855582990688106, 37.463463270041615 ], [ 130.85418413607286, 37.463629068804948 ], [ 130.852873900407644, 37.464052227019046 ], [ 130.852099757243792, 37.464638062682845 ], [ 130.851542771884425, 37.465683214499208 ], [ 130.851160837064981, 37.466076056617034 ], [ 130.848471622941474, 37.467545145325026 ], [ 130.847997973378256, 37.467620649980418 ], [ 130.84368509900662, 37.467520923135503 ], [ 130.839635232916862, 37.466799094152627 ], [ 130.838311542223693, 37.466962265854903 ], [ 130.837266362742866, 37.467656921289425 ], [ 130.83685995106606, 37.468751208602242 ], [ 130.836314541105992, 37.469389567951133 ], [ 130.834693068562274, 37.469907605234212 ], [ 130.834343298034753, 37.470019336099391 ], [ 130.831556286370557, 37.470875908746109 ], [ 130.830563060888636, 37.470117424818028 ], [ 130.829176786531889, 37.470340520809422 ], [ 130.827206950547719, 37.472274728837753 ], [ 130.82701318932564, 37.472859921032239 ], [ 130.827270487905196, 37.473519560107185 ], [ 130.826873890187727, 37.474512105730142 ], [ 130.824586275650006, 37.476408971656902 ], [ 130.822660087450799, 37.477094428804506 ], [ 130.820436356617307, 37.477344548842886 ], [ 130.8179018073279, 37.476981244859928 ], [ 130.811467335465721, 37.47799076531772 ], [ 130.808473954400711, 37.479601458330706 ], [ 130.807271308888204, 37.48124341934512 ], [ 130.807048006418228, 37.482349092931031 ], [ 130.807075690277117, 37.484797246880682 ], [ 130.805905242449398, 37.486275048569475 ], [ 130.803710497524634, 37.487102843515835 ], [ 130.80161607830874, 37.487704712319335 ], [ 130.800184161026124, 37.488845399935926 ], [ 130.800017852310674, 37.48906866384079 ], [ 130.799416366286806, 37.492262877526066 ], [ 130.79919727249424, 37.494634166546547 ], [ 130.799550550870293, 37.496581733625895 ], [ 130.800679804021485, 37.498774525220391 ], [ 130.802148814170124, 37.502645091609274 ], [ 130.802288294790401, 37.503721395246423 ], [ 130.801383917962767, 37.504290936460272 ], [ 130.800215161222752, 37.50466632269324 ], [ 130.799412590297692, 37.505570309297781 ], [ 130.799819828998523, 37.50690819527059 ], [ 130.801212815755207, 37.507606375661993 ], [ 130.802937803697063, 37.508158756131742 ], [ 130.802819764020938, 37.509175796228455 ], [ 130.802190005780119, 37.510141784009328 ], [ 130.799747064839238, 37.5104906878775 ], [ 130.798178581395774, 37.511351765429573 ], [ 130.796092200914813, 37.513961268450927 ], [ 130.795604518005689, 37.514577851878308 ], [ 130.795891347259555, 37.515582646008681 ], [ 130.793893372122312, 37.518050507860302 ], [ 130.790792520806974, 37.519239305572924 ], [ 130.789284672688723, 37.52300580577198 ], [ 130.78937732524426, 37.523904181366078 ], [ 130.79040645759909, 37.524659800046912 ], [ 130.791575026641254, 37.525373383319597 ], [ 130.791875148102008, 37.526640640894385 ], [ 130.791430663737515, 37.527180718345626 ], [ 130.790236221917183, 37.527819991561913 ], [ 130.790038845532507, 37.528658762298583 ], [ 130.794136290047533, 37.529159001240053 ], [ 130.794658095412331, 37.529186744622891 ], [ 130.795585163708978, 37.528958103456254 ], [ 130.79595953165915, 37.528639498602843 ], [ 130.798695134711039, 37.528633343715256 ], [ 130.799594250425002, 37.524466446094266 ], [ 130.800041251098634, 37.52428378521369 ] ] ] ] } },
{ "type": "Feature", "properties": { "OBJECTID": 3090, "adm_nm": "경상북도 울릉군 북면", "adm_cd": "3743032", "adm_cd2": "4794032000", "sgg": "47940", "sido": "47", "sidonm": "경상북도", "sggnm": "울릉군" }, "geometry": { "type": "MultiPolygon", "coordinates": [ [ [ [ 130.921642960571631, 37.545551352874234 ], [ 130.921480273095796, 37.545489121650419 ], [ 130.92133415386462, 37.545500096816852 ], [ 130.920776314889025, 37.545689064171455 ], [ 130.919471472691896, 37.546240313365004 ], [ 130.919176434063331, 37.546374691945736 ], [ 130.918742780363999, 37.546593050267532 ], [ 130.918660381533584, 37.546685861944553 ], [ 130.91861908670819, 37.546778800217048 ], [ 130.918618923238512, 37.546919109820401 ], [ 130.918721488597384, 37.547209954369613 ], [ 130.91880872436937, 37.547362658227456 ], [ 130.919061792710352, 37.547548640246248 ], [ 130.919327146277283, 37.547691592329294 ], [ 130.922766392659611, 37.549277924980288 ], [ 130.922883539450766, 37.549306271614725 ], [ 130.922985092491331, 37.549277459957814 ], [ 130.923096031066052, 37.54917547785157 ], [ 130.92366114040982, 37.548423116273753 ], [ 130.92406263821519, 37.548397965206966 ], [ 130.924098150355121, 37.548391280778404 ], [ 130.924128287998684, 37.548377810618277 ], [ 130.924149536025425, 37.548350106890751 ], [ 130.924159026231308, 37.548310127735171 ], [ 130.924150605294017, 37.548249127972795 ], [ 130.924135451607015, 37.548203964940726 ], [ 130.924113733269962, 37.548142211547429 ], [ 130.923678962498172, 37.546994585389506 ], [ 130.923477121694873, 37.546730680635534 ], [ 130.922054405008936, 37.545787021779148 ], [ 130.92183521924963, 37.545643945401409 ], [ 130.921642960571631, 37.545551352874234 ] ] ], [ [ [ 130.907148970152065, 37.532132646564413 ], [ 130.907060484398187, 37.5321411171264 ], [ 130.906859788438709, 37.532160328033846 ], [ 130.906385914935953, 37.532203269133376 ], [ 130.90615678391984, 37.532190696481777 ], [ 130.905426810531026, 37.532050878072297 ], [ 130.90491045917878, 37.531914304778702 ], [ 130.903035358826656, 37.531343419098114 ], [ 130.902864575029668, 37.531265919955011 ], [ 130.900715061867658, 37.529732508567051 ], [ 130.900653032289512, 37.529648898492042 ], [ 130.900629870933443, 37.529549874307222 ], [ 130.9006494261873, 37.529450865577118 ], [ 130.901288276425447, 37.528015752825759 ], [ 130.90226867116678, 37.525549814223098 ], [ 130.902341125380332, 37.525357570966833 ], [ 130.902438798784885, 37.525095003714497 ], [ 130.902505021389516, 37.524869918489422 ], [ 130.902574435637433, 37.524593231168062 ], [ 130.902694645591197, 37.5238944729157 ], [ 130.902694867845497, 37.523734996580146 ], [ 130.902666771214939, 37.523620058376252 ], [ 130.902582237988923, 37.52345348114136 ], [ 130.902507017054546, 37.523361963667725 ], [ 130.902419214973747, 37.523296213994726 ], [ 130.902234119291819, 37.523218675792748 ], [ 130.902049003159902, 37.523166930279302 ], [ 130.901876387861336, 37.523138623476804 ], [ 130.89712289740865, 37.522452241637971 ], [ 130.896842970967981, 37.522426643645744 ], [ 130.894934043354056, 37.522410126611476 ], [ 130.888651613973053, 37.522445197958909 ], [ 130.888575259905309, 37.52244937238693 ], [ 130.887721077256288, 37.522509798063084 ], [ 130.887554168647853, 37.52253922582161 ], [ 130.88712982820843, 37.52263178609445 ], [ 130.886719570016766, 37.522745471571277 ], [ 130.885941512657467, 37.522970779964261 ], [ 130.885585013876806, 37.523076070387404 ], [ 130.88515201882845, 37.52326158379006 ], [ 130.884866217378089, 37.523371164471222 ], [ 130.884634195584141, 37.523451215154267 ], [ 130.884303169949362, 37.523539636626168 ], [ 130.883131982514527, 37.523749750437311 ], [ 130.883007533708394, 37.523762301863982 ], [ 130.882945322496028, 37.523755895312711 ], [ 130.882871820599206, 37.523734694482201 ], [ 130.882812496394138, 37.523698713222231 ], [ 130.882787109107426, 37.523650093223402 ], [ 130.88277877676876, 37.523552899312868 ], [ 130.882581704565126, 37.521226424113792 ], [ 130.882643618168771, 37.519652385934009 ], [ 130.882745713494046, 37.519458111864289 ], [ 130.882839422514024, 37.519223678459021 ], [ 130.883075380600189, 37.518440040281057 ], [ 130.88350411044641, 37.516928198130444 ], [ 130.883492861622216, 37.516869016256514 ], [ 130.88228648863651, 37.514355352677967 ], [ 130.882230110823031, 37.514247546060972 ], [ 130.88128793559747, 37.512835179881371 ], [ 130.881177876767083, 37.512697733571017 ], [ 130.880678112611861, 37.512240829752166 ], [ 130.880404198833276, 37.512016600002099 ], [ 130.879822429074096, 37.511559598517508 ], [ 130.879700991687116, 37.51147497361471 ], [ 130.877661715015336, 37.510101566246412 ], [ 130.877568495847527, 37.510042306704726 ], [ 130.877452629993456, 37.510004158823932 ], [ 130.877176903006898, 37.509963086333542 ], [ 130.877125615501399, 37.509959837865075 ], [ 130.876903549030487, 37.510010303970127 ], [ 130.876445409811396, 37.510066864486227 ], [ 130.876173904742814, 37.510091924338191 ], [ 130.875574373025728, 37.510144107070083 ], [ 130.875294423258595, 37.510150148535885 ], [ 130.874782628513202, 37.510151705177307 ], [ 130.874581866663988, 37.510151486806116 ], [ 130.874352914660335, 37.510106871468977 ], [ 130.871755726695682, 37.509288036459267 ], [ 130.871601920709168, 37.509205010860555 ], [ 130.870955996843264, 37.50881312734289 ], [ 130.870709933110135, 37.50866099841712 ], [ 130.870593071847878, 37.508575718600497 ], [ 130.870503923091633, 37.508492778737264 ], [ 130.869124270959759, 37.506887417480328 ], [ 130.868952274290734, 37.50665483661367 ], [ 130.868844844657616, 37.506456837750626 ], [ 130.868771348009744, 37.506228945523581 ], [ 130.86875631671171, 37.506031025688841 ], [ 130.868753585636739, 37.505830846425738 ], [ 130.868766370594273, 37.505570854503937 ], [ 130.86873969929411, 37.504993258321029 ], [ 130.868706151534127, 37.504813752063569 ], [ 130.868663324285393, 37.504657236536424 ], [ 130.867936614547318, 37.502981264051058 ], [ 130.867890554084283, 37.502912169629049 ], [ 130.867613954311309, 37.502642634332297 ], [ 130.867321938798653, 37.502370797555315 ], [ 130.867078748102244, 37.502205451365747 ], [ 130.866431219295293, 37.501965159949066 ], [ 130.866238235853046, 37.501984293662709 ], [ 130.865961060688136, 37.502033080162597 ], [ 130.86568180592468, 37.502147379246374 ], [ 130.8647455579287, 37.502047352155593 ], [ 130.864176239076215, 37.5020355225207 ], [ 130.863189021705665, 37.502020597658401 ], [ 130.862706506566042, 37.502109717992489 ], [ 130.859881777923647, 37.503008467112018 ], [ 130.854836638467958, 37.503819566186031 ], [ 130.854576334967447, 37.503740832202318 ], [ 130.850157657752504, 37.503838859506317 ], [ 130.849632316055846, 37.50391119547605 ], [ 130.849353771634128, 37.504129656225835 ], [ 130.848255751151925, 37.509480018476978 ], [ 130.848116175337196, 37.510343684001427 ], [ 130.848096657405819, 37.510532458319133 ], [ 130.848111820412612, 37.510606858526039 ], [ 130.848138441798881, 37.510689835096976 ], [ 130.84824524375631, 37.510873037186208 ], [ 130.848565967301653, 37.511265350664999 ], [ 130.848657585554491, 37.511388456497237 ], [ 130.848718505498084, 37.511543007769397 ], [ 130.848786825548302, 37.511829137474137 ], [ 130.848809433721499, 37.512006494727849 ], [ 130.848809043963541, 37.51220388447296 ], [ 130.848747035697272, 37.512564193894761 ], [ 130.848619350815369, 37.513233378009417 ], [ 130.848580824441171, 37.513356306115512 ], [ 130.847761398344431, 37.515351176650121 ], [ 130.847420163991416, 37.51575374492004 ], [ 130.847273237351828, 37.5158904912889 ], [ 130.847147457001682, 37.515949022210009 ], [ 130.846969278080849, 37.516003565248475 ], [ 130.846827863391638, 37.516015117122244 ], [ 130.846702163341064, 37.51601886217864 ], [ 130.846477054323032, 37.515987264720806 ], [ 130.84627293811937, 37.515928307367545 ], [ 130.846021684205596, 37.515881015184569 ], [ 130.845812222231615, 37.51586508371846 ], [ 130.844089557252659, 37.515745398024151 ], [ 130.844021468194256, 37.515757044856052 ], [ 130.843890455071147, 37.515795998538728 ], [ 130.842889413169985, 37.516174191471151 ], [ 130.842805496252652, 37.516232774973766 ], [ 130.84266899952766, 37.516389088330506 ], [ 130.842437921087395, 37.516701799284206 ], [ 130.842154117539877, 37.51717486520019 ], [ 130.841549833441547, 37.518124839547021 ], [ 130.84133972446736, 37.518418015360751 ], [ 130.84119807488446, 37.518531288889591 ], [ 130.841051298475435, 37.518597603182855 ], [ 130.838703449683379, 37.519365181086634 ], [ 130.835757315186527, 37.519933754911733 ], [ 130.835631585599089, 37.519949239512869 ], [ 130.828751494626857, 37.520226729821182 ], [ 130.826358327250119, 37.520141014380691 ], [ 130.826154175500932, 37.520093733839261 ], [ 130.826033769446866, 37.520074003250535 ], [ 130.823996578857788, 37.520051388109941 ], [ 130.816930643759434, 37.520738070591385 ], [ 130.812097818285082, 37.522008736590088 ], [ 130.811760484492225, 37.522152030552533 ], [ 130.810255789770736, 37.522710299790873 ], [ 130.810099915182093, 37.522755576577168 ], [ 130.807492036221362, 37.523075042439942 ], [ 130.807391426808607, 37.523086743013046 ], [ 130.807234648223073, 37.523104967162311 ], [ 130.80545414412498, 37.522940148029519 ], [ 130.805298432491384, 37.52292472710058 ], [ 130.805156331718109, 37.522884028056033 ], [ 130.805055002986791, 37.522792788066262 ], [ 130.804960563885828, 37.522656062150169 ], [ 130.80489970654537, 37.522625607640116 ], [ 130.804804883541266, 37.522630498321377 ], [ 130.802000832728083, 37.522868590329168 ], [ 130.801303146214252, 37.522948350254538 ], [ 130.801113468500063, 37.522978373344976 ], [ 130.80101854332375, 37.523018665824587 ], [ 130.800930341982991, 37.523089350965044 ], [ 130.800041251098634, 37.52428378521369 ], [ 130.800350385543226, 37.524076743033994 ], [ 130.800439931745899, 37.52404018291891 ], [ 130.800812313456333, 37.524009993684984 ], [ 130.801651384930608, 37.523998363978819 ], [ 130.801759443541499, 37.524001588048421 ], [ 130.801927361947918, 37.524013119443893 ], [ 130.802262385624005, 37.524076202103586 ], [ 130.80239865274072, 37.52412972660531 ], [ 130.802541324035587, 37.52418676566095 ], [ 130.802736503803175, 37.524271952264876 ], [ 130.802907778918382, 37.524361445022691 ], [ 130.802988038229955, 37.524424748322168 ], [ 130.803088510970781, 37.524515486077824 ], [ 130.803984808035096, 37.525967590206974 ], [ 130.804055759024408, 37.526092800693739 ], [ 130.809602231995058, 37.526721207832928 ], [ 130.809707162551916, 37.526730091989108 ], [ 130.8107774598177, 37.526855315128763 ], [ 130.81132190796248, 37.526931050426036 ], [ 130.811572737141461, 37.526971353881137 ], [ 130.811718557015098, 37.527009998937118 ], [ 130.811888882289196, 37.527079106030286 ], [ 130.812335306741318, 37.527263665174253 ], [ 130.812641552573211, 37.527429713931056 ], [ 130.812977042998767, 37.527663774759112 ], [ 130.813403563894326, 37.527970007972982 ], [ 130.813604707828745, 37.528116773699224 ], [ 130.813763107487404, 37.52823427614085 ], [ 130.813791810468075, 37.528266105728825 ], [ 130.814243211757145, 37.528816503503556 ], [ 130.817833997389812, 37.531326196773726 ], [ 130.822789215341771, 37.534667108585751 ], [ 130.822902133068141, 37.534741035350166 ], [ 130.823009294116872, 37.534799976197014 ], [ 130.82311623804668, 37.534839457650264 ], [ 130.823265368241465, 37.534889184700262 ], [ 130.823319674724445, 37.534893339844324 ], [ 130.82344008007513, 37.534894799317598 ], [ 130.823690774274326, 37.5348939184343 ], [ 130.824050583578185, 37.534881457159543 ], [ 130.824336683611847, 37.534868901624051 ], [ 130.824566306649501, 37.534854702657142 ], [ 130.826219770468271, 37.534750870153488 ], [ 130.826913186050774, 37.534697359835988 ], [ 130.826979811882723, 37.534690825442929 ], [ 130.827048234241204, 37.534674953175639 ], [ 130.827107126106881, 37.534658755940725 ], [ 130.827186236142978, 37.534624433070967 ], [ 130.827244809017628, 37.53458811806788 ], [ 130.827292490569306, 37.534533982792297 ], [ 130.827315536814865, 37.534482655151635 ], [ 130.82733292158585, 37.534435879413103 ], [ 130.827343660626838, 37.53437724970707 ], [ 130.827350238376084, 37.534314853309915 ], [ 130.82734329105827, 37.534254833154939 ], [ 130.827315565156283, 37.534190568112649 ], [ 130.827288222426432, 37.534152977090933 ], [ 130.82726216051762, 37.534121696345586 ], [ 130.827219861106414, 37.534094508088806 ], [ 130.827172000114984, 37.534078338740201 ], [ 130.82712831206004, 37.534064519421968 ], [ 130.827064783450709, 37.534055640184313 ], [ 130.826992975667508, 37.534053912942966 ], [ 130.826868305615278, 37.534061109516408 ], [ 130.826754481702721, 37.53407341398718 ], [ 130.826708161092427, 37.534085444519398 ], [ 130.826664590824407, 37.534106430566034 ], [ 130.82661930839015, 37.534136160114123 ], [ 130.826591122879591, 37.534172828768881 ], [ 130.823893195546361, 37.534305683390293 ], [ 130.823629785848709, 37.534276801779647 ], [ 130.823339182663261, 37.534148852161678 ], [ 130.823174593731096, 37.534035503659034 ], [ 130.823031561398835, 37.53389432041191 ], [ 130.822146008415473, 37.532430828783546 ], [ 130.82332675551686, 37.531816717972845 ], [ 130.827179462595211, 37.531373277478195 ], [ 130.827312492004495, 37.531405433373507 ], [ 130.829033941292437, 37.531896123016473 ], [ 130.82914034947575, 37.531927813573112 ], [ 130.829207049118168, 37.531954981046916 ], [ 130.829267233908979, 37.531986429945206 ], [ 130.829329033461647, 37.532036876067558 ], [ 130.829825345851162, 37.532506681032615 ], [ 130.829918001125634, 37.533393507655084 ], [ 130.833390304370454, 37.535154016180925 ], [ 130.833831727646242, 37.535341208751142 ], [ 130.83758949768216, 37.536573913209367 ], [ 130.840040659407606, 37.538357833787209 ], [ 130.840152826959553, 37.538432042249461 ], [ 130.840540547410029, 37.538626291186503 ], [ 130.840806392237084, 37.538744966313253 ], [ 130.841069007181943, 37.538852131505521 ], [ 130.841314998051388, 37.53894677151429 ], [ 130.841589950101366, 37.539041999655247 ], [ 130.844734350409368, 37.53998008587574 ], [ 130.84495301549569, 37.540027307697486 ], [ 130.845058538898542, 37.540037518803757 ], [ 130.845624893841347, 37.540071095569111 ], [ 130.845748666394769, 37.540072879792106 ], [ 130.845852966926685, 37.540071433086524 ], [ 130.84651809035995, 37.540055270953516 ], [ 130.846684671941802, 37.540049026558293 ], [ 130.84679587675771, 37.540041188110735 ], [ 130.84694850485397, 37.540025555713036 ], [ 130.847341958501403, 37.539975808003057 ], [ 130.84749626058391, 37.539948793298642 ], [ 130.847616337791891, 37.539921258634315 ], [ 130.847810207281725, 37.539858798438942 ], [ 130.847958387674083, 37.539798087943261 ], [ 130.84808800638686, 37.539738589765648 ], [ 130.848842628332164, 37.539306574395695 ], [ 130.849231875024856, 37.539048688133164 ], [ 130.849861339115762, 37.538827127643493 ], [ 130.850071803131726, 37.538775101362795 ], [ 130.850112633987806, 37.538769411674963 ], [ 130.850223857427977, 37.538767548276773 ], [ 130.855596373774375, 37.538958946765533 ], [ 130.858903665468006, 37.539122430139145 ], [ 130.859030097508196, 37.539146057614722 ], [ 130.859893175340403, 37.539330217442057 ], [ 130.866880920323155, 37.540844369615222 ], [ 130.867002980630673, 37.540885553915174 ], [ 130.867135341483277, 37.54097749404621 ], [ 130.868610018636645, 37.542581741723914 ], [ 130.868670925867463, 37.542688482736253 ], [ 130.86928046285891, 37.543232619505829 ], [ 130.873971272219137, 37.546676519109681 ], [ 130.874378523146447, 37.546879237883005 ], [ 130.875544539682267, 37.547170077138595 ], [ 130.875649129571116, 37.547194701579613 ], [ 130.875731378249128, 37.547199829046193 ], [ 130.879520017519638, 37.547323445740467 ], [ 130.884775537209038, 37.546374525247806 ], [ 130.887780882611565, 37.545535420276039 ], [ 130.887823570608958, 37.545492267450349 ], [ 130.888110321891133, 37.545263137077356 ], [ 130.889115577621425, 37.544565967936101 ], [ 130.88945253164357, 37.544409147305402 ], [ 130.889663885407629, 37.54436061694112 ], [ 130.889716301734012, 37.544356034679431 ], [ 130.890337437593359, 37.544352456479544 ], [ 130.890866715113617, 37.544406011711885 ], [ 130.891275235627262, 37.544463035824052 ], [ 130.892622279572777, 37.544836919250812 ], [ 130.892879590856637, 37.544987689251137 ], [ 130.894421718107424, 37.54604364260139 ], [ 130.895243911196218, 37.548020085390803 ], [ 130.897030670138321, 37.55057180045479 ], [ 130.897183658876344, 37.55064877823326 ], [ 130.902448253104495, 37.552418138994355 ], [ 130.905155865601813, 37.552702245816072 ], [ 130.905510462447751, 37.55269050420268 ], [ 130.90580360448908, 37.55259877178991 ], [ 130.907206673644453, 37.552018016019566 ], [ 130.90735674049381, 37.551952493602201 ], [ 130.907421949414925, 37.551918993601078 ], [ 130.907511149926364, 37.55184878236588 ], [ 130.907763218637768, 37.551609465908577 ], [ 130.907876258710502, 37.551483887159264 ], [ 130.907975860299018, 37.551367163724599 ], [ 130.908034006127451, 37.551288412978145 ], [ 130.908670137147169, 37.550323963786788 ], [ 130.908713531810662, 37.550255574697665 ], [ 130.908732690976137, 37.550208400605349 ], [ 130.9089704131095, 37.549608840566194 ], [ 130.908984352603994, 37.549571779967181 ], [ 130.908989200777, 37.549527468262156 ], [ 130.908989293994608, 37.549446922816678 ], [ 130.908971628634561, 37.549349410526411 ], [ 130.908951328418254, 37.549270596940495 ], [ 130.908581037910068, 37.548077968938365 ], [ 130.908426161115301, 37.547994999099849 ], [ 130.908407271096053, 37.547880723039121 ], [ 130.908402921954178, 37.547785220507144 ], [ 130.908407324286912, 37.547753163752887 ], [ 130.908463551561795, 37.54761755010292 ], [ 130.909585164207982, 37.545948299019656 ], [ 130.909708222239715, 37.545794661900395 ], [ 130.909994063006366, 37.545505023495707 ], [ 130.910245325328191, 37.545255636660357 ], [ 130.910311301752103, 37.545199373109014 ], [ 130.910410542743932, 37.54513349497357 ], [ 130.910512917819148, 37.545087810025336 ], [ 130.910669926985094, 37.545039901824005 ], [ 130.911293022000962, 37.544873232743022 ], [ 130.911340741371362, 37.544873265221241 ], [ 130.911380130685046, 37.544875135093818 ], [ 130.91651134451871, 37.545145780190047 ], [ 130.916807470146466, 37.545217110129578 ], [ 130.916878643409916, 37.545249476895449 ], [ 130.916961123525994, 37.545287009999797 ], [ 130.917400204341845, 37.545497852262301 ], [ 130.917615591036679, 37.545580900150782 ], [ 130.91782574397007, 37.545652514964708 ], [ 130.917930944085924, 37.54567446392749 ], [ 130.918066184738137, 37.5456791071759 ], [ 130.918202088549066, 37.545663901272803 ], [ 130.918340211512458, 37.545620065568194 ], [ 130.918549816355068, 37.545496184735249 ], [ 130.918779440401011, 37.545329268972885 ], [ 130.919013812860953, 37.545143383601655 ], [ 130.919135092069695, 37.544994904141426 ], [ 130.919369074859986, 37.544609418097359 ], [ 130.919441732273384, 37.544442285746172 ], [ 130.919460984151925, 37.544360893113428 ], [ 130.919467974218122, 37.544271711447067 ], [ 130.919478678203802, 37.544113899924582 ], [ 130.919414545705052, 37.543804958884849 ], [ 130.919376994303491, 37.543751322435213 ], [ 130.919315124985303, 37.543687489555396 ], [ 130.919237429106516, 37.543656381863002 ], [ 130.919153301752885, 37.543630318453587 ], [ 130.918551599603347, 37.543489617331282 ], [ 130.918292406604479, 37.543430616519693 ], [ 130.917903869156049, 37.543354668775862 ], [ 130.917590476255555, 37.543326105096092 ], [ 130.917318529018161, 37.543323276173545 ], [ 130.917185112194431, 37.543340374782694 ], [ 130.916977882545922, 37.543388636527801 ], [ 130.916822383937131, 37.543448535058339 ], [ 130.915485881357569, 37.542946460725886 ], [ 130.911924592764024, 37.54148066112009 ], [ 130.911859517659508, 37.541448754496038 ], [ 130.911760857009369, 37.541362097639556 ], [ 130.911608570752634, 37.541176291289197 ], [ 130.911553860263268, 37.541109068524662 ], [ 130.910979343499804, 37.54039376500841 ], [ 130.910960443432344, 37.540325632454291 ], [ 130.910949056010821, 37.540258241244658 ], [ 130.910966690581944, 37.540203416825257 ], [ 130.91101385377371, 37.540177329130685 ], [ 130.911135031283038, 37.540149861304016 ], [ 130.911555162694356, 37.54011935964845 ], [ 130.911817255707803, 37.540045618475425 ], [ 130.911996083596534, 37.539950841020193 ], [ 130.91213215708018, 37.539836533344477 ], [ 130.91214980028866, 37.53972021895153 ], [ 130.912138920146873, 37.539606036081253 ], [ 130.911998824105609, 37.539321910425457 ], [ 130.907542704369831, 37.532482216193927 ], [ 130.907372755564126, 37.532322835907038 ], [ 130.907148970152065, 37.532132646564413 ] ] ] ] } }
]
}
