{
"type": "FeatureCollection",
"name": "bupyeonggu",
"crs": { "type": "name", "properties": { "name": "urn:ogc:def:crs:OGC:1.3:CRS84" } },
"features": [
{ "type": "Feature", "properties": { "OBJECTID": 839, "adm_nm": "인천광역시 부평구 부평1동", "adm_cd": "2306051", "adm_cd2": "2823751000", "sgg": "28237", "sido": "28", "sidonm": "인천광역시", "sggnm": "부평구" }, "geometry": { "type": "MultiPolygon", "coordinates": [ [ [ [ 126.722980123329805, 37.493978505771274 ], [ 126.723018168291063, 37.493036448361359 ], [ 126.723075927015387, 37.492224420648007 ], [ 126.723136527632633, 37.491479500486662 ], [ 126.72324526626565, 37.491413155345334 ], [ 126.724958536330163, 37.49130287128213 ], [ 126.726499211314703, 37.491224965181118 ], [ 126.728489773370356, 37.491100804050831 ], [ 126.728865859538416, 37.491071737674723 ], [ 126.729170161075842, 37.491046448874549 ], [ 126.729325901263337, 37.491028661978312 ], [ 126.729481724091144, 37.490995776055172 ], [ 126.729576808588504, 37.490953669650509 ], [ 126.729618838450193, 37.490884220065055 ], [ 126.729657452246144, 37.490705933100323 ], [ 126.729665816387836, 37.490494331586454 ], [ 126.729651105483299, 37.490361274386267 ], [ 126.729620639313652, 37.490109960488056 ], [ 126.729495826142582, 37.489102314046562 ], [ 126.726814161961016, 37.48891155377067 ], [ 126.721559929540675, 37.489618528302969 ], [ 126.717255495554042, 37.489473330743323 ], [ 126.716363859760719, 37.491078963346503 ], [ 126.716185501977336, 37.497819633177819 ], [ 126.716178353625494, 37.498568654727599 ], [ 126.71617278550201, 37.499081307207639 ], [ 126.716082805256633, 37.503497190515773 ], [ 126.715128894040006, 37.50359036348339 ], [ 126.720705082880059, 37.506499058651933 ], [ 126.721040145747821, 37.506624731262505 ], [ 126.72215864075973, 37.500168254684581 ], [ 126.722604746518854, 37.495991912973423 ], [ 126.722808226105514, 37.494196058619288 ], [ 126.722980123329805, 37.493978505771274 ] ] ] ] } },
{ "type": "Feature", "properties": { "OBJECTID": 840, "adm_nm": "인천광역시 부평구 부평2동", "adm_cd": "2306052", "adm_cd2": "2823752000", "sgg": "28237", "sido": "28", "sidonm": "인천광역시", "sggnm": "부평구" }, "geometry": { "type": "MultiPolygon", "coordinates": [ [ [ [ 126.730352344342705, 37.479180504928607 ], [ 126.732456697851831, 37.477537173799128 ], [ 126.732701575208026, 37.477179212652132 ], [ 126.73276616487685, 37.476994411188087 ], [ 126.733031213044754, 37.475791335636373 ], [ 126.733084910392947, 37.474471942974276 ], [ 126.733027476962405, 37.474401550644323 ], [ 126.731179033070703, 37.472440579187051 ], [ 126.730540147323978, 37.472528545467078 ], [ 126.729744815135973, 37.472396397489867 ], [ 126.728283389367277, 37.471852970517723 ], [ 126.728161477752408, 37.471766174650952 ], [ 126.728094046468186, 37.471636240865138 ], [ 126.727894561557264, 37.47127891341767 ], [ 126.727781700376497, 37.471100691115559 ], [ 126.727560807374545, 37.470753583284591 ], [ 126.72745263122215, 37.470623548597345 ], [ 126.727138573410869, 37.470387767606262 ], [ 126.727003066977105, 37.470306327571585 ], [ 126.726853729279952, 37.470289760757233 ], [ 126.72511591983438, 37.470139708802897 ], [ 126.724753336685424, 37.470111545510811 ], [ 126.723486287035186, 37.47005047310931 ], [ 126.722854346945255, 37.470271748636925 ], [ 126.722702765172073, 37.470608712526811 ], [ 126.719680666611367, 37.473624672623906 ], [ 126.717527457752851, 37.475428867280471 ], [ 126.717017605918173, 37.475768059699 ], [ 126.71630808544279, 37.476223753497521 ], [ 126.71604081201329, 37.4763742253012 ], [ 126.715871427328523, 37.476406489914602 ], [ 126.714351147864434, 37.476535035919099 ], [ 126.712857626741382, 37.476384515625035 ], [ 126.712739676699016, 37.476380153214741 ], [ 126.712652416638093, 37.476400357739884 ], [ 126.712528818324913, 37.476530741445899 ], [ 126.712132171082871, 37.476974911511888 ], [ 126.711910160057528, 37.477354189014349 ], [ 126.710935994235754, 37.479624431502522 ], [ 126.711612370595375, 37.481546443285481 ], [ 126.712074143648081, 37.483291331868749 ], [ 126.712092862333975, 37.483388097317274 ], [ 126.712130886800665, 37.483584650727195 ], [ 126.712170199157981, 37.483787831297377 ], [ 126.712697214287004, 37.485458112163528 ], [ 126.712793225900043, 37.485642084950612 ], [ 126.713054366252095, 37.486122241442459 ], [ 126.713255368335609, 37.486442878563906 ], [ 126.713537645553671, 37.486802453773812 ], [ 126.713615465084089, 37.486891415515863 ], [ 126.717255495554042, 37.489473330743323 ], [ 126.721559929540675, 37.489618528302969 ], [ 126.721139584034773, 37.488859665948681 ], [ 126.7218006267601, 37.487967210236256 ], [ 126.722295819341184, 37.487214827906293 ], [ 126.722276683645902, 37.486483970059311 ], [ 126.722132095107781, 37.485631786886756 ], [ 126.722294075261885, 37.484060317829659 ], [ 126.723329355399514, 37.481374903913398 ], [ 126.726026633205066, 37.480203290226228 ], [ 126.729331352832418, 37.479064548404374 ], [ 126.729567051983949, 37.479057085641855 ], [ 126.730352344342705, 37.479180504928607 ] ] ] ] } },
{ "type": "Feature", "properties": { "OBJECTID": 841, "adm_nm": "인천광역시 부평구 부평3동", "adm_cd": "2306053", "adm_cd2": "2823753000", "sgg": "28237", "sido": "28", "sidonm": "인천광역시", "sggnm": "부평구" }, "geometry": { "type": "MultiPolygon", "coordinates": [ [ [ [ 126.717255495554042, 37.489473330743323 ], [ 126.713615465084089, 37.486891415515863 ], [ 126.713537645553671, 37.486802453773812 ], [ 126.713255368335609, 37.486442878563906 ], [ 126.713054366252095, 37.486122241442459 ], [ 126.712793225900043, 37.485642084950612 ], [ 126.712697214287004, 37.485458112163528 ], [ 126.712170199157981, 37.483787831297377 ], [ 126.712130886800665, 37.483584650727195 ], [ 126.712092862333975, 37.483388097317274 ], [ 126.712074143648081, 37.483291331868749 ], [ 126.711612370595375, 37.481546443285481 ], [ 126.710935994235754, 37.479624431502522 ], [ 126.709611754042868, 37.475886892477085 ], [ 126.706297906726618, 37.476305131999339 ], [ 126.706261206575789, 37.476312334190176 ], [ 126.706158159252539, 37.476426804352087 ], [ 126.70604481754539, 37.476552713649916 ], [ 126.706747024567406, 37.478658739783583 ], [ 126.70718637703186, 37.479055435143131 ], [ 126.707085953743118, 37.480195996528344 ], [ 126.706747763019919, 37.480637037668878 ], [ 126.706499153819266, 37.480840576068374 ], [ 126.704560056411253, 37.480944455765616 ], [ 126.704109235630753, 37.482026204861739 ], [ 126.704015225586957, 37.484093344151255 ], [ 126.703988999703682, 37.484122828956032 ], [ 126.703529034889883, 37.484639943636623 ], [ 126.702928956427613, 37.484848380840567 ], [ 126.701354685940757, 37.485097572969416 ], [ 126.701535443735381, 37.486610075147603 ], [ 126.702403430338535, 37.487188765263113 ], [ 126.703450842031984, 37.487287664762484 ], [ 126.706390008152653, 37.487106650798381 ], [ 126.707116377632218, 37.487059668163987 ], [ 126.710532196121733, 37.490028647340885 ], [ 126.711258889831612, 37.490464911619206 ], [ 126.711921721653681, 37.49080280339814 ], [ 126.712202930138119, 37.490885298970156 ], [ 126.712979804546933, 37.490928281328017 ], [ 126.71349202895567, 37.490956601362896 ], [ 126.713556776046872, 37.490960127633024 ], [ 126.714707702969648, 37.49100887266809 ], [ 126.71591566919966, 37.491060005005224 ], [ 126.716363859760719, 37.491078963346503 ], [ 126.717255495554042, 37.489473330743323 ] ] ] ] } },
{ "type": "Feature", "properties": { "OBJECTID": 842, "adm_nm": "인천광역시 부평구 부평4동", "adm_cd": "2306054", "adm_cd2": "2823754000", "sgg": "28237", "sido": "28", "sidonm": "인천광역시", "sggnm": "부평구" }, "geometry": { "type": "MultiPolygon", "coordinates": [ [ [ [ 126.731223105305901, 37.507017851090374 ], [ 126.731126218212594, 37.505286561444265 ], [ 126.730994850534685, 37.503891467436254 ], [ 126.730800105783175, 37.501928610422091 ], [ 126.730544866683616, 37.499365412092779 ], [ 126.730412967241463, 37.498124759182645 ], [ 126.726869532775467, 37.494619439292663 ], [ 126.726597472644585, 37.494399075716551 ], [ 126.726419810006888, 37.494335423915928 ], [ 126.722980123329805, 37.493978505771274 ], [ 126.722808226105514, 37.494196058619288 ], [ 126.722604746518854, 37.495991912973423 ], [ 126.72215864075973, 37.500168254684581 ], [ 126.721040145747821, 37.506624731262505 ], [ 126.720800359578078, 37.507360497615537 ], [ 126.730360682657164, 37.507032685423034 ], [ 126.731223105305901, 37.507017851090374 ] ] ] ] } },
{ "type": "Feature", "properties": { "OBJECTID": 843, "adm_nm": "인천광역시 부평구 부평5동", "adm_cd": "2306055", "adm_cd2": "2823755000", "sgg": "28237", "sido": "28", "sidonm": "인천광역시", "sggnm": "부평구" }, "geometry": { "type": "MultiPolygon", "coordinates": [ [ [ [ 126.733787239321131, 37.497899980249834 ], [ 126.733646080340577, 37.496557430862687 ], [ 126.733537847363394, 37.495486755028246 ], [ 126.733330911587998, 37.493404143845616 ], [ 126.734296836270715, 37.492121196207194 ], [ 126.734597399176167, 37.492011800588223 ], [ 126.733801430494083, 37.489667365937265 ], [ 126.732323717902588, 37.488978544573264 ], [ 126.729495826142582, 37.489102314046562 ], [ 126.729620639313652, 37.490109960488056 ], [ 126.729651105483299, 37.490361274386267 ], [ 126.729665816387836, 37.490494331586454 ], [ 126.729657452246144, 37.490705933100323 ], [ 126.729618838450193, 37.490884220065055 ], [ 126.729576808588504, 37.490953669650509 ], [ 126.729481724091144, 37.490995776055172 ], [ 126.729325901263337, 37.491028661978312 ], [ 126.729170161075842, 37.491046448874549 ], [ 126.728865859538416, 37.491071737674723 ], [ 126.728489773370356, 37.491100804050831 ], [ 126.726499211314703, 37.491224965181118 ], [ 126.724958536330163, 37.49130287128213 ], [ 126.72324526626565, 37.491413155345334 ], [ 126.723136527632633, 37.491479500486662 ], [ 126.723075927015387, 37.492224420648007 ], [ 126.723018168291063, 37.493036448361359 ], [ 126.722980123329805, 37.493978505771274 ], [ 126.726419810006888, 37.494335423915928 ], [ 126.726597472644585, 37.494399075716551 ], [ 126.726869532775467, 37.494619439292663 ], [ 126.730412967241463, 37.498124759182645 ], [ 126.730544866683616, 37.499365412092779 ], [ 126.730800105783175, 37.501928610422091 ], [ 126.730994850534685, 37.503891467436254 ], [ 126.731126218212594, 37.505286561444265 ], [ 126.732720320642883, 37.505022797534586 ], [ 126.732873591870373, 37.504951631382461 ], [ 126.733889599394672, 37.503489027712675 ], [ 126.734092043905704, 37.503186832407948 ], [ 126.734271796381122, 37.50273617147873 ], [ 126.734250428653112, 37.502521684953003 ], [ 126.73395469173883, 37.499553316052591 ], [ 126.733947318986367, 37.499480116827428 ], [ 126.73387979504794, 37.498813571797449 ], [ 126.733844711839239, 37.498467262620274 ], [ 126.733787239321131, 37.497899980249834 ] ] ] ] } },
{ "type": "Feature", "properties": { "OBJECTID": 844, "adm_nm": "인천광역시 부평구 부평6동", "adm_cd": "2306056", "adm_cd2": "2823756000", "sgg": "28237", "sido": "28", "sidonm": "인천광역시", "sggnm": "부평구" }, "geometry": { "type": "MultiPolygon", "coordinates": [ [ [ [ 126.729495826142582, 37.489102314046562 ], [ 126.732323717902588, 37.488978544573264 ], [ 126.731879608064986, 37.48501159305944 ], [ 126.731268110681526, 37.481374298215989 ], [ 126.730352344342705, 37.479180504928607 ], [ 126.729567051983949, 37.479057085641855 ], [ 126.729331352832418, 37.479064548404374 ], [ 126.726026633205066, 37.480203290226228 ], [ 126.723329355399514, 37.481374903913398 ], [ 126.722294075261885, 37.484060317829659 ], [ 126.722132095107781, 37.485631786886756 ], [ 126.722276683645902, 37.486483970059311 ], [ 126.722295819341184, 37.487214827906293 ], [ 126.7218006267601, 37.487967210236256 ], [ 126.721139584034773, 37.488859665948681 ], [ 126.721559929540675, 37.489618528302969 ], [ 126.726814161961016, 37.48891155377067 ], [ 126.729495826142582, 37.489102314046562 ] ] ] ] } },
{ "type": "Feature", "properties": { "OBJECTID": 845, "adm_nm": "인천광역시 부평구 산곡1동", "adm_cd": "2306057", "adm_cd2": "2823757000", "sgg": "28237", "sido": "28", "sidonm": "인천광역시", "sggnm": "부평구" }, "geometry": { "type": "MultiPolygon", "coordinates": [ [ [ [ 126.703922609630041, 37.513016441730493 ], [ 126.703713247293422, 37.510495582623783 ], [ 126.703472947638431, 37.507940585188756 ], [ 126.703174740695218, 37.504359135429937 ], [ 126.702598162532965, 37.504391165728656 ], [ 126.702024990300586, 37.504423002600788 ], [ 126.699865763958144, 37.504542861020191 ], [ 126.699651528096581, 37.50455034192192 ], [ 126.69962896799089, 37.504522808962548 ], [ 126.6995997300521, 37.504320779413462 ], [ 126.699592101678405, 37.504247819886864 ], [ 126.699528513203461, 37.503639398821264 ], [ 126.699475214477971, 37.503129396562912 ], [ 126.699469766911676, 37.503005853991922 ], [ 126.699466950841568, 37.502941865676952 ], [ 126.699551469272947, 37.502813127234923 ], [ 126.6997102179526, 37.502751188171345 ], [ 126.70050349207429, 37.502583906809804 ], [ 126.702174753792761, 37.49932865880502 ], [ 126.702576767445464, 37.496250013782195 ], [ 126.702555330954581, 37.496149817140306 ], [ 126.702517300746564, 37.495972111826674 ], [ 126.699274794451171, 37.49526464468213 ], [ 126.699042812349376, 37.493592923944028 ], [ 126.694834099844414, 37.491696182879814 ], [ 126.692228925295765, 37.492400998700482 ], [ 126.692838987512232, 37.495360000247793 ], [ 126.690484976469435, 37.497735734774757 ], [ 126.690052354788676, 37.497918203558761 ], [ 126.689508872623207, 37.498215685011687 ], [ 126.689506451215223, 37.498269942788205 ], [ 126.689517233337355, 37.498406135835374 ], [ 126.689525348336474, 37.4984983277295 ], [ 126.689532952025985, 37.498544463779879 ], [ 126.689541300658362, 37.49857484945943 ], [ 126.689728819366209, 37.499141718858333 ], [ 126.689827877823916, 37.499278135180184 ], [ 126.689971188207153, 37.49943598596731 ], [ 126.69002262035896, 37.499467567482903 ], [ 126.690707940181667, 37.499874384534564 ], [ 126.690738288299627, 37.499891840553296 ], [ 126.690796075504309, 37.499919561553043 ], [ 126.690999079924737, 37.499999395037356 ], [ 126.691085113292147, 37.50003222436635 ], [ 126.691122379033303, 37.50004637556281 ], [ 126.692225275991717, 37.501595384362318 ], [ 126.692173365338277, 37.501868610396848 ], [ 126.692077021891379, 37.502110730903915 ], [ 126.69203138577204, 37.502208545257204 ], [ 126.691222472653351, 37.503596109494254 ], [ 126.691004701300386, 37.503790394332555 ], [ 126.688453749631194, 37.505214306090977 ], [ 126.688764617783647, 37.505951956600491 ], [ 126.688608398805201, 37.508099681086264 ], [ 126.688597067051546, 37.508239673563878 ], [ 126.68848381281633, 37.508766099312815 ], [ 126.686710317164554, 37.510505256301528 ], [ 126.686598724359285, 37.511788051883869 ], [ 126.685943223273057, 37.513106165444327 ], [ 126.685991908177556, 37.513102078106897 ], [ 126.686685757693667, 37.513043890343539 ], [ 126.687485505037444, 37.513202965209331 ], [ 126.688859680078238, 37.513934338737521 ], [ 126.689006408423211, 37.514141627223218 ], [ 126.689146088899705, 37.514220835263892 ], [ 126.689685062128987, 37.514385982429701 ], [ 126.690454437480838, 37.514618768577996 ], [ 126.69106080085993, 37.514773548067986 ], [ 126.692147542675556, 37.514901340538366 ], [ 126.692499264626747, 37.514823571475048 ], [ 126.693015957079311, 37.514706577405342 ], [ 126.69370077801085, 37.514454625536743 ], [ 126.695784100405731, 37.513566819284677 ], [ 126.701736481366694, 37.513179374640629 ], [ 126.703922609630041, 37.513016441730493 ] ] ] ] } },
{ "type": "Feature", "properties": { "OBJECTID": 846, "adm_nm": "인천광역시 부평구 산곡2동", "adm_cd": "2306058", "adm_cd2": "2823758000", "sgg": "28237", "sido": "28", "sidonm": "인천광역시", "sggnm": "부평구" }, "geometry": { "type": "MultiPolygon", "coordinates": [ [ [ [ 126.7089050232928, 37.506143561607388 ], [ 126.708785889950732, 37.504964810625218 ], [ 126.70872632607157, 37.504375506233799 ], [ 126.708699609903093, 37.504111138056828 ], [ 126.708527295001474, 37.501942098671321 ], [ 126.708283429759788, 37.498861245791687 ], [ 126.709061392494931, 37.498821301801847 ], [ 126.709118131405944, 37.498643828415084 ], [ 126.70762105399784, 37.497698474206452 ], [ 126.70362891855126, 37.496544754019588 ], [ 126.702576767445464, 37.496250013782195 ], [ 126.702174753792761, 37.49932865880502 ], [ 126.70050349207429, 37.502583906809804 ], [ 126.6997102179526, 37.502751188171345 ], [ 126.699551469272947, 37.502813127234923 ], [ 126.699466950841568, 37.502941865676952 ], [ 126.699469766911676, 37.503005853991922 ], [ 126.699475214477971, 37.503129396562912 ], [ 126.699528513203461, 37.503639398821264 ], [ 126.699592101678405, 37.504247819886864 ], [ 126.6995997300521, 37.504320779413462 ], [ 126.69962896799089, 37.504522808962548 ], [ 126.699651528096581, 37.50455034192192 ], [ 126.699865763958144, 37.504542861020191 ], [ 126.702024990300586, 37.504423002600788 ], [ 126.702598162532965, 37.504391165728656 ], [ 126.703174740695218, 37.504359135429937 ], [ 126.703472947638431, 37.507940585188756 ], [ 126.703713247293422, 37.510495582623783 ], [ 126.703735716510167, 37.510515576252565 ], [ 126.703854279813072, 37.510524722819959 ], [ 126.703983100221933, 37.510517015693225 ], [ 126.704285585321017, 37.510498893553297 ], [ 126.704706883271115, 37.510473642490389 ], [ 126.709275582811998, 37.510193521795017 ], [ 126.709294148606347, 37.510168370631654 ], [ 126.70896011729495, 37.506688684418059 ], [ 126.7089050232928, 37.506143561607388 ] ] ] ] } },
{ "type": "Feature", "properties": { "OBJECTID": 847, "adm_nm": "인천광역시 부평구 산곡3동", "adm_cd": "2306059", "adm_cd2": "2823758100", "sgg": "28237", "sido": "28", "sidonm": "인천광역시", "sggnm": "부평구" }, "geometry": { "type": "MultiPolygon", "coordinates": [ [ [ [ 126.716185501977336, 37.497819633177819 ], [ 126.716363859760719, 37.491078963346503 ], [ 126.71591566919966, 37.491060005005224 ], [ 126.714707702969648, 37.49100887266809 ], [ 126.713556776046872, 37.490960127633024 ], [ 126.71349202895567, 37.490956601362896 ], [ 126.712979804546933, 37.490928281328017 ], [ 126.712202930138119, 37.490885298970156 ], [ 126.711921721653681, 37.49080280339814 ], [ 126.711258889831612, 37.490464911619206 ], [ 126.710532196121733, 37.490028647340885 ], [ 126.707116377632218, 37.487059668163987 ], [ 126.706390008152653, 37.487106650798381 ], [ 126.703450842031984, 37.487287664762484 ], [ 126.702403430338535, 37.487188765263113 ], [ 126.701535443735381, 37.486610075147603 ], [ 126.700470636143407, 37.486515962329179 ], [ 126.699913049161907, 37.486643625294001 ], [ 126.699632120659714, 37.486970316977974 ], [ 126.699410641974424, 37.488393522680283 ], [ 126.697925770160495, 37.489847669825217 ], [ 126.695281325508802, 37.491289729459417 ], [ 126.695089645780058, 37.49146069221004 ], [ 126.694834099844414, 37.491696182879814 ], [ 126.699042812349376, 37.493592923944028 ], [ 126.699274794451171, 37.49526464468213 ], [ 126.702517300746564, 37.495972111826674 ], [ 126.702555330954581, 37.496149817140306 ], [ 126.702576767445464, 37.496250013782195 ], [ 126.70362891855126, 37.496544754019588 ], [ 126.70762105399784, 37.497698474206452 ], [ 126.709118131405944, 37.498643828415084 ], [ 126.709061392494931, 37.498821301801847 ], [ 126.714572662486148, 37.498892074604974 ], [ 126.716185501977336, 37.497819633177819 ] ] ] ] } },
{ "type": "Feature", "properties": { "OBJECTID": 848, "adm_nm": "인천광역시 부평구 산곡4동", "adm_cd": "2306060", "adm_cd2": "2823758200", "sgg": "28237", "sido": "28", "sidonm": "인천광역시", "sggnm": "부평구" }, "geometry": { "type": "MultiPolygon", "coordinates": [ [ [ [ 126.715128894040006, 37.50359036348339 ], [ 126.716082805256633, 37.503497190515773 ], [ 126.71617278550201, 37.499081307207639 ], [ 126.716178353625494, 37.498568654727599 ], [ 126.716185501977336, 37.497819633177819 ], [ 126.714572662486148, 37.498892074604974 ], [ 126.709061392494931, 37.498821301801847 ], [ 126.708283429759788, 37.498861245791687 ], [ 126.708527295001474, 37.501942098671321 ], [ 126.708699609903093, 37.504111138056828 ], [ 126.70872632607157, 37.504375506233799 ], [ 126.708785889950732, 37.504964810625218 ], [ 126.7089050232928, 37.506143561607388 ], [ 126.712300643243566, 37.506262060448066 ], [ 126.715128894040006, 37.50359036348339 ] ] ] ] } },
{ "type": "Feature", "properties": { "OBJECTID": 849, "adm_nm": "인천광역시 부평구 청천1동", "adm_cd": "2306061", "adm_cd2": "2823759100", "sgg": "28237", "sido": "28", "sidonm": "인천광역시", "sggnm": "부평구" }, "geometry": { "type": "MultiPolygon", "coordinates": [ [ [ [ 126.704968053804052, 37.523628506726268 ], [ 126.704837051681139, 37.523055653024443 ], [ 126.703922609630041, 37.513016441730493 ], [ 126.701736481366694, 37.513179374640629 ], [ 126.695784100405731, 37.513566819284677 ], [ 126.69370077801085, 37.514454625536743 ], [ 126.693015957079311, 37.514706577405342 ], [ 126.692499264626747, 37.514823571475048 ], [ 126.692147542675556, 37.514901340538366 ], [ 126.69106080085993, 37.514773548067986 ], [ 126.690454437480838, 37.514618768577996 ], [ 126.689685062128987, 37.514385982429701 ], [ 126.689146088899705, 37.514220835263892 ], [ 126.689006408423211, 37.514141627223218 ], [ 126.688859680078238, 37.513934338737521 ], [ 126.687485505037444, 37.513202965209331 ], [ 126.686685757693667, 37.513043890343539 ], [ 126.685991908177556, 37.513102078106897 ], [ 126.685943223273057, 37.513106165444327 ], [ 126.683280985551605, 37.514663075692283 ], [ 126.6832717764742, 37.514913977658736 ], [ 126.683216326179732, 37.516999160538774 ], [ 126.683254690838609, 37.517153980451525 ], [ 126.683367156844611, 37.517438725352676 ], [ 126.683405336417636, 37.517530725930669 ], [ 126.684452812422464, 37.518914578526356 ], [ 126.685634088287301, 37.520068226422531 ], [ 126.686144982120098, 37.520513240616673 ], [ 126.687241687850559, 37.522642978486068 ], [ 126.687256561924954, 37.522732005206173 ], [ 126.687274437701234, 37.522839033402569 ], [ 126.68725703680245, 37.522985951875235 ], [ 126.687049099204316, 37.523194704957248 ], [ 126.686702438835198, 37.523292131603426 ], [ 126.686377585296924, 37.523315119822939 ], [ 126.690569975486241, 37.523565334017135 ], [ 126.697885924930176, 37.52361025522972 ], [ 126.704968053804052, 37.523628506726268 ] ] ] ] } },
{ "type": "Feature", "properties": { "OBJECTID": 850, "adm_nm": "인천광역시 부평구 청천2동", "adm_cd": "2306062", "adm_cd2": "2823759200", "sgg": "28237", "sido": "28", "sidonm": "인천광역시", "sggnm": "부평구" }, "geometry": { "type": "MultiPolygon", "coordinates": [ [ [ [ 126.720705082880059, 37.506499058651933 ], [ 126.715128894040006, 37.50359036348339 ], [ 126.712300643243566, 37.506262060448066 ], [ 126.7089050232928, 37.506143561607388 ], [ 126.70896011729495, 37.506688684418059 ], [ 126.709294148606347, 37.510168370631654 ], [ 126.709275582811998, 37.510193521795017 ], [ 126.704706883271115, 37.510473642490389 ], [ 126.704285585321017, 37.510498893553297 ], [ 126.703983100221933, 37.510517015693225 ], [ 126.703854279813072, 37.510524722819959 ], [ 126.703735716510167, 37.510515576252565 ], [ 126.703713247293422, 37.510495582623783 ], [ 126.703922609630041, 37.513016441730493 ], [ 126.704837051681139, 37.523055653024443 ], [ 126.704968053804052, 37.523628506726268 ], [ 126.719157376372934, 37.523773061706009 ], [ 126.722130644067136, 37.523813230608916 ], [ 126.722088024828906, 37.523105261664277 ], [ 126.721803743071959, 37.519990910786888 ], [ 126.721314480320913, 37.515399944048951 ], [ 126.720700603188376, 37.510142974793695 ], [ 126.72046504612922, 37.509901444032792 ], [ 126.720363840708828, 37.509326526559221 ], [ 126.720319775385846, 37.508916057707424 ], [ 126.720309469204039, 37.507886358753169 ], [ 126.720705082880059, 37.506499058651933 ] ] ] ] } },
{ "type": "Feature", "properties": { "OBJECTID": 851, "adm_nm": "인천광역시 부평구 갈산1동", "adm_cd": "2306063", "adm_cd2": "2823764100", "sgg": "28237", "sido": "28", "sidonm": "인천광역시", "sggnm": "부평구" }, "geometry": { "type": "MultiPolygon", "coordinates": [ [ [ [ 126.725894192734316, 37.523804443077346 ], [ 126.727724500984422, 37.523806915029503 ], [ 126.732992710934838, 37.523864797581268 ], [ 126.732282538571098, 37.517650437899938 ], [ 126.731977947854162, 37.5147946891895 ], [ 126.729004139155151, 37.513843386622362 ], [ 126.728821435709349, 37.513812564883494 ], [ 126.728621734083234, 37.513799490162555 ], [ 126.728524650675411, 37.513808540104144 ], [ 126.728388787647688, 37.513844275071463 ], [ 126.727751856288421, 37.514032542765129 ], [ 126.727063591871783, 37.514241873471668 ], [ 126.726854585025052, 37.514305445468807 ], [ 126.725643380614329, 37.514615871388969 ], [ 126.725498262251278, 37.514624770644055 ], [ 126.725405592345368, 37.514573751716853 ], [ 126.724818262522021, 37.514183296178786 ], [ 126.722796243181264, 37.512801188835176 ], [ 126.722529182533009, 37.512562145432263 ], [ 126.722481389113028, 37.512497093657522 ], [ 126.722164903676642, 37.512066202165364 ], [ 126.721275119623897, 37.510555396082182 ], [ 126.721154201352761, 37.510337866295906 ], [ 126.721083733711922, 37.510128307076975 ], [ 126.721030417757362, 37.509928610759232 ], [ 126.720861150121721, 37.509188492734545 ], [ 126.720732569800219, 37.507618551280217 ], [ 126.720800359578078, 37.507360497615537 ], [ 126.721040145747821, 37.506624731262505 ], [ 126.720705082880059, 37.506499058651933 ], [ 126.720309469204039, 37.507886358753169 ], [ 126.720319775385846, 37.508916057707424 ], [ 126.720363840708828, 37.509326526559221 ], [ 126.72046504612922, 37.509901444032792 ], [ 126.720700603188376, 37.510142974793695 ], [ 126.721314480320913, 37.515399944048951 ], [ 126.721803743071959, 37.519990910786888 ], [ 126.722088024828906, 37.523105261664277 ], [ 126.722130644067136, 37.523813230608916 ], [ 126.725894192734316, 37.523804443077346 ] ] ] ] } },
{ "type": "Feature", "properties": { "OBJECTID": 852, "adm_nm": "인천광역시 부평구 갈산2동", "adm_cd": "2306064", "adm_cd2": "2823764200", "sgg": "28237", "sido": "28", "sidonm": "인천광역시", "sggnm": "부평구" }, "geometry": { "type": "MultiPolygon", "coordinates": [ [ [ [ 126.731223105305901, 37.507017851090374 ], [ 126.730360682657164, 37.507032685423034 ], [ 126.720800359578078, 37.507360497615537 ], [ 126.720732569800219, 37.507618551280217 ], [ 126.720861150121721, 37.509188492734545 ], [ 126.721030417757362, 37.509928610759232 ], [ 126.721083733711922, 37.510128307076975 ], [ 126.721154201352761, 37.510337866295906 ], [ 126.721275119623897, 37.510555396082182 ], [ 126.722164903676642, 37.512066202165364 ], [ 126.722481389113028, 37.512497093657522 ], [ 126.722529182533009, 37.512562145432263 ], [ 126.722796243181264, 37.512801188835176 ], [ 126.724818262522021, 37.514183296178786 ], [ 126.725405592345368, 37.514573751716853 ], [ 126.725498262251278, 37.514624770644055 ], [ 126.725643380614329, 37.514615871388969 ], [ 126.726854585025052, 37.514305445468807 ], [ 126.727063591871783, 37.514241873471668 ], [ 126.727751856288421, 37.514032542765129 ], [ 126.728388787647688, 37.513844275071463 ], [ 126.728524650675411, 37.513808540104144 ], [ 126.728621734083234, 37.513799490162555 ], [ 126.728821435709349, 37.513812564883494 ], [ 126.729004139155151, 37.513843386622362 ], [ 126.731977947854162, 37.5147946891895 ], [ 126.73190674339925, 37.514033536546577 ], [ 126.731223105305901, 37.507017851090374 ] ] ] ] } },
{ "type": "Feature", "properties": { "OBJECTID": 853, "adm_nm": "인천광역시 부평구 삼산1동", "adm_cd": "2306065", "adm_cd2": "2823764600", "sgg": "28237", "sido": "28", "sidonm": "인천광역시", "sggnm": "부평구" }, "geometry": { "type": "MultiPolygon", "coordinates": [ [ [ [ 126.76033573950393, 37.524096485668615 ], [ 126.760286640816616, 37.517964786486253 ], [ 126.760192088152934, 37.515871727547051 ], [ 126.754969751759546, 37.516593996310604 ], [ 126.752003601986516, 37.516408840512376 ], [ 126.749983871176539, 37.51646510107782 ], [ 126.748849551499788, 37.516557359321325 ], [ 126.74674643295134, 37.516728389903435 ], [ 126.745924551306786, 37.516798231783113 ], [ 126.745182815940623, 37.516867361554873 ], [ 126.744296870369183, 37.516933957834311 ], [ 126.743642680324129, 37.516983127965766 ], [ 126.743475061296166, 37.516995725095846 ], [ 126.740780345403877, 37.517153735898916 ], [ 126.740171984436472, 37.517184759717651 ], [ 126.739975811867382, 37.517159802987479 ], [ 126.732282538571098, 37.517650437899938 ], [ 126.732992710934838, 37.523864797581268 ], [ 126.73348915475114, 37.523872473358843 ], [ 126.735855904681841, 37.523909035532213 ], [ 126.736194067519449, 37.523914255188444 ], [ 126.745105439198767, 37.523998312921442 ], [ 126.751356763102592, 37.524048607514416 ], [ 126.75574114779819, 37.524072145834047 ], [ 126.76033573950393, 37.524096485668615 ] ] ] ] } },
{ "type": "Feature", "properties": { "OBJECTID": 854, "adm_nm": "인천광역시 부평구 부개1동", "adm_cd": "2306066", "adm_cd2": "2823765000", "sgg": "28237", "sido": "28", "sidonm": "인천광역시", "sggnm": "부평구" }, "geometry": { "type": "MultiPolygon", "coordinates": [ [ [ [ 126.74241982798452, 37.488433693284371 ], [ 126.742600576068099, 37.486646714882518 ], [ 126.742417211514976, 37.48576494728848 ], [ 126.742065135327749, 37.484736677126406 ], [ 126.741836714332848, 37.484086293830906 ], [ 126.741189323366541, 37.483718913955045 ], [ 126.74022788106636, 37.483344589058866 ], [ 126.738781355742745, 37.482457672623639 ], [ 126.738299550327071, 37.482101446019712 ], [ 126.738145611171703, 37.481799416555184 ], [ 126.737193797656772, 37.480150668961286 ], [ 126.736316800853231, 37.479518155062564 ], [ 126.734590944169298, 37.478338291726949 ], [ 126.733222684775257, 37.477650838386026 ], [ 126.733060293184437, 37.477576936455101 ], [ 126.73302035578719, 37.477566985902001 ], [ 126.732456697851831, 37.477537173799128 ], [ 126.730352344342705, 37.479180504928607 ], [ 126.731268110681526, 37.481374298215989 ], [ 126.731879608064986, 37.48501159305944 ], [ 126.732323717902588, 37.488978544573264 ], [ 126.739899965009059, 37.488573390093869 ], [ 126.74241982798452, 37.488433693284371 ] ] ] ] } },
{ "type": "Feature", "properties": { "OBJECTID": 855, "adm_nm": "인천광역시 부평구 부개2동", "adm_cd": "2306067", "adm_cd2": "2823766000", "sgg": "28237", "sido": "28", "sidonm": "인천광역시", "sggnm": "부평구" }, "geometry": { "type": "MultiPolygon", "coordinates": [ [ [ [ 126.742557134102711, 37.497222295667811 ], [ 126.741726209248114, 37.495432229206983 ], [ 126.741634006672626, 37.495100622245111 ], [ 126.74165721736027, 37.494487694074394 ], [ 126.741663922439827, 37.494316949911827 ], [ 126.741671999407117, 37.494118821716427 ], [ 126.741680244140653, 37.494050769769679 ], [ 126.741723808974868, 37.493702813117508 ], [ 126.741874613078409, 37.492539384803131 ], [ 126.74241025231953, 37.488812640508606 ], [ 126.742418341239443, 37.488492423685557 ], [ 126.74241982798452, 37.488433693284371 ], [ 126.739899965009059, 37.488573390093869 ], [ 126.732323717902588, 37.488978544573264 ], [ 126.733801430494083, 37.489667365937265 ], [ 126.734597399176167, 37.492011800588223 ], [ 126.734296836270715, 37.492121196207194 ], [ 126.733330911587998, 37.493404143845616 ], [ 126.733537847363394, 37.495486755028246 ], [ 126.733646080340577, 37.496557430862687 ], [ 126.733787239321131, 37.497899980249834 ], [ 126.742557134102711, 37.497222295667811 ] ] ] ] } },
{ "type": "Feature", "properties": { "OBJECTID": 856, "adm_nm": "인천광역시 부평구 부개3동", "adm_cd": "2306068", "adm_cd2": "2823766100", "sgg": "28237", "sido": "28", "sidonm": "인천광역시", "sggnm": "부평구" }, "geometry": { "type": "MultiPolygon", "coordinates": [ [ [ [ 126.742157250411623, 37.506448598681636 ], [ 126.742147908867764, 37.505671499010518 ], [ 126.742656352045728, 37.50512277622606 ], [ 126.743065045617072, 37.504348679543952 ], [ 126.744125844547469, 37.501786979769676 ], [ 126.743998547299753, 37.501307874925217 ], [ 126.743919351643299, 37.501061217668031 ], [ 126.742557134102711, 37.497222295667811 ], [ 126.733787239321131, 37.497899980249834 ], [ 126.733844711839239, 37.498467262620274 ], [ 126.73387979504794, 37.498813571797449 ], [ 126.733947318986367, 37.499480116827428 ], [ 126.73395469173883, 37.499553316052591 ], [ 126.734250428653112, 37.502521684953003 ], [ 126.734271796381122, 37.50273617147873 ], [ 126.734092043905704, 37.503186832407948 ], [ 126.733889599394672, 37.503489027712675 ], [ 126.732873591870373, 37.504951631382461 ], [ 126.732720320642883, 37.505022797534586 ], [ 126.731126218212594, 37.505286561444265 ], [ 126.731223105305901, 37.507017851090374 ], [ 126.742157250411623, 37.506448598681636 ] ] ] ] } },
{ "type": "Feature", "properties": { "OBJECTID": 857, "adm_nm": "인천광역시 부평구 일신동", "adm_cd": "2306069", "adm_cd2": "2823767000", "sgg": "28237", "sido": "28", "sidonm": "인천광역시", "sggnm": "부평구" }, "geometry": { "type": "MultiPolygon", "coordinates": [ [ [ [ 126.762586487098901, 37.475699499968123 ], [ 126.764839483301259, 37.47489336543552 ], [ 126.765365580420053, 37.474495184906409 ], [ 126.76690039282353, 37.473187969690152 ], [ 126.767524318161279, 37.47247690521916 ], [ 126.767741701104626, 37.471761614987166 ], [ 126.766755502055489, 37.470316725389679 ], [ 126.7664417151138, 37.469897037210245 ], [ 126.766367959473115, 37.469904006435605 ], [ 126.766130899648559, 37.469972938924663 ], [ 126.764831038967444, 37.47011987300916 ], [ 126.762633039475247, 37.47023941470993 ], [ 126.762527980227972, 37.470223508174044 ], [ 126.758397528960117, 37.469562708304437 ], [ 126.756935330701552, 37.469174521820413 ], [ 126.7569059558475, 37.469116911985346 ], [ 126.756778203713111, 37.468714772720148 ], [ 126.756274899172027, 37.467901696425436 ], [ 126.754523050967066, 37.465731739406081 ], [ 126.75273397376462, 37.46518531707089 ], [ 126.751721131721368, 37.465198630931837 ], [ 126.751378308280849, 37.465233135495893 ], [ 126.751298640817012, 37.465258007398326 ], [ 126.751068476975547, 37.465333363828293 ], [ 126.749713735409031, 37.465793477876979 ], [ 126.748710002166462, 37.46585451152616 ], [ 126.747664622700597, 37.465739432234592 ], [ 126.747569462541108, 37.465713081919013 ], [ 126.747202125205348, 37.465557963172394 ], [ 126.746047025198564, 37.464817913405277 ], [ 126.745135996324578, 37.465368107405773 ], [ 126.745114246728136, 37.46595591906442 ], [ 126.744875535501592, 37.46628707627022 ], [ 126.74194611817525, 37.469152246570196 ], [ 126.741722033777208, 37.46929065690265 ], [ 126.738469051079505, 37.470895504721661 ], [ 126.736624203511241, 37.471017903167777 ], [ 126.736176481080363, 37.470983821218965 ], [ 126.735676484251442, 37.47082832108422 ], [ 126.732285407500228, 37.471592038795471 ], [ 126.731179033070703, 37.472440579187051 ], [ 126.733027476962405, 37.474401550644323 ], [ 126.733084910392947, 37.474471942974276 ], [ 126.733031213044754, 37.475791335636373 ], [ 126.73276616487685, 37.476994411188087 ], [ 126.732701575208026, 37.477179212652132 ], [ 126.732456697851831, 37.477537173799128 ], [ 126.73302035578719, 37.477566985902001 ], [ 126.733060293184437, 37.477576936455101 ], [ 126.733222684775257, 37.477650838386026 ], [ 126.734590944169298, 37.478338291726949 ], [ 126.736316800853231, 37.479518155062564 ], [ 126.737193797656772, 37.480150668961286 ], [ 126.738145611171703, 37.481799416555184 ], [ 126.738299550327071, 37.482101446019712 ], [ 126.738781355742745, 37.482457672623639 ], [ 126.74022788106636, 37.483344589058866 ], [ 126.741189323366541, 37.483718913955045 ], [ 126.741836714332848, 37.484086293830906 ], [ 126.742065135327749, 37.484736677126406 ], [ 126.742417211514976, 37.48576494728848 ], [ 126.742600576068099, 37.486646714882518 ], [ 126.745848128838318, 37.485957005224833 ], [ 126.749661992667612, 37.48536029261615 ], [ 126.750727819134994, 37.485107530791979 ], [ 126.752453199230771, 37.48456530564232 ], [ 126.753166414188328, 37.484283968831541 ], [ 126.754311042696145, 37.483792979148518 ], [ 126.754516630477895, 37.483701743172418 ], [ 126.755493641013075, 37.48280365419383 ], [ 126.755490630759368, 37.482672963901699 ], [ 126.755412948838696, 37.482321869262719 ], [ 126.755362564954069, 37.482174036868706 ], [ 126.755147396007786, 37.481773834286386 ], [ 126.755076998291514, 37.481557731755508 ], [ 126.755050688422713, 37.481476796836169 ], [ 126.754989398329272, 37.48103151052949 ], [ 126.755013948452728, 37.481002024453396 ], [ 126.756211476660965, 37.479758142706807 ], [ 126.759518328874677, 37.476557569568477 ], [ 126.759710484173581, 37.4764586246311 ], [ 126.759972133649043, 37.476324457235556 ], [ 126.76063962699186, 37.476077993018471 ], [ 126.762586487098901, 37.475699499968123 ] ] ] ] } },
{ "type": "Feature", "properties": { "OBJECTID": 858, "adm_nm": "인천광역시 부평구 십정1동", "adm_cd": "2306070", "adm_cd2": "2823768000", "sgg": "28237", "sido": "28", "sidonm": "인천광역시", "sggnm": "부평구" }, "geometry": { "type": "MultiPolygon", "coordinates": [ [ [ [ 126.701354685940757, 37.485097572969416 ], [ 126.702928956427613, 37.484848380840567 ], [ 126.703529034889883, 37.484639943636623 ], [ 126.703988999703682, 37.484122828956032 ], [ 126.704015225586957, 37.484093344151255 ], [ 126.704109235630753, 37.482026204861739 ], [ 126.704560056411253, 37.480944455765616 ], [ 126.704402471762648, 37.480861264871677 ], [ 126.703985382522703, 37.480383626837813 ], [ 126.702790949945268, 37.478950386988586 ], [ 126.701793061902364, 37.477682978622951 ], [ 126.700886624548474, 37.47653130756914 ], [ 126.700192510683351, 37.475601010131108 ], [ 126.700141280857665, 37.475498077378461 ], [ 126.693387004726148, 37.469940497620115 ], [ 126.692665374777064, 37.469683259372744 ], [ 126.692471989780501, 37.469810735072421 ], [ 126.69192500457487, 37.470171238271192 ], [ 126.691716392791534, 37.470276914037662 ], [ 126.691323932385046, 37.470475678063195 ], [ 126.69070471931208, 37.470630768813194 ], [ 126.690453546061917, 37.470642928030948 ], [ 126.689947924173467, 37.47066736391956 ], [ 126.688660911596131, 37.4706842200995 ], [ 126.688605499950995, 37.470697174129548 ], [ 126.688300786688501, 37.470768451822615 ], [ 126.686412053483238, 37.471813893945402 ], [ 126.686051342534, 37.472017135802638 ], [ 126.684041290405773, 37.473347885798908 ], [ 126.687423029018206, 37.476308033211133 ], [ 126.690650421957855, 37.479076623344106 ], [ 126.690682078087022, 37.47930927216278 ], [ 126.690838468404195, 37.480701970451229 ], [ 126.6907819002803, 37.480846147201362 ], [ 126.690376990454695, 37.481675146014823 ], [ 126.690318510864216, 37.481791709301078 ], [ 126.690195232802594, 37.482047079142518 ], [ 126.690106061829596, 37.48225687535966 ], [ 126.689981118823624, 37.482558099416551 ], [ 126.689820166732929, 37.482983827139307 ], [ 126.692628917027434, 37.485346937675018 ], [ 126.693904010119766, 37.485652508291956 ], [ 126.694084672635668, 37.485684051295358 ], [ 126.694382479820547, 37.48568762646515 ], [ 126.694492420530224, 37.485679437471703 ], [ 126.695848662995246, 37.485231009570356 ], [ 126.696070353797111, 37.485145268983423 ], [ 126.701354685940757, 37.485097572969416 ] ] ] ] } },
{ "type": "Feature", "properties": { "OBJECTID": 859, "adm_nm": "인천광역시 부평구 십정2동", "adm_cd": "2306071", "adm_cd2": "2823769000", "sgg": "28237", "sido": "28", "sidonm": "인천광역시", "sggnm": "부평구" }, "geometry": { "type": "MultiPolygon", "coordinates": [ [ [ [ 126.709611754042868, 37.475886892477085 ], [ 126.709283295301745, 37.474599611446408 ], [ 126.708062322936556, 37.471009137189121 ], [ 126.707977411648557, 37.469331300656137 ], [ 126.706630251092719, 37.469355800290678 ], [ 126.704595738196858, 37.46853952619017 ], [ 126.704550455354905, 37.468366571618169 ], [ 126.703287766200276, 37.467916486545136 ], [ 126.703253180332098, 37.467915881984268 ], [ 126.703218861265569, 37.46791528462046 ], [ 126.70265670833345, 37.467905548164417 ], [ 126.697605028972845, 37.46808665209722 ], [ 126.697057275235579, 37.468272448661232 ], [ 126.696308407685777, 37.468578613704864 ], [ 126.695026182248085, 37.469152927774026 ], [ 126.694987025508382, 37.469170622168733 ], [ 126.693870563163884, 37.469675343832208 ], [ 126.693441799348278, 37.469869175756088 ], [ 126.693400151396375, 37.469907525026372 ], [ 126.693387004726148, 37.469940497620115 ], [ 126.700141280857665, 37.475498077378461 ], [ 126.700192510683351, 37.475601010131108 ], [ 126.700886624548474, 37.47653130756914 ], [ 126.701793061902364, 37.477682978622951 ], [ 126.702790949945268, 37.478950386988586 ], [ 126.703985382522703, 37.480383626837813 ], [ 126.704402471762648, 37.480861264871677 ], [ 126.704560056411253, 37.480944455765616 ], [ 126.706499153819266, 37.480840576068374 ], [ 126.706747763019919, 37.480637037668878 ], [ 126.707085953743118, 37.480195996528344 ], [ 126.70718637703186, 37.479055435143131 ], [ 126.706747024567406, 37.478658739783583 ], [ 126.70604481754539, 37.476552713649916 ], [ 126.706158159252539, 37.476426804352087 ], [ 126.706261206575789, 37.476312334190176 ], [ 126.706297906726618, 37.476305131999339 ], [ 126.709611754042868, 37.475886892477085 ] ] ] ] } },
{ "type": "Feature", "properties": { "OBJECTID": 860, "adm_nm": "인천광역시 부평구 삼산2동", "adm_cd": "2306072", "adm_cd2": "2823764800", "sgg": "28237", "sido": "28", "sidonm": "인천광역시", "sggnm": "부평구" }, "geometry": { "type": "MultiPolygon", "coordinates": [ [ [ [ 126.752003601986516, 37.516408840512376 ], [ 126.751946327181386, 37.515386158759696 ], [ 126.751892304205143, 37.51533664825871 ], [ 126.750589739000759, 37.514978794314793 ], [ 126.749666664640898, 37.514782522996079 ], [ 126.749359400583316, 37.514717729778155 ], [ 126.748792099671874, 37.51461472182794 ], [ 126.748670755568256, 37.514593010860864 ], [ 126.747807360944392, 37.514530187230754 ], [ 126.747583139579731, 37.514563601408362 ], [ 126.747320479518706, 37.514602757836357 ], [ 126.74703795947265, 37.514657454234616 ], [ 126.746611790350542, 37.514739964990959 ], [ 126.746313319653311, 37.514797746859308 ], [ 126.745798655721529, 37.514762140249474 ], [ 126.745510877941982, 37.514648921382602 ], [ 126.745100683771696, 37.514084702602005 ], [ 126.742574652748161, 37.509420434923122 ], [ 126.742175319453054, 37.508397172704626 ], [ 126.742157250411623, 37.506448598681636 ], [ 126.731223105305901, 37.507017851090374 ], [ 126.73190674339925, 37.514033536546577 ], [ 126.731977947854162, 37.5147946891895 ], [ 126.732282538571098, 37.517650437899938 ], [ 126.739975811867382, 37.517159802987479 ], [ 126.740171984436472, 37.517184759717651 ], [ 126.740780345403877, 37.517153735898916 ], [ 126.743475061296166, 37.516995725095846 ], [ 126.743642680324129, 37.516983127965766 ], [ 126.744296870369183, 37.516933957834311 ], [ 126.745182815940623, 37.516867361554873 ], [ 126.745924551306786, 37.516798231783113 ], [ 126.74674643295134, 37.516728389903435 ], [ 126.748849551499788, 37.516557359321325 ], [ 126.749983871176539, 37.51646510107782 ], [ 126.752003601986516, 37.516408840512376 ] ] ] ] } }
]
}
