{
"type": "FeatureCollection",
"name": "donggu",
"crs": { "type": "name", "properties": { "name": "urn:ogc:def:crs:OGC:1.3:CRS84" } },
"features": [
{ "type": "Feature", "properties": { "OBJECTID": 775, "adm_nm": "인천광역시 동구 만석동", "adm_cd": "2302051", "adm_cd2": "2814051000", "sgg": "28140", "sido": "28", "sidonm": "인천광역시", "sggnm": "동구" }, "geometry": { "type": "MultiPolygon", "coordinates": [ [ [ [ 126.62689159942073, 37.490614434808634 ], [ 126.626418600723539, 37.489425827213502 ], [ 126.625712340860886, 37.488025095986096 ], [ 126.625323086598257, 37.487238129008759 ], [ 126.625310991294029, 37.487198083905263 ], [ 126.62526317957267, 37.487006632958497 ], [ 126.625892838602709, 37.485353707912338 ], [ 126.627625959910418, 37.483854287080284 ], [ 126.628323432868882, 37.48373812007307 ], [ 126.627636540547229, 37.48332671971346 ], [ 126.62682216089901, 37.482547852429427 ], [ 126.626503040764334, 37.481833381905354 ], [ 126.626486427846345, 37.481464617397499 ], [ 126.626612170187073, 37.481293063501127 ], [ 126.627064612242791, 37.480682957473256 ], [ 126.62802284927092, 37.479428703320863 ], [ 126.627973199838507, 37.47922788551876 ], [ 126.627333171982286, 37.479620866323721 ], [ 126.626648398264592, 37.480064833466017 ], [ 126.62622547711365, 37.480332417328107 ], [ 126.626170005555423, 37.480365991266225 ], [ 126.626025656176921, 37.480452102251576 ], [ 126.625968564244872, 37.480485434264551 ], [ 126.625903453782939, 37.480523290249408 ], [ 126.625836971167956, 37.480560965691488 ], [ 126.625718268408818, 37.480626277400383 ], [ 126.625601780745328, 37.480685409556571 ], [ 126.625555540861939, 37.480708627503873 ], [ 126.625479026411909, 37.480745758891494 ], [ 126.625416796565673, 37.480774170933337 ], [ 126.625351623479915, 37.480803576063842 ], [ 126.625291099617527, 37.480829811308546 ], [ 126.625204078363609, 37.480865817366563 ], [ 126.625158539052364, 37.480883251925199 ], [ 126.625035739259687, 37.48092949805968 ], [ 126.624990591759556, 37.480946206268946 ], [ 126.624944416586857, 37.480961809014609 ], [ 126.624866342887017, 37.480986539505864 ], [ 126.624779214330019, 37.48101357970544 ], [ 126.624709577363248, 37.481034486005164 ], [ 126.62463547210838, 37.481055257305172 ], [ 126.624549326553179, 37.481077909673793 ], [ 126.624470304849964, 37.481097498832824 ], [ 126.624395182579221, 37.481115273594412 ], [ 126.624342144239378, 37.481127568689104 ], [ 126.624229793539428, 37.481151686865836 ], [ 126.624170225571646, 37.481163606293286 ], [ 126.624068371672124, 37.481179311489392 ], [ 126.624002343366413, 37.481188892624296 ], [ 126.623966299427735, 37.481193952296266 ], [ 126.623915064622025, 37.481200851618517 ], [ 126.623865767730507, 37.481206742266657 ], [ 126.623765512653492, 37.481217536829206 ], [ 126.623701772815522, 37.481223495149756 ], [ 126.623608580911551, 37.481231197185664 ], [ 126.623562730932917, 37.481234316412255 ], [ 126.623521884212792, 37.481237084260577 ], [ 126.623450123071677, 37.481240524977622 ], [ 126.623373137529569, 37.48124388272042 ], [ 126.623288062701718, 37.481246188007653 ], [ 126.623229647159505, 37.48124648189156 ], [ 126.623192334660033, 37.481246656554426 ], [ 126.623134809007297, 37.481246002474691 ], [ 126.623028760128449, 37.481244067022395 ], [ 126.622950500491214, 37.481240987563304 ], [ 126.622804405974506, 37.481234536341667 ], [ 126.622724225238102, 37.481228608650149 ], [ 126.622655690581425, 37.481221437008735 ], [ 126.622556785521965, 37.481210298303743 ], [ 126.622495099569761, 37.481203102622331 ], [ 126.622457893650179, 37.481198421415058 ], [ 126.622415269028636, 37.481193058190208 ], [ 126.622345775837047, 37.481182264868401 ], [ 126.622197531771008, 37.481157510505611 ], [ 126.622138720390112, 37.481147271434033 ], [ 126.622048574627911, 37.481128943390274 ], [ 126.621964895143677, 37.481111666528243 ], [ 126.62185221144901, 37.481086767700944 ], [ 126.621813448006066, 37.481078141258564 ], [ 126.621774367539757, 37.481068481311844 ], [ 126.621627395931384, 37.481030908698685 ], [ 126.621526344308037, 37.481004724200105 ], [ 126.621436879359038, 37.480980730411702 ], [ 126.621324497554738, 37.480949207563732 ], [ 126.621245735769676, 37.48092694088605 ], [ 126.621069410466191, 37.480874851260005 ], [ 126.620525126256339, 37.480712042088456 ], [ 126.620352849932146, 37.480659949088611 ], [ 126.61677144335242, 37.483589952580502 ], [ 126.618853760378542, 37.485474730847365 ], [ 126.617062260725277, 37.485020799695739 ], [ 126.611686042505553, 37.483474827444006 ], [ 126.611648991304463, 37.483475862100867 ], [ 126.611621571991876, 37.483489335570582 ], [ 126.609805254009842, 37.487358116172317 ], [ 126.609823272889855, 37.487398427381109 ], [ 126.616170359479355, 37.489789869758063 ], [ 126.621018212454658, 37.491251757389243 ], [ 126.624162656448121, 37.492175808037608 ], [ 126.626276585296452, 37.492539728118729 ], [ 126.627365556834818, 37.49145977818069 ], [ 126.62689159942073, 37.490614434808634 ] ] ] ] } },
{ "type": "Feature", "properties": { "OBJECTID": 776, "adm_nm": "인천광역시 동구 화수1·화평동", "adm_cd": "2302052", "adm_cd2": "2814052500", "sgg": "28140", "sido": "28", "sidonm": "인천광역시", "sggnm": "동구" }, "geometry": { "type": "MultiPolygon", "coordinates": [ [ [ [ 126.633591885842534, 37.479054901591255 ], [ 126.631424309602082, 37.476799136443432 ], [ 126.62802284927092, 37.479428703320863 ], [ 126.627064612242791, 37.480682957473256 ], [ 126.626612170187073, 37.481293063501127 ], [ 126.626486427846345, 37.481464617397499 ], [ 126.626503040764334, 37.481833381905354 ], [ 126.62682216089901, 37.482547852429427 ], [ 126.627636540547229, 37.48332671971346 ], [ 126.628323432868882, 37.48373812007307 ], [ 126.629473174486648, 37.483118677689404 ], [ 126.630947789494144, 37.482949063826368 ], [ 126.632874300366197, 37.480323543546334 ], [ 126.632723162573683, 37.480123618721706 ], [ 126.632601313826953, 37.479956997027692 ], [ 126.632568210114727, 37.479905936283529 ], [ 126.632549307128144, 37.479872706501837 ], [ 126.632543126211601, 37.479838949101364 ], [ 126.632540687567868, 37.479356551504182 ], [ 126.632816050813105, 37.479253688216787 ], [ 126.633336752189578, 37.479078556365906 ], [ 126.633425322594903, 37.479050387405202 ], [ 126.633504437440109, 37.479030769473411 ], [ 126.63354395401079, 37.479034536664791 ], [ 126.633591885842534, 37.479054901591255 ] ] ] ] } },
{ "type": "Feature", "properties": { "OBJECTID": 777, "adm_nm": "인천광역시 동구 화수2동", "adm_cd": "2302053", "adm_cd2": "2814053000", "sgg": "28140", "sido": "28", "sidonm": "인천광역시", "sggnm": "동구" }, "geometry": { "type": "MultiPolygon", "coordinates": [ [ [ [ 126.632051261359791, 37.487704469275251 ], [ 126.634380646545111, 37.486369718890174 ], [ 126.635603929006166, 37.485603533370394 ], [ 126.635869694411582, 37.485398564628333 ], [ 126.635991821604762, 37.485032576479306 ], [ 126.635529067856822, 37.4845875417342 ], [ 126.635775112089789, 37.48309497764901 ], [ 126.637532674319729, 37.482041200489114 ], [ 126.633591885842534, 37.479054901591255 ], [ 126.63354395401079, 37.479034536664791 ], [ 126.633504437440109, 37.479030769473411 ], [ 126.633425322594903, 37.479050387405202 ], [ 126.633336752189578, 37.479078556365906 ], [ 126.632816050813105, 37.479253688216787 ], [ 126.632540687567868, 37.479356551504182 ], [ 126.632543126211601, 37.479838949101364 ], [ 126.632549307128144, 37.479872706501837 ], [ 126.632568210114727, 37.479905936283529 ], [ 126.632601313826953, 37.479956997027692 ], [ 126.632723162573683, 37.480123618721706 ], [ 126.632874300366197, 37.480323543546334 ], [ 126.630947789494144, 37.482949063826368 ], [ 126.629473174486648, 37.483118677689404 ], [ 126.628323432868882, 37.48373812007307 ], [ 126.627625959910418, 37.483854287080284 ], [ 126.625892838602709, 37.485353707912338 ], [ 126.62526317957267, 37.487006632958497 ], [ 126.625310991294029, 37.487198083905263 ], [ 126.625323086598257, 37.487238129008759 ], [ 126.625712340860886, 37.488025095986096 ], [ 126.626418600723539, 37.489425827213502 ], [ 126.62689159942073, 37.490614434808634 ], [ 126.629248173494815, 37.489470651556402 ], [ 126.632051261359791, 37.487704469275251 ] ] ] ] } },
{ "type": "Feature", "properties": { "OBJECTID": 778, "adm_nm": "인천광역시 동구 송현1·2동", "adm_cd": "2302055", "adm_cd2": "2814055500", "sgg": "28140", "sido": "28", "sidonm": "인천광역시", "sggnm": "동구" }, "geometry": { "type": "MultiPolygon", "coordinates": [ [ [ [ 126.639899842935321, 37.478192417619987 ], [ 126.639477904163556, 37.47820340976785 ], [ 126.63913291955491, 37.477276085809756 ], [ 126.639023694757, 37.477048573185947 ], [ 126.638824211385455, 37.476862178075393 ], [ 126.637976962049166, 37.476406180455292 ], [ 126.637353043309162, 37.476129232557355 ], [ 126.636008848056989, 37.475651489795851 ], [ 126.63516850501054, 37.474953042258548 ], [ 126.635298199777552, 37.474294512632795 ], [ 126.634632584080478, 37.473665750942409 ], [ 126.631424309602082, 37.476799136443432 ], [ 126.633591885842534, 37.479054901591255 ], [ 126.637532674319729, 37.482041200489114 ], [ 126.638329849374145, 37.481078871513944 ], [ 126.639899842935321, 37.478192417619987 ] ] ] ] } },
{ "type": "Feature", "properties": { "OBJECTID": 779, "adm_nm": "인천광역시 동구 송현3동", "adm_cd": "2302057", "adm_cd2": "2814057000", "sgg": "28140", "sido": "28", "sidonm": "인천광역시", "sggnm": "동구" }, "geometry": { "type": "MultiPolygon", "coordinates": [ [ [ [ 126.655360068371451, 37.488159522735117 ], [ 126.652642359707343, 37.485015640315986 ], [ 126.65030209582325, 37.486387945314185 ], [ 126.649792127478293, 37.48673118603169 ], [ 126.64972952433412, 37.486770739772311 ], [ 126.649684147008784, 37.486799407564298 ], [ 126.649485067514661, 37.486925168370917 ], [ 126.649282249447594, 37.487053283261645 ], [ 126.649033346808523, 37.487207194873086 ], [ 126.648957620079344, 37.487246005600092 ], [ 126.64882050693106, 37.487315539728918 ], [ 126.647788363538581, 37.486356709942363 ], [ 126.647260900513544, 37.48586248690571 ], [ 126.645543543211886, 37.484218484071619 ], [ 126.645250656126606, 37.483917586477681 ], [ 126.64567754269369, 37.480889451935425 ], [ 126.645342116559817, 37.47967679756394 ], [ 126.640996985234935, 37.478074009596192 ], [ 126.639899842935321, 37.478192417619987 ], [ 126.638329849374145, 37.481078871513944 ], [ 126.637532674319729, 37.482041200489114 ], [ 126.635775112089789, 37.48309497764901 ], [ 126.635529067856822, 37.4845875417342 ], [ 126.635991821604762, 37.485032576479306 ], [ 126.635869694411582, 37.485398564628333 ], [ 126.635603929006166, 37.485603533370394 ], [ 126.634380646545111, 37.486369718890174 ], [ 126.632051261359791, 37.487704469275251 ], [ 126.631552655682356, 37.488687200530826 ], [ 126.627447659143058, 37.49324937875425 ], [ 126.631683297140015, 37.4937608020903 ], [ 126.63206713101566, 37.493554410867304 ], [ 126.633309594165013, 37.493877596123177 ], [ 126.634930287372512, 37.494306195133852 ], [ 126.635864291325518, 37.494555064596653 ], [ 126.640763020990065, 37.495873725075079 ], [ 126.641442678345356, 37.495554234548059 ], [ 126.645932823495869, 37.493232425859105 ], [ 126.650324811353897, 37.490928937687436 ], [ 126.650620535421893, 37.490773822462415 ], [ 126.651894505900756, 37.490085507709949 ], [ 126.653175577714777, 37.489393322603291 ], [ 126.653365872335272, 37.489290484117973 ], [ 126.655360068371451, 37.488159522735117 ] ] ] ] } },
{ "type": "Feature", "properties": { "OBJECTID": 780, "adm_nm": "인천광역시 동구 송림1동", "adm_cd": "2302058", "adm_cd2": "2814058000", "sgg": "28140", "sido": "28", "sidonm": "인천광역시", "sggnm": "동구" }, "geometry": { "type": "MultiPolygon", "coordinates": [ [ [ [ 126.639899842935321, 37.478192417619987 ], [ 126.640996985234935, 37.478074009596192 ], [ 126.640858230699365, 37.477925014513076 ], [ 126.640802519678843, 37.477858335400299 ], [ 126.640665143302712, 37.477647429615232 ], [ 126.640626779518016, 37.477538882995113 ], [ 126.640589587148284, 37.477423062026219 ], [ 126.640565747167571, 37.477343975985036 ], [ 126.640505006886158, 37.477131494863755 ], [ 126.640435221521898, 37.47688366029837 ], [ 126.640381318848483, 37.476677577910664 ], [ 126.640363817515095, 37.476510793937109 ], [ 126.640427067298859, 37.476126536290195 ], [ 126.641892595361725, 37.47396617165677 ], [ 126.640534076980146, 37.473483408935877 ], [ 126.640197172334183, 37.4733894623079 ], [ 126.640165468766924, 37.473381523300915 ], [ 126.639908544011064, 37.473317307331506 ], [ 126.639484748992359, 37.4732130547076 ], [ 126.639066969115248, 37.473114342596467 ], [ 126.638836687979378, 37.473109183419368 ], [ 126.63616364763412, 37.474038459426779 ], [ 126.635758942959356, 37.474235884784697 ], [ 126.635298199777552, 37.474294512632795 ], [ 126.63516850501054, 37.474953042258548 ], [ 126.636008848056989, 37.475651489795851 ], [ 126.637353043309162, 37.476129232557355 ], [ 126.637976962049166, 37.476406180455292 ], [ 126.638824211385455, 37.476862178075393 ], [ 126.639023694757, 37.477048573185947 ], [ 126.63913291955491, 37.477276085809756 ], [ 126.639477904163556, 37.47820340976785 ], [ 126.639899842935321, 37.478192417619987 ] ] ] ] } },
{ "type": "Feature", "properties": { "OBJECTID": 781, "adm_nm": "인천광역시 동구 송림2동", "adm_cd": "2302059", "adm_cd2": "2814059000", "sgg": "28140", "sido": "28", "sidonm": "인천광역시", "sggnm": "동구" }, "geometry": { "type": "MultiPolygon", "coordinates": [ [ [ [ 126.644765448226082, 37.475777184552001 ], [ 126.643600890675813, 37.473237719750834 ], [ 126.641892595361725, 37.47396617165677 ], [ 126.640427067298859, 37.476126536290195 ], [ 126.640363817515095, 37.476510793937109 ], [ 126.640381318848483, 37.476677577910664 ], [ 126.640435221521898, 37.47688366029837 ], [ 126.640505006886158, 37.477131494863755 ], [ 126.640565747167571, 37.477343975985036 ], [ 126.640589587148284, 37.477423062026219 ], [ 126.640626779518016, 37.477538882995113 ], [ 126.640665143302712, 37.477647429615232 ], [ 126.640802519678843, 37.477858335400299 ], [ 126.640858230699365, 37.477925014513076 ], [ 126.640996985234935, 37.478074009596192 ], [ 126.645342116559817, 37.47967679756394 ], [ 126.644765448226082, 37.475777184552001 ] ] ] ] } },
{ "type": "Feature", "properties": { "OBJECTID": 782, "adm_nm": "인천광역시 동구 송림3·5동", "adm_cd": "2302060", "adm_cd2": "2814060500", "sgg": "28140", "sido": "28", "sidonm": "인천광역시", "sggnm": "동구" }, "geometry": { "type": "MultiPolygon", "coordinates": [ [ [ [ 126.652228149497745, 37.475816879757872 ], [ 126.6521030331118, 37.475816509223996 ], [ 126.652058867170965, 37.475797492970102 ], [ 126.652011642808645, 37.47575328560545 ], [ 126.651893769209281, 37.475545653993002 ], [ 126.651304232244584, 37.47448738660033 ], [ 126.651299717948376, 37.474432248666389 ], [ 126.651309744995103, 37.47432962058037 ], [ 126.651339022327662, 37.474190917438385 ], [ 126.65134877419375, 37.474147221790794 ], [ 126.65141117942791, 37.474071342339606 ], [ 126.651466309286093, 37.47401827050939 ], [ 126.651515868041514, 37.473986914402829 ], [ 126.65156475773297, 37.473973022432894 ], [ 126.651600816659425, 37.473965170159737 ], [ 126.651725792600118, 37.473941171445162 ], [ 126.6518046960296, 37.473928459293525 ], [ 126.651854650903346, 37.473921177200076 ], [ 126.651924156266304, 37.473910171351555 ], [ 126.651983792558894, 37.473900621507255 ], [ 126.652023361854987, 37.473892863703043 ], [ 126.652100051861453, 37.47387605688273 ], [ 126.652154113317039, 37.473863745785366 ], [ 126.652190159870116, 37.473853574983991 ], [ 126.652239984584654, 37.473825970073456 ], [ 126.652274140199481, 37.473802683730518 ], [ 126.652314957067858, 37.473773476463471 ], [ 126.652350762629041, 37.473742882114223 ], [ 126.652375049375678, 37.473712720688042 ], [ 126.652393597008768, 37.473682530704252 ], [ 126.652620172309568, 37.473234280248633 ], [ 126.652629703705657, 37.473067796289619 ], [ 126.652637860296466, 37.472708648991556 ], [ 126.65263899013236, 37.47246533089892 ], [ 126.652419987453058, 37.470511998106339 ], [ 126.651204335813532, 37.469804625281206 ], [ 126.650291619222912, 37.469511907845948 ], [ 126.645546037637772, 37.469945223988169 ], [ 126.643600890675813, 37.473237719750834 ], [ 126.644765448226082, 37.475777184552001 ], [ 126.645718629072064, 37.475463141428648 ], [ 126.647656037717738, 37.476764206446653 ], [ 126.64889292027938, 37.47716549701186 ], [ 126.649643475128357, 37.477390546323392 ], [ 126.649889140395416, 37.476183383583532 ], [ 126.652228149497745, 37.475816879757872 ] ] ] ] } },
{ "type": "Feature", "properties": { "OBJECTID": 783, "adm_nm": "인천광역시 동구 송림4동", "adm_cd": "2302061", "adm_cd2": "2814061000", "sgg": "28140", "sido": "28", "sidonm": "인천광역시", "sggnm": "동구" }, "geometry": { "type": "MultiPolygon", "coordinates": [ [ [ [ 126.670479920530326, 37.476847331202293 ], [ 126.664643520483011, 37.479779456659145 ], [ 126.660850600355261, 37.481709002418114 ], [ 126.658908495667944, 37.482680089797526 ], [ 126.655184872719502, 37.484018897626811 ], [ 126.655093026430123, 37.484051801432123 ], [ 126.654996466012832, 37.48407524069161 ], [ 126.654955056697219, 37.484058926731635 ], [ 126.654624867342193, 37.483704685418338 ], [ 126.653490389116612, 37.482389415757382 ], [ 126.652946200509703, 37.481694578676901 ], [ 126.65282911498339, 37.479867634667222 ], [ 126.653038822479132, 37.479526483274938 ], [ 126.653563982086226, 37.479201130975333 ], [ 126.654342344059714, 37.47846960897779 ], [ 126.652719137813691, 37.47587604986095 ], [ 126.652626845582617, 37.475753728101111 ], [ 126.652323760866011, 37.475801897692961 ], [ 126.652228149497745, 37.475816879757872 ], [ 126.649889140395416, 37.476183383583532 ], [ 126.649643475128357, 37.477390546323392 ], [ 126.648920455050416, 37.478625585080323 ], [ 126.6501395845644, 37.480533724776684 ], [ 126.651062547685953, 37.481630631033234 ], [ 126.652150157915031, 37.482581632291414 ], [ 126.653727721648963, 37.484447069620117 ], [ 126.653721387157034, 37.484488720385144 ], [ 126.65369771596491, 37.484516786298961 ], [ 126.653655530419812, 37.484554144020457 ], [ 126.652642359707343, 37.485015640315986 ], [ 126.655360068371451, 37.488159522735117 ], [ 126.66179783806912, 37.484294904439963 ], [ 126.663589531615187, 37.483265923099253 ], [ 126.664763132867634, 37.482457144840865 ], [ 126.669922835586092, 37.478628557295181 ], [ 126.671000779346059, 37.477784267932648 ], [ 126.670479920530326, 37.476847331202293 ] ] ] ] } },
{ "type": "Feature", "properties": { "OBJECTID": 784, "adm_nm": "인천광역시 동구 송림6동", "adm_cd": "2302063", "adm_cd2": "2814063000", "sgg": "28140", "sido": "28", "sidonm": "인천광역시", "sggnm": "동구" }, "geometry": { "type": "MultiPolygon", "coordinates": [ [ [ [ 126.652642359707343, 37.485015640315986 ], [ 126.653655530419812, 37.484554144020457 ], [ 126.65369771596491, 37.484516786298961 ], [ 126.653721387157034, 37.484488720385144 ], [ 126.653727721648963, 37.484447069620117 ], [ 126.652150157915031, 37.482581632291414 ], [ 126.651062547685953, 37.481630631033234 ], [ 126.6501395845644, 37.480533724776684 ], [ 126.648920455050416, 37.478625585080323 ], [ 126.649643475128357, 37.477390546323392 ], [ 126.64889292027938, 37.47716549701186 ], [ 126.647656037717738, 37.476764206446653 ], [ 126.645718629072064, 37.475463141428648 ], [ 126.644765448226082, 37.475777184552001 ], [ 126.645342116559817, 37.47967679756394 ], [ 126.64567754269369, 37.480889451935425 ], [ 126.645250656126606, 37.483917586477681 ], [ 126.645543543211886, 37.484218484071619 ], [ 126.647260900513544, 37.48586248690571 ], [ 126.647788363538581, 37.486356709942363 ], [ 126.64882050693106, 37.487315539728918 ], [ 126.648957620079344, 37.487246005600092 ], [ 126.649033346808523, 37.487207194873086 ], [ 126.649282249447594, 37.487053283261645 ], [ 126.649485067514661, 37.486925168370917 ], [ 126.649684147008784, 37.486799407564298 ], [ 126.64972952433412, 37.486770739772311 ], [ 126.649792127478293, 37.48673118603169 ], [ 126.65030209582325, 37.486387945314185 ], [ 126.652642359707343, 37.485015640315986 ] ] ] ] } },
{ "type": "Feature", "properties": { "OBJECTID": 785, "adm_nm": "인천광역시 동구 금창동", "adm_cd": "2302064", "adm_cd2": "2814064000", "sgg": "28140", "sido": "28", "sidonm": "인천광역시", "sggnm": "동구" }, "geometry": { "type": "MultiPolygon", "coordinates": [ [ [ [ 126.641892595361725, 37.47396617165677 ], [ 126.643600890675813, 37.473237719750834 ], [ 126.645546037637772, 37.469945223988169 ], [ 126.644502793218862, 37.4695992255254 ], [ 126.642789146996606, 37.468486211297929 ], [ 126.640703780337944, 37.469530562428133 ], [ 126.639194693131444, 37.470286571739251 ], [ 126.636674322693437, 37.471783204063335 ], [ 126.636175645517639, 37.472220377849254 ], [ 126.634632584080478, 37.473665750942409 ], [ 126.635298199777552, 37.474294512632795 ], [ 126.635758942959356, 37.474235884784697 ], [ 126.63616364763412, 37.474038459426779 ], [ 126.638836687979378, 37.473109183419368 ], [ 126.639066969115248, 37.473114342596467 ], [ 126.639484748992359, 37.4732130547076 ], [ 126.639908544011064, 37.473317307331506 ], [ 126.640165468766924, 37.473381523300915 ], [ 126.640197172334183, 37.4733894623079 ], [ 126.640534076980146, 37.473483408935877 ], [ 126.641892595361725, 37.47396617165677 ] ] ] ] } }
]
}
