{
"type": "FeatureCollection",
"name": "gyeyanggu",
"crs": { "type": "name", "properties": { "name": "urn:ogc:def:crs:OGC:1.3:CRS84" } },
"features": [
{ "type": "Feature", "properties": { "OBJECTID": 861, "adm_nm": "인천광역시 계양구 효성1동", "adm_cd": "2307051", "adm_cd2": "2824560100", "sgg": "28245", "sido": "28", "sidonm": "인천광역시", "sggnm": "계양구" }, "geometry": { "type": "MultiPolygon", "coordinates": [ [ [ [ 126.717323546192972, 37.5362861593904 ], [ 126.717492689414044, 37.534854632999263 ], [ 126.718441556299595, 37.530212874838888 ], [ 126.718725461102622, 37.529211873540326 ], [ 126.718372479249084, 37.527921555622498 ], [ 126.713848478631192, 37.527881819728179 ], [ 126.702903919153115, 37.527784986139281 ], [ 126.702414873967001, 37.527780636897972 ], [ 126.701248976878901, 37.529743140883973 ], [ 126.701322555595212, 37.529905306352703 ], [ 126.7014478156633, 37.530693165005587 ], [ 126.701420732179798, 37.530821489390775 ], [ 126.701242400734529, 37.531324885394277 ], [ 126.701142089815093, 37.531589532229589 ], [ 126.70111578700886, 37.53165891062612 ], [ 126.700465508504934, 37.533344846327317 ], [ 126.700149149916982, 37.533879297006422 ], [ 126.700126808598469, 37.533914593524415 ], [ 126.699894375378861, 37.534281789865595 ], [ 126.699046043854281, 37.534689739771856 ], [ 126.697060775362473, 37.535643897344634 ], [ 126.699276163568186, 37.540431971840007 ], [ 126.704876305824584, 37.542070658777426 ], [ 126.708105008296556, 37.53964925772577 ], [ 126.709981379152708, 37.540014285666444 ], [ 126.71013253609371, 37.540031592170742 ], [ 126.711114596413736, 37.540027441234677 ], [ 126.711188675405083, 37.540026031593626 ], [ 126.71122971077871, 37.540023912658356 ], [ 126.711260323274843, 37.540014927096138 ], [ 126.711290932434665, 37.540005935194266 ], [ 126.711354580565668, 37.539978426027112 ], [ 126.712559251535311, 37.539400270265688 ], [ 126.713895911605462, 37.5384910051649 ], [ 126.7141963355038, 37.53825770938068 ], [ 126.71426083946622, 37.538193487385662 ], [ 126.714301675366102, 37.53802872847767 ], [ 126.714316626335844, 37.537781181508805 ], [ 126.714315794487106, 37.537543310845741 ], [ 126.714317086942017, 37.53743545171379 ], [ 126.71433246742717, 37.5372986244437 ], [ 126.71434398378257, 37.537261784026811 ], [ 126.714383539198153, 37.537210373434256 ], [ 126.714462559210432, 37.53713054385846 ], [ 126.714490629217778, 37.537110429728244 ], [ 126.715890476214341, 37.536236997851958 ], [ 126.716010853564299, 37.536209020961131 ], [ 126.716070576956099, 37.536206714341752 ], [ 126.716807717927963, 37.536178299362653 ], [ 126.71691797790713, 37.536197543204622 ], [ 126.717009861615168, 37.536213582517945 ], [ 126.717323546192972, 37.5362861593904 ] ] ] ] } },
{ "type": "Feature", "properties": { "OBJECTID": 862, "adm_nm": "인천광역시 계양구 효성2동", "adm_cd": "2307052", "adm_cd2": "2824560200", "sgg": "28245", "sido": "28", "sidonm": "인천광역시", "sggnm": "계양구" }, "geometry": { "type": "MultiPolygon", "coordinates": [ [ [ [ 126.699276163568186, 37.540431971840007 ], [ 126.697060775362473, 37.535643897344634 ], [ 126.699046043854281, 37.534689739771856 ], [ 126.699894375378861, 37.534281789865595 ], [ 126.700126808598469, 37.533914593524415 ], [ 126.700149149916982, 37.533879297006422 ], [ 126.700465508504934, 37.533344846327317 ], [ 126.70111578700886, 37.53165891062612 ], [ 126.701142089815093, 37.531589532229589 ], [ 126.701242400734529, 37.531324885394277 ], [ 126.701420732179798, 37.530821489390775 ], [ 126.7014478156633, 37.530693165005587 ], [ 126.701322555595212, 37.529905306352703 ], [ 126.701248976878901, 37.529743140883973 ], [ 126.702414873967001, 37.527780636897972 ], [ 126.702903919153115, 37.527784986139281 ], [ 126.713848478631192, 37.527881819728179 ], [ 126.718372479249084, 37.527921555622498 ], [ 126.719416611469867, 37.527936128537732 ], [ 126.719526874780072, 37.527937664904947 ], [ 126.719534016244822, 37.527869544611974 ], [ 126.71927736629759, 37.524837040947538 ], [ 126.719157376372934, 37.523773061706009 ], [ 126.704968053804052, 37.523628506726268 ], [ 126.697885924930176, 37.52361025522972 ], [ 126.690569975486241, 37.523565334017135 ], [ 126.690309771786403, 37.523752964154284 ], [ 126.688944785516327, 37.52473728313624 ], [ 126.687831394184698, 37.525929923283726 ], [ 126.687784168151339, 37.526250233648106 ], [ 126.68771669559996, 37.526707959864289 ], [ 126.687481068810868, 37.528306258674625 ], [ 126.686920981354362, 37.530737635693875 ], [ 126.683986692733967, 37.531112078608501 ], [ 126.683448436402259, 37.531117504784817 ], [ 126.682895629249089, 37.531123079299803 ], [ 126.682464158800016, 37.532004690446421 ], [ 126.682590935507434, 37.532978198089864 ], [ 126.682718839970946, 37.533178976649339 ], [ 126.682781689956897, 37.533277612356734 ], [ 126.683285520035597, 37.533848960562395 ], [ 126.683702066444496, 37.534427000499548 ], [ 126.683611495053754, 37.535198348339186 ], [ 126.684160279041478, 37.535454794983572 ], [ 126.684617637309415, 37.535624362449241 ], [ 126.688007787436419, 37.535942038310793 ], [ 126.689420774434438, 37.535798478001404 ], [ 126.69062468789032, 37.535676120345165 ], [ 126.691506431051579, 37.535586519660612 ], [ 126.69169501032232, 37.535687967309542 ], [ 126.692908068084407, 37.537477222395879 ], [ 126.692214896929755, 37.539887639749111 ], [ 126.691995944106395, 37.54064897132362 ], [ 126.691898130476048, 37.540989063274026 ], [ 126.691934366942391, 37.541008491711857 ], [ 126.692080796594666, 37.541086974430328 ], [ 126.697202201797097, 37.541912643356234 ], [ 126.697567907281524, 37.541880661108038 ], [ 126.699276163568186, 37.540431971840007 ] ] ] ] } },
{ "type": "Feature", "properties": { "OBJECTID": 863, "adm_nm": "인천광역시 계양구 계산1동", "adm_cd": "2307053", "adm_cd2": "2824561100", "sgg": "28245", "sido": "28", "sidonm": "인천광역시", "sggnm": "계양구" }, "geometry": { "type": "MultiPolygon", "coordinates": [ [ [ [ 126.72899237990373, 37.543254006026054 ], [ 126.728453281401855, 37.543095926713761 ], [ 126.728337789641472, 37.541683823968789 ], [ 126.728328104502907, 37.54155787245346 ], [ 126.728259254814787, 37.540661783440378 ], [ 126.728084345705156, 37.538351730524795 ], [ 126.728055446926817, 37.537863061536889 ], [ 126.728022002002092, 37.537297508253637 ], [ 126.728012283273031, 37.537133079115286 ], [ 126.727997248335825, 37.536667482112684 ], [ 126.727985024286255, 37.536287488371144 ], [ 126.727859341953589, 37.536271961267936 ], [ 126.723629107746262, 37.536366342859097 ], [ 126.723484497413125, 37.53636942280216 ], [ 126.721877559087005, 37.536403601792827 ], [ 126.720465493975325, 37.536427544416284 ], [ 126.72029540823452, 37.536430421629802 ], [ 126.719688584053515, 37.536424618725704 ], [ 126.717757017189513, 37.53635256345072 ], [ 126.717552055831121, 37.53633902573803 ], [ 126.717323546192972, 37.5362861593904 ], [ 126.717009861615168, 37.536213582517945 ], [ 126.71691797790713, 37.536197543204622 ], [ 126.716807717927963, 37.536178299362653 ], [ 126.716070576956099, 37.536206714341752 ], [ 126.716010853564299, 37.536209020961131 ], [ 126.715890476214341, 37.536236997851958 ], [ 126.714490629217778, 37.537110429728244 ], [ 126.714462559210432, 37.53713054385846 ], [ 126.714383539198153, 37.537210373434256 ], [ 126.71434398378257, 37.537261784026811 ], [ 126.71433246742717, 37.5372986244437 ], [ 126.714317086942017, 37.53743545171379 ], [ 126.714315794487106, 37.537543310845741 ], [ 126.714316626335844, 37.537781181508805 ], [ 126.714301675366102, 37.53802872847767 ], [ 126.71426083946622, 37.538193487385662 ], [ 126.7141963355038, 37.53825770938068 ], [ 126.713895911605462, 37.5384910051649 ], [ 126.712559251535311, 37.539400270265688 ], [ 126.711354580565668, 37.539978426027112 ], [ 126.711290932434665, 37.540005935194266 ], [ 126.711260323274843, 37.540014927096138 ], [ 126.71122971077871, 37.540023912658356 ], [ 126.711188675405083, 37.540026031593626 ], [ 126.711114596413736, 37.540027441234677 ], [ 126.71013253609371, 37.540031592170742 ], [ 126.709981379152708, 37.540014285666444 ], [ 126.708105008296556, 37.53964925772577 ], [ 126.704876305824584, 37.542070658777426 ], [ 126.706161622797893, 37.542587744242972 ], [ 126.706920634277424, 37.542893103617388 ], [ 126.707087127106576, 37.543151791608075 ], [ 126.705714905734069, 37.544625653929373 ], [ 126.705606629092102, 37.544741950648287 ], [ 126.708104881568829, 37.54666831595037 ], [ 126.708506074465546, 37.546435173792233 ], [ 126.708856749378441, 37.546246829841792 ], [ 126.709784623538837, 37.545859406723672 ], [ 126.710721063244733, 37.545487641960769 ], [ 126.713126626493931, 37.544576359794547 ], [ 126.714196362636599, 37.544198989254888 ], [ 126.714694531968149, 37.544037090081879 ], [ 126.714841085086562, 37.544009518407719 ], [ 126.7150939601337, 37.543961944220186 ], [ 126.715858899887905, 37.543858554162277 ], [ 126.72499512116265, 37.543416108505241 ], [ 126.726738361211346, 37.543340365290895 ], [ 126.72899237990373, 37.543254006026054 ] ] ] ] } },
{ "type": "Feature", "properties": { "OBJECTID": 864, "adm_nm": "인천광역시 계양구 계산2동", "adm_cd": "2307054", "adm_cd2": "2824561200", "sgg": "28245", "sido": "28", "sidonm": "인천광역시", "sggnm": "계양구" }, "geometry": { "type": "MultiPolygon", "coordinates": [ [ [ [ 126.721346901245781, 37.552669630111232 ], [ 126.723977849892862, 37.551591183467487 ], [ 126.726358863612461, 37.550817767228089 ], [ 126.727902839653211, 37.550307323393788 ], [ 126.727945899791635, 37.550259667320844 ], [ 126.729960803108227, 37.547649246685332 ], [ 126.731104032709069, 37.54558400066206 ], [ 126.731450034011218, 37.545234483329416 ], [ 126.732020473894934, 37.544932620338031 ], [ 126.732891105625882, 37.544557954450163 ], [ 126.733778464302233, 37.544060604820771 ], [ 126.733951220834129, 37.543821945221509 ], [ 126.734084185490985, 37.543597608213418 ], [ 126.734133406916285, 37.543334529156851 ], [ 126.734126759179816, 37.543202376764576 ], [ 126.734104140109011, 37.542990481151826 ], [ 126.730846986191963, 37.543137184619809 ], [ 126.72899237990373, 37.543254006026054 ], [ 126.726738361211346, 37.543340365290895 ], [ 126.72499512116265, 37.543416108505241 ], [ 126.715858899887905, 37.543858554162277 ], [ 126.7150939601337, 37.543961944220186 ], [ 126.714841085086562, 37.544009518407719 ], [ 126.714694531968149, 37.544037090081879 ], [ 126.714196362636599, 37.544198989254888 ], [ 126.713126626493931, 37.544576359794547 ], [ 126.710721063244733, 37.545487641960769 ], [ 126.709784623538837, 37.545859406723672 ], [ 126.708856749378441, 37.546246829841792 ], [ 126.708506074465546, 37.546435173792233 ], [ 126.708104881568829, 37.54666831595037 ], [ 126.708400562053512, 37.547644674687213 ], [ 126.709295944048876, 37.550679116450738 ], [ 126.709535053621153, 37.551062056797228 ], [ 126.710997121593834, 37.553354143618854 ], [ 126.714827062248673, 37.552943013254776 ], [ 126.721346901245781, 37.552669630111232 ] ] ] ] } },
{ "type": "Feature", "properties": { "OBJECTID": 865, "adm_nm": "인천광역시 계양구 계산3동", "adm_cd": "2307055", "adm_cd2": "2824561300", "sgg": "28245", "sido": "28", "sidonm": "인천광역시", "sggnm": "계양구" }, "geometry": { "type": "MultiPolygon", "coordinates": [ [ [ [ 126.734104140109011, 37.542990481151826 ], [ 126.736868374201023, 37.542900908164079 ], [ 126.734728309237724, 37.540042318796374 ], [ 126.734680164861928, 37.539926275661962 ], [ 126.734605322943651, 37.539606061954068 ], [ 126.734537947945043, 37.539061289030897 ], [ 126.734369283100818, 37.53769735075425 ], [ 126.734359525075604, 37.537583219306072 ], [ 126.73429104050777, 37.536781561463918 ], [ 126.734253138076909, 37.536328781647406 ], [ 126.734226653368566, 37.535999505359634 ], [ 126.734161393492158, 37.5351881345808 ], [ 126.731519271630418, 37.535416399446696 ], [ 126.727985024286255, 37.536287488371144 ], [ 126.727997248335825, 37.536667482112684 ], [ 126.728012283273031, 37.537133079115286 ], [ 126.728022002002092, 37.537297508253637 ], [ 126.728055446926817, 37.537863061536889 ], [ 126.728084345705156, 37.538351730524795 ], [ 126.728259254814787, 37.540661783440378 ], [ 126.728328104502907, 37.54155787245346 ], [ 126.728337789641472, 37.541683823968789 ], [ 126.728453281401855, 37.543095926713761 ], [ 126.72899237990373, 37.543254006026054 ], [ 126.730846986191963, 37.543137184619809 ], [ 126.734104140109011, 37.542990481151826 ] ] ] ] } },
{ "type": "Feature", "properties": { "OBJECTID": 866, "adm_nm": "인천광역시 계양구 작전1동", "adm_cd": "2307056", "adm_cd2": "2824562100", "sgg": "28245", "sido": "28", "sidonm": "인천광역시", "sggnm": "계양구" }, "geometry": { "type": "MultiPolygon", "coordinates": [ [ [ [ 126.734161393492158, 37.5351881345808 ], [ 126.734053796782817, 37.534095500679364 ], [ 126.733491548635058, 37.529440528300277 ], [ 126.733481554863516, 37.529338920140212 ], [ 126.733404923775595, 37.528559571962234 ], [ 126.733313507644112, 37.527629652312342 ], [ 126.733138988498297, 37.525786159933574 ], [ 126.733120766478649, 37.525546851658234 ], [ 126.732992710934838, 37.523864797581268 ], [ 126.727724500984422, 37.523806915029503 ], [ 126.725894192734316, 37.523804443077346 ], [ 126.726042066227237, 37.525459600988441 ], [ 126.726012126491511, 37.525483084813402 ], [ 126.725520480989758, 37.525481271347658 ], [ 126.725192443544302, 37.52548005523083 ], [ 126.725132208381666, 37.52990166402801 ], [ 126.725622637425445, 37.53043017686651 ], [ 126.726283573432596, 37.530747732995543 ], [ 126.726637725544478, 37.530747257743272 ], [ 126.727858653591966, 37.53074560090554 ], [ 126.727908635188243, 37.53289660183264 ], [ 126.727985024286255, 37.536287488371144 ], [ 126.731519271630418, 37.535416399446696 ], [ 126.734161393492158, 37.5351881345808 ] ] ] ] } },
{ "type": "Feature", "properties": { "OBJECTID": 867, "adm_nm": "인천광역시 계양구 작전2동", "adm_cd": "2307057", "adm_cd2": "2824562200", "sgg": "28245", "sido": "28", "sidonm": "인천광역시", "sggnm": "계양구" }, "geometry": { "type": "MultiPolygon", "coordinates": [ [ [ [ 126.727985024286255, 37.536287488371144 ], [ 126.727908635188243, 37.53289660183264 ], [ 126.727858653591966, 37.53074560090554 ], [ 126.726637725544478, 37.530747257743272 ], [ 126.726283573432596, 37.530747732995543 ], [ 126.725622637425445, 37.53043017686651 ], [ 126.725132208381666, 37.52990166402801 ], [ 126.725192443544302, 37.52548005523083 ], [ 126.725520480989758, 37.525481271347658 ], [ 126.726012126491511, 37.525483084813402 ], [ 126.726042066227237, 37.525459600988441 ], [ 126.725894192734316, 37.523804443077346 ], [ 126.722130644067136, 37.523813230608916 ], [ 126.719157376372934, 37.523773061706009 ], [ 126.71927736629759, 37.524837040947538 ], [ 126.719534016244822, 37.527869544611974 ], [ 126.719526874780072, 37.527937664904947 ], [ 126.719416611469867, 37.527936128537732 ], [ 126.718372479249084, 37.527921555622498 ], [ 126.718725461102622, 37.529211873540326 ], [ 126.718441556299595, 37.530212874838888 ], [ 126.717492689414044, 37.534854632999263 ], [ 126.717323546192972, 37.5362861593904 ], [ 126.717552055831121, 37.53633902573803 ], [ 126.717757017189513, 37.53635256345072 ], [ 126.719688584053515, 37.536424618725704 ], [ 126.72029540823452, 37.536430421629802 ], [ 126.720465493975325, 37.536427544416284 ], [ 126.721877559087005, 37.536403601792827 ], [ 126.723484497413125, 37.53636942280216 ], [ 126.723629107746262, 37.536366342859097 ], [ 126.727859341953589, 37.536271961267936 ], [ 126.727985024286255, 37.536287488371144 ] ] ] ] } },
{ "type": "Feature", "properties": { "OBJECTID": 868, "adm_nm": "인천광역시 계양구 작전서운동", "adm_cd": "2307058", "adm_cd2": "2824564000", "sgg": "28245", "sido": "28", "sidonm": "인천광역시", "sggnm": "계양구" }, "geometry": { "type": "MultiPolygon", "coordinates": [ [ [ [ 126.760948092687272, 37.537859445406148 ], [ 126.760675264755804, 37.535559183257924 ], [ 126.760550515763725, 37.534762506573777 ], [ 126.760544176631413, 37.534722007447456 ], [ 126.760520871973512, 37.534573101354113 ], [ 126.760495184456445, 37.534128975540114 ], [ 126.760389025229529, 37.532095108352053 ], [ 126.760385970040247, 37.5319586530455 ], [ 126.760334959709454, 37.529547350772582 ], [ 126.760318587731476, 37.528769840194649 ], [ 126.76031810163731, 37.528318228383739 ], [ 126.760317811322992, 37.527501924525481 ], [ 126.76033573950393, 37.524096485668615 ], [ 126.75574114779819, 37.524072145834047 ], [ 126.751356763102592, 37.524048607514416 ], [ 126.745105439198767, 37.523998312921442 ], [ 126.736194067519449, 37.523914255188444 ], [ 126.735855904681841, 37.523909035532213 ], [ 126.73348915475114, 37.523872473358843 ], [ 126.732992710934838, 37.523864797581268 ], [ 126.733120766478649, 37.525546851658234 ], [ 126.733138988498297, 37.525786159933574 ], [ 126.733313507644112, 37.527629652312342 ], [ 126.733404923775595, 37.528559571962234 ], [ 126.733481554863516, 37.529338920140212 ], [ 126.733491548635058, 37.529440528300277 ], [ 126.734053796782817, 37.534095500679364 ], [ 126.734110951241405, 37.534110434339112 ], [ 126.734261864718789, 37.534110773974341 ], [ 126.734927685692114, 37.534071167247895 ], [ 126.736692112722679, 37.533966167371084 ], [ 126.736888343412829, 37.533953631581014 ], [ 126.738869576958152, 37.533827027507897 ], [ 126.740027580560835, 37.533746077605294 ], [ 126.741689980827275, 37.533629843897231 ], [ 126.741770918866735, 37.533624173203236 ], [ 126.742408449088401, 37.533576232330766 ], [ 126.742440888286566, 37.533573788691839 ], [ 126.743642992044315, 37.533483281403171 ], [ 126.743695750299963, 37.533501405469472 ], [ 126.743733205783144, 37.533579539245331 ], [ 126.744633165938524, 37.538235406622206 ], [ 126.753610594911635, 37.53795431844852 ], [ 126.760948092687272, 37.537859445406148 ] ] ] ] } },
{ "type": "Feature", "properties": { "OBJECTID": 869, "adm_nm": "인천광역시 계양구 계양2동", "adm_cd": "2307061", "adm_cd2": "2824572000", "sgg": "28245", "sido": "28", "sidonm": "인천광역시", "sggnm": "계양구" }, "geometry": { "type": "MultiPolygon", "coordinates": [ [ [ [ 126.761596109164174, 37.540230392550768 ], [ 126.760948092687272, 37.537859445406148 ], [ 126.753610594911635, 37.53795431844852 ], [ 126.744633165938524, 37.538235406622206 ], [ 126.745502238969479, 37.54326155336333 ], [ 126.745640810183289, 37.544204044841493 ], [ 126.745668832170026, 37.544501905678814 ], [ 126.744834906973651, 37.544310355801919 ], [ 126.744301664171971, 37.544187642046865 ], [ 126.743883836529378, 37.544076548684657 ], [ 126.74341524564349, 37.5439519546144 ], [ 126.742199947191423, 37.543608041031817 ], [ 126.742041604302088, 37.543563223223167 ], [ 126.741652905037668, 37.543449204745684 ], [ 126.741119342866313, 37.543292680677524 ], [ 126.740834886353127, 37.543203804398246 ], [ 126.740660459715173, 37.543149283870385 ], [ 126.740355828802123, 37.54305408179453 ], [ 126.739820169333115, 37.542942338554241 ], [ 126.739467768151997, 37.542881868919153 ], [ 126.739353891187719, 37.542862332555259 ], [ 126.73900978407012, 37.542839120474149 ], [ 126.738761401019005, 37.542822367030396 ], [ 126.737725985447838, 37.54284290146434 ], [ 126.736868374201023, 37.542900908164079 ], [ 126.734104140109011, 37.542990481151826 ], [ 126.734126759179816, 37.543202376764576 ], [ 126.734133406916285, 37.543334529156851 ], [ 126.734084185490985, 37.543597608213418 ], [ 126.733951220834129, 37.543821945221509 ], [ 126.733778464302233, 37.544060604820771 ], [ 126.732891105625882, 37.544557954450163 ], [ 126.732020473894934, 37.544932620338031 ], [ 126.731450034011218, 37.545234483329416 ], [ 126.731104032709069, 37.54558400066206 ], [ 126.729960803108227, 37.547649246685332 ], [ 126.727945899791635, 37.550259667320844 ], [ 126.727902839653211, 37.550307323393788 ], [ 126.726358863612461, 37.550817767228089 ], [ 126.723977849892862, 37.551591183467487 ], [ 126.721346901245781, 37.552669630111232 ], [ 126.721345859226318, 37.554139464852078 ], [ 126.725776926760375, 37.558131540776223 ], [ 126.730224713716439, 37.558809794114978 ], [ 126.73502063918427, 37.559466728722107 ], [ 126.736499580400164, 37.559277221319164 ], [ 126.738661084426198, 37.55794180445239 ], [ 126.73946106243227, 37.555907833430688 ], [ 126.744671919221929, 37.552599178726254 ], [ 126.745257934803874, 37.552744585059258 ], [ 126.745469886772227, 37.552802317561174 ], [ 126.745682214110062, 37.552886302658258 ], [ 126.745789792036959, 37.552903238330686 ], [ 126.745902681670941, 37.552899302190291 ], [ 126.750588869108697, 37.551724039055543 ], [ 126.752665343681201, 37.550994894807566 ], [ 126.75138055980581, 37.548222409986579 ], [ 126.752063993109672, 37.548017250971796 ], [ 126.752782587955437, 37.547809544286999 ], [ 126.754102330481075, 37.547429206796629 ], [ 126.755751982309164, 37.546953777198283 ], [ 126.756367487926568, 37.543730451521796 ], [ 126.76095470205675, 37.542382136651092 ], [ 126.760525014669781, 37.541502481645345 ], [ 126.760082759300943, 37.54163154853233 ], [ 126.759330946422722, 37.541847833060736 ], [ 126.759139741722478, 37.541438001738385 ], [ 126.75897695370729, 37.541050299673991 ], [ 126.761444143405015, 37.540273935064398 ], [ 126.761596109164174, 37.540230392550768 ] ] ] ] } },
{ "type": "Feature", "properties": { "OBJECTID": 870, "adm_nm": "인천광역시 계양구 계산4동", "adm_cd": "2307062", "adm_cd2": "2824561400", "sgg": "28245", "sido": "28", "sidonm": "인천광역시", "sggnm": "계양구" }, "geometry": { "type": "MultiPolygon", "coordinates": [ [ [ [ 126.744633165938524, 37.538235406622206 ], [ 126.743733205783144, 37.533579539245331 ], [ 126.743695750299963, 37.533501405469472 ], [ 126.743642992044315, 37.533483281403171 ], [ 126.742440888286566, 37.533573788691839 ], [ 126.742408449088401, 37.533576232330766 ], [ 126.741770918866735, 37.533624173203236 ], [ 126.741689980827275, 37.533629843897231 ], [ 126.740027580560835, 37.533746077605294 ], [ 126.738869576958152, 37.533827027507897 ], [ 126.736888343412829, 37.533953631581014 ], [ 126.736692112722679, 37.533966167371084 ], [ 126.734927685692114, 37.534071167247895 ], [ 126.734261864718789, 37.534110773974341 ], [ 126.734110951241405, 37.534110434339112 ], [ 126.734053796782817, 37.534095500679364 ], [ 126.734161393492158, 37.5351881345808 ], [ 126.734226653368566, 37.535999505359634 ], [ 126.734253138076909, 37.536328781647406 ], [ 126.73429104050777, 37.536781561463918 ], [ 126.734359525075604, 37.537583219306072 ], [ 126.734369283100818, 37.53769735075425 ], [ 126.734537947945043, 37.539061289030897 ], [ 126.734605322943651, 37.539606061954068 ], [ 126.734680164861928, 37.539926275661962 ], [ 126.734728309237724, 37.540042318796374 ], [ 126.736868374201023, 37.542900908164079 ], [ 126.737725985447838, 37.54284290146434 ], [ 126.738761401019005, 37.542822367030396 ], [ 126.73900978407012, 37.542839120474149 ], [ 126.739353891187719, 37.542862332555259 ], [ 126.739467768151997, 37.542881868919153 ], [ 126.739820169333115, 37.542942338554241 ], [ 126.740355828802123, 37.54305408179453 ], [ 126.740660459715173, 37.543149283870385 ], [ 126.740834886353127, 37.543203804398246 ], [ 126.741119342866313, 37.543292680677524 ], [ 126.741652905037668, 37.543449204745684 ], [ 126.742041604302088, 37.543563223223167 ], [ 126.742199947191423, 37.543608041031817 ], [ 126.74341524564349, 37.5439519546144 ], [ 126.743883836529378, 37.544076548684657 ], [ 126.744301664171971, 37.544187642046865 ], [ 126.744834906973651, 37.544310355801919 ], [ 126.745668832170026, 37.544501905678814 ], [ 126.745640810183289, 37.544204044841493 ], [ 126.745502238969479, 37.54326155336333 ], [ 126.744633165938524, 37.538235406622206 ] ] ] ] } },
{ "type": "Feature", "properties": { "OBJECTID": 871, "adm_nm": "인천광역시 계양구 계양1동", "adm_cd": "2307063", "adm_cd2": "2824571000", "sgg": "28245", "sido": "28", "sidonm": "인천광역시", "sggnm": "계양구" }, "geometry": { "type": "MultiPolygon", "coordinates": [ [ [ [ 126.76307854848325, 37.584892059639024 ], [ 126.760320677561751, 37.580426952837797 ], [ 126.762542017503336, 37.580305323397937 ], [ 126.762464214243664, 37.580077562045076 ], [ 126.760213009261705, 37.573486836991549 ], [ 126.748805180606439, 37.575575871194424 ], [ 126.746174273694024, 37.574169809750501 ], [ 126.740795018865697, 37.573303058495107 ], [ 126.74016559909775, 37.573341836585172 ], [ 126.739608941913971, 37.573373494401665 ], [ 126.739326606216537, 37.57337583506704 ], [ 126.738361123614055, 37.573338976013311 ], [ 126.740257957818244, 37.569970288255739 ], [ 126.740661719832346, 37.569253182298773 ], [ 126.741573496566488, 37.567633754107597 ], [ 126.742266810853749, 37.565962235926428 ], [ 126.74251050542658, 37.562482556454569 ], [ 126.743677688772408, 37.561373721342427 ], [ 126.744384437632306, 37.56219161147586 ], [ 126.745323968607664, 37.562457677485561 ], [ 126.746174829030849, 37.561407435172342 ], [ 126.748235220681181, 37.558722508954951 ], [ 126.748867736447693, 37.55753754243721 ], [ 126.75047321655444, 37.555834978256172 ], [ 126.753834832200269, 37.553907200850013 ], [ 126.757895473693239, 37.551618005455154 ], [ 126.757199941819849, 37.550106951348276 ], [ 126.757061320350417, 37.549805788969586 ], [ 126.756603809085718, 37.548766239178143 ], [ 126.757525819186583, 37.548494748905831 ], [ 126.763506034407115, 37.546753918999052 ], [ 126.763372225449885, 37.545524589073466 ], [ 126.763190060180492, 37.544409170391404 ], [ 126.762853696541029, 37.543218428108425 ], [ 126.761596109164174, 37.540230392550768 ], [ 126.761444143405015, 37.540273935064398 ], [ 126.75897695370729, 37.541050299673991 ], [ 126.759139741722478, 37.541438001738385 ], [ 126.759330946422722, 37.541847833060736 ], [ 126.760082759300943, 37.54163154853233 ], [ 126.760525014669781, 37.541502481645345 ], [ 126.76095470205675, 37.542382136651092 ], [ 126.756367487926568, 37.543730451521796 ], [ 126.755751982309164, 37.546953777198283 ], [ 126.754102330481075, 37.547429206796629 ], [ 126.752782587955437, 37.547809544286999 ], [ 126.752063993109672, 37.548017250971796 ], [ 126.75138055980581, 37.548222409986579 ], [ 126.752665343681201, 37.550994894807566 ], [ 126.750588869108697, 37.551724039055543 ], [ 126.745902681670941, 37.552899302190291 ], [ 126.745789792036959, 37.552903238330686 ], [ 126.745682214110062, 37.552886302658258 ], [ 126.745469886772227, 37.552802317561174 ], [ 126.745257934803874, 37.552744585059258 ], [ 126.744671919221929, 37.552599178726254 ], [ 126.73946106243227, 37.555907833430688 ], [ 126.738661084426198, 37.55794180445239 ], [ 126.736499580400164, 37.559277221319164 ], [ 126.73502063918427, 37.559466728722107 ], [ 126.730224713716439, 37.558809794114978 ], [ 126.725776926760375, 37.558131540776223 ], [ 126.721345859226318, 37.554139464852078 ], [ 126.721346901245781, 37.552669630111232 ], [ 126.714827062248673, 37.552943013254776 ], [ 126.710997121593834, 37.553354143618854 ], [ 126.711027187376601, 37.55376490231302 ], [ 126.711053621224849, 37.554126078535198 ], [ 126.707852268936549, 37.556181432595103 ], [ 126.707666270428462, 37.556283120639677 ], [ 126.707466570610706, 37.556257104408232 ], [ 126.70721549721577, 37.556106093567003 ], [ 126.706511327769462, 37.555732977261343 ], [ 126.705217825741656, 37.555098154960142 ], [ 126.705147483430451, 37.55508328167496 ], [ 126.702104856545162, 37.556033450900742 ], [ 126.701930993525792, 37.556140307137603 ], [ 126.700367606789385, 37.557790749899489 ], [ 126.699679285036126, 37.558628060741832 ], [ 126.699512612158955, 37.558894190078178 ], [ 126.701569536276764, 37.560151273974085 ], [ 126.702121262527513, 37.560500355799505 ], [ 126.702354755654881, 37.560753398762841 ], [ 126.702637419738053, 37.561253806671388 ], [ 126.703380536901051, 37.563870075005916 ], [ 126.703442132736484, 37.564264312419176 ], [ 126.703428285308533, 37.564470341506883 ], [ 126.703349728169158, 37.564699437123636 ], [ 126.70316134960612, 37.564910155957627 ], [ 126.703066305950273, 37.564951339908021 ], [ 126.702884605198676, 37.564966135302889 ], [ 126.701945132697261, 37.564886460125123 ], [ 126.701715393941896, 37.564909114886923 ], [ 126.70029175855521, 37.565410306191808 ], [ 126.700237720661562, 37.56544595922729 ], [ 126.700194488682115, 37.565474485592127 ], [ 126.700135732383259, 37.565590191930553 ], [ 126.699483339808012, 37.567744486565537 ], [ 126.699126178999038, 37.569268413569176 ], [ 126.699190706701216, 37.569325227913062 ], [ 126.700315977234013, 37.571030710847673 ], [ 126.700367295623451, 37.571162198833214 ], [ 126.700405598458232, 37.571685143997975 ], [ 126.700362504245206, 37.57195812542404 ], [ 126.700291320101115, 37.572038700979121 ], [ 126.70024219037461, 37.572094309366065 ], [ 126.699057810336811, 37.573381668439062 ], [ 126.69899361929285, 37.573408350376624 ], [ 126.698962338299083, 37.573421343537106 ], [ 126.69792512782972, 37.57380501836932 ], [ 126.697783091205778, 37.573819352411377 ], [ 126.694598744702319, 37.574498554962176 ], [ 126.692415371437605, 37.575086889489398 ], [ 126.687920806853697, 37.576576168538828 ], [ 126.68652512751116, 37.576139715034458 ], [ 126.686320696831629, 37.576083465431928 ], [ 126.686062823302294, 37.576107298029747 ], [ 126.682454256861789, 37.577221577524092 ], [ 126.682322571129234, 37.577279695377634 ], [ 126.682170313100485, 37.577411263332372 ], [ 126.682148658374928, 37.577478495005444 ], [ 126.68213714843543, 37.577514254883994 ], [ 126.68218275709512, 37.578488052498336 ], [ 126.682622703523677, 37.579530626271705 ], [ 126.683091207312387, 37.58146033855941 ], [ 126.681789204267673, 37.583382805456012 ], [ 126.681912272473326, 37.583355497338495 ], [ 126.681993716839671, 37.583735437782693 ], [ 126.683614678102273, 37.583563964843265 ], [ 126.684246251997436, 37.583987644937693 ], [ 126.684923157495447, 37.584141838595677 ], [ 126.686015382349439, 37.583960490480337 ], [ 126.686147600754737, 37.584002309087232 ], [ 126.686806361079675, 37.583815843134261 ], [ 126.686989577417549, 37.583751269384315 ], [ 126.687111714690644, 37.58370821850832 ], [ 126.689819375815517, 37.582689566394308 ], [ 126.690791493188598, 37.582692116839141 ], [ 126.69145006580213, 37.582461260379759 ], [ 126.692060795028226, 37.582428533911042 ], [ 126.692383484981249, 37.582391506353829 ], [ 126.692864424774669, 37.582336318961168 ], [ 126.692952605496728, 37.582326207531551 ], [ 126.693304648302814, 37.582247379279529 ], [ 126.695047219632102, 37.58154190068128 ], [ 126.69732615800919, 37.581352869118206 ], [ 126.700440534109674, 37.58089565533988 ], [ 126.706170600316497, 37.579883291765647 ], [ 126.709214360202807, 37.579159527411221 ], [ 126.71041119964103, 37.578683225511298 ], [ 126.713304380464209, 37.577686583321423 ], [ 126.71460117615301, 37.578353519856726 ], [ 126.716261068733644, 37.579396169354588 ], [ 126.717057220297178, 37.580401919481481 ], [ 126.717637444042055, 37.581332421252704 ], [ 126.717739877892853, 37.58149670010777 ], [ 126.718227580696251, 37.582870497262938 ], [ 126.71765520115423, 37.583577317006565 ], [ 126.717610118528867, 37.584880640871241 ], [ 126.717711093757771, 37.585229763270007 ], [ 126.717771820901788, 37.585332044182863 ], [ 126.720919143705345, 37.588874669076809 ], [ 126.722263611867987, 37.590063632154965 ], [ 126.722888084112626, 37.590434118622817 ], [ 126.723633171641907, 37.59087615787103 ], [ 126.724537734422654, 37.591426266208757 ], [ 126.724813800021863, 37.59159415901938 ], [ 126.725125922128953, 37.592000968556349 ], [ 126.727315003434356, 37.592535623666137 ], [ 126.72859891190096, 37.592843722939705 ], [ 126.72901216328026, 37.592942865648986 ], [ 126.729181457366209, 37.59288828807572 ], [ 126.732218583089306, 37.591670980583899 ], [ 126.735019269732135, 37.590466282336202 ], [ 126.736679922101715, 37.592192440958719 ], [ 126.736637986905549, 37.592473412325226 ], [ 126.736979162496212, 37.593068046763676 ], [ 126.737045269547664, 37.59318001392937 ], [ 126.737983551343447, 37.593503795050253 ], [ 126.738267627476205, 37.593555202073958 ], [ 126.739026491552892, 37.593692239816065 ], [ 126.743624123065132, 37.593349709658874 ], [ 126.744542100941743, 37.591542746648265 ], [ 126.744813646538176, 37.590463344185963 ], [ 126.74493378054369, 37.589986334381003 ], [ 126.745227864382429, 37.589097751778297 ], [ 126.74533023532193, 37.588788576810558 ], [ 126.746151213942298, 37.587332627166646 ], [ 126.746283796237037, 37.587123191948059 ], [ 126.7463484990149, 37.587027080431632 ], [ 126.746463272018019, 37.586856830309671 ], [ 126.746548737152168, 37.586780895976034 ], [ 126.746612177442216, 37.586724798148452 ], [ 126.748468658808449, 37.58522290594582 ], [ 126.748907245331836, 37.584909932543283 ], [ 126.749162718684602, 37.58480144110063 ], [ 126.749596675529844, 37.584375403879477 ], [ 126.750026109486782, 37.583683166971035 ], [ 126.750018960520237, 37.582420127291904 ], [ 126.750002907451389, 37.581973864903723 ], [ 126.749928566906547, 37.580947666065704 ], [ 126.751816441365577, 37.579571788781351 ], [ 126.754735931670083, 37.580433512083552 ], [ 126.755635259396144, 37.58124223895431 ], [ 126.755579089650396, 37.582304762679954 ], [ 126.755565190693034, 37.582567727658478 ], [ 126.755557850027074, 37.582706643683771 ], [ 126.755556125294703, 37.582741200780461 ], [ 126.757704098969739, 37.584792129564242 ], [ 126.758093522842245, 37.584873277930406 ], [ 126.759158777796841, 37.585093356074147 ], [ 126.76155197088714, 37.585309489067903 ], [ 126.76307854848325, 37.584892059639024 ] ] ] ] } },
{ "type": "Feature", "properties": { "OBJECTID": 872, "adm_nm": "인천광역시 계양구 계양3동", "adm_cd": "2307064", "adm_cd2": "2824573000", "sgg": "28245", "sido": "28", "sidonm": "인천광역시", "sggnm": "계양구" }, "geometry": { "type": "MultiPolygon", "coordinates": [ [ [ [ 126.793673641834985, 37.581604549950598 ], [ 126.793695674080837, 37.581540356106743 ], [ 126.793401540671084, 37.580515308363871 ], [ 126.792737007490501, 37.580173944702672 ], [ 126.791246124406342, 37.580840862283196 ], [ 126.788765211506231, 37.57729992994733 ], [ 126.788071575696975, 37.576744798318259 ], [ 126.784581308937192, 37.574671362456627 ], [ 126.782885704352793, 37.573702148749682 ], [ 126.782702186088784, 37.573560903782955 ], [ 126.782618858249876, 37.573421925899197 ], [ 126.782574589858399, 37.573347950023091 ], [ 126.781904963536604, 37.571845435098858 ], [ 126.781970201778591, 37.571689271431858 ], [ 126.782502688334162, 37.570229800541597 ], [ 126.780526562601878, 37.568328344251206 ], [ 126.776956476826513, 37.566340980493756 ], [ 126.775464548475696, 37.565378654243354 ], [ 126.775632504426213, 37.561802949346642 ], [ 126.770727512136958, 37.557164713493883 ], [ 126.770313741081196, 37.557192721345203 ], [ 126.769726387492668, 37.557195849834834 ], [ 126.769457904805762, 37.557153628607296 ], [ 126.769369595598334, 37.557139562062709 ], [ 126.764566838575192, 37.555506260323391 ], [ 126.764473005592052, 37.555464953308409 ], [ 126.764391336033114, 37.555428777613592 ], [ 126.764330046577754, 37.555401355567362 ], [ 126.764309757729237, 37.555377569900692 ], [ 126.764278296509758, 37.555339066952357 ], [ 126.764304175163574, 37.555291304020358 ], [ 126.764344623065426, 37.555216871109145 ], [ 126.764435163353113, 37.555172945128817 ], [ 126.764584194523621, 37.555100990344087 ], [ 126.767204281653292, 37.554152542886314 ], [ 126.767710746617681, 37.55418855255472 ], [ 126.764770080544508, 37.551196933417813 ], [ 126.764748957510491, 37.551175419403499 ], [ 126.764558791392034, 37.550554643385397 ], [ 126.764559231160561, 37.550432582201182 ], [ 126.764562078970627, 37.549679720781306 ], [ 126.763506034407115, 37.546753918999052 ], [ 126.757525819186583, 37.548494748905831 ], [ 126.756603809085718, 37.548766239178143 ], [ 126.757061320350417, 37.549805788969586 ], [ 126.757199941819849, 37.550106951348276 ], [ 126.757895473693239, 37.551618005455154 ], [ 126.753834832200269, 37.553907200850013 ], [ 126.75047321655444, 37.555834978256172 ], [ 126.748867736447693, 37.55753754243721 ], [ 126.748235220681181, 37.558722508954951 ], [ 126.746174829030849, 37.561407435172342 ], [ 126.745323968607664, 37.562457677485561 ], [ 126.744384437632306, 37.56219161147586 ], [ 126.743677688772408, 37.561373721342427 ], [ 126.74251050542658, 37.562482556454569 ], [ 126.742266810853749, 37.565962235926428 ], [ 126.741573496566488, 37.567633754107597 ], [ 126.740661719832346, 37.569253182298773 ], [ 126.740257957818244, 37.569970288255739 ], [ 126.738361123614055, 37.573338976013311 ], [ 126.739326606216537, 37.57337583506704 ], [ 126.739608941913971, 37.573373494401665 ], [ 126.74016559909775, 37.573341836585172 ], [ 126.740795018865697, 37.573303058495107 ], [ 126.746174273694024, 37.574169809750501 ], [ 126.748805180606439, 37.575575871194424 ], [ 126.760213009261705, 37.573486836991549 ], [ 126.762464214243664, 37.580077562045076 ], [ 126.762542017503336, 37.580305323397937 ], [ 126.760320677561751, 37.580426952837797 ], [ 126.76307854848325, 37.584892059639024 ], [ 126.764039262630206, 37.585900161813072 ], [ 126.76731222973504, 37.588025995039892 ], [ 126.768067923267836, 37.588055228792193 ], [ 126.769449242968719, 37.587235700053235 ], [ 126.770124968974216, 37.586676764571678 ], [ 126.770316336156213, 37.58651845842963 ], [ 126.770889443018149, 37.58604468926498 ], [ 126.771011180996339, 37.585984537115166 ], [ 126.771170909879388, 37.585905619295069 ], [ 126.771497736401173, 37.585744434052508 ], [ 126.771594167969511, 37.585696878085336 ], [ 126.773265732001562, 37.585148373993761 ], [ 126.773303886844857, 37.585135854116345 ], [ 126.773361134954882, 37.585117073022474 ], [ 126.774861737995238, 37.584867381264878 ], [ 126.776781873709766, 37.584660212273874 ], [ 126.77767755044934, 37.584638655879395 ], [ 126.778797040747818, 37.584530582032627 ], [ 126.780097513132048, 37.584361589637702 ], [ 126.781926752308465, 37.583912013559981 ], [ 126.784113431033006, 37.582585135084074 ], [ 126.785599181042116, 37.584070579726365 ], [ 126.785849885401973, 37.584326002189727 ], [ 126.786040703185563, 37.584521015816435 ], [ 126.786630889007, 37.585124213953172 ], [ 126.787048934749961, 37.585551901564692 ], [ 126.792132321590728, 37.582481900968375 ], [ 126.792861996989842, 37.582046873105696 ], [ 126.793673641834985, 37.581604549950598 ] ] ] ] } }
]
}
