{
"type": "FeatureCollection",
"name": "junggu",
"crs": { "type": "name", "properties": { "name": "urn:ogc:def:crs:OGC:1.3:CRS84" } },
"features": [
{ "type": "Feature", "properties": { "OBJECTID": 764, "adm_nm": "인천광역시 중구 연안동", "adm_cd": "2301052", "adm_cd2": "2811052000", "sgg": "28110", "sido": "28", "sidonm": "인천광역시", "sggnm": "중구" }, "geometry": { "type": "MultiPolygon", "coordinates": [ [ [ [ 126.61983762685982, 37.461913729199438 ], [ 126.621163801226558, 37.461449932430597 ], [ 126.622815966884289, 37.460797095379839 ], [ 126.625595448299379, 37.459697649839711 ], [ 126.628324556646206, 37.458800216138677 ], [ 126.630243332517637, 37.458302803824431 ], [ 126.628977391288288, 37.456380480153683 ], [ 126.62609158439102, 37.451933294280551 ], [ 126.62456476940531, 37.4495448148067 ], [ 126.617338136665751, 37.438093346613542 ], [ 126.615294017385708, 37.434200065310513 ], [ 126.613214519126544, 37.434577294722175 ], [ 126.612706649128, 37.435044450244824 ], [ 126.614072673852263, 37.437479671261464 ], [ 126.614194919499639, 37.437732991942333 ], [ 126.608137980825376, 37.440628395579743 ], [ 126.61060032999373, 37.444308526714991 ], [ 126.616595721400671, 37.441786078762611 ], [ 126.618177818391374, 37.444368664125065 ], [ 126.615814385145498, 37.445300584765597 ], [ 126.611200223297686, 37.447119780186881 ], [ 126.609829507745346, 37.447660148162008 ], [ 126.612905678135121, 37.452683931165886 ], [ 126.610641196227022, 37.453488537593067 ], [ 126.604376771574138, 37.4435190126176 ], [ 126.600987840972323, 37.43837340890169 ], [ 126.597115355092498, 37.438393056199047 ], [ 126.596417774727541, 37.441342437600056 ], [ 126.594016419748172, 37.441325792710451 ], [ 126.592935095970049, 37.441318281966318 ], [ 126.592914097095786, 37.445179743147271 ], [ 126.592884599141968, 37.450603902334507 ], [ 126.596255958266354, 37.450756157792192 ], [ 126.596338299064413, 37.451180710587103 ], [ 126.595088304130854, 37.452856975186272 ], [ 126.593304242554851, 37.454933935471828 ], [ 126.594319957738421, 37.45560829700613 ], [ 126.596850029038293, 37.45491082895164 ], [ 126.60180147227085, 37.457257950181699 ], [ 126.599974098432128, 37.459158360038096 ], [ 126.59949098722258, 37.458816543949816 ], [ 126.597015707534126, 37.457065133599947 ], [ 126.594714070376597, 37.456492310144704 ], [ 126.592579927070119, 37.457720709549065 ], [ 126.593593771081032, 37.458748124420175 ], [ 126.59316780411487, 37.463724961686445 ], [ 126.59967023793898, 37.465499064176171 ], [ 126.604831716180001, 37.464554045239645 ], [ 126.604590947040805, 37.463762593823787 ], [ 126.604391236997529, 37.46336463705979 ], [ 126.603974697994943, 37.462749124542746 ], [ 126.60308443944426, 37.461442123020923 ], [ 126.603024933237862, 37.461355261329267 ], [ 126.602711000277267, 37.460896682674786 ], [ 126.603361232353592, 37.460156710108151 ], [ 126.605679951555118, 37.460758417319816 ], [ 126.612092475879663, 37.462421410796132 ], [ 126.612131971216783, 37.462431494357261 ], [ 126.612186848803489, 37.462428036314684 ], [ 126.612403870746277, 37.462342526545847 ], [ 126.612539056574107, 37.462289470292518 ], [ 126.61258011553646, 37.462273356165497 ], [ 126.612978821050092, 37.462118163899127 ], [ 126.62047390162428, 37.459206410468859 ], [ 126.623943072209585, 37.457861706677775 ], [ 126.624320359129072, 37.457958693709742 ], [ 126.624998924066432, 37.459069898107003 ], [ 126.622887754885681, 37.4598959407679 ], [ 126.619501071193937, 37.461209939716198 ], [ 126.619478685344944, 37.461235367490886 ], [ 126.619465378580216, 37.461262394300512 ], [ 126.619459470847218, 37.461303922995945 ], [ 126.61983762685982, 37.461913729199438 ] ] ] ] } },
{ "type": "Feature", "properties": { "OBJECTID": 765, "adm_nm": "인천광역시 중구 신포동", "adm_cd": "2301053", "adm_cd2": "2811053000", "sgg": "28110", "sido": "28", "sidonm": "인천광역시", "sggnm": "중구" }, "geometry": { "type": "MultiPolygon", "coordinates": [ [ [ [ 126.622627546316338, 37.475513185113002 ], [ 126.622651549747417, 37.475489945572932 ], [ 126.622770661074085, 37.475439321866716 ], [ 126.623375083779479, 37.47522118531753 ], [ 126.623594484409622, 37.475152097217247 ], [ 126.624134439047964, 37.475003151429611 ], [ 126.625927626900705, 37.474786342391013 ], [ 126.626343921475907, 37.47475399137803 ], [ 126.627956868426836, 37.471676889799006 ], [ 126.629433143612644, 37.47173821365503 ], [ 126.629573173411828, 37.47172945401983 ], [ 126.629818937290182, 37.471669627681777 ], [ 126.629953515000409, 37.47163149501192 ], [ 126.630110334789521, 37.471566143119198 ], [ 126.631185398253422, 37.47095852362375 ], [ 126.630783740240773, 37.470199936801556 ], [ 126.63074891082185, 37.470126981771344 ], [ 126.630712341610959, 37.470028298585426 ], [ 126.630683955473657, 37.469951677400935 ], [ 126.630448935890129, 37.469303626665749 ], [ 126.630341229633004, 37.468962140313984 ], [ 126.629833811083088, 37.467333357465662 ], [ 126.629973760742729, 37.464362376334726 ], [ 126.629995532175187, 37.464101492744717 ], [ 126.630016322685464, 37.464040395828597 ], [ 126.631326797072305, 37.463525784125849 ], [ 126.632669599795236, 37.463038889678465 ], [ 126.632757568367097, 37.462984446922846 ], [ 126.632768898999799, 37.462915097656584 ], [ 126.632753238011347, 37.462882696530613 ], [ 126.632437645257355, 37.462230080902401 ], [ 126.631319670108908, 37.460184886408442 ], [ 126.630609695337242, 37.458887688903573 ], [ 126.630243332517637, 37.458302803824431 ], [ 126.628324556646206, 37.458800216138677 ], [ 126.625595448299379, 37.459697649839711 ], [ 126.622815966884289, 37.460797095379839 ], [ 126.621163801226558, 37.461449932430597 ], [ 126.61983762685982, 37.461913729199438 ], [ 126.616997543860336, 37.463020495348374 ], [ 126.614409363942059, 37.463988965064523 ], [ 126.614199484295042, 37.464093590037976 ], [ 126.614128236333869, 37.464456531826045 ], [ 126.614097000133668, 37.466846691598469 ], [ 126.614143898675124, 37.467333855187263 ], [ 126.614186637208761, 37.46777772305542 ], [ 126.614596441142055, 37.468106770790669 ], [ 126.616254255323355, 37.469916687391276 ], [ 126.6170190346906, 37.470772151688458 ], [ 126.617077081919078, 37.470870253194306 ], [ 126.617070732604063, 37.470958845625248 ], [ 126.616870474741447, 37.471200587227493 ], [ 126.616404914271598, 37.471681490038755 ], [ 126.615915615652042, 37.472332644624935 ], [ 126.615549344918676, 37.472978367216122 ], [ 126.615484267875516, 37.473108697316576 ], [ 126.615477884405763, 37.473211234935 ], [ 126.615833839546383, 37.474647702555146 ], [ 126.621499204270449, 37.475593535243391 ], [ 126.622406943929917, 37.475443191609365 ], [ 126.622627546316338, 37.475513185113002 ] ] ] ] } },
{ "type": "Feature", "properties": { "OBJECTID": 766, "adm_nm": "인천광역시 중구 신흥동", "adm_cd": "2301054", "adm_cd2": "2811054000", "sgg": "28110", "sido": "28", "sidonm": "인천광역시", "sggnm": "중구" }, "geometry": { "type": "MultiPolygon", "coordinates": [ [ [ [ 126.636692882804255, 37.467993454977204 ], [ 126.636574295245495, 37.467731095756271 ], [ 126.636514786593779, 37.467599059152107 ], [ 126.636886857427868, 37.466906007883274 ], [ 126.637470734452393, 37.466186803290263 ], [ 126.639448302317177, 37.464573225937407 ], [ 126.640268965910437, 37.464095171866987 ], [ 126.639438306890725, 37.463696149424187 ], [ 126.639255323582958, 37.463573761442049 ], [ 126.639163869144895, 37.463505248239663 ], [ 126.639127352451382, 37.463463709594009 ], [ 126.637822223591641, 37.461005516396547 ], [ 126.637732352993638, 37.460610511016561 ], [ 126.637579913723442, 37.459933673952932 ], [ 126.635518944747687, 37.457267499781551 ], [ 126.63401086850746, 37.455565720549679 ], [ 126.630023107381334, 37.453005120696091 ], [ 126.629579956586682, 37.452845957898454 ], [ 126.629447126158695, 37.45273195421251 ], [ 126.629250416910153, 37.452465449595387 ], [ 126.629239720755038, 37.452436643065184 ], [ 126.629173088729232, 37.452257139240608 ], [ 126.629180230342186, 37.452025763013317 ], [ 126.63151797018439, 37.442265025157404 ], [ 126.632619875020396, 37.441531618501287 ], [ 126.634675916548503, 37.43100284075858 ], [ 126.634965115513694, 37.430026375518096 ], [ 126.611982184768337, 37.429974777794826 ], [ 126.610871917493995, 37.429918106413396 ], [ 126.610202747493062, 37.430138583809082 ], [ 126.611761389716605, 37.433275257013044 ], [ 126.61277950680045, 37.434297706526429 ], [ 126.613214519126544, 37.434577294722175 ], [ 126.615294017385708, 37.434200065310513 ], [ 126.617338136665751, 37.438093346613542 ], [ 126.62456476940531, 37.4495448148067 ], [ 126.62609158439102, 37.451933294280551 ], [ 126.628977391288288, 37.456380480153683 ], [ 126.630243332517637, 37.458302803824431 ], [ 126.630609695337242, 37.458887688903573 ], [ 126.631319670108908, 37.460184886408442 ], [ 126.632437645257355, 37.462230080902401 ], [ 126.632753238011347, 37.462882696530613 ], [ 126.632768898999799, 37.462915097656584 ], [ 126.632757568367097, 37.462984446922846 ], [ 126.632669599795236, 37.463038889678465 ], [ 126.631326797072305, 37.463525784125849 ], [ 126.630016322685464, 37.464040395828597 ], [ 126.629995532175187, 37.464101492744717 ], [ 126.629973760742729, 37.464362376334726 ], [ 126.629833811083088, 37.467333357465662 ], [ 126.630341229633004, 37.468962140313984 ], [ 126.630448935890129, 37.469303626665749 ], [ 126.630683955473657, 37.469951677400935 ], [ 126.630712341610959, 37.470028298585426 ], [ 126.63074891082185, 37.470126981771344 ], [ 126.630783740240773, 37.470199936801556 ], [ 126.632246079386221, 37.468989962562127 ], [ 126.636692882804255, 37.467993454977204 ] ] ] ] } },
{ "type": "Feature", "properties": { "OBJECTID": 767, "adm_nm": "인천광역시 중구 도원동", "adm_cd": "2301056", "adm_cd2": "2811056000", "sgg": "28110", "sido": "28", "sidonm": "인천광역시", "sggnm": "중구" }, "geometry": { "type": "MultiPolygon", "coordinates": [ [ [ [ 126.642789146996606, 37.468486211297929 ], [ 126.642088237202529, 37.467581448541928 ], [ 126.642150708337994, 37.46506543527633 ], [ 126.642147978706745, 37.465038113704651 ], [ 126.641311269248206, 37.464612159805931 ], [ 126.641204012636962, 37.464557564588354 ], [ 126.640766923502539, 37.464341416240686 ], [ 126.640268965910437, 37.464095171866987 ], [ 126.639448302317177, 37.464573225937407 ], [ 126.637470734452393, 37.466186803290263 ], [ 126.636886857427868, 37.466906007883274 ], [ 126.636514786593779, 37.467599059152107 ], [ 126.636574295245495, 37.467731095756271 ], [ 126.636692882804255, 37.467993454977204 ], [ 126.639194693131444, 37.470286571739251 ], [ 126.640703780337944, 37.469530562428133 ], [ 126.642789146996606, 37.468486211297929 ] ] ] ] } },
{ "type": "Feature", "properties": { "OBJECTID": 768, "adm_nm": "인천광역시 중구 율목동", "adm_cd": "2301057", "adm_cd2": "2811057000", "sgg": "28110", "sido": "28", "sidonm": "인천광역시", "sggnm": "중구" }, "geometry": { "type": "MultiPolygon", "coordinates": [ [ [ [ 126.639194693131444, 37.470286571739251 ], [ 126.636692882804255, 37.467993454977204 ], [ 126.632246079386221, 37.468989962562127 ], [ 126.630783740240773, 37.470199936801556 ], [ 126.631185398253422, 37.47095852362375 ], [ 126.63147630535309, 37.471524359215678 ], [ 126.632661020527223, 37.471640456919303 ], [ 126.632754941151731, 37.471645997358507 ], [ 126.632893366683859, 37.471640969797377 ], [ 126.632931799404176, 37.47163582304433 ], [ 126.63325519191369, 37.471573875884907 ], [ 126.633435966534591, 37.471522336223067 ], [ 126.634312150287613, 37.471109468190114 ], [ 126.634943114758528, 37.471317346091304 ], [ 126.635877091862426, 37.471958935752845 ], [ 126.636175645517639, 37.472220377849254 ], [ 126.636674322693437, 37.471783204063335 ], [ 126.639194693131444, 37.470286571739251 ] ] ] ] } },
{ "type": "Feature", "properties": { "OBJECTID": 769, "adm_nm": "인천광역시 중구 동인천동", "adm_cd": "2301058", "adm_cd2": "2811058500", "sgg": "28110", "sido": "28", "sidonm": "인천광역시", "sggnm": "중구" }, "geometry": { "type": "MultiPolygon", "coordinates": [ [ [ [ 126.627973199838507, 37.47922788551876 ], [ 126.62802284927092, 37.479428703320863 ], [ 126.631424309602082, 37.476799136443432 ], [ 126.634632584080478, 37.473665750942409 ], [ 126.636175645517639, 37.472220377849254 ], [ 126.635877091862426, 37.471958935752845 ], [ 126.634943114758528, 37.471317346091304 ], [ 126.634312150287613, 37.471109468190114 ], [ 126.633435966534591, 37.471522336223067 ], [ 126.63325519191369, 37.471573875884907 ], [ 126.632931799404176, 37.47163582304433 ], [ 126.632893366683859, 37.471640969797377 ], [ 126.632754941151731, 37.471645997358507 ], [ 126.632661020527223, 37.471640456919303 ], [ 126.63147630535309, 37.471524359215678 ], [ 126.631185398253422, 37.47095852362375 ], [ 126.630110334789521, 37.471566143119198 ], [ 126.629953515000409, 37.47163149501192 ], [ 126.629818937290182, 37.471669627681777 ], [ 126.629573173411828, 37.47172945401983 ], [ 126.629433143612644, 37.47173821365503 ], [ 126.627956868426836, 37.471676889799006 ], [ 126.626343921475907, 37.47475399137803 ], [ 126.625927626900705, 37.474786342391013 ], [ 126.624134439047964, 37.475003151429611 ], [ 126.623594484409622, 37.475152097217247 ], [ 126.623375083779479, 37.47522118531753 ], [ 126.622770661074085, 37.475439321866716 ], [ 126.622651549747417, 37.475489945572932 ], [ 126.622627546316338, 37.475513185113002 ], [ 126.622837012015935, 37.477684505369723 ], [ 126.623986758534244, 37.479246561538773 ], [ 126.624206447166301, 37.479458910542178 ], [ 126.625209870380573, 37.47960505472971 ], [ 126.62670235823694, 37.479494651099579 ], [ 126.626899334525817, 37.479450192540661 ], [ 126.626963807111252, 37.479435639091903 ], [ 126.627032732779469, 37.479408612385427 ], [ 126.627104048868262, 37.47938045949595 ], [ 126.627973199838507, 37.47922788551876 ] ] ] ] } },
{ "type": "Feature", "properties": { "OBJECTID": 770, "adm_nm": "인천광역시 중구 북성동", "adm_cd": "2301060", "adm_cd2": "2811060000", "sgg": "28110", "sido": "28", "sidonm": "인천광역시", "sggnm": "중구" }, "geometry": { "type": "MultiPolygon", "coordinates": [ [ [ [ 126.61677144335242, 37.483589952580502 ], [ 126.620352849932146, 37.480659949088611 ], [ 126.619431687743372, 37.480084408814136 ], [ 126.619264523183332, 37.479968365175395 ], [ 126.619097365916431, 37.479852322256313 ], [ 126.618412872780738, 37.479010222479779 ], [ 126.618323672734917, 37.478034991652251 ], [ 126.620689796564591, 37.476752947275067 ], [ 126.621224474459154, 37.476858869879138 ], [ 126.621625196427928, 37.47694209623517 ], [ 126.621699892732991, 37.476957610219166 ], [ 126.621948024630015, 37.477053581725691 ], [ 126.622184050030356, 37.477158843936913 ], [ 126.62225674969541, 37.47720962308064 ], [ 126.622343702576373, 37.477271953305582 ], [ 126.622837012015935, 37.477684505369723 ], [ 126.622627546316338, 37.475513185113002 ], [ 126.622406943929917, 37.475443191609365 ], [ 126.621499204270449, 37.475593535243391 ], [ 126.615833839546383, 37.474647702555146 ], [ 126.615477884405763, 37.473211234935 ], [ 126.615484267875516, 37.473108697316576 ], [ 126.615549344918676, 37.472978367216122 ], [ 126.615915615652042, 37.472332644624935 ], [ 126.616404914271598, 37.471681490038755 ], [ 126.616870474741447, 37.471200587227493 ], [ 126.617070732604063, 37.470958845625248 ], [ 126.617077081919078, 37.470870253194306 ], [ 126.6170190346906, 37.470772151688458 ], [ 126.616254255323355, 37.469916687391276 ], [ 126.61550480037701, 37.470236855519751 ], [ 126.612344470798732, 37.477013192164343 ], [ 126.60997933222184, 37.476363647757481 ], [ 126.611115272379408, 37.473917207788915 ], [ 126.609505923134861, 37.473503508928985 ], [ 126.608369745611526, 37.475988821742348 ], [ 126.6070531575524, 37.475614970917555 ], [ 126.609932552393317, 37.469156082069851 ], [ 126.607997660474197, 37.467194337867042 ], [ 126.605574679727326, 37.466235307954221 ], [ 126.603271172698001, 37.465522392501541 ], [ 126.601609673854185, 37.465801563327219 ], [ 126.599995403219694, 37.466101480446454 ], [ 126.599031891632293, 37.467607987386813 ], [ 126.597467280699931, 37.469883981070808 ], [ 126.596021221136269, 37.470436299380964 ], [ 126.595823561956792, 37.470597551259722 ], [ 126.595576760498076, 37.471848088243725 ], [ 126.597669493736007, 37.477339232984612 ], [ 126.600540480169443, 37.481530811514908 ], [ 126.603435415434944, 37.484083129084766 ], [ 126.606244818277915, 37.486304223464408 ], [ 126.608079186442055, 37.486815374217528 ], [ 126.609849007374734, 37.482937805396929 ], [ 126.604565450727449, 37.481300617577652 ], [ 126.605096259234202, 37.480170439096511 ], [ 126.605685948225258, 37.480311735065371 ], [ 126.606253587073809, 37.480487766623106 ], [ 126.611996267526067, 37.482143824924471 ], [ 126.613412116624446, 37.478996441366753 ], [ 126.613653201176191, 37.478892728390662 ], [ 126.613963595024458, 37.479001425720234 ], [ 126.61415524175078, 37.479068543582066 ], [ 126.612738595796159, 37.482372664380776 ], [ 126.613303998069753, 37.482543338274297 ], [ 126.61677144335242, 37.483589952580502 ] ] ] ] } },
{ "type": "Feature", "properties": { "OBJECTID": 771, "adm_nm": "인천광역시 중구 송월동", "adm_cd": "2301061", "adm_cd2": "2811061000", "sgg": "28110", "sido": "28", "sidonm": "인천광역시", "sggnm": "중구" }, "geometry": { "type": "MultiPolygon", "coordinates": [ [ [ [ 126.627973199838507, 37.47922788551876 ], [ 126.627104048868262, 37.47938045949595 ], [ 126.627032732779469, 37.479408612385427 ], [ 126.626963807111252, 37.479435639091903 ], [ 126.626899334525817, 37.479450192540661 ], [ 126.62670235823694, 37.479494651099579 ], [ 126.625209870380573, 37.47960505472971 ], [ 126.624206447166301, 37.479458910542178 ], [ 126.623986758534244, 37.479246561538773 ], [ 126.622837012015935, 37.477684505369723 ], [ 126.622343702576373, 37.477271953305582 ], [ 126.62225674969541, 37.47720962308064 ], [ 126.622184050030356, 37.477158843936913 ], [ 126.621948024630015, 37.477053581725691 ], [ 126.621699892732991, 37.476957610219166 ], [ 126.621625196427928, 37.47694209623517 ], [ 126.621224474459154, 37.476858869879138 ], [ 126.620689796564591, 37.476752947275067 ], [ 126.618323672734917, 37.478034991652251 ], [ 126.618412872780738, 37.479010222479779 ], [ 126.619097365916431, 37.479852322256313 ], [ 126.619264523183332, 37.479968365175395 ], [ 126.619431687743372, 37.480084408814136 ], [ 126.620352849932146, 37.480659949088611 ], [ 126.620525126256339, 37.480712042088456 ], [ 126.621069410466191, 37.480874851260005 ], [ 126.621245735769676, 37.48092694088605 ], [ 126.621324497554738, 37.480949207563732 ], [ 126.621436879359038, 37.480980730411702 ], [ 126.621526344308037, 37.481004724200105 ], [ 126.621627395931384, 37.481030908698685 ], [ 126.621774367539757, 37.481068481311844 ], [ 126.621813448006066, 37.481078141258564 ], [ 126.62185221144901, 37.481086767700944 ], [ 126.621964895143677, 37.481111666528243 ], [ 126.622048574627911, 37.481128943390274 ], [ 126.622138720390112, 37.481147271434033 ], [ 126.622197531771008, 37.481157510505611 ], [ 126.622345775837047, 37.481182264868401 ], [ 126.622415269028636, 37.481193058190208 ], [ 126.622457893650179, 37.481198421415058 ], [ 126.622495099569761, 37.481203102622331 ], [ 126.622556785521965, 37.481210298303743 ], [ 126.622655690581425, 37.481221437008735 ], [ 126.622724225238102, 37.481228608650149 ], [ 126.622804405974506, 37.481234536341667 ], [ 126.622950500491214, 37.481240987563304 ], [ 126.623028760128449, 37.481244067022395 ], [ 126.623134809007297, 37.481246002474691 ], [ 126.623192334660033, 37.481246656554426 ], [ 126.623229647159505, 37.48124648189156 ], [ 126.623288062701718, 37.481246188007653 ], [ 126.623373137529569, 37.48124388272042 ], [ 126.623450123071677, 37.481240524977622 ], [ 126.623521884212792, 37.481237084260577 ], [ 126.623562730932917, 37.481234316412255 ], [ 126.623608580911551, 37.481231197185664 ], [ 126.623701772815522, 37.481223495149756 ], [ 126.623765512653492, 37.481217536829206 ], [ 126.623865767730507, 37.481206742266657 ], [ 126.623915064622025, 37.481200851618517 ], [ 126.623966299427735, 37.481193952296266 ], [ 126.624002343366413, 37.481188892624296 ], [ 126.624068371672124, 37.481179311489392 ], [ 126.624170225571646, 37.481163606293286 ], [ 126.624229793539428, 37.481151686865836 ], [ 126.624342144239378, 37.481127568689104 ], [ 126.624395182579221, 37.481115273594412 ], [ 126.624470304849964, 37.481097498832824 ], [ 126.624549326553179, 37.481077909673793 ], [ 126.62463547210838, 37.481055257305172 ], [ 126.624709577363248, 37.481034486005164 ], [ 126.624779214330019, 37.48101357970544 ], [ 126.624866342887017, 37.480986539505864 ], [ 126.624944416586857, 37.480961809014609 ], [ 126.624990591759556, 37.480946206268946 ], [ 126.625035739259687, 37.48092949805968 ], [ 126.625158539052364, 37.480883251925199 ], [ 126.625204078363609, 37.480865817366563 ], [ 126.625291099617527, 37.480829811308546 ], [ 126.625351623479915, 37.480803576063842 ], [ 126.625416796565673, 37.480774170933337 ], [ 126.625479026411909, 37.480745758891494 ], [ 126.625555540861939, 37.480708627503873 ], [ 126.625601780745328, 37.480685409556571 ], [ 126.625718268408818, 37.480626277400383 ], [ 126.625836971167956, 37.480560965691488 ], [ 126.625903453782939, 37.480523290249408 ], [ 126.625968564244872, 37.480485434264551 ], [ 126.626025656176921, 37.480452102251576 ], [ 126.626170005555423, 37.480365991266225 ], [ 126.62622547711365, 37.480332417328107 ], [ 126.626648398264592, 37.480064833466017 ], [ 126.627333171982286, 37.479620866323721 ], [ 126.627973199838507, 37.47922788551876 ] ] ] ] } },
{ "type": "Feature", "properties": { "OBJECTID": 772, "adm_nm": "인천광역시 중구 영종동", "adm_cd": "2301065", "adm_cd2": "2811062000", "sgg": "28110", "sido": "28", "sidonm": "인천광역시", "sggnm": "중구" }, "geometry": { "type": "MultiPolygon", "coordinates": [ [ [ [ 126.591314778791883, 37.49588221692651 ], [ 126.590800704051375, 37.495861965143511 ], [ 126.586447146613736, 37.496222573732879 ], [ 126.586060205665916, 37.4964194458531 ], [ 126.585857704870648, 37.496641989224138 ], [ 126.585747886835634, 37.496831260175938 ], [ 126.585399552435334, 37.497742386059876 ], [ 126.585308719146326, 37.498091250049193 ], [ 126.585565216778448, 37.498231255865086 ], [ 126.587522190171782, 37.498720667244356 ], [ 126.588640988994243, 37.498938681359803 ], [ 126.588913009135283, 37.498941925357258 ], [ 126.589273397949739, 37.498879243972048 ], [ 126.589545791596649, 37.498731149483746 ], [ 126.58986236524683, 37.498536386430899 ], [ 126.590248677643942, 37.498277286791435 ], [ 126.590625777828706, 37.49798038857007 ], [ 126.591407244136079, 37.497167560432679 ], [ 126.59156833205104, 37.497082416084815 ], [ 126.592006295652837, 37.49679324616104 ], [ 126.591774343334009, 37.496180450755134 ], [ 126.591314778791883, 37.49588221692651 ] ] ], [ [ [ 126.488248516763861, 37.515576618368478 ], [ 126.487781241998661, 37.51547362435592 ], [ 126.487414249414542, 37.515473647505196 ], [ 126.487081278677834, 37.515511763887062 ], [ 126.486830122218819, 37.515665377891281 ], [ 126.486323773869927, 37.516436395411084 ], [ 126.486251647159406, 37.516683092432608 ], [ 126.486336861357145, 37.516885920361361 ], [ 126.486515644541171, 37.517153851906812 ], [ 126.488771639309405, 37.517472191922089 ], [ 126.489310116031177, 37.517465029997553 ], [ 126.489549521951744, 37.517362962607336 ], [ 126.489718281911436, 37.517161659953032 ], [ 126.489753484905933, 37.516850523584338 ], [ 126.489644102964462, 37.516639626329848 ], [ 126.489474665693606, 37.51644072826285 ], [ 126.488741481649896, 37.515832338752965 ], [ 126.488551040451512, 37.515697151022529 ], [ 126.488248516763861, 37.515576618368478 ] ] ], [ [ [ 126.580039337354705, 37.525087590463791 ], [ 126.579750776337519, 37.524914997582364 ], [ 126.579368419666537, 37.524917150568044 ], [ 126.578674192633997, 37.525150270604342 ], [ 126.578323953822704, 37.525360621674714 ], [ 126.5775791874877, 37.525917660858212 ], [ 126.577203160594351, 37.526278491827554 ], [ 126.576809569307599, 37.526659704878533 ], [ 126.576401645798327, 37.527006549357075 ], [ 126.575939410431459, 37.527381194427136 ], [ 126.575502585245786, 37.527591465085202 ], [ 126.575120736005701, 37.527735736525848 ], [ 126.574031165337573, 37.528029029824424 ], [ 126.573709481213598, 37.528102626297681 ], [ 126.572816789053974, 37.528305808639132 ], [ 126.572300666203134, 37.528520512902723 ], [ 126.572076189975704, 37.528635891705093 ], [ 126.57185429456338, 37.528901967741504 ], [ 126.571836305316481, 37.529304649388948 ], [ 126.572410880035875, 37.529673861626115 ], [ 126.573491863633976, 37.530253955874919 ], [ 126.574374976753774, 37.530317983362849 ], [ 126.574834550594062, 37.530237982667828 ], [ 126.575239808602021, 37.529977978962634 ], [ 126.579322912480151, 37.527029694655333 ], [ 126.579982207543097, 37.526433635145544 ], [ 126.58041828255385, 37.525628458898481 ], [ 126.580039337354705, 37.525087590463791 ] ] ], [ [ [ 126.506160877927215, 37.463944707161616 ], [ 126.505821305776294, 37.465052569282669 ], [ 126.505668651225051, 37.4660234192283 ], [ 126.506684496845807, 37.466981606817818 ], [ 126.506978975207119, 37.46745813799722 ], [ 126.507085858227256, 37.467747641338235 ], [ 126.507135710071054, 37.468122133641721 ], [ 126.507091766877394, 37.468575276987437 ], [ 126.507007206621665, 37.468820540035182 ], [ 126.506724177465557, 37.46935170863442 ], [ 126.506522487121572, 37.469563097725711 ], [ 126.506008321772327, 37.470101983124117 ], [ 126.505363247712978, 37.471043883423476 ], [ 126.505305918449238, 37.471161210749024 ], [ 126.505204265131894, 37.471496321376634 ], [ 126.504739078244214, 37.473046957372361 ], [ 126.50475299999006, 37.473769935453326 ], [ 126.504754831663149, 37.473865052541882 ], [ 126.504782747983285, 37.474104453327591 ], [ 126.504773785256518, 37.47446444040807 ], [ 126.504636775346441, 37.474984846348427 ], [ 126.504488574607493, 37.475336232325745 ], [ 126.504318581341877, 37.475646207385843 ], [ 126.504102015240022, 37.475925190199753 ], [ 126.503863719491804, 37.476183492136151 ], [ 126.50297299512502, 37.477132273907351 ], [ 126.502743208675298, 37.477266257550603 ], [ 126.501006041393111, 37.478274124368532 ], [ 126.499634631311523, 37.479072910408796 ], [ 126.502229611765117, 37.481838211924838 ], [ 126.502569771456024, 37.482140307231994 ], [ 126.502827144504437, 37.482325529932986 ], [ 126.50298895785761, 37.482418700056982 ], [ 126.503466976559963, 37.482656029889029 ], [ 126.504323074323423, 37.482944056840857 ], [ 126.505936726389635, 37.483479285312356 ], [ 126.506030156451686, 37.48330646554988 ], [ 126.506876764681024, 37.481690298523056 ], [ 126.507127068991608, 37.481212452818987 ], [ 126.507292207774256, 37.480939110304718 ], [ 126.507358842962262, 37.480828813311355 ], [ 126.510476386949577, 37.480835428807126 ], [ 126.511314985102672, 37.481456600919053 ], [ 126.51257888254078, 37.482392774987204 ], [ 126.515021235858541, 37.484884434144824 ], [ 126.516209001739071, 37.486814749588767 ], [ 126.517176139633619, 37.489634254275437 ], [ 126.51726260724385, 37.491191152840265 ], [ 126.516849577656004, 37.492854032354288 ], [ 126.516479756905468, 37.493554242352012 ], [ 126.516333858314226, 37.493640481155275 ], [ 126.514579318101426, 37.494556552373382 ], [ 126.513615534307419, 37.494644711343284 ], [ 126.512328456296046, 37.495285606769599 ], [ 126.509584596851241, 37.499618815837536 ], [ 126.5096150925107, 37.500497011637961 ], [ 126.509943515935461, 37.501529966754376 ], [ 126.510097003771293, 37.503441442435218 ], [ 126.509557570705681, 37.504108794073609 ], [ 126.509272739868763, 37.504426422841668 ], [ 126.508745306367402, 37.504720037115376 ], [ 126.505315389867704, 37.504928160634599 ], [ 126.504580321781788, 37.504853361560308 ], [ 126.503715129843528, 37.504693867435527 ], [ 126.502668902798959, 37.503986789171506 ], [ 126.502077696124474, 37.50357235923105 ], [ 126.501455284482319, 37.50298785910104 ], [ 126.500042392328723, 37.501438853053116 ], [ 126.499571395058652, 37.501317562945339 ], [ 126.499461433922789, 37.501306194154253 ], [ 126.499379423913112, 37.501309358950941 ], [ 126.498141328914826, 37.501796479731908 ], [ 126.497934538467874, 37.501923629357876 ], [ 126.497775741776678, 37.502212350015498 ], [ 126.497952524743084, 37.504381152290101 ], [ 126.497569564962745, 37.506905153957426 ], [ 126.497494377911835, 37.507064572119994 ], [ 126.49733731352228, 37.507107608651566 ], [ 126.497129726450964, 37.507125732291598 ], [ 126.496844854661887, 37.507149533741035 ], [ 126.496402699647419, 37.507126339534082 ], [ 126.495823753983046, 37.507095967110516 ], [ 126.494488880010934, 37.506958132547879 ], [ 126.490455110962671, 37.509901625843263 ], [ 126.490607193739848, 37.510166626488335 ], [ 126.494069958651551, 37.516199894417007 ], [ 126.495071055533117, 37.524245351703222 ], [ 126.495348183089362, 37.526472191085368 ], [ 126.496411401412459, 37.528349790313278 ], [ 126.498392742759506, 37.531848466830084 ], [ 126.513776820102166, 37.534977705152968 ], [ 126.520908383891822, 37.533934301918052 ], [ 126.525207393120226, 37.528738318187443 ], [ 126.526341758147552, 37.527367127925025 ], [ 126.537687913578964, 37.524934814961036 ], [ 126.543886286086817, 37.52360552156658 ], [ 126.555279341854032, 37.517979350212677 ], [ 126.56550231909705, 37.514646324023865 ], [ 126.56964939853485, 37.508344844864737 ], [ 126.568975323260673, 37.507660179664597 ], [ 126.568782907699173, 37.507375730323595 ], [ 126.569009871434588, 37.506850679562994 ], [ 126.569322307884192, 37.506345813899173 ], [ 126.569523684701394, 37.505908367539774 ], [ 126.569380009263611, 37.505643815144282 ], [ 126.56827453504404, 37.503937503601733 ], [ 126.568129049909842, 37.50381928061725 ], [ 126.567068588341058, 37.503420657671846 ], [ 126.561661044351126, 37.50202169806019 ], [ 126.55992938898747, 37.501442063147167 ], [ 126.556535729784258, 37.499619847242244 ], [ 126.555334235882384, 37.498761445928103 ], [ 126.553687127938844, 37.497314086025831 ], [ 126.551759556094822, 37.495908295758923 ], [ 126.551544708384853, 37.495823702168458 ], [ 126.551181397016251, 37.495020767656179 ], [ 126.550082948742656, 37.495704637190826 ], [ 126.549365520850657, 37.495308613025394 ], [ 126.550415365321996, 37.494595091271833 ], [ 126.551463216870758, 37.494037643538604 ], [ 126.549526283524258, 37.492285452160054 ], [ 126.551454712539751, 37.490837506121181 ], [ 126.550390679821973, 37.489775276311853 ], [ 126.550199985725996, 37.489363977966335 ], [ 126.550011516457587, 37.488777083597888 ], [ 126.549688468846682, 37.483349972880326 ], [ 126.558042419133244, 37.483007111072368 ], [ 126.558049277931872, 37.482460811081999 ], [ 126.559039854673017, 37.481571122287654 ], [ 126.559372084447801, 37.481437179199844 ], [ 126.55960454750489, 37.481448785878207 ], [ 126.559831990282433, 37.481372545631174 ], [ 126.559993144753648, 37.481212849054231 ], [ 126.559977166557374, 37.481022472953889 ], [ 126.55982732813365, 37.480767616249217 ], [ 126.559646032686985, 37.480580802439825 ], [ 126.559581456548003, 37.480360771207692 ], [ 126.559548279863506, 37.480077573554176 ], [ 126.559521161524216, 37.479799302147619 ], [ 126.559455546988943, 37.479662191057983 ], [ 126.559351620685192, 37.479651607575384 ], [ 126.559398255369132, 37.479349532205127 ], [ 126.559043935355376, 37.47880523377016 ], [ 126.558931867136778, 37.478467748177337 ], [ 126.558946817335226, 37.478295521499028 ], [ 126.55301179228249, 37.476959287616666 ], [ 126.550370031379259, 37.476387632009967 ], [ 126.547749866887216, 37.476132292541287 ], [ 126.547181364343245, 37.476083652667249 ], [ 126.546617388228483, 37.476047416543814 ], [ 126.546048771666037, 37.476019602019811 ], [ 126.5454855721824, 37.476000814860605 ], [ 126.544925324163557, 37.475989362328903 ], [ 126.544347008282926, 37.475987684723847 ], [ 126.543201971704292, 37.475993952873772 ], [ 126.541243621557626, 37.476007460925423 ], [ 126.540547264685671, 37.476011783118402 ], [ 126.540005877017578, 37.476007416936262 ], [ 126.539536113381601, 37.475990940625096 ], [ 126.539496023283405, 37.475989378077905 ], [ 126.539006852581068, 37.475968597540394 ], [ 126.538609199123471, 37.475943947564325 ], [ 126.537467822714873, 37.475844866879903 ], [ 126.537307195610964, 37.475826123606829 ], [ 126.537138852577982, 37.475756489038126 ], [ 126.532979336507026, 37.474035761008828 ], [ 126.521146356696434, 37.469139419619729 ], [ 126.507345735083263, 37.465809485938856 ], [ 126.506160877927215, 37.463944707161616 ] ] ], [ [ [ 126.575289647099666, 37.534424304277486 ], [ 126.574908718306176, 37.53433900661377 ], [ 126.573899630335831, 37.534399801836301 ], [ 126.573671817303421, 37.534557595563498 ], [ 126.573509616370217, 37.534724578959462 ], [ 126.573530455359176, 37.535363255904201 ], [ 126.573569901084298, 37.535767549856033 ], [ 126.573754518203316, 37.536051680626173 ], [ 126.574019739944063, 37.53625497735834 ], [ 126.574371343292754, 37.536478056158934 ], [ 126.574732882615578, 37.536511838630631 ], [ 126.575107506297314, 37.536430091688992 ], [ 126.575626603815053, 37.536282086625739 ], [ 126.575850653695269, 37.536094473452579 ], [ 126.575860335088848, 37.53558477371427 ], [ 126.575759915355533, 37.535125881915071 ], [ 126.575535250211374, 37.5347724780625 ], [ 126.575289647099666, 37.534424304277486 ] ] ], [ [ [ 126.57571310607085, 37.537192082776677 ], [ 126.575280423527886, 37.537177014819754 ], [ 126.574191294913717, 37.537872176270696 ], [ 126.573850413047282, 37.53812142220886 ], [ 126.571818669836858, 37.539921634470367 ], [ 126.571692489906951, 37.540208559720035 ], [ 126.57186999703336, 37.540552898454457 ], [ 126.573492268419969, 37.541879825344459 ], [ 126.5744399732517, 37.542439765709148 ], [ 126.57452870149325, 37.542484797589772 ], [ 126.574969776135333, 37.542694180647977 ], [ 126.575349480935287, 37.542768824843954 ], [ 126.575702414799466, 37.542713628132645 ], [ 126.577036744774915, 37.542183122735238 ], [ 126.57743706618308, 37.541962560086127 ], [ 126.577879346070731, 37.541381760209468 ], [ 126.578073967453136, 37.540865269339044 ], [ 126.577692765400585, 37.538398136643281 ], [ 126.57761305964425, 37.537947202146995 ], [ 126.577362681726143, 37.53766204171599 ], [ 126.57701812890501, 37.537476073386131 ], [ 126.57571310607085, 37.537192082776677 ] ] ], [ [ [ 126.579895277987632, 37.544546160587061 ], [ 126.579398130902263, 37.544517738659422 ], [ 126.579019075839895, 37.544707578829403 ], [ 126.577225344215748, 37.546497055574029 ], [ 126.577114047806944, 37.546835783989948 ], [ 126.577189440827112, 37.547092558936313 ], [ 126.577363179394141, 37.547333237596277 ], [ 126.577551778151602, 37.547488116509591 ], [ 126.578018237575137, 37.54762317275739 ], [ 126.578827426621629, 37.547371842883102 ], [ 126.580162557824252, 37.545560950877892 ], [ 126.580271245466037, 37.545258027861422 ], [ 126.580141785044489, 37.54485416199136 ], [ 126.579895277987632, 37.544546160587061 ] ] ], [ [ [ 126.588428576417201, 37.545397092796335 ], [ 126.587467536861695, 37.544566456592165 ], [ 126.584027522206455, 37.548558551784247 ], [ 126.584621332991773, 37.549070508972122 ], [ 126.586005358268253, 37.549583298536895 ], [ 126.58659121285541, 37.549799173297906 ], [ 126.587248195588288, 37.549859437946026 ], [ 126.588106395602509, 37.549570014144756 ], [ 126.589371631398492, 37.548774300711216 ], [ 126.590218187702462, 37.548061335878735 ], [ 126.590346952653434, 37.547734649535776 ], [ 126.588428576417201, 37.545397092796335 ] ] ] ] } },
{ "type": "Feature", "properties": { "OBJECTID": 773, "adm_nm": "인천광역시 중구 용유동", "adm_cd": "2301063", "adm_cd2": "2811063000", "sgg": "28110", "sido": "28", "sidonm": "인천광역시", "sggnm": "중구" }, "geometry": { "type": "MultiPolygon", "coordinates": [ [ [ [ 126.510384632435574, 37.359557894147805 ], [ 126.510455845066119, 37.359455979158561 ], [ 126.512592749004355, 37.359562814156959 ], [ 126.513050765639861, 37.359478121422782 ], [ 126.513098722290536, 37.359462263889128 ], [ 126.513217057732561, 37.359390717582244 ], [ 126.5132309296974, 37.359228684490674 ], [ 126.513026729760938, 37.357503263493101 ], [ 126.512665274857198, 37.357162198899474 ], [ 126.51197259006058, 37.356907607925763 ], [ 126.510094579863349, 37.357056941175266 ], [ 126.509829969769171, 37.357337687027346 ], [ 126.509590664242737, 37.358199132316301 ], [ 126.509559194996783, 37.358400043463412 ], [ 126.50969796397797, 37.358837601513962 ], [ 126.50993291109684, 37.359509273252804 ], [ 126.510133956814059, 37.359592324681387 ], [ 126.510384632435574, 37.359557894147805 ] ] ], [ [ [ 126.441226659582682, 37.36014687651528 ], [ 126.441038596260682, 37.360111793424394 ], [ 126.44083001301793, 37.360129843659003 ], [ 126.440173860547532, 37.360209265698167 ], [ 126.44004928556528, 37.360259111497768 ], [ 126.439707502595965, 37.36043784786407 ], [ 126.439648547149943, 37.360500842652471 ], [ 126.439162009671861, 37.361428446168794 ], [ 126.439122673341245, 37.361529201004252 ], [ 126.439148385041861, 37.361633593060148 ], [ 126.439330173310282, 37.361766994070251 ], [ 126.439607262727762, 37.361912116824044 ], [ 126.441214043730355, 37.362025602370416 ], [ 126.441459476798187, 37.362022316381953 ], [ 126.441609165730668, 37.362009352544462 ], [ 126.441735416154344, 37.361964168364899 ], [ 126.441908330039738, 37.361851133510079 ], [ 126.442114640034376, 37.361666270431527 ], [ 126.442223924852186, 37.361543654286315 ], [ 126.442247557970632, 37.361410613216378 ], [ 126.442241916517574, 37.361301521409011 ], [ 126.442174576197317, 37.361176981220233 ], [ 126.441718368648168, 37.36061018097427 ], [ 126.441584614045553, 37.36045393527062 ], [ 126.441379551660873, 37.360231260962337 ], [ 126.441226659582682, 37.36014687651528 ] ] ], [ [ [ 126.444139003792216, 37.370120749383425 ], [ 126.443973418500804, 37.37008906500126 ], [ 126.443113788622469, 37.37008353460817 ], [ 126.442963239007199, 37.370088617480931 ], [ 126.4405787298044, 37.370782773142025 ], [ 126.440403850787277, 37.370878293019452 ], [ 126.440129768269827, 37.371030024736818 ], [ 126.439983610186118, 37.3711902160249 ], [ 126.439877285241025, 37.371364609771192 ], [ 126.439799748411403, 37.371665386747274 ], [ 126.43981051387992, 37.371777059888672 ], [ 126.439894050860289, 37.371970391085938 ], [ 126.441088204265753, 37.374044876282746 ], [ 126.441279930967227, 37.374191327276009 ], [ 126.44351532026117, 37.374899884275912 ], [ 126.44576543291339, 37.375118688097167 ], [ 126.446040169249031, 37.375122285305579 ], [ 126.446179157314944, 37.375101985402438 ], [ 126.44633617706836, 37.375015523209314 ], [ 126.446623053510933, 37.371838433776155 ], [ 126.446588957863085, 37.371539057226606 ], [ 126.446469361735964, 37.37134547430788 ], [ 126.446117892322462, 37.370996528766227 ], [ 126.445977221228262, 37.370859838868931 ], [ 126.44583473756532, 37.370730445266766 ], [ 126.445654451055944, 37.370644984978654 ], [ 126.445539081848082, 37.370600625064633 ], [ 126.444139003792216, 37.370120749383425 ] ] ], [ [ [ 126.390657115940073, 37.39581142461585 ], [ 126.390499383588732, 37.395801398066624 ], [ 126.390250951556993, 37.395810435079525 ], [ 126.390003106633941, 37.395874719173101 ], [ 126.389479643832871, 37.396047513157612 ], [ 126.389216725190366, 37.396329830899603 ], [ 126.389078070289159, 37.39653054045661 ], [ 126.388963924361605, 37.396794685551214 ], [ 126.388834670756765, 37.397152709752987 ], [ 126.388786753770574, 37.397498388317125 ], [ 126.388774065609212, 37.398589790410199 ], [ 126.389180593709398, 37.402157022318505 ], [ 126.389258874515178, 37.402383713016633 ], [ 126.389493234123819, 37.402665779686828 ], [ 126.389822929835802, 37.402943998340497 ], [ 126.39329446633802, 37.404993938470291 ], [ 126.393559489956289, 37.405064034692771 ], [ 126.395837239704363, 37.405341792045675 ], [ 126.396015536963318, 37.405312720671063 ], [ 126.396334367219197, 37.405235651620451 ], [ 126.396617218831565, 37.405078361324357 ], [ 126.396764614286894, 37.404946673413633 ], [ 126.396942475473054, 37.404166978378697 ], [ 126.397254147574444, 37.402412100714123 ], [ 126.396898004359642, 37.401957947313079 ], [ 126.394559960778381, 37.400749412930281 ], [ 126.39195939576561, 37.397630370717543 ], [ 126.391887743048159, 37.397416413836524 ], [ 126.391649771695796, 37.396778336321965 ], [ 126.391141887257007, 37.396209093303447 ], [ 126.390911460996506, 37.396000856421061 ], [ 126.390745137428809, 37.395863461776472 ], [ 126.390657115940073, 37.39581142461585 ] ] ], [ [ [ 126.437472078830183, 37.405836808243592 ], [ 126.438208221652587, 37.405473981650502 ], [ 126.439797350066314, 37.40570655426226 ], [ 126.44013675688818, 37.405713902319292 ], [ 126.440842098554342, 37.405589636484464 ], [ 126.441359046340764, 37.405456031707814 ], [ 126.441682690784319, 37.405295484799886 ], [ 126.441837303434369, 37.405164152690489 ], [ 126.441959500832922, 37.404996499189785 ], [ 126.44194328663805, 37.404821876183782 ], [ 126.441816659192739, 37.404664668523068 ], [ 126.440990684658843, 37.40366726807266 ], [ 126.440833672446971, 37.403564902355761 ], [ 126.440601250844779, 37.403474535375977 ], [ 126.440160930246776, 37.403460080182114 ], [ 126.437901540449289, 37.403774500680264 ], [ 126.437694198844014, 37.403817926550488 ], [ 126.437503111571317, 37.403935882148772 ], [ 126.437255652564843, 37.404121944337795 ], [ 126.437037179444943, 37.404242543585333 ], [ 126.435564362623651, 37.404885904967216 ], [ 126.435372758211813, 37.404932584350938 ], [ 126.435120490599431, 37.404953189272057 ], [ 126.434609101067238, 37.404951402200965 ], [ 126.434239919209276, 37.404894791069822 ], [ 126.433725630169448, 37.404777296976611 ], [ 126.43335914907145, 37.404649678270523 ], [ 126.433162304834667, 37.40454423993453 ], [ 126.43299516934124, 37.40441125766116 ], [ 126.432837147971327, 37.404274284267082 ], [ 126.432717985997826, 37.404260784510356 ], [ 126.432605838160555, 37.404274206989548 ], [ 126.432511389686937, 37.404371310036062 ], [ 126.432482615795166, 37.404519570303719 ], [ 126.432628851364214, 37.404670565360135 ], [ 126.432930479027974, 37.404869826247236 ], [ 126.435701462572382, 37.40604284100062 ], [ 126.435882294412167, 37.406109242693894 ], [ 126.436104427118892, 37.406162310917047 ], [ 126.436322425529397, 37.40619526598303 ], [ 126.436820121520185, 37.406131890870789 ], [ 126.437472078830183, 37.405836808243592 ] ] ], [ [ [ 126.414121142683001, 37.409089870363793 ], [ 126.414384733200635, 37.408193688058681 ], [ 126.414489361062834, 37.407528555551046 ], [ 126.414456080132226, 37.407182742750727 ], [ 126.414328228266157, 37.406852845294218 ], [ 126.413919421004039, 37.406229895390553 ], [ 126.413731506087899, 37.405931869300154 ], [ 126.413615301004484, 37.405547633619292 ], [ 126.413624128088216, 37.40512835087943 ], [ 126.413695831414046, 37.404851982519219 ], [ 126.413858187769065, 37.404427971307442 ], [ 126.414124426634075, 37.403973014755493 ], [ 126.414339275189135, 37.403722548231372 ], [ 126.414608479323988, 37.403487097294516 ], [ 126.414929452728501, 37.403336372606212 ], [ 126.41538022794623, 37.403168838198525 ], [ 126.415924878807473, 37.402977333710858 ], [ 126.416172776917023, 37.40295820247767 ], [ 126.419217331250351, 37.40230221734457 ], [ 126.422172258254207, 37.40164810611703 ], [ 126.422368683169964, 37.401595034850196 ], [ 126.42247899302599, 37.401542856727644 ], [ 126.422616671874735, 37.401430670659963 ], [ 126.422720043906835, 37.401302207303807 ], [ 126.422789969648178, 37.4010882877608 ], [ 126.422804278284559, 37.400733243440911 ], [ 126.422754801694026, 37.400582608719319 ], [ 126.422689125142199, 37.400467563577514 ], [ 126.422625321041494, 37.400355819943307 ], [ 126.422565647971268, 37.400274906389562 ], [ 126.422537038457264, 37.400163316686829 ], [ 126.422522978681329, 37.399988511615035 ], [ 126.422524479539177, 37.399916674993776 ], [ 126.423084595214831, 37.398181371962288 ], [ 126.423137110670979, 37.398076162759772 ], [ 126.427708620057118, 37.394289509136321 ], [ 126.429884705777212, 37.391243655881709 ], [ 126.43166068458612, 37.389900127419516 ], [ 126.43172579123916, 37.389893212891387 ], [ 126.431876764189397, 37.389931111798283 ], [ 126.43214079251895, 37.38996242878202 ], [ 126.434658229101359, 37.389711502773494 ], [ 126.435004691613386, 37.389556410371334 ], [ 126.435274463350808, 37.389416152007691 ], [ 126.44104019799677, 37.385644751285049 ], [ 126.441745664237729, 37.384370241792659 ], [ 126.441686938133358, 37.382137053568648 ], [ 126.441577013784681, 37.381652910616602 ], [ 126.441479232201729, 37.381496014522412 ], [ 126.441376444153164, 37.381356052142479 ], [ 126.441229981516926, 37.381272174142993 ], [ 126.439090389014083, 37.381027551682593 ], [ 126.438894142889225, 37.381017840097449 ], [ 126.43780348238441, 37.381003763151554 ], [ 126.437674737799185, 37.381118492381297 ], [ 126.437538630873917, 37.381299250849345 ], [ 126.437385450620695, 37.381393008563165 ], [ 126.437186414468144, 37.381467203989402 ], [ 126.435979137556728, 37.381625343471867 ], [ 126.435193259888976, 37.381707200503271 ], [ 126.43515401376284, 37.381621650309746 ], [ 126.435149804197067, 37.380796307129643 ], [ 126.436291972570487, 37.379551193511666 ], [ 126.43772885724826, 37.379300826486414 ], [ 126.439902129456172, 37.378859669357162 ], [ 126.44020081125754, 37.378725317003557 ], [ 126.440344314502951, 37.378640612064906 ], [ 126.440431628194048, 37.37848729341011 ], [ 126.440485563939802, 37.378232548401229 ], [ 126.440291039615218, 37.376837879361922 ], [ 126.440264740322746, 37.376723028710558 ], [ 126.440214041972411, 37.376598934229996 ], [ 126.440094873737593, 37.376383110937368 ], [ 126.439702664218856, 37.375956611073207 ], [ 126.439472116709581, 37.37574085023877 ], [ 126.439250294584568, 37.37561551891222 ], [ 126.439000124552337, 37.375535411983797 ], [ 126.435926120674438, 37.374639581797808 ], [ 126.435779635136441, 37.374649315021252 ], [ 126.435667204701531, 37.37468350609528 ], [ 126.435409024646304, 37.374801114149172 ], [ 126.435056178036191, 37.374886319405604 ], [ 126.434783302430631, 37.37491777483686 ], [ 126.434582468282457, 37.374902389573244 ], [ 126.434401851798341, 37.37482889440497 ], [ 126.434044299387295, 37.374609133031512 ], [ 126.433732776497635, 37.374393471213288 ], [ 126.433518808087385, 37.374189984941928 ], [ 126.433391884127502, 37.372117134908756 ], [ 126.433395192117757, 37.37173931201341 ], [ 126.433447432299047, 37.371586554548372 ], [ 126.433500865357757, 37.371512652950862 ], [ 126.433530447516546, 37.371493058592151 ], [ 126.433823826928517, 37.371316320060487 ], [ 126.434069614085345, 37.371203408708475 ], [ 126.4342493893501, 37.37118031227272 ], [ 126.434443212820867, 37.37110841893999 ], [ 126.434630651343511, 37.370980651077844 ], [ 126.434746490777258, 37.370875138468818 ], [ 126.43486118709599, 37.37066682335459 ], [ 126.434966459631056, 37.370448033445484 ], [ 126.434968994420544, 37.370325540039694 ], [ 126.434952563272375, 37.370215806526133 ], [ 126.434881296010474, 37.370097110105782 ], [ 126.433818542789879, 37.368756030629285 ], [ 126.433682169712867, 37.368593463914181 ], [ 126.433520439092931, 37.368500649723003 ], [ 126.432297714305818, 37.368285001858133 ], [ 126.432025590256202, 37.368255258356498 ], [ 126.43174131212804, 37.368303687173103 ], [ 126.42798565492663, 37.368297876700716 ], [ 126.42587559345624, 37.367962022852574 ], [ 126.423874993518879, 37.367025992813829 ], [ 126.417938603361051, 37.365314086292621 ], [ 126.417715754403929, 37.365274462006902 ], [ 126.415633460751977, 37.365317249292794 ], [ 126.415362102376719, 37.365355016791391 ], [ 126.413516369917275, 37.366075803516452 ], [ 126.413218686587584, 37.366251117186422 ], [ 126.40849486267129, 37.370879216954499 ], [ 126.407137723858753, 37.372604873080014 ], [ 126.40705598480838, 37.372718922581754 ], [ 126.407089543918985, 37.372814145902886 ], [ 126.407527371615714, 37.373555026261215 ], [ 126.40760432806448, 37.373677310236893 ], [ 126.408334115165019, 37.374251558897114 ], [ 126.40850645883009, 37.374317949039074 ], [ 126.409119934657014, 37.376508455414324 ], [ 126.408212121217886, 37.37934557774426 ], [ 126.408083582446807, 37.379940277761797 ], [ 126.408024950636772, 37.383060643348792 ], [ 126.408226021092958, 37.385010067116497 ], [ 126.408175624557089, 37.385420240939403 ], [ 126.408025993784207, 37.386243747292902 ], [ 126.407765988754647, 37.38720337097697 ], [ 126.407552842395646, 37.387773916210691 ], [ 126.407345626490354, 37.388117909825148 ], [ 126.404870616343828, 37.391156878701821 ], [ 126.404745928543861, 37.391253130643292 ], [ 126.404519679492822, 37.39136382378426 ], [ 126.404428768894903, 37.391398604200937 ], [ 126.4043047590296, 37.391446043594399 ], [ 126.404273129813859, 37.391458139398381 ], [ 126.403119081590859, 37.391746160048591 ], [ 126.403043868172759, 37.391757964753587 ], [ 126.402957258199152, 37.391756779924613 ], [ 126.399936387482526, 37.391435822579687 ], [ 126.39869540912504, 37.39126198499455 ], [ 126.398126989426544, 37.390914166793095 ], [ 126.397810522424322, 37.390848171213548 ], [ 126.397387478417741, 37.390861197350702 ], [ 126.396970733388329, 37.390904739686583 ], [ 126.396726451030958, 37.390970693722188 ], [ 126.396559155394812, 37.391085419731361 ], [ 126.396442785462071, 37.39121978148173 ], [ 126.395919898731194, 37.392343086047269 ], [ 126.395914718589637, 37.392586106204632 ], [ 126.396578277193697, 37.393870301553093 ], [ 126.396703827304648, 37.394052859458661 ], [ 126.398803560882598, 37.395528362997382 ], [ 126.398976233713867, 37.395583461043707 ], [ 126.400588891078641, 37.396569001990429 ], [ 126.40163095891505, 37.398621156340894 ], [ 126.401590081516403, 37.398921171896404 ], [ 126.40144623776834, 37.39931756353694 ], [ 126.401329220386302, 37.399588051173424 ], [ 126.401027715827354, 37.39995795047583 ], [ 126.400455528161629, 37.400456018656939 ], [ 126.401114216313246, 37.40259522276429 ], [ 126.401752668494026, 37.403093164956772 ], [ 126.402528924921043, 37.403769479649149 ], [ 126.403098446628988, 37.404456389088132 ], [ 126.403304939242815, 37.404788748660245 ], [ 126.404461186842781, 37.406724043486889 ], [ 126.404596608467955, 37.407084739052465 ], [ 126.404621258696579, 37.407578090872995 ], [ 126.404573780230564, 37.407863873279403 ], [ 126.404510990646187, 37.408024220696504 ], [ 126.404316381974382, 37.408159813406307 ], [ 126.403940185413731, 37.408350924803351 ], [ 126.403688208200492, 37.408439665747409 ], [ 126.403643489628863, 37.408428727026845 ], [ 126.40359210911565, 37.40840732056823 ], [ 126.403460996619572, 37.40836038148349 ], [ 126.403326130693003, 37.408358552701856 ], [ 126.403172610039618, 37.408391354015947 ], [ 126.403010774760219, 37.408509272346137 ], [ 126.40290071827603, 37.408600252311167 ], [ 126.402615385607632, 37.408861982343957 ], [ 126.402444202116286, 37.409068854363532 ], [ 126.402354829337028, 37.409251929737181 ], [ 126.402333059929802, 37.409486339262678 ], [ 126.402377107996884, 37.409687602128621 ], [ 126.402500065238655, 37.409780689056205 ], [ 126.404801601517448, 37.411485457543499 ], [ 126.407249252122995, 37.413211751858412 ], [ 126.407550986869509, 37.413312361828815 ], [ 126.407819518441201, 37.413349574312839 ], [ 126.40799557190563, 37.413336350325004 ], [ 126.409614500388557, 37.412781540248332 ], [ 126.410430119498471, 37.412419478148855 ], [ 126.410679414496897, 37.412287566526985 ], [ 126.41097251555, 37.41211186086894 ], [ 126.411240294339663, 37.411896536428522 ], [ 126.411460437844312, 37.41166630267621 ], [ 126.411679609522281, 37.411376079162544 ], [ 126.414002412167235, 37.409274978972228 ], [ 126.414075473692762, 37.409161072067718 ], [ 126.414121142683001, 37.409089870363793 ] ] ], [ [ [ 126.413236506583985, 37.420236174456385 ], [ 126.414504831201455, 37.41958197347514 ], [ 126.416035243708933, 37.419786566178075 ], [ 126.41619388625071, 37.419781645684587 ], [ 126.4163251510668, 37.419714320541026 ], [ 126.416434417169583, 37.419594075331986 ], [ 126.416885034716131, 37.41735527320121 ], [ 126.416903141983184, 37.417104710654527 ], [ 126.41678287495094, 37.41685777984862 ], [ 126.416536478086897, 37.416656818426439 ], [ 126.416399710505132, 37.416592658694476 ], [ 126.416261962767308, 37.416535366117813 ], [ 126.414225659864911, 37.415943127890387 ], [ 126.413628432482867, 37.415900414702612 ], [ 126.41325943062192, 37.415899944189981 ], [ 126.413030046298417, 37.415955909205877 ], [ 126.412855808375568, 37.416042040332641 ], [ 126.412634474095441, 37.416212865626406 ], [ 126.412445254630299, 37.416437673170229 ], [ 126.412123648332539, 37.416823507196852 ], [ 126.412023721839788, 37.417013566308434 ], [ 126.411903796848932, 37.417943757447176 ], [ 126.411900757503375, 37.418087973017073 ], [ 126.412060160704343, 37.41983801969549 ], [ 126.412099517506434, 37.420042723802283 ], [ 126.412231319014353, 37.420220282234951 ], [ 126.412400487183731, 37.420301232129269 ], [ 126.412572128429616, 37.420364907896321 ], [ 126.412844905664471, 37.42036855806932 ], [ 126.413063218379705, 37.420316983995356 ], [ 126.413236506583985, 37.420236174456385 ] ] ], [ [ [ 126.373419215434964, 37.472132770720407 ], [ 126.37384363080433, 37.47175251163096 ], [ 126.374150575342526, 37.471257783654487 ], [ 126.374886298562444, 37.46855111414942 ], [ 126.374611771378056, 37.467325065028767 ], [ 126.37452817375474, 37.467117803794906 ], [ 126.374503377498584, 37.466886956111175 ], [ 126.374586447524138, 37.466283943597865 ], [ 126.374608968601237, 37.466207810371898 ], [ 126.37473703986268, 37.465774877526421 ], [ 126.374874513902085, 37.465525375530873 ], [ 126.378430880163322, 37.459957990634891 ], [ 126.381113161094206, 37.458406674155221 ], [ 126.387873405098333, 37.454838835671005 ], [ 126.392213791479179, 37.455073412731139 ], [ 126.392521327698574, 37.455092607659473 ], [ 126.393773755619975, 37.455439464913027 ], [ 126.397052163538476, 37.45735982242644 ], [ 126.397333512229523, 37.457657976945406 ], [ 126.397602589173104, 37.458020483881768 ], [ 126.397812546902884, 37.45850533861455 ], [ 126.397891630001382, 37.458900168904009 ], [ 126.397883287858164, 37.459893284516689 ], [ 126.39787567438384, 37.460001089063191 ], [ 126.397813443261015, 37.460123110972354 ], [ 126.39677697708477, 37.461348505889021 ], [ 126.396671991075635, 37.461410103972483 ], [ 126.396515551255121, 37.461467738717211 ], [ 126.394966125954994, 37.461916821818036 ], [ 126.394921896479531, 37.461928746459336 ], [ 126.394354238570216, 37.461984676884107 ], [ 126.39344557290157, 37.46207793708102 ], [ 126.393087543607706, 37.462144189600167 ], [ 126.392835260757664, 37.462216455033456 ], [ 126.39259409626338, 37.462289611888075 ], [ 126.392086694342566, 37.462626255922402 ], [ 126.391957764793176, 37.462768860155826 ], [ 126.391827486103097, 37.462962692088858 ], [ 126.391720719251865, 37.463191532057941 ], [ 126.39188644083913, 37.463439324651702 ], [ 126.395096722151735, 37.46597062995415 ], [ 126.395344028063604, 37.466161533463463 ], [ 126.395672747222051, 37.466363666332434 ], [ 126.395833129729269, 37.466346238244952 ], [ 126.396044172690026, 37.46627197415367 ], [ 126.396190041895409, 37.466159529890071 ], [ 126.40625035897061, 37.462015948508551 ], [ 126.406543656568545, 37.461952390114078 ], [ 126.40711358565224, 37.461945062296166 ], [ 126.407490150788263, 37.461979256524316 ], [ 126.407993415416783, 37.462150780785919 ], [ 126.411026599807158, 37.463195706209838 ], [ 126.41142666830234, 37.461332746024688 ], [ 126.411234088700724, 37.461101243452894 ], [ 126.411172682170559, 37.460981401936046 ], [ 126.411159969308542, 37.460746265723508 ], [ 126.411190426812468, 37.460483436456236 ], [ 126.4112994843926, 37.460067528433129 ], [ 126.411598677539018, 37.459561256736876 ], [ 126.41207353835712, 37.459067742154247 ], [ 126.413724581896361, 37.457617899279398 ], [ 126.413989583463206, 37.457420458736451 ], [ 126.415817657601352, 37.456463921081316 ], [ 126.416790162031816, 37.455962211504961 ], [ 126.418126479395028, 37.455429971219068 ], [ 126.418517954530344, 37.455345340499036 ], [ 126.419712834052376, 37.454000514356068 ], [ 126.419834939790078, 37.453716846735944 ], [ 126.420420739099512, 37.452571019951982 ], [ 126.420555298589463, 37.452327004889405 ], [ 126.420744450865655, 37.452106320806337 ], [ 126.42104919434405, 37.451914564644497 ], [ 126.422303572572858, 37.451150570570775 ], [ 126.422438518084206, 37.451086924165836 ], [ 126.422663468799001, 37.450980832434276 ], [ 126.4250662516463, 37.449943922528213 ], [ 126.429322367903424, 37.44851945088638 ], [ 126.42979724630176, 37.448425129392028 ], [ 126.431531628233586, 37.448206911087311 ], [ 126.43179148595317, 37.448197569972528 ], [ 126.432064637355793, 37.448187751736654 ], [ 126.432573210492052, 37.448100146433866 ], [ 126.43270315352828, 37.448069557085269 ], [ 126.433133617515011, 37.4479682133178 ], [ 126.433434694880575, 37.447855928944534 ], [ 126.433683377615893, 37.447658206835193 ], [ 126.433877171709867, 37.447365862753465 ], [ 126.433968695365976, 37.447120078090052 ], [ 126.433989460398891, 37.446803564674092 ], [ 126.433896827378277, 37.446351827816514 ], [ 126.433709416901237, 37.445813197120806 ], [ 126.433546205161988, 37.445366341971138 ], [ 126.433281226057787, 37.444852214537264 ], [ 126.432809830679389, 37.443751503848567 ], [ 126.432367916033272, 37.442615212335085 ], [ 126.432109267743996, 37.441927217878636 ], [ 126.431953654360356, 37.441428486920302 ], [ 126.431798047724001, 37.439932070418735 ], [ 126.431916928753338, 37.439328480001763 ], [ 126.43211182798693, 37.438892777497692 ], [ 126.432558825074366, 37.437893483833079 ], [ 126.43299975882249, 37.436993731028799 ], [ 126.433174484097677, 37.436513317534676 ], [ 126.433197161976437, 37.436098474484709 ], [ 126.433178061372331, 37.435669864062717 ], [ 126.433042964412891, 37.435133099927349 ], [ 126.432742942049813, 37.434387320267895 ], [ 126.432580674103249, 37.433990889672813 ], [ 126.43242632381201, 37.433628002354759 ], [ 126.432196433717621, 37.433264431484162 ], [ 126.431706709518039, 37.432699939561218 ], [ 126.431145998104256, 37.432205050167084 ], [ 126.430827769459214, 37.431958379541051 ], [ 126.430458925036675, 37.431774294874572 ], [ 126.43005131107283, 37.431660149672993 ], [ 126.429579959783638, 37.431600652491518 ], [ 126.429399211764348, 37.431593771443957 ], [ 126.429233872246527, 37.431587477676608 ], [ 126.428804653779153, 37.431663920872417 ], [ 126.428476304306614, 37.431731234324985 ], [ 126.428271527708731, 37.431876549545592 ], [ 126.427864195187254, 37.432169570453716 ], [ 126.427687122096515, 37.432296467473549 ], [ 126.427618729441562, 37.432330504205353 ], [ 126.42755769473213, 37.43232969353334 ], [ 126.427166537502941, 37.432252164762666 ], [ 126.426145194477385, 37.431427796797443 ], [ 126.424119882114553, 37.429089793521541 ], [ 126.423694874048465, 37.428433228266641 ], [ 126.423086496978982, 37.427100535786231 ], [ 126.422838970436132, 37.426214628661533 ], [ 126.422789429262608, 37.425571521936085 ], [ 126.422941217485999, 37.424936944052483 ], [ 126.423213850700833, 37.424594166671916 ], [ 126.423599615524253, 37.424217214516759 ], [ 126.426068898079791, 37.423219733512198 ], [ 126.426220506380801, 37.423162916048398 ], [ 126.427573628543698, 37.422926121307334 ], [ 126.427697396154173, 37.422946352490129 ], [ 126.427347356054256, 37.422757554330246 ], [ 126.423053116186182, 37.421302581937795 ], [ 126.422522863791656, 37.421168419622269 ], [ 126.421749293997081, 37.42108875048806 ], [ 126.421239134541693, 37.421063192897684 ], [ 126.420922195593278, 37.421081410241285 ], [ 126.420683747176696, 37.421133233214661 ], [ 126.419812289721449, 37.421371708134487 ], [ 126.41960665166819, 37.421500113349161 ], [ 126.419457757108901, 37.421798854991629 ], [ 126.419438862299302, 37.421969761302833 ], [ 126.419449596174175, 37.422119490259298 ], [ 126.419503159503563, 37.422709853968904 ], [ 126.419573002793257, 37.423079883374065 ], [ 126.419569707391489, 37.423537042463984 ], [ 126.419338692998537, 37.424664428988301 ], [ 126.419086666204066, 37.425512498817248 ], [ 126.418875933759836, 37.426220846565933 ], [ 126.418668221585378, 37.426844492319958 ], [ 126.418626316206712, 37.426941058392835 ], [ 126.418471515220887, 37.427297740821594 ], [ 126.417968829164934, 37.428419245002083 ], [ 126.41761046761664, 37.429128121358524 ], [ 126.417367815832876, 37.429587097724529 ], [ 126.415583726232597, 37.432465166116138 ], [ 126.415110587262731, 37.433084559208623 ], [ 126.414518269252071, 37.43380259923935 ], [ 126.414409298228506, 37.433934696594299 ], [ 126.413897680144458, 37.43447728447331 ], [ 126.413425454974686, 37.434951478455723 ], [ 126.41313619883276, 37.435225226379856 ], [ 126.412356246369555, 37.435862642925997 ], [ 126.411635503433843, 37.436400867776825 ], [ 126.410615289019276, 37.437116245096597 ], [ 126.409882025931765, 37.437612978689181 ], [ 126.409314662659597, 37.437959753500657 ], [ 126.408943312094948, 37.438133762333685 ], [ 126.408462994790384, 37.438268321790844 ], [ 126.407909496985255, 37.438320979464159 ], [ 126.40710483086373, 37.438315204216401 ], [ 126.406610994783676, 37.43820837403706 ], [ 126.40620955593576, 37.438024350542882 ], [ 126.405813721864419, 37.437687576422157 ], [ 126.405588823887385, 37.437413217633498 ], [ 126.405429237970949, 37.436979608305762 ], [ 126.405257635587205, 37.436274067930206 ], [ 126.405236156919074, 37.435984341867183 ], [ 126.404904481331357, 37.435464200473078 ], [ 126.404797080832736, 37.435314628634671 ], [ 126.402228006159461, 37.433442286342327 ], [ 126.401925795497434, 37.43323240669919 ], [ 126.401606394158065, 37.433102547331686 ], [ 126.401371930315534, 37.433092693296722 ], [ 126.400965606755733, 37.433185783771783 ], [ 126.399677849740797, 37.434077662546954 ], [ 126.399593659266742, 37.43424456540496 ], [ 126.399589047960092, 37.434800591667113 ], [ 126.399689585509648, 37.435091512586339 ], [ 126.399817951807904, 37.43531452106145 ], [ 126.401381642345527, 37.437032279035982 ], [ 126.402103944316352, 37.437759163927574 ], [ 126.402378874019803, 37.43796819484318 ], [ 126.402530173296086, 37.438014434881836 ], [ 126.402734484694619, 37.437936333251912 ], [ 126.403962045693746, 37.438796491622256 ], [ 126.404144765111894, 37.438970242277648 ], [ 126.404169179677041, 37.439050494368544 ], [ 126.404152896369723, 37.439268857038847 ], [ 126.404078060311804, 37.43949729174804 ], [ 126.403998514108537, 37.439740096826498 ], [ 126.403737044612839, 37.440184040399181 ], [ 126.403127516389105, 37.440890012851398 ], [ 126.40250030673802, 37.441568147811843 ], [ 126.402137948399556, 37.441941171247485 ], [ 126.400332144002917, 37.443449115544198 ], [ 126.399999603682886, 37.443708109975269 ], [ 126.398347540533535, 37.444757215206899 ], [ 126.397933352706616, 37.445013008946731 ], [ 126.397568993380915, 37.445214705766816 ], [ 126.395288218899921, 37.44608546632017 ], [ 126.395177731497725, 37.446056552573914 ], [ 126.394031662353143, 37.445529958615261 ], [ 126.390604746095605, 37.44352783656614 ], [ 126.390153063066549, 37.442855653569254 ], [ 126.38973716978002, 37.441628512166012 ], [ 126.389687253656319, 37.440755642154933 ], [ 126.387135689007266, 37.440131893734481 ], [ 126.386510402133652, 37.440248830295694 ], [ 126.385987378033306, 37.440300107449019 ], [ 126.385141607966105, 37.440309161814625 ], [ 126.384719507378122, 37.440293202372942 ], [ 126.383918631621995, 37.440213091076238 ], [ 126.383238526204508, 37.440061110544498 ], [ 126.38192909192729, 37.439662468285164 ], [ 126.381422740611669, 37.439464711013997 ], [ 126.380873925342399, 37.439249235825869 ], [ 126.380547834750161, 37.439069227125465 ], [ 126.38049229722921, 37.439016798832021 ], [ 126.381619524272011, 37.436839867120092 ], [ 126.381952586165752, 37.436453061043281 ], [ 126.382107259497246, 37.43608167767831 ], [ 126.382161979021092, 37.4357802042 ], [ 126.382174921080136, 37.435516523160473 ], [ 126.382061372379013, 37.435259624293096 ], [ 126.381869193550173, 37.43501781243836 ], [ 126.38155353173606, 37.434814897774039 ], [ 126.381323589895658, 37.434707489328538 ], [ 126.380956883961886, 37.434619734347962 ], [ 126.380524844609837, 37.434722162247787 ], [ 126.380260103560317, 37.434857817621328 ], [ 126.380137551976119, 37.435045249231713 ], [ 126.380019880988556, 37.435311678157859 ], [ 126.379405290077344, 37.436882550895049 ], [ 126.378738178635643, 37.438605226631729 ], [ 126.378585159462972, 37.439122721248253 ], [ 126.378334493408047, 37.439725632742402 ], [ 126.377827232970546, 37.440145991045362 ], [ 126.376757257762719, 37.440973474131724 ], [ 126.376458585780838, 37.441198932962436 ], [ 126.376132237206022, 37.441325852214653 ], [ 126.375998887606968, 37.441331893817683 ], [ 126.375881908477382, 37.441314669023171 ], [ 126.374293436426072, 37.440831867134904 ], [ 126.372998444204413, 37.440356428968265 ], [ 126.372946478020822, 37.440359353048365 ], [ 126.372298642061651, 37.44039580967339 ], [ 126.367531021476822, 37.440754000142057 ], [ 126.366978542818615, 37.440840059914507 ], [ 126.36433654223714, 37.441491621046517 ], [ 126.364085794187375, 37.441653775857439 ], [ 126.363966290287635, 37.441803839516481 ], [ 126.363912664619704, 37.44201413583253 ], [ 126.363966189467405, 37.442206449538482 ], [ 126.365249233957172, 37.443147849679761 ], [ 126.367774000251984, 37.444339868540865 ], [ 126.368003316208203, 37.444386884795257 ], [ 126.36827270999386, 37.44435971206989 ], [ 126.369747766899721, 37.444049255566412 ], [ 126.37042794288628, 37.443715938751851 ], [ 126.370582324377793, 37.443708173824291 ], [ 126.37069700039784, 37.443728821340677 ], [ 126.370825837323977, 37.443772423903475 ], [ 126.371862086866784, 37.444358426696517 ], [ 126.372152079223227, 37.444763648915931 ], [ 126.372277260693494, 37.445147338774326 ], [ 126.372312746275611, 37.445551885626017 ], [ 126.372298568626562, 37.44620717154158 ], [ 126.372214652011067, 37.446876597092171 ], [ 126.372023023537892, 37.447415365343183 ], [ 126.371980636390646, 37.447526349660109 ], [ 126.371736714768588, 37.447753680544778 ], [ 126.371287821929556, 37.448118677266017 ], [ 126.370717169490518, 37.448472538248296 ], [ 126.370502161498919, 37.448563282386701 ], [ 126.369878051819128, 37.453385762315939 ], [ 126.369747863092357, 37.453960114907737 ], [ 126.369603808471567, 37.454279700610414 ], [ 126.369135658784444, 37.455246102398824 ], [ 126.368846088636246, 37.45581425046106 ], [ 126.368490359785298, 37.456277253550788 ], [ 126.367722733214208, 37.456935471960392 ], [ 126.367588432688549, 37.457011540473843 ], [ 126.366692705188314, 37.457327505484884 ], [ 126.366560637949561, 37.457360594633244 ], [ 126.366352033229774, 37.457393858806697 ], [ 126.365286465635819, 37.457465644616825 ], [ 126.365290494148567, 37.457115844143473 ], [ 126.365300398509149, 37.456978172356216 ], [ 126.365392928053566, 37.456819526912184 ], [ 126.365523635993668, 37.45672438318018 ], [ 126.365815895336752, 37.456492201109768 ], [ 126.36574870362611, 37.456237042173129 ], [ 126.365524136674864, 37.456105914601245 ], [ 126.36527257624293, 37.456035281334756 ], [ 126.364795435263233, 37.455957958661671 ], [ 126.361300761552016, 37.457162963015875 ], [ 126.361062563787257, 37.45725572304513 ], [ 126.357146372395903, 37.461823969919848 ], [ 126.356580154299053, 37.462602388133071 ], [ 126.356279853609863, 37.463047676493076 ], [ 126.356256188064961, 37.463193923568539 ], [ 126.355658207663666, 37.467348763341398 ], [ 126.355662116770986, 37.467591620714238 ], [ 126.356252409472262, 37.469571329523198 ], [ 126.356404220621059, 37.46973057492476 ], [ 126.356811574112783, 37.469947066440973 ], [ 126.356942099543701, 37.469998764697905 ], [ 126.357576215362982, 37.47010910354291 ], [ 126.358573795236723, 37.470416665342427 ], [ 126.35873386090995, 37.470503059570468 ], [ 126.358957627171392, 37.470654564857547 ], [ 126.359137445202293, 37.470942276201683 ], [ 126.359296512432266, 37.471270005812826 ], [ 126.35932216859392, 37.471385087625599 ], [ 126.359311095403712, 37.472078098071798 ], [ 126.359234157809411, 37.472591241524391 ], [ 126.359133410698547, 37.47293275199722 ], [ 126.35916988709306, 37.473092119393712 ], [ 126.359289403677394, 37.47320542062171 ], [ 126.359736534374122, 37.4734329668469 ], [ 126.360403851923266, 37.47370427660951 ], [ 126.360904116767969, 37.473861156996463 ], [ 126.361973765776852, 37.474158941513799 ], [ 126.36472102917169, 37.47469232214678 ], [ 126.365091932634797, 37.47469745666141 ], [ 126.365355585631292, 37.474650357619495 ], [ 126.365601311840223, 37.474407348879957 ], [ 126.366026244435133, 37.474487303484594 ], [ 126.366400159676303, 37.474467661952389 ], [ 126.368897746769647, 37.473866371716426 ], [ 126.369141732570156, 37.473776132277003 ], [ 126.369302194443179, 37.473644985861071 ], [ 126.373419215434964, 37.472132770720407 ] ] ] ] } },
{ "type": "Feature", "properties": { "OBJECTID": 774, "adm_nm": "인천광역시 중구 운서동", "adm_cd": "2301064", "adm_cd2": "2811062800", "sgg": "28110", "sido": "28", "sidonm": "인천광역시", "sggnm": "중구" }, "geometry": { "type": "MultiPolygon", "coordinates": [ [ [ [ 126.506160877927215, 37.463944707161616 ], [ 126.496383352610735, 37.448552457730095 ], [ 126.496163826607628, 37.44820679308625 ], [ 126.486796211139364, 37.444235252190644 ], [ 126.477906911178422, 37.440835754666047 ], [ 126.474399167221662, 37.438865695881972 ], [ 126.443744215727122, 37.421640086666322 ], [ 126.442622616404179, 37.421135410016554 ], [ 126.441812179302659, 37.420888634297341 ], [ 126.440923936793311, 37.420864178566312 ], [ 126.439145180103438, 37.421118919001088 ], [ 126.432104973242247, 37.422299927584028 ], [ 126.427697396154173, 37.422946352490129 ], [ 126.427573628543698, 37.422926121307334 ], [ 126.426220506380801, 37.423162916048398 ], [ 126.426068898079791, 37.423219733512198 ], [ 126.423599615524253, 37.424217214516759 ], [ 126.423213850700833, 37.424594166671916 ], [ 126.422941217485999, 37.424936944052483 ], [ 126.422789429262608, 37.425571521936085 ], [ 126.422838970436132, 37.426214628661533 ], [ 126.423086496978982, 37.427100535786231 ], [ 126.423694874048465, 37.428433228266641 ], [ 126.424119882114553, 37.429089793521541 ], [ 126.426145194477385, 37.431427796797443 ], [ 126.427166537502941, 37.432252164762666 ], [ 126.42755769473213, 37.43232969353334 ], [ 126.427618729441562, 37.432330504205353 ], [ 126.427687122096515, 37.432296467473549 ], [ 126.427864195187254, 37.432169570453716 ], [ 126.428271527708731, 37.431876549545592 ], [ 126.428476304306614, 37.431731234324985 ], [ 126.428804653779153, 37.431663920872417 ], [ 126.429233872246527, 37.431587477676608 ], [ 126.429399211764348, 37.431593771443957 ], [ 126.429579959783638, 37.431600652491518 ], [ 126.43005131107283, 37.431660149672993 ], [ 126.430458925036675, 37.431774294874572 ], [ 126.430827769459214, 37.431958379541051 ], [ 126.431145998104256, 37.432205050167084 ], [ 126.431706709518039, 37.432699939561218 ], [ 126.432196433717621, 37.433264431484162 ], [ 126.43242632381201, 37.433628002354759 ], [ 126.432580674103249, 37.433990889672813 ], [ 126.432742942049813, 37.434387320267895 ], [ 126.433042964412891, 37.435133099927349 ], [ 126.433178061372331, 37.435669864062717 ], [ 126.433197161976437, 37.436098474484709 ], [ 126.433174484097677, 37.436513317534676 ], [ 126.43299975882249, 37.436993731028799 ], [ 126.432558825074366, 37.437893483833079 ], [ 126.43211182798693, 37.438892777497692 ], [ 126.431916928753338, 37.439328480001763 ], [ 126.431798047724001, 37.439932070418735 ], [ 126.431953654360356, 37.441428486920302 ], [ 126.432109267743996, 37.441927217878636 ], [ 126.432367916033272, 37.442615212335085 ], [ 126.432809830679389, 37.443751503848567 ], [ 126.433281226057787, 37.444852214537264 ], [ 126.433546205161988, 37.445366341971138 ], [ 126.433709416901237, 37.445813197120806 ], [ 126.433896827378277, 37.446351827816514 ], [ 126.433989460398891, 37.446803564674092 ], [ 126.433968695365976, 37.447120078090052 ], [ 126.433877171709867, 37.447365862753465 ], [ 126.433683377615893, 37.447658206835193 ], [ 126.433434694880575, 37.447855928944534 ], [ 126.433133617515011, 37.4479682133178 ], [ 126.43270315352828, 37.448069557085269 ], [ 126.432573210492052, 37.448100146433866 ], [ 126.432064637355793, 37.448187751736654 ], [ 126.43179148595317, 37.448197569972528 ], [ 126.431531628233586, 37.448206911087311 ], [ 126.42979724630176, 37.448425129392028 ], [ 126.429322367903424, 37.44851945088638 ], [ 126.4250662516463, 37.449943922528213 ], [ 126.422663468799001, 37.450980832434276 ], [ 126.422438518084206, 37.451086924165836 ], [ 126.422303572572858, 37.451150570570775 ], [ 126.42104919434405, 37.451914564644497 ], [ 126.420744450865655, 37.452106320806337 ], [ 126.420555298589463, 37.452327004889405 ], [ 126.420420739099512, 37.452571019951982 ], [ 126.419834939790078, 37.453716846735944 ], [ 126.419712834052376, 37.454000514356068 ], [ 126.418517954530344, 37.455345340499036 ], [ 126.418126479395028, 37.455429971219068 ], [ 126.416790162031816, 37.455962211504961 ], [ 126.415817657601352, 37.456463921081316 ], [ 126.413989583463206, 37.457420458736451 ], [ 126.413724581896361, 37.457617899279398 ], [ 126.41207353835712, 37.459067742154247 ], [ 126.411598677539018, 37.459561256736876 ], [ 126.4112994843926, 37.460067528433129 ], [ 126.411190426812468, 37.460483436456236 ], [ 126.411159969308542, 37.460746265723508 ], [ 126.411172682170559, 37.460981401936046 ], [ 126.411234088700724, 37.461101243452894 ], [ 126.41142666830234, 37.461332746024688 ], [ 126.411026599807158, 37.463195706209838 ], [ 126.407993415416783, 37.462150780785919 ], [ 126.407490150788263, 37.461979256524316 ], [ 126.40711358565224, 37.461945062296166 ], [ 126.406543656568545, 37.461952390114078 ], [ 126.40625035897061, 37.462015948508551 ], [ 126.396190041895409, 37.466159529890071 ], [ 126.396044172690026, 37.46627197415367 ], [ 126.395833129729269, 37.466346238244952 ], [ 126.395672747222051, 37.466363666332434 ], [ 126.395344028063604, 37.466161533463463 ], [ 126.395096722151735, 37.46597062995415 ], [ 126.39188644083913, 37.463439324651702 ], [ 126.391720719251865, 37.463191532057941 ], [ 126.391827486103097, 37.462962692088858 ], [ 126.391957764793176, 37.462768860155826 ], [ 126.392086694342566, 37.462626255922402 ], [ 126.39259409626338, 37.462289611888075 ], [ 126.392835260757664, 37.462216455033456 ], [ 126.393087543607706, 37.462144189600167 ], [ 126.39344557290157, 37.46207793708102 ], [ 126.394354238570216, 37.461984676884107 ], [ 126.394921896479531, 37.461928746459336 ], [ 126.394966125954994, 37.461916821818036 ], [ 126.396515551255121, 37.461467738717211 ], [ 126.396671991075635, 37.461410103972483 ], [ 126.39677697708477, 37.461348505889021 ], [ 126.397813443261015, 37.460123110972354 ], [ 126.39787567438384, 37.460001089063191 ], [ 126.397883287858164, 37.459893284516689 ], [ 126.397891630001382, 37.458900168904009 ], [ 126.397812546902884, 37.45850533861455 ], [ 126.397602589173104, 37.458020483881768 ], [ 126.397333512229523, 37.457657976945406 ], [ 126.397052163538476, 37.45735982242644 ], [ 126.393773755619975, 37.455439464913027 ], [ 126.392521327698574, 37.455092607659473 ], [ 126.392213791479179, 37.455073412731139 ], [ 126.387873405098333, 37.454838835671005 ], [ 126.381113161094206, 37.458406674155221 ], [ 126.378430880163322, 37.459957990634891 ], [ 126.374874513902085, 37.465525375530873 ], [ 126.37473703986268, 37.465774877526421 ], [ 126.374608968601237, 37.466207810371898 ], [ 126.374586447524138, 37.466283943597865 ], [ 126.374503377498584, 37.466886956111175 ], [ 126.37452817375474, 37.467117803794906 ], [ 126.374611771378056, 37.467325065028767 ], [ 126.374886298562444, 37.46855111414942 ], [ 126.374150575342526, 37.471257783654487 ], [ 126.37384363080433, 37.47175251163096 ], [ 126.373419215434964, 37.472132770720407 ], [ 126.42747235558744, 37.501849567509097 ], [ 126.428859438355715, 37.502460369312978 ], [ 126.432173356653067, 37.50391953636948 ], [ 126.45761142812222, 37.49974877368161 ], [ 126.464542419498159, 37.499473999380307 ], [ 126.46612927153943, 37.500443811110742 ], [ 126.470100048260875, 37.502870333044868 ], [ 126.474852644645196, 37.503360611478506 ], [ 126.482987083111325, 37.504199308708351 ], [ 126.490455110962671, 37.509901625843263 ], [ 126.494488880010934, 37.506958132547879 ], [ 126.495823753983046, 37.507095967110516 ], [ 126.496402699647419, 37.507126339534082 ], [ 126.496844854661887, 37.507149533741035 ], [ 126.497129726450964, 37.507125732291598 ], [ 126.49733731352228, 37.507107608651566 ], [ 126.497494377911835, 37.507064572119994 ], [ 126.497569564962745, 37.506905153957426 ], [ 126.497952524743084, 37.504381152290101 ], [ 126.497775741776678, 37.502212350015498 ], [ 126.497934538467874, 37.501923629357876 ], [ 126.498141328914826, 37.501796479731908 ], [ 126.499379423913112, 37.501309358950941 ], [ 126.499461433922789, 37.501306194154253 ], [ 126.499571395058652, 37.501317562945339 ], [ 126.500042392328723, 37.501438853053116 ], [ 126.501455284482319, 37.50298785910104 ], [ 126.502077696124474, 37.50357235923105 ], [ 126.502668902798959, 37.503986789171506 ], [ 126.503715129843528, 37.504693867435527 ], [ 126.504580321781788, 37.504853361560308 ], [ 126.505315389867704, 37.504928160634599 ], [ 126.508745306367402, 37.504720037115376 ], [ 126.509272739868763, 37.504426422841668 ], [ 126.509557570705681, 37.504108794073609 ], [ 126.510097003771293, 37.503441442435218 ], [ 126.509943515935461, 37.501529966754376 ], [ 126.5096150925107, 37.500497011637961 ], [ 126.509584596851241, 37.499618815837536 ], [ 126.512328456296046, 37.495285606769599 ], [ 126.513615534307419, 37.494644711343284 ], [ 126.514579318101426, 37.494556552373382 ], [ 126.516333858314226, 37.493640481155275 ], [ 126.516479756905468, 37.493554242352012 ], [ 126.516849577656004, 37.492854032354288 ], [ 126.51726260724385, 37.491191152840265 ], [ 126.517176139633619, 37.489634254275437 ], [ 126.516209001739071, 37.486814749588767 ], [ 126.515021235858541, 37.484884434144824 ], [ 126.51257888254078, 37.482392774987204 ], [ 126.511314985102672, 37.481456600919053 ], [ 126.510476386949577, 37.480835428807126 ], [ 126.507358842962262, 37.480828813311355 ], [ 126.507292207774256, 37.480939110304718 ], [ 126.507127068991608, 37.481212452818987 ], [ 126.506876764681024, 37.481690298523056 ], [ 126.506030156451686, 37.48330646554988 ], [ 126.505936726389635, 37.483479285312356 ], [ 126.504323074323423, 37.482944056840857 ], [ 126.503466976559963, 37.482656029889029 ], [ 126.50298895785761, 37.482418700056982 ], [ 126.502827144504437, 37.482325529932986 ], [ 126.502569771456024, 37.482140307231994 ], [ 126.502229611765117, 37.481838211924838 ], [ 126.499634631311523, 37.479072910408796 ], [ 126.501006041393111, 37.478274124368532 ], [ 126.502743208675298, 37.477266257550603 ], [ 126.50297299512502, 37.477132273907351 ], [ 126.503863719491804, 37.476183492136151 ], [ 126.504102015240022, 37.475925190199753 ], [ 126.504318581341877, 37.475646207385843 ], [ 126.504488574607493, 37.475336232325745 ], [ 126.504636775346441, 37.474984846348427 ], [ 126.504773785256518, 37.47446444040807 ], [ 126.504782747983285, 37.474104453327591 ], [ 126.504754831663149, 37.473865052541882 ], [ 126.50475299999006, 37.473769935453326 ], [ 126.504739078244214, 37.473046957372361 ], [ 126.505204265131894, 37.471496321376634 ], [ 126.505305918449238, 37.471161210749024 ], [ 126.505363247712978, 37.471043883423476 ], [ 126.506008321772327, 37.470101983124117 ], [ 126.506522487121572, 37.469563097725711 ], [ 126.506724177465557, 37.46935170863442 ], [ 126.507007206621665, 37.468820540035182 ], [ 126.507091766877394, 37.468575276987437 ], [ 126.507135710071054, 37.468122133641721 ], [ 126.507085858227256, 37.467747641338235 ], [ 126.506978975207119, 37.46745813799722 ], [ 126.506684496845807, 37.466981606817818 ], [ 126.505668651225051, 37.4660234192283 ], [ 126.505821305776294, 37.465052569282669 ], [ 126.506160877927215, 37.463944707161616 ] ] ] ] } },
{ "type": "Feature", "properties": { "OBJECTID": 3452, "adm_nm": "인천광역시 중구 영종1동", "adm_cd": "2301066", "adm_cd2": "2811062200", "sgg": "28110", "sido": "28", "sidonm": "인천광역시", "sggnm": "중구" }, "geometry": { "type": "MultiPolygon", "coordinates": [ [ [ [ 126.56964939853485, 37.508344844864737 ], [ 126.571200553577143, 37.506970367559809 ], [ 126.571772909448441, 37.506243144423081 ], [ 126.572534300354903, 37.506073512077101 ], [ 126.572900697308143, 37.506154438717026 ], [ 126.573441063597798, 37.506031846608913 ], [ 126.574350718125956, 37.505756046209797 ], [ 126.574430333553465, 37.505259098882298 ], [ 126.574924599188307, 37.504901987096879 ], [ 126.575453550554954, 37.504711003012432 ], [ 126.576269187531835, 37.504112492889647 ], [ 126.576678081896745, 37.503725437773625 ], [ 126.576778805092559, 37.503501830381481 ], [ 126.57640870355641, 37.502728188781099 ], [ 126.578843301557157, 37.497937335934559 ], [ 126.580416841015705, 37.493442174966297 ], [ 126.579488707855674, 37.492244673524894 ], [ 126.580433467102338, 37.492086174671023 ], [ 126.580794663894906, 37.492586558320269 ], [ 126.582024600633858, 37.492137574997678 ], [ 126.582851812844524, 37.491578132294904 ], [ 126.582806658129684, 37.491265579047017 ], [ 126.582255482351755, 37.491280811422371 ], [ 126.582127136373515, 37.490762728496172 ], [ 126.5825447099256, 37.490658652646708 ], [ 126.582335436984408, 37.489749688168303 ], [ 126.581376915287109, 37.490034928124977 ], [ 126.581319643410936, 37.489712523960932 ], [ 126.580051779055054, 37.489263623011112 ], [ 126.579501814890804, 37.489181287637571 ], [ 126.579136091745937, 37.489051605614897 ], [ 126.578512675112734, 37.488968693058872 ], [ 126.578024888026889, 37.488808786263107 ], [ 126.577843646456216, 37.488612244613513 ], [ 126.577796715146775, 37.488446021278563 ], [ 126.577432798356028, 37.48817000237851 ], [ 126.576475600338341, 37.488347893390859 ], [ 126.571016641082664, 37.485241603629859 ], [ 126.569366733944719, 37.484018832429882 ], [ 126.568376231226694, 37.482937828703491 ], [ 126.567296555965314, 37.4811536565484 ], [ 126.566097293138398, 37.480129523628243 ], [ 126.564836097960679, 37.479621115461775 ], [ 126.558946817335226, 37.478295521499028 ], [ 126.558931867136778, 37.478467748177337 ], [ 126.559043935355376, 37.47880523377016 ], [ 126.559398255369132, 37.479349532205127 ], [ 126.559351620685192, 37.479651607575384 ], [ 126.559455546988943, 37.479662191057983 ], [ 126.559521161524216, 37.479799302147619 ], [ 126.559548279863506, 37.480077573554176 ], [ 126.559581456548003, 37.480360771207692 ], [ 126.559646032686985, 37.480580802439825 ], [ 126.55982732813365, 37.480767616249217 ], [ 126.559977166557374, 37.481022472953889 ], [ 126.559993144753648, 37.481212849054231 ], [ 126.559831990282433, 37.481372545631174 ], [ 126.55960454750489, 37.481448785878207 ], [ 126.559372084447801, 37.481437179199844 ], [ 126.559039854673017, 37.481571122287654 ], [ 126.558049277931872, 37.482460811081999 ], [ 126.558042419133244, 37.483007111072368 ], [ 126.549688468846682, 37.483349972880326 ], [ 126.550011516457587, 37.488777083597888 ], [ 126.550199985725996, 37.489363977966335 ], [ 126.550390679821973, 37.489775276311853 ], [ 126.551454712539751, 37.490837506121181 ], [ 126.549526283524258, 37.492285452160054 ], [ 126.551463216870758, 37.494037643538604 ], [ 126.550415365321996, 37.494595091271833 ], [ 126.549365520850657, 37.495308613025394 ], [ 126.550082948742656, 37.495704637190826 ], [ 126.551181397016251, 37.495020767656179 ], [ 126.551544708384853, 37.495823702168458 ], [ 126.551759556094822, 37.495908295758923 ], [ 126.553687127938844, 37.497314086025831 ], [ 126.555334235882384, 37.498761445928103 ], [ 126.556535729784258, 37.499619847242244 ], [ 126.55992938898747, 37.501442063147167 ], [ 126.561661044351126, 37.50202169806019 ], [ 126.567068588341058, 37.503420657671846 ], [ 126.568129049909842, 37.50381928061725 ], [ 126.56827453504404, 37.503937503601733 ], [ 126.569380009263611, 37.505643815144282 ], [ 126.569523684701394, 37.505908367539774 ], [ 126.569322307884192, 37.506345813899173 ], [ 126.569009871434588, 37.506850679562994 ], [ 126.568782907699173, 37.507375730323595 ], [ 126.568975323260673, 37.507660179664597 ], [ 126.56964939853485, 37.508344844864737 ] ] ] ] } }
]
}
