{
"type": "FeatureCollection",
"name": "namdonggu",
"crs": { "type": "name", "properties": { "name": "urn:ogc:def:crs:OGC:1.3:CRS84" } },
"features": [
{ "type": "Feature", "properties": { "OBJECTID": 820, "adm_nm": "인천광역시 남동구 구월1동", "adm_cd": "2305051", "adm_cd2": "2820051000", "sgg": "28200", "sido": "28", "sidonm": "인천광역시", "sggnm": "남동구" }, "geometry": { "type": "MultiPolygon", "coordinates": [ [ [ [ 126.718967988146176, 37.45224026537209 ], [ 126.717764257005172, 37.440789416306124 ], [ 126.717699662142977, 37.439337865196187 ], [ 126.715102591150639, 37.437154503476854 ], [ 126.713388428014767, 37.436960497939452 ], [ 126.712682113450569, 37.437458013279226 ], [ 126.711715811946007, 37.437951658927098 ], [ 126.710669061073759, 37.437592745820389 ], [ 126.710632153688053, 37.437579230509286 ], [ 126.710604538400332, 37.437563205685336 ], [ 126.710575476713686, 37.437538634473732 ], [ 126.710485235451486, 37.437440474597608 ], [ 126.709218372819748, 37.436038712635643 ], [ 126.709038250807879, 37.434970211551381 ], [ 126.709061443859213, 37.434932335025422 ], [ 126.709075334895886, 37.43490416602544 ], [ 126.709087213023466, 37.434872752200206 ], [ 126.708880946409778, 37.434626627137014 ], [ 126.708504497493777, 37.434413966106746 ], [ 126.708118601657986, 37.434280754436301 ], [ 126.706203838213639, 37.434145558182117 ], [ 126.704904563444131, 37.436596403161282 ], [ 126.704721947628101, 37.438172789017798 ], [ 126.704739710690362, 37.438500279126131 ], [ 126.704737117002793, 37.438620287667547 ], [ 126.704700692864265, 37.438714866736646 ], [ 126.704630489132811, 37.438844458682922 ], [ 126.702930480683833, 37.438868077967534 ], [ 126.702358327166806, 37.438870296792793 ], [ 126.702877054883558, 37.442765023599662 ], [ 126.701019782270436, 37.443361714683668 ], [ 126.700182005264011, 37.443615488800127 ], [ 126.700250453855205, 37.443629319052043 ], [ 126.700917947709826, 37.448150002529736 ], [ 126.701658117644257, 37.453329865687792 ], [ 126.701853313818063, 37.454737361576917 ], [ 126.70215439928505, 37.456767810011883 ], [ 126.703573906250242, 37.456693687743766 ], [ 126.708603159609268, 37.45694410427776 ], [ 126.708114612288711, 37.453035822373423 ], [ 126.717432997560579, 37.452352822554438 ], [ 126.718474231756744, 37.452276464113723 ], [ 126.718967988146176, 37.45224026537209 ] ] ] ] } },
{ "type": "Feature", "properties": { "OBJECTID": 821, "adm_nm": "인천광역시 남동구 구월2동", "adm_cd": "2305052", "adm_cd2": "2820052000", "sgg": "28200", "sido": "28", "sidonm": "인천광역시", "sggnm": "남동구" }, "geometry": { "type": "MultiPolygon", "coordinates": [ [ [ [ 126.721821956298697, 37.460683353366228 ], [ 126.721632730496466, 37.455744846843999 ], [ 126.720078245282579, 37.455853238198237 ], [ 126.719475055637687, 37.455895286852268 ], [ 126.719391445147551, 37.455886761229614 ], [ 126.719339397233412, 37.455820014850985 ], [ 126.719280131110025, 37.45525449397816 ], [ 126.719245716926594, 37.454926102549322 ], [ 126.719124310855761, 37.453767526823718 ], [ 126.719101898676016, 37.45355360874111 ], [ 126.719096053204268, 37.453497512344619 ], [ 126.719001692330139, 37.452571158083281 ], [ 126.718967988146176, 37.45224026537209 ], [ 126.718474231756744, 37.452276464113723 ], [ 126.717432997560579, 37.452352822554438 ], [ 126.708114612288711, 37.453035822373423 ], [ 126.708603159609268, 37.45694410427776 ], [ 126.708673725566456, 37.456983520591088 ], [ 126.711523987639552, 37.457123919694098 ], [ 126.71272647386516, 37.457217716635469 ], [ 126.713881545224794, 37.459816981474027 ], [ 126.714650937577645, 37.460717923451995 ], [ 126.721126161236043, 37.460757372478888 ], [ 126.721821956298697, 37.460683353366228 ] ] ] ] } },
{ "type": "Feature", "properties": { "OBJECTID": 822, "adm_nm": "인천광역시 남동구 구월3동", "adm_cd": "2305053", "adm_cd2": "2820052100", "sgg": "28200", "sido": "28", "sidonm": "인천광역시", "sggnm": "남동구" }, "geometry": { "type": "MultiPolygon", "coordinates": [ [ [ [ 126.701853313818063, 37.454737361576917 ], [ 126.701658117644257, 37.453329865687792 ], [ 126.700917947709826, 37.448150002529736 ], [ 126.700250453855205, 37.443629319052043 ], [ 126.700182005264011, 37.443615488800127 ], [ 126.696412706335011, 37.4446204151972 ], [ 126.695867262772083, 37.444846481463514 ], [ 126.695813207154956, 37.444868889012611 ], [ 126.69562271639964, 37.44499897730396 ], [ 126.695330525678202, 37.445198535911835 ], [ 126.693424691212428, 37.446640070687678 ], [ 126.694086655042923, 37.447160282127193 ], [ 126.692883076527366, 37.448233782743685 ], [ 126.692928950741134, 37.448331932278798 ], [ 126.692611210017475, 37.450538838618208 ], [ 126.694287929266395, 37.451496927304213 ], [ 126.695041545859681, 37.455662738583534 ], [ 126.700268347458447, 37.454301061778395 ], [ 126.701853313818063, 37.454737361576917 ] ] ] ] } },
{ "type": "Feature", "properties": { "OBJECTID": 823, "adm_nm": "인천광역시 남동구 구월4동", "adm_cd": "2305054", "adm_cd2": "2820052200", "sgg": "28200", "sido": "28", "sidonm": "인천광역시", "sggnm": "남동구" }, "geometry": { "type": "MultiPolygon", "coordinates": [ [ [ [ 126.721632730496466, 37.455744846843999 ], [ 126.722341143118143, 37.455693855009656 ], [ 126.725270787573706, 37.453622082776427 ], [ 126.725767718058165, 37.45240205308292 ], [ 126.725892847086001, 37.452094836531515 ], [ 126.725950575867486, 37.451874831300977 ], [ 126.726130577762149, 37.451346480911567 ], [ 126.726288951684865, 37.450903599061611 ], [ 126.726361252123255, 37.450701424890482 ], [ 126.72642362606085, 37.450590993862775 ], [ 126.726480981192651, 37.450496372123737 ], [ 126.726550731766608, 37.450401753061833 ], [ 126.727250549176659, 37.449944364363823 ], [ 126.72974300756789, 37.447842366679019 ], [ 126.72963326672766, 37.447841346734094 ], [ 126.728997565665907, 37.447576713782439 ], [ 126.728862611958291, 37.447467774565226 ], [ 126.728262028978335, 37.445899090522232 ], [ 126.728071112811051, 37.444977560898813 ], [ 126.727999948789716, 37.44484691898554 ], [ 126.727867507471871, 37.444724358444681 ], [ 126.727744955995334, 37.444642610770416 ], [ 126.72579783937222, 37.443997071195589 ], [ 126.724890600478219, 37.443978767145261 ], [ 126.724755899050194, 37.443964793294533 ], [ 126.72460412654668, 37.443927357729898 ], [ 126.724452390780783, 37.443882106575636 ], [ 126.722923893386579, 37.443343902349682 ], [ 126.720296401849879, 37.442244585839269 ], [ 126.720136683390635, 37.44216446351875 ], [ 126.719937077141978, 37.442025782685356 ], [ 126.71987087264192, 37.441903275398687 ], [ 126.719851190124686, 37.441786262456681 ], [ 126.718900606305553, 37.44092271921172 ], [ 126.717764257005172, 37.440789416306124 ], [ 126.718967988146176, 37.45224026537209 ], [ 126.719001692330139, 37.452571158083281 ], [ 126.719096053204268, 37.453497512344619 ], [ 126.719101898676016, 37.45355360874111 ], [ 126.719124310855761, 37.453767526823718 ], [ 126.719245716926594, 37.454926102549322 ], [ 126.719280131110025, 37.45525449397816 ], [ 126.719339397233412, 37.455820014850985 ], [ 126.719391445147551, 37.455886761229614 ], [ 126.719475055637687, 37.455895286852268 ], [ 126.720078245282579, 37.455853238198237 ], [ 126.721632730496466, 37.455744846843999 ] ] ] ] } },
{ "type": "Feature", "properties": { "OBJECTID": 824, "adm_nm": "인천광역시 남동구 간석1동", "adm_cd": "2305055", "adm_cd2": "2820053000", "sgg": "28200", "sido": "28", "sidonm": "인천광역시", "sggnm": "남동구" }, "geometry": { "type": "MultiPolygon", "coordinates": [ [ [ [ 126.708128300409399, 37.464279967891287 ], [ 126.708352969321339, 37.461385581641935 ], [ 126.707611567835059, 37.46042403397778 ], [ 126.706534499822524, 37.460368649375759 ], [ 126.705456206404776, 37.460313180022638 ], [ 126.705510517378471, 37.459530891240142 ], [ 126.705532947114165, 37.459207830508646 ], [ 126.705540586714235, 37.459097804483683 ], [ 126.705553600472882, 37.458910403928996 ], [ 126.708603159609268, 37.45694410427776 ], [ 126.703573906250242, 37.456693687743766 ], [ 126.70215439928505, 37.456767810011883 ], [ 126.701853313818063, 37.454737361576917 ], [ 126.700268347458447, 37.454301061778395 ], [ 126.695041545859681, 37.455662738583534 ], [ 126.694526134566999, 37.455977470804868 ], [ 126.694512256709075, 37.456074051405089 ], [ 126.694499516453945, 37.457534573169333 ], [ 126.694538561270889, 37.45787284004647 ], [ 126.694656408447997, 37.458738812710472 ], [ 126.694669606745052, 37.458808640074295 ], [ 126.695243604690262, 37.460326975359983 ], [ 126.697244832123403, 37.461285146480279 ], [ 126.704541293625525, 37.464791891506998 ], [ 126.705982161248414, 37.465173498055627 ], [ 126.706033202585701, 37.465187017850297 ], [ 126.706634419900297, 37.465583535962793 ], [ 126.707061288008802, 37.465988272321155 ], [ 126.707636778850585, 37.466534126690689 ], [ 126.707953794034964, 37.466842809047677 ], [ 126.708128300409399, 37.464279967891287 ] ] ] ] } },
{ "type": "Feature", "properties": { "OBJECTID": 825, "adm_nm": "인천광역시 남동구 간석2동", "adm_cd": "2305056", "adm_cd2": "2820054000", "sgg": "28200", "sido": "28", "sidonm": "인천광역시", "sggnm": "남동구" }, "geometry": { "type": "MultiPolygon", "coordinates": [ [ [ [ 126.714650937577645, 37.460717923451995 ], [ 126.713881545224794, 37.459816981474027 ], [ 126.71272647386516, 37.457217716635469 ], [ 126.711523987639552, 37.457123919694098 ], [ 126.708673725566456, 37.456983520591088 ], [ 126.708603159609268, 37.45694410427776 ], [ 126.705553600472882, 37.458910403928996 ], [ 126.705540586714235, 37.459097804483683 ], [ 126.705532947114165, 37.459207830508646 ], [ 126.705510517378471, 37.459530891240142 ], [ 126.705456206404776, 37.460313180022638 ], [ 126.706534499822524, 37.460368649375759 ], [ 126.707611567835059, 37.46042403397778 ], [ 126.708352969321339, 37.461385581641935 ], [ 126.708128300409399, 37.464279967891287 ], [ 126.714432742822368, 37.463229990089808 ], [ 126.714444265032895, 37.463189274290201 ], [ 126.714650937577645, 37.460717923451995 ] ] ] ] } },
{ "type": "Feature", "properties": { "OBJECTID": 826, "adm_nm": "인천광역시 남동구 간석3동", "adm_cd": "2305057", "adm_cd2": "2820055000", "sgg": "28200", "sido": "28", "sidonm": "인천광역시", "sggnm": "남동구" }, "geometry": { "type": "MultiPolygon", "coordinates": [ [ [ [ 126.722854346945255, 37.470271748636925 ], [ 126.72368647195195, 37.468170837586101 ], [ 126.723393764940894, 37.467851868843191 ], [ 126.723178985518842, 37.467614472810254 ], [ 126.72253469007228, 37.466874581444181 ], [ 126.721390409937271, 37.464996940302285 ], [ 126.721921173223862, 37.463850796599836 ], [ 126.721882851063427, 37.462612423123311 ], [ 126.721821956298697, 37.460683353366228 ], [ 126.721126161236043, 37.460757372478888 ], [ 126.714650937577645, 37.460717923451995 ], [ 126.714444265032895, 37.463189274290201 ], [ 126.714432742822368, 37.463229990089808 ], [ 126.708128300409399, 37.464279967891287 ], [ 126.707953794034964, 37.466842809047677 ], [ 126.707977411648557, 37.469331300656137 ], [ 126.708062322936556, 37.471009137189121 ], [ 126.709283295301745, 37.474599611446408 ], [ 126.709611754042868, 37.475886892477085 ], [ 126.710935994235754, 37.479624431502522 ], [ 126.711910160057528, 37.477354189014349 ], [ 126.712132171082871, 37.476974911511888 ], [ 126.712528818324913, 37.476530741445899 ], [ 126.712652416638093, 37.476400357739884 ], [ 126.712739676699016, 37.476380153214741 ], [ 126.712857626741382, 37.476384515625035 ], [ 126.714351147864434, 37.476535035919099 ], [ 126.715871427328523, 37.476406489914602 ], [ 126.71604081201329, 37.4763742253012 ], [ 126.71630808544279, 37.476223753497521 ], [ 126.717017605918173, 37.475768059699 ], [ 126.717527457752851, 37.475428867280471 ], [ 126.719680666611367, 37.473624672623906 ], [ 126.722702765172073, 37.470608712526811 ], [ 126.722854346945255, 37.470271748636925 ] ] ] ] } },
{ "type": "Feature", "properties": { "OBJECTID": 827, "adm_nm": "인천광역시 남동구 간석4동", "adm_cd": "2305058", "adm_cd2": "2820055100", "sgg": "28200", "sido": "28", "sidonm": "인천광역시", "sggnm": "남동구" }, "geometry": { "type": "MultiPolygon", "coordinates": [ [ [ [ 126.693387004726148, 37.469940497620115 ], [ 126.693400151396375, 37.469907525026372 ], [ 126.693441799348278, 37.469869175756088 ], [ 126.693870563163884, 37.469675343832208 ], [ 126.694987025508382, 37.469170622168733 ], [ 126.695026182248085, 37.469152927774026 ], [ 126.696308407685777, 37.468578613704864 ], [ 126.697057275235579, 37.468272448661232 ], [ 126.697605028972845, 37.46808665209722 ], [ 126.70265670833345, 37.467905548164417 ], [ 126.703218861265569, 37.46791528462046 ], [ 126.703253180332098, 37.467915881984268 ], [ 126.703287766200276, 37.467916486545136 ], [ 126.704550455354905, 37.468366571618169 ], [ 126.704595738196858, 37.46853952619017 ], [ 126.706630251092719, 37.469355800290678 ], [ 126.707977411648557, 37.469331300656137 ], [ 126.707953794034964, 37.466842809047677 ], [ 126.707636778850585, 37.466534126690689 ], [ 126.707061288008802, 37.465988272321155 ], [ 126.706634419900297, 37.465583535962793 ], [ 126.706033202585701, 37.465187017850297 ], [ 126.705982161248414, 37.465173498055627 ], [ 126.704541293625525, 37.464791891506998 ], [ 126.697244832123403, 37.461285146480279 ], [ 126.69294222270662, 37.464716328935701 ], [ 126.692787914265111, 37.465514162629482 ], [ 126.687038594140233, 37.46616974140013 ], [ 126.686795537085615, 37.466210024848017 ], [ 126.687029018665143, 37.467700124604121 ], [ 126.687243386329712, 37.468969315119182 ], [ 126.687219219575098, 37.468990037616244 ], [ 126.686431389718138, 37.46913545443951 ], [ 126.685808086728485, 37.469250479685797 ], [ 126.685758678078912, 37.469259591647337 ], [ 126.685115219149608, 37.469378345614281 ], [ 126.685083639329463, 37.469384341707311 ], [ 126.68436298389571, 37.469530439604483 ], [ 126.684360790465917, 37.469564639609054 ], [ 126.684958305382295, 37.470447592578765 ], [ 126.685038216045243, 37.470564478858783 ], [ 126.685726660529738, 37.471560481842282 ], [ 126.685751402900607, 37.471596272689609 ], [ 126.685879640696172, 37.471779211340206 ], [ 126.685983530582448, 37.471923181821545 ], [ 126.686051342534, 37.472017135802638 ], [ 126.686412053483238, 37.471813893945402 ], [ 126.688300786688501, 37.470768451822615 ], [ 126.688605499950995, 37.470697174129548 ], [ 126.688660911596131, 37.4706842200995 ], [ 126.689947924173467, 37.47066736391956 ], [ 126.690453546061917, 37.470642928030948 ], [ 126.69070471931208, 37.470630768813194 ], [ 126.691323932385046, 37.470475678063195 ], [ 126.691716392791534, 37.470276914037662 ], [ 126.69192500457487, 37.470171238271192 ], [ 126.692471989780501, 37.469810735072421 ], [ 126.692665374777064, 37.469683259372744 ], [ 126.693387004726148, 37.469940497620115 ] ] ] ] } },
{ "type": "Feature", "properties": { "OBJECTID": 828, "adm_nm": "인천광역시 남동구 만수1동", "adm_cd": "2305059", "adm_cd2": "2820056000", "sgg": "28200", "sido": "28", "sidonm": "인천광역시", "sggnm": "남동구" }, "geometry": { "type": "MultiPolygon", "coordinates": [ [ [ [ 126.733336657405204, 37.45487666638212 ], [ 126.738401719638304, 37.451708944230312 ], [ 126.742722574686496, 37.450682553666951 ], [ 126.740225007198774, 37.448015031321191 ], [ 126.731746720751332, 37.448429182458057 ], [ 126.729835602468569, 37.448520932827556 ], [ 126.729784862486142, 37.448520816678226 ], [ 126.729714507913556, 37.4484847195424 ], [ 126.729666821104516, 37.44841949056503 ], [ 126.72974300756789, 37.447842366679019 ], [ 126.727250549176659, 37.449944364363823 ], [ 126.726550731766608, 37.450401753061833 ], [ 126.726480981192651, 37.450496372123737 ], [ 126.72642362606085, 37.450590993862775 ], [ 126.726361252123255, 37.450701424890482 ], [ 126.726288951684865, 37.450903599061611 ], [ 126.726130577762149, 37.451346480911567 ], [ 126.725950575867486, 37.451874831300977 ], [ 126.726730578045149, 37.451832299341113 ], [ 126.728645497829675, 37.451720207025538 ], [ 126.729246091110113, 37.451685047447086 ], [ 126.729826822120316, 37.451651048812785 ], [ 126.729901136853897, 37.452440415813378 ], [ 126.729951478308621, 37.452975146728228 ], [ 126.729966190973116, 37.453131414524933 ], [ 126.730092253921711, 37.454470260967696 ], [ 126.73015115316278, 37.455094803128588 ], [ 126.733336657405204, 37.45487666638212 ] ] ] ] } },
{ "type": "Feature", "properties": { "OBJECTID": 829, "adm_nm": "인천광역시 남동구 만수2동", "adm_cd": "2305060", "adm_cd2": "2820057000", "sgg": "28200", "sido": "28", "sidonm": "인천광역시", "sggnm": "남동구" }, "geometry": { "type": "MultiPolygon", "coordinates": [ [ [ [ 126.745135996324578, 37.465368107405773 ], [ 126.744122037935455, 37.465151991098189 ], [ 126.743490472558562, 37.464934304764782 ], [ 126.742432882796521, 37.462678579606319 ], [ 126.742927964966114, 37.461440688458254 ], [ 126.743348383723827, 37.460761705855781 ], [ 126.743591904665834, 37.460327546808593 ], [ 126.743586176580877, 37.460295651852711 ], [ 126.743547685623739, 37.460281618380243 ], [ 126.743134649676207, 37.460157931969093 ], [ 126.742987629910672, 37.460115746159701 ], [ 126.742823063356369, 37.460081900617226 ], [ 126.742633897377104, 37.460070326432614 ], [ 126.742719903494162, 37.460197573478013 ], [ 126.74276127335196, 37.460321574394861 ], [ 126.742779063753019, 37.460381380435386 ], [ 126.742783084334633, 37.460454515764262 ], [ 126.7427784547952, 37.460558267770836 ], [ 126.742765017806974, 37.460732676203804 ], [ 126.742735811874823, 37.460818140018638 ], [ 126.742715435427755, 37.46087033922938 ], [ 126.742541471620839, 37.461155663984485 ], [ 126.742470623651073, 37.461207045675138 ], [ 126.742201222130177, 37.461305956084189 ], [ 126.741305049976134, 37.46042501458485 ], [ 126.740004097829356, 37.461284535796324 ], [ 126.739598185565356, 37.461644248041395 ], [ 126.7392033555615, 37.461957283405425 ], [ 126.738824824598282, 37.462233818523956 ], [ 126.735581160807286, 37.461692582005455 ], [ 126.731793808148154, 37.459282051108097 ], [ 126.731674019922423, 37.459197717930486 ], [ 126.730698220886126, 37.458424682420215 ], [ 126.73069917742535, 37.45661388728309 ], [ 126.727263145261503, 37.459030871522579 ], [ 126.729742424831699, 37.461423413093272 ], [ 126.729219642713005, 37.461865022942973 ], [ 126.728172580069824, 37.462553953967976 ], [ 126.727589166847565, 37.464394044983749 ], [ 126.727729858979814, 37.464720226842203 ], [ 126.728761695451652, 37.464816909948837 ], [ 126.728845265754387, 37.464817102039888 ], [ 126.729072482686902, 37.464783604152856 ], [ 126.729431124275365, 37.464730729423906 ], [ 126.729549450889053, 37.464701788869178 ], [ 126.729620711728145, 37.464671522830322 ], [ 126.729769922815194, 37.464608140890384 ], [ 126.729928333302638, 37.464543478404039 ], [ 126.730049489413062, 37.464517882670528 ], [ 126.730268600131097, 37.464485751085171 ], [ 126.730572360084693, 37.464471834987854 ], [ 126.731266233859131, 37.464484697613905 ], [ 126.731886582181843, 37.467469944357333 ], [ 126.731638187056276, 37.469116346459657 ], [ 126.731182105334042, 37.470356220664478 ], [ 126.732285407500228, 37.471592038795471 ], [ 126.735676484251442, 37.47082832108422 ], [ 126.736176481080363, 37.470983821218965 ], [ 126.736624203511241, 37.471017903167777 ], [ 126.738469051079505, 37.470895504721661 ], [ 126.741722033777208, 37.46929065690265 ], [ 126.74194611817525, 37.469152246570196 ], [ 126.744875535501592, 37.46628707627022 ], [ 126.745114246728136, 37.46595591906442 ], [ 126.745135996324578, 37.465368107405773 ] ] ] ] } },
{ "type": "Feature", "properties": { "OBJECTID": 830, "adm_nm": "인천광역시 남동구 만수3동", "adm_cd": "2305061", "adm_cd2": "2820058000", "sgg": "28200", "sido": "28", "sidonm": "인천광역시", "sggnm": "남동구" }, "geometry": { "type": "MultiPolygon", "coordinates": [ [ [ [ 126.731179033070703, 37.472440579187051 ], [ 126.732285407500228, 37.471592038795471 ], [ 126.731182105334042, 37.470356220664478 ], [ 126.731638187056276, 37.469116346459657 ], [ 126.731886582181843, 37.467469944357333 ], [ 126.731266233859131, 37.464484697613905 ], [ 126.730572360084693, 37.464471834987854 ], [ 126.730268600131097, 37.464485751085171 ], [ 126.730049489413062, 37.464517882670528 ], [ 126.729928333302638, 37.464543478404039 ], [ 126.729769922815194, 37.464608140890384 ], [ 126.729620711728145, 37.464671522830322 ], [ 126.729549450889053, 37.464701788869178 ], [ 126.729431124275365, 37.464730729423906 ], [ 126.729072482686902, 37.464783604152856 ], [ 126.728845265754387, 37.464817102039888 ], [ 126.728761695451652, 37.464816909948837 ], [ 126.727729858979814, 37.464720226842203 ], [ 126.727589166847565, 37.464394044983749 ], [ 126.728172580069824, 37.462553953967976 ], [ 126.729219642713005, 37.461865022942973 ], [ 126.729742424831699, 37.461423413093272 ], [ 126.727263145261503, 37.459030871522579 ], [ 126.721821956298697, 37.460683353366228 ], [ 126.721882851063427, 37.462612423123311 ], [ 126.721921173223862, 37.463850796599836 ], [ 126.721390409937271, 37.464996940302285 ], [ 126.72253469007228, 37.466874581444181 ], [ 126.723178985518842, 37.467614472810254 ], [ 126.723393764940894, 37.467851868843191 ], [ 126.72368647195195, 37.468170837586101 ], [ 126.722854346945255, 37.470271748636925 ], [ 126.723486287035186, 37.47005047310931 ], [ 126.724753336685424, 37.470111545510811 ], [ 126.72511591983438, 37.470139708802897 ], [ 126.726853729279952, 37.470289760757233 ], [ 126.727003066977105, 37.470306327571585 ], [ 126.727138573410869, 37.470387767606262 ], [ 126.72745263122215, 37.470623548597345 ], [ 126.727560807374545, 37.470753583284591 ], [ 126.727781700376497, 37.471100691115559 ], [ 126.727894561557264, 37.47127891341767 ], [ 126.728094046468186, 37.471636240865138 ], [ 126.728161477752408, 37.471766174650952 ], [ 126.728283389367277, 37.471852970517723 ], [ 126.729744815135973, 37.472396397489867 ], [ 126.730540147323978, 37.472528545467078 ], [ 126.731179033070703, 37.472440579187051 ] ] ] ] } },
{ "type": "Feature", "properties": { "OBJECTID": 831, "adm_nm": "인천광역시 남동구 만수4동", "adm_cd": "2305062", "adm_cd2": "2820058100", "sgg": "28200", "sido": "28", "sidonm": "인천광역시", "sggnm": "남동구" }, "geometry": { "type": "MultiPolygon", "coordinates": [ [ [ [ 126.742633897377104, 37.460070326432614 ], [ 126.742420416479348, 37.459777325539335 ], [ 126.742329084661051, 37.459586751177895 ], [ 126.742282372874385, 37.45947231614862 ], [ 126.742271422860952, 37.459395466054687 ], [ 126.742648346716052, 37.458168589274386 ], [ 126.74296535087872, 37.457328170530921 ], [ 126.742997721587471, 37.456864417489733 ], [ 126.742940208745068, 37.452165305216589 ], [ 126.742722574686496, 37.450682553666951 ], [ 126.738401719638304, 37.451708944230312 ], [ 126.733336657405204, 37.45487666638212 ], [ 126.731601201396799, 37.456019844892623 ], [ 126.73069917742535, 37.45661388728309 ], [ 126.730698220886126, 37.458424682420215 ], [ 126.731674019922423, 37.459197717930486 ], [ 126.731793808148154, 37.459282051108097 ], [ 126.735581160807286, 37.461692582005455 ], [ 126.738824824598282, 37.462233818523956 ], [ 126.7392033555615, 37.461957283405425 ], [ 126.739598185565356, 37.461644248041395 ], [ 126.740004097829356, 37.461284535796324 ], [ 126.741305049976134, 37.46042501458485 ], [ 126.742201222130177, 37.461305956084189 ], [ 126.742470623651073, 37.461207045675138 ], [ 126.742541471620839, 37.461155663984485 ], [ 126.742715435427755, 37.46087033922938 ], [ 126.742735811874823, 37.460818140018638 ], [ 126.742765017806974, 37.460732676203804 ], [ 126.7427784547952, 37.460558267770836 ], [ 126.742783084334633, 37.460454515764262 ], [ 126.742779063753019, 37.460381380435386 ], [ 126.74276127335196, 37.460321574394861 ], [ 126.742719903494162, 37.460197573478013 ], [ 126.742633897377104, 37.460070326432614 ] ] ] ] } },
{ "type": "Feature", "properties": { "OBJECTID": 832, "adm_nm": "인천광역시 남동구 만수5동", "adm_cd": "2305063", "adm_cd2": "2820058200", "sgg": "28200", "sido": "28", "sidonm": "인천광역시", "sggnm": "남동구" }, "geometry": { "type": "MultiPolygon", "coordinates": [ [ [ [ 126.727263145261503, 37.459030871522579 ], [ 126.73069917742535, 37.45661388728309 ], [ 126.731601201396799, 37.456019844892623 ], [ 126.733336657405204, 37.45487666638212 ], [ 126.73015115316278, 37.455094803128588 ], [ 126.730092253921711, 37.454470260967696 ], [ 126.729966190973116, 37.453131414524933 ], [ 126.729951478308621, 37.452975146728228 ], [ 126.729901136853897, 37.452440415813378 ], [ 126.729826822120316, 37.451651048812785 ], [ 126.729246091110113, 37.451685047447086 ], [ 126.728645497829675, 37.451720207025538 ], [ 126.726730578045149, 37.451832299341113 ], [ 126.725950575867486, 37.451874831300977 ], [ 126.725892847086001, 37.452094836531515 ], [ 126.725767718058165, 37.45240205308292 ], [ 126.725270787573706, 37.453622082776427 ], [ 126.722341143118143, 37.455693855009656 ], [ 126.721632730496466, 37.455744846843999 ], [ 126.721821956298697, 37.460683353366228 ], [ 126.727263145261503, 37.459030871522579 ] ] ] ] } },
{ "type": "Feature", "properties": { "OBJECTID": 833, "adm_nm": "인천광역시 남동구 만수6동", "adm_cd": "2305064", "adm_cd2": "2820058300", "sgg": "28200", "sido": "28", "sidonm": "인천광역시", "sggnm": "남동구" }, "geometry": { "type": "MultiPolygon", "coordinates": [ [ [ [ 126.740225007198774, 37.448015031321191 ], [ 126.740267333328561, 37.448013032008902 ], [ 126.741575201023821, 37.447905761600417 ], [ 126.743832133475252, 37.447714123644062 ], [ 126.744182668816407, 37.447666314655933 ], [ 126.744701990983913, 37.447595481238423 ], [ 126.744989679619337, 37.447479434981219 ], [ 126.745062064810597, 37.447450232923806 ], [ 126.745193101939705, 37.447322119470293 ], [ 126.745374018569407, 37.446975667559776 ], [ 126.745714760727566, 37.446458050695391 ], [ 126.746409435854801, 37.445575227738907 ], [ 126.748085513552851, 37.445281921249432 ], [ 126.748378692068172, 37.445303441064844 ], [ 126.74868409932192, 37.445316712981729 ], [ 126.749310748836407, 37.445309677715983 ], [ 126.749953403196798, 37.445243824550573 ], [ 126.750075443266553, 37.445214551432315 ], [ 126.750251423278456, 37.445136617332118 ], [ 126.750315679242718, 37.445047374394882 ], [ 126.750363522667314, 37.444900787685832 ], [ 126.750379963629825, 37.444682767710468 ], [ 126.75034956452096, 37.444343226514512 ], [ 126.750258243695612, 37.443366244589932 ], [ 126.75023225654482, 37.44326563633669 ], [ 126.750195862080304, 37.44313141361674 ], [ 126.74963617366879, 37.442249835341393 ], [ 126.749348177102164, 37.44186782395785 ], [ 126.749277361112334, 37.441823607964629 ], [ 126.748663431136862, 37.44176563088282 ], [ 126.748265284913316, 37.441769003059711 ], [ 126.747798089859401, 37.441749003989628 ], [ 126.747743771075577, 37.44174051002291 ], [ 126.74767886461261, 37.441720719555299 ], [ 126.746671423672979, 37.44136572689024 ], [ 126.743932446736167, 37.439654734372716 ], [ 126.742803480767037, 37.438841084365052 ], [ 126.74281215800579, 37.438683544291152 ], [ 126.742899133249082, 37.438532176211687 ], [ 126.742930092476655, 37.438496502380829 ], [ 126.742994613817046, 37.438422157232409 ], [ 126.7430638907408, 37.438387862681488 ], [ 126.743101001699301, 37.438377190336809 ], [ 126.743159084495787, 37.438360492410901 ], [ 126.743245613291336, 37.438340011527814 ], [ 126.74340989242809, 37.438333487347315 ], [ 126.74346156612593, 37.43833359908465 ], [ 126.743616265289717, 37.435804980685923 ], [ 126.743617551882011, 37.43574733820315 ], [ 126.74359803892041, 37.435428333473425 ], [ 126.743577895799589, 37.435333571215295 ], [ 126.743231421917812, 37.434203045059959 ], [ 126.743211166118115, 37.434141664623489 ], [ 126.743165571570415, 37.434083332569436 ], [ 126.741794325825026, 37.432845806834152 ], [ 126.741640469175067, 37.432804562532702 ], [ 126.73846722090255, 37.432891483261308 ], [ 126.735681903844352, 37.433012981049671 ], [ 126.736471805494602, 37.436677629321515 ], [ 126.736492445842828, 37.43708821278495 ], [ 126.736501821521614, 37.437274880913044 ], [ 126.736503054880487, 37.437351085840383 ], [ 126.736474111906958, 37.437480667876898 ], [ 126.736420386705191, 37.437589630844556 ], [ 126.736330973168691, 37.437732492112289 ], [ 126.736143402835339, 37.437981384441713 ], [ 126.734895484045921, 37.439634344912854 ], [ 126.734590107143276, 37.439998068015342 ], [ 126.734367930137793, 37.440283432815185 ], [ 126.734089865941087, 37.440672883987958 ], [ 126.734057379457724, 37.440775157470412 ], [ 126.733543465208683, 37.442966519102299 ], [ 126.733403978235856, 37.443652398487487 ], [ 126.733383018179282, 37.443773382882377 ], [ 126.733335040602512, 37.444050375028738 ], [ 126.72974300756789, 37.447842366679019 ], [ 126.729666821104516, 37.44841949056503 ], [ 126.729714507913556, 37.4484847195424 ], [ 126.729784862486142, 37.448520816678226 ], [ 126.729835602468569, 37.448520932827556 ], [ 126.731746720751332, 37.448429182458057 ], [ 126.740225007198774, 37.448015031321191 ] ] ] ] } },
{ "type": "Feature", "properties": { "OBJECTID": 834, "adm_nm": "인천광역시 남동구 서창2동", "adm_cd": "2305076", "adm_cd2": "2820065500", "sgg": "28200", "sido": "28", "sidonm": "인천광역시", "sggnm": "남동구" }, "geometry": { "type": "MultiPolygon", "coordinates": [ [ [ [ 126.741794325825026, 37.432845806834152 ], [ 126.759154166155454, 37.432208247338309 ], [ 126.759226134325374, 37.432028113282577 ], [ 126.759310365215129, 37.431734142491749 ], [ 126.759412336702468, 37.431473418474873 ], [ 126.759454633757329, 37.431269502613006 ], [ 126.759467169225331, 37.431070270309618 ], [ 126.759467988569966, 37.430814083538074 ], [ 126.759438865648733, 37.430619511638334 ], [ 126.75945736575953, 37.43041554760125 ], [ 126.759475608139851, 37.430292234504925 ], [ 126.760051230787951, 37.428879624428951 ], [ 126.760123043035478, 37.428746932593199 ], [ 126.760182759349931, 37.428675889983623 ], [ 126.760373412455834, 37.428586136089386 ], [ 126.760629640219349, 37.428453817134539 ], [ 126.761004995445887, 37.428274295610599 ], [ 126.761404310233345, 37.428042635722193 ], [ 126.761618997332988, 37.427877020254805 ], [ 126.761833802965356, 37.427673451648019 ], [ 126.761917432844925, 37.427564503036535 ], [ 126.761995157839479, 37.427441309389806 ], [ 126.762043064306908, 37.427341776765793 ], [ 126.76212717423401, 37.427081013448948 ], [ 126.762211627639587, 37.426711133784799 ], [ 126.762015452212367, 37.426668041104556 ], [ 126.761926130180498, 37.426696325977446 ], [ 126.761462832810537, 37.426472413851435 ], [ 126.761463058310753, 37.426401250329768 ], [ 126.760982054618992, 37.426289006726307 ], [ 126.759675284837897, 37.426533442528893 ], [ 126.758682266519173, 37.425960924710829 ], [ 126.753690094951935, 37.42253943913569 ], [ 126.753792094436662, 37.421330624098289 ], [ 126.754082089158217, 37.420607284294633 ], [ 126.754772776888331, 37.418878354534094 ], [ 126.754931637948644, 37.418456843867077 ], [ 126.7550419484636, 37.41816368700259 ], [ 126.755051494294861, 37.418050860947709 ], [ 126.755036560864909, 37.417991123912437 ], [ 126.754977847079715, 37.417927586656369 ], [ 126.75328961988788, 37.416916128137352 ], [ 126.750558940038786, 37.418204972507532 ], [ 126.747477596627562, 37.419586370422579 ], [ 126.745387128184305, 37.420225889319262 ], [ 126.743854653158451, 37.420533465063059 ], [ 126.742463276342946, 37.420593988599258 ], [ 126.740022508545792, 37.420700104853644 ], [ 126.739787642210629, 37.420898271588833 ], [ 126.73870772214525, 37.42217198879765 ], [ 126.738663737818044, 37.422246662420086 ], [ 126.738600758478825, 37.422361224939905 ], [ 126.738594283683184, 37.422435905773916 ], [ 126.738628746041059, 37.423308326281344 ], [ 126.738907123721958, 37.424176368406464 ], [ 126.738925486538847, 37.424286046610057 ], [ 126.738899082988354, 37.424664780147765 ], [ 126.738765002373185, 37.425478058588965 ], [ 126.738137022476792, 37.427838722558185 ], [ 126.738066441219786, 37.427958968292941 ], [ 126.737918944042718, 37.428119639711092 ], [ 126.737777380472977, 37.42823456028497 ], [ 126.737475106639494, 37.428479906921972 ], [ 126.735540564380557, 37.431004434634715 ], [ 126.735681903844352, 37.433012981049671 ], [ 126.73846722090255, 37.432891483261308 ], [ 126.741640469175067, 37.432804562532702 ], [ 126.741794325825026, 37.432845806834152 ] ] ] ] } },
{ "type": "Feature", "properties": { "OBJECTID": 835, "adm_nm": "인천광역시 남동구 남촌도림동", "adm_cd": "2305067", "adm_cd2": "2820066000", "sgg": "28200", "sido": "28", "sidonm": "인천광역시", "sggnm": "남동구" }, "geometry": { "type": "MultiPolygon", "coordinates": [ [ [ [ 126.735681903844352, 37.433012981049671 ], [ 126.735540564380557, 37.431004434634715 ], [ 126.737475106639494, 37.428479906921972 ], [ 126.737777380472977, 37.42823456028497 ], [ 126.737918944042718, 37.428119639711092 ], [ 126.738066441219786, 37.427958968292941 ], [ 126.738137022476792, 37.427838722558185 ], [ 126.738765002373185, 37.425478058588965 ], [ 126.738899082988354, 37.424664780147765 ], [ 126.738925486538847, 37.424286046610057 ], [ 126.738907123721958, 37.424176368406464 ], [ 126.738628746041059, 37.423308326281344 ], [ 126.738594283683184, 37.422435905773916 ], [ 126.738600758478825, 37.422361224939905 ], [ 126.738663737818044, 37.422246662420086 ], [ 126.73870772214525, 37.42217198879765 ], [ 126.739787642210629, 37.420898271588833 ], [ 126.740022508545792, 37.420700104853644 ], [ 126.740232535050339, 37.420600214387676 ], [ 126.740357834088599, 37.420530668647856 ], [ 126.740464531671321, 37.420416304918788 ], [ 126.740910915617079, 37.419684493272399 ], [ 126.740992801891608, 37.419530147717374 ], [ 126.741030746869541, 37.419400667884091 ], [ 126.741024664255448, 37.419348300486831 ], [ 126.738868518792742, 37.418213945909933 ], [ 126.738817582888046, 37.418188533150364 ], [ 126.738730759178878, 37.418168324458648 ], [ 126.738102855432629, 37.418100688485083 ], [ 126.737978920297365, 37.418097950840199 ], [ 126.737848063461755, 37.418097657991659 ], [ 126.737709470223948, 37.418107157942501 ], [ 126.737590889217643, 37.418115479828089 ], [ 126.737449257040282, 37.418113952489264 ], [ 126.736780330630225, 37.418075254282641 ], [ 126.736684906086666, 37.418065218976245 ], [ 126.736551086991582, 37.418029339778471 ], [ 126.736428119322042, 37.417975076115901 ], [ 126.736321326109149, 37.417812258999746 ], [ 126.735275929560061, 37.415775346822457 ], [ 126.731344323701336, 37.411616196593528 ], [ 126.730002740689628, 37.410844758218154 ], [ 126.728806370941598, 37.410372836097366 ], [ 126.727536962909497, 37.409902999883585 ], [ 126.724510490561585, 37.410169648269871 ], [ 126.724005196409166, 37.410216116558175 ], [ 126.722534013042278, 37.409762173118118 ], [ 126.718444226368817, 37.408384545103331 ], [ 126.718232397367188, 37.408485228833911 ], [ 126.717836621828539, 37.40875404077984 ], [ 126.717694900009946, 37.408955973618532 ], [ 126.717580904325999, 37.409292940188394 ], [ 126.717430159965076, 37.41019084359116 ], [ 126.717404603141176, 37.411203388089113 ], [ 126.717404222549945, 37.411304487291858 ], [ 126.717361655273024, 37.411360598064448 ], [ 126.714888349584356, 37.413029425907368 ], [ 126.713421367456448, 37.412848779810908 ], [ 126.713509485350798, 37.414438616946121 ], [ 126.71342922833432, 37.416532700884972 ], [ 126.713190164382667, 37.417033264966243 ], [ 126.712761226745869, 37.417931350602231 ], [ 126.712589066693596, 37.418086513678453 ], [ 126.712506106970821, 37.418119323886224 ], [ 126.7124114842929, 37.418109653810582 ], [ 126.712402451868542, 37.418084908177484 ], [ 126.712177300828913, 37.417467887629755 ], [ 126.71170885048808, 37.41612022252604 ], [ 126.710232374676067, 37.412186937784732 ], [ 126.710056668133674, 37.411729171318399 ], [ 126.709933310794938, 37.411502553333193 ], [ 126.709531796735192, 37.4109187533438 ], [ 126.709225841766965, 37.410488955381169 ], [ 126.709043423328808, 37.410262319950604 ], [ 126.708954653835775, 37.410247835196976 ], [ 126.708815244091767, 37.410310667058049 ], [ 126.70754885562522, 37.410903570119224 ], [ 126.705173281366072, 37.412015715540655 ], [ 126.698617234258393, 37.415107761639952 ], [ 126.698082868140858, 37.415362665063775 ], [ 126.696428900772432, 37.4164081163063 ], [ 126.695337497283631, 37.417100768448769 ], [ 126.695612172829058, 37.41729407763966 ], [ 126.697912019219629, 37.418944600719513 ], [ 126.698662987881008, 37.419486453737278 ], [ 126.698855284184148, 37.419664711255059 ], [ 126.702811496072215, 37.423587118409792 ], [ 126.703826020478957, 37.424605237787937 ], [ 126.703926303502172, 37.424709679906194 ], [ 126.704123876023971, 37.424919250393586 ], [ 126.704288977656546, 37.425122987434392 ], [ 126.70449363303922, 37.425385528946506 ], [ 126.704618059574173, 37.425556584457667 ], [ 126.704932920311222, 37.425998213319659 ], [ 126.705008682928892, 37.426145459882548 ], [ 126.705076422077184, 37.42631519172221 ], [ 126.705116301885255, 37.426416712719849 ], [ 126.705183307153305, 37.426634953188291 ], [ 126.705275237733886, 37.42698339787227 ], [ 126.705329711832903, 37.427228280065421 ], [ 126.705352628299053, 37.427331460795671 ], [ 126.706037672755087, 37.43278782229126 ], [ 126.706203838213639, 37.434145558182117 ], [ 126.708118601657986, 37.434280754436301 ], [ 126.708504497493777, 37.434413966106746 ], [ 126.708880946409778, 37.434626627137014 ], [ 126.709087213023466, 37.434872752200206 ], [ 126.709075334895886, 37.43490416602544 ], [ 126.709061443859213, 37.434932335025422 ], [ 126.709038250807879, 37.434970211551381 ], [ 126.709218372819748, 37.436038712635643 ], [ 126.710485235451486, 37.437440474597608 ], [ 126.710575476713686, 37.437538634473732 ], [ 126.710604538400332, 37.437563205685336 ], [ 126.710632153688053, 37.437579230509286 ], [ 126.710669061073759, 37.437592745820389 ], [ 126.711715811946007, 37.437951658927098 ], [ 126.712682113450569, 37.437458013279226 ], [ 126.713388428014767, 37.436960497939452 ], [ 126.715102591150639, 37.437154503476854 ], [ 126.717699662142977, 37.439337865196187 ], [ 126.717764257005172, 37.440789416306124 ], [ 126.718900606305553, 37.44092271921172 ], [ 126.719851190124686, 37.441786262456681 ], [ 126.71987087264192, 37.441903275398687 ], [ 126.719937077141978, 37.442025782685356 ], [ 126.720136683390635, 37.44216446351875 ], [ 126.720296401849879, 37.442244585839269 ], [ 126.722923893386579, 37.443343902349682 ], [ 126.724452390780783, 37.443882106575636 ], [ 126.72460412654668, 37.443927357729898 ], [ 126.724755899050194, 37.443964793294533 ], [ 126.724890600478219, 37.443978767145261 ], [ 126.72579783937222, 37.443997071195589 ], [ 126.727744955995334, 37.444642610770416 ], [ 126.727867507471871, 37.444724358444681 ], [ 126.727999948789716, 37.44484691898554 ], [ 126.728071112811051, 37.444977560898813 ], [ 126.728262028978335, 37.445899090522232 ], [ 126.728862611958291, 37.447467774565226 ], [ 126.728997565665907, 37.447576713782439 ], [ 126.72963326672766, 37.447841346734094 ], [ 126.72974300756789, 37.447842366679019 ], [ 126.733335040602512, 37.444050375028738 ], [ 126.733383018179282, 37.443773382882377 ], [ 126.733403978235856, 37.443652398487487 ], [ 126.733543465208683, 37.442966519102299 ], [ 126.734057379457724, 37.440775157470412 ], [ 126.734089865941087, 37.440672883987958 ], [ 126.734367930137793, 37.440283432815185 ], [ 126.734590107143276, 37.439998068015342 ], [ 126.734895484045921, 37.439634344912854 ], [ 126.736143402835339, 37.437981384441713 ], [ 126.736330973168691, 37.437732492112289 ], [ 126.736420386705191, 37.437589630844556 ], [ 126.736474111906958, 37.437480667876898 ], [ 126.736503054880487, 37.437351085840383 ], [ 126.736501821521614, 37.437274880913044 ], [ 126.736492445842828, 37.43708821278495 ], [ 126.736471805494602, 37.436677629321515 ], [ 126.735681903844352, 37.433012981049671 ] ] ] ] } },
{ "type": "Feature", "properties": { "OBJECTID": 836, "adm_nm": "인천광역시 남동구 논현1동", "adm_cd": "2305072", "adm_cd2": "2820069000", "sgg": "28200", "sido": "28", "sidonm": "인천광역시", "sggnm": "남동구" }, "geometry": { "type": "MultiPolygon", "coordinates": [ [ [ [ 126.75328961988788, 37.416916128137352 ], [ 126.752239188421527, 37.414478371110924 ], [ 126.750589947445675, 37.409809024839312 ], [ 126.750575879332004, 37.407606235690693 ], [ 126.748843008872285, 37.405750829813279 ], [ 126.747041353250779, 37.403379832611833 ], [ 126.745848304578104, 37.401588156027231 ], [ 126.745889734679949, 37.401377558577245 ], [ 126.74585462288222, 37.401220495092126 ], [ 126.745819102826957, 37.401170693665605 ], [ 126.745291787891972, 37.400948468526913 ], [ 126.74416564611758, 37.400498949931219 ], [ 126.743844914112728, 37.400374764745756 ], [ 126.743076117857242, 37.400101819506581 ], [ 126.74294305540711, 37.400044792962582 ], [ 126.742424112345915, 37.399821735251095 ], [ 126.742254073461339, 37.399716546538414 ], [ 126.742035854184763, 37.39958096309465 ], [ 126.74179043831316, 37.399427834718743 ], [ 126.741618366994402, 37.399285030877714 ], [ 126.741177904247493, 37.398917701641658 ], [ 126.741121236615982, 37.398870439222229 ], [ 126.741055688338349, 37.398807765084527 ], [ 126.740658020495687, 37.398426817714437 ], [ 126.739017451411328, 37.39691550381994 ], [ 126.73883778224949, 37.396807310677637 ], [ 126.738358682190068, 37.396519490864641 ], [ 126.737933485189927, 37.397216603270564 ], [ 126.737565665836698, 37.397649035177501 ], [ 126.737486502486277, 37.397742099492994 ], [ 126.73735463866052, 37.397842890123492 ], [ 126.733584486086187, 37.400488101152234 ], [ 126.732147837557591, 37.401409027061796 ], [ 126.731495357777789, 37.401827268003267 ], [ 126.730275070354153, 37.401963598077963 ], [ 126.729598334794005, 37.401963658489976 ], [ 126.728491690696089, 37.401963594778003 ], [ 126.728401851211231, 37.401931177886496 ], [ 126.7280234498689, 37.401794636819488 ], [ 126.727198149965844, 37.401496832447755 ], [ 126.724419284917346, 37.401032282211865 ], [ 126.723959615224302, 37.402624659338265 ], [ 126.722931108632423, 37.407718537336351 ], [ 126.722914456551294, 37.408237522227466 ], [ 126.723323980571124, 37.409377108719497 ], [ 126.724005196409166, 37.410216116558175 ], [ 126.724510490561585, 37.410169648269871 ], [ 126.727536962909497, 37.409902999883585 ], [ 126.728806370941598, 37.410372836097366 ], [ 126.730002740689628, 37.410844758218154 ], [ 126.731344323701336, 37.411616196593528 ], [ 126.735275929560061, 37.415775346822457 ], [ 126.736321326109149, 37.417812258999746 ], [ 126.736428119322042, 37.417975076115901 ], [ 126.736551086991582, 37.418029339778471 ], [ 126.736684906086666, 37.418065218976245 ], [ 126.736780330630225, 37.418075254282641 ], [ 126.737449257040282, 37.418113952489264 ], [ 126.737590889217643, 37.418115479828089 ], [ 126.737709470223948, 37.418107157942501 ], [ 126.737848063461755, 37.418097657991659 ], [ 126.737978920297365, 37.418097950840199 ], [ 126.738102855432629, 37.418100688485083 ], [ 126.738730759178878, 37.418168324458648 ], [ 126.738817582888046, 37.418188533150364 ], [ 126.738868518792742, 37.418213945909933 ], [ 126.741024664255448, 37.419348300486831 ], [ 126.741030746869541, 37.419400667884091 ], [ 126.740992801891608, 37.419530147717374 ], [ 126.740910915617079, 37.419684493272399 ], [ 126.740464531671321, 37.420416304918788 ], [ 126.740357834088599, 37.420530668647856 ], [ 126.740232535050339, 37.420600214387676 ], [ 126.740022508545792, 37.420700104853644 ], [ 126.742463276342946, 37.420593988599258 ], [ 126.743854653158451, 37.420533465063059 ], [ 126.745387128184305, 37.420225889319262 ], [ 126.747477596627562, 37.419586370422579 ], [ 126.750558940038786, 37.418204972507532 ], [ 126.75328961988788, 37.416916128137352 ] ] ] ] } },
{ "type": "Feature", "properties": { "OBJECTID": 837, "adm_nm": "인천광역시 남동구 논현2동", "adm_cd": "2305073", "adm_cd2": "2820070000", "sgg": "28200", "sido": "28", "sidonm": "인천광역시", "sggnm": "남동구" }, "geometry": { "type": "MultiPolygon", "coordinates": [ [ [ [ 126.724005196409166, 37.410216116558175 ], [ 126.723323980571124, 37.409377108719497 ], [ 126.722914456551294, 37.408237522227466 ], [ 126.722931108632423, 37.407718537336351 ], [ 126.723959615224302, 37.402624659338265 ], [ 126.724419284917346, 37.401032282211865 ], [ 126.723911630795087, 37.400741348747289 ], [ 126.72214518361919, 37.40041786112041 ], [ 126.721429540712109, 37.400310825743482 ], [ 126.713481858627532, 37.399150944932735 ], [ 126.712323507301562, 37.399034649720519 ], [ 126.708649517952495, 37.400451164126785 ], [ 126.706539478079492, 37.401364236216594 ], [ 126.703024792673617, 37.403064780592693 ], [ 126.701164799294688, 37.404827335873556 ], [ 126.700544580326977, 37.405079376291596 ], [ 126.69798137928457, 37.406157124582883 ], [ 126.697169087313483, 37.406570055925386 ], [ 126.69665968836496, 37.406877592907691 ], [ 126.693374741694328, 37.408940386368229 ], [ 126.6895347647704, 37.411265537665535 ], [ 126.687096167476994, 37.410626470546958 ], [ 126.687271235777573, 37.410835188953698 ], [ 126.687646196830897, 37.411231560510721 ], [ 126.69249643442943, 37.415083190149765 ], [ 126.693327452507447, 37.415710746955945 ], [ 126.69452732430446, 37.416560544232169 ], [ 126.695337497283631, 37.417100768448769 ], [ 126.696428900772432, 37.4164081163063 ], [ 126.698082868140858, 37.415362665063775 ], [ 126.698617234258393, 37.415107761639952 ], [ 126.705173281366072, 37.412015715540655 ], [ 126.70754885562522, 37.410903570119224 ], [ 126.708815244091767, 37.410310667058049 ], [ 126.708954653835775, 37.410247835196976 ], [ 126.709043423328808, 37.410262319950604 ], [ 126.709225841766965, 37.410488955381169 ], [ 126.709531796735192, 37.4109187533438 ], [ 126.709933310794938, 37.411502553333193 ], [ 126.710056668133674, 37.411729171318399 ], [ 126.710232374676067, 37.412186937784732 ], [ 126.71170885048808, 37.41612022252604 ], [ 126.712177300828913, 37.417467887629755 ], [ 126.712402451868542, 37.418084908177484 ], [ 126.7124114842929, 37.418109653810582 ], [ 126.712506106970821, 37.418119323886224 ], [ 126.712589066693596, 37.418086513678453 ], [ 126.712761226745869, 37.417931350602231 ], [ 126.713190164382667, 37.417033264966243 ], [ 126.71342922833432, 37.416532700884972 ], [ 126.713509485350798, 37.414438616946121 ], [ 126.713421367456448, 37.412848779810908 ], [ 126.714888349584356, 37.413029425907368 ], [ 126.717361655273024, 37.411360598064448 ], [ 126.717404222549945, 37.411304487291858 ], [ 126.717404603141176, 37.411203388089113 ], [ 126.717430159965076, 37.41019084359116 ], [ 126.717580904325999, 37.409292940188394 ], [ 126.717694900009946, 37.408955973618532 ], [ 126.717836621828539, 37.40875404077984 ], [ 126.718232397367188, 37.408485228833911 ], [ 126.718444226368817, 37.408384545103331 ], [ 126.722534013042278, 37.409762173118118 ], [ 126.724005196409166, 37.410216116558175 ] ] ] ] } },
{ "type": "Feature", "properties": { "OBJECTID": 838, "adm_nm": "인천광역시 남동구 논현고잔동", "adm_cd": "2305074", "adm_cd2": "2820071000", "sgg": "28200", "sido": "28", "sidonm": "인천광역시", "sggnm": "남동구" }, "geometry": { "type": "MultiPolygon", "coordinates": [ [ [ [ 126.724419284917346, 37.401032282211865 ], [ 126.727198149965844, 37.401496832447755 ], [ 126.7280234498689, 37.401794636819488 ], [ 126.728401851211231, 37.401931177886496 ], [ 126.728491690696089, 37.401963594778003 ], [ 126.729598334794005, 37.401963658489976 ], [ 126.730275070354153, 37.401963598077963 ], [ 126.731495357777789, 37.401827268003267 ], [ 126.732147837557591, 37.401409027061796 ], [ 126.733584486086187, 37.400488101152234 ], [ 126.73735463866052, 37.397842890123492 ], [ 126.737486502486277, 37.397742099492994 ], [ 126.737565665836698, 37.397649035177501 ], [ 126.737933485189927, 37.397216603270564 ], [ 126.738358682190068, 37.396519490864641 ], [ 126.736541548373069, 37.395426615891878 ], [ 126.736236087568642, 37.395284495910964 ], [ 126.736044977281082, 37.395195575957537 ], [ 126.73344216449938, 37.392166830932979 ], [ 126.7299835889077, 37.388793970017836 ], [ 126.726855887276329, 37.385896070113468 ], [ 126.72091453803047, 37.381138380312748 ], [ 126.717707589821416, 37.381108582169702 ], [ 126.711400636815313, 37.381049739231955 ], [ 126.709885201615606, 37.38157294345767 ], [ 126.710264880352256, 37.383161237567997 ], [ 126.697295454476247, 37.385335025984119 ], [ 126.684852943091968, 37.387374864022448 ], [ 126.674496228131517, 37.389112518012482 ], [ 126.672983195029886, 37.38942298246657 ], [ 126.671830943542858, 37.389891762804183 ], [ 126.667777585664609, 37.392301773767571 ], [ 126.667979886003181, 37.392553819103213 ], [ 126.668367356977029, 37.39290775452681 ], [ 126.669842095806345, 37.394229689742822 ], [ 126.670130835238808, 37.394488040217908 ], [ 126.671354988383868, 37.39556954324236 ], [ 126.673358610745865, 37.397338051693751 ], [ 126.676932615087892, 37.40048443001043 ], [ 126.677828510764257, 37.401265149963962 ], [ 126.678016031290241, 37.401419775558146 ], [ 126.678095243101993, 37.401477885999277 ], [ 126.678221370778985, 37.401570408208705 ], [ 126.678487564953329, 37.401761747708932 ], [ 126.678699002643356, 37.401905678849623 ], [ 126.679018589349198, 37.402101221506619 ], [ 126.679310312991163, 37.402272354938333 ], [ 126.680051088759242, 37.402692135108033 ], [ 126.680268184350908, 37.402779575877219 ], [ 126.680851968106126, 37.402947798762625 ], [ 126.681293643895515, 37.403097243827901 ], [ 126.681614975530834, 37.403206467695171 ], [ 126.682303547819657, 37.403444791589997 ], [ 126.682768238204446, 37.403609618760136 ], [ 126.683314403176922, 37.403847117302604 ], [ 126.68357148379809, 37.403990928684763 ], [ 126.683828468745034, 37.404160316659819 ], [ 126.684017653376429, 37.404292693342242 ], [ 126.68433548918587, 37.404533661414881 ], [ 126.684412140367414, 37.404598285708005 ], [ 126.684639434923383, 37.404815620303111 ], [ 126.684777199936576, 37.40498160878802 ], [ 126.68489326434495, 37.405126056497089 ], [ 126.68503223286865, 37.405325929581366 ], [ 126.685172618676134, 37.405544821886174 ], [ 126.685284573448499, 37.405751625600708 ], [ 126.685343056655284, 37.405868328882008 ], [ 126.685401707849763, 37.406011485412499 ], [ 126.685478908477748, 37.406250911140035 ], [ 126.685515890987674, 37.406571275608322 ], [ 126.687096167476994, 37.410626470546958 ], [ 126.6895347647704, 37.411265537665535 ], [ 126.693374741694328, 37.408940386368229 ], [ 126.69665968836496, 37.406877592907691 ], [ 126.697169087313483, 37.406570055925386 ], [ 126.69798137928457, 37.406157124582883 ], [ 126.700544580326977, 37.405079376291596 ], [ 126.701164799294688, 37.404827335873556 ], [ 126.703024792673617, 37.403064780592693 ], [ 126.706539478079492, 37.401364236216594 ], [ 126.708649517952495, 37.400451164126785 ], [ 126.712323507301562, 37.399034649720519 ], [ 126.713481858627532, 37.399150944932735 ], [ 126.721429540712109, 37.400310825743482 ], [ 126.72214518361919, 37.40041786112041 ], [ 126.723911630795087, 37.400741348747289 ], [ 126.724419284917346, 37.401032282211865 ] ] ] ] } },
{ "type": "Feature", "properties": { "OBJECTID": 3461, "adm_nm": "인천광역시 남동구 장수서창동", "adm_cd": "2305075", "adm_cd2": "2820065000", "sgg": "28200", "sido": "28", "sidonm": "인천광역시", "sggnm": "남동구" }, "geometry": { "type": "MultiPolygon", "coordinates": [ [ [ [ 126.760982054618992, 37.426289006726307 ], [ 126.761463058310753, 37.426401250329768 ], [ 126.761462832810537, 37.426472413851435 ], [ 126.761926130180498, 37.426696325977446 ], [ 126.762015452212367, 37.426668041104556 ], [ 126.762211627639587, 37.426711133784799 ], [ 126.76212717423401, 37.427081013448948 ], [ 126.762043064306908, 37.427341776765793 ], [ 126.761995157839479, 37.427441309389806 ], [ 126.761917432844925, 37.427564503036535 ], [ 126.761833802965356, 37.427673451648019 ], [ 126.761618997332988, 37.427877020254805 ], [ 126.761404310233345, 37.428042635722193 ], [ 126.761004995445887, 37.428274295610599 ], [ 126.760629640219349, 37.428453817134539 ], [ 126.760373412455834, 37.428586136089386 ], [ 126.760182759349931, 37.428675889983623 ], [ 126.760123043035478, 37.428746932593199 ], [ 126.760051230787951, 37.428879624428951 ], [ 126.759475608139851, 37.430292234504925 ], [ 126.75945736575953, 37.43041554760125 ], [ 126.759438865648733, 37.430619511638334 ], [ 126.759467988569966, 37.430814083538074 ], [ 126.759467169225331, 37.431070270309618 ], [ 126.759454633757329, 37.431269502613006 ], [ 126.759412336702468, 37.431473418474873 ], [ 126.759310365215129, 37.431734142491749 ], [ 126.759226134325374, 37.432028113282577 ], [ 126.759154166155454, 37.432208247338309 ], [ 126.741794325825026, 37.432845806834152 ], [ 126.743165571570415, 37.434083332569436 ], [ 126.743211166118115, 37.434141664623489 ], [ 126.743231421917812, 37.434203045059959 ], [ 126.743577895799589, 37.435333571215295 ], [ 126.74359803892041, 37.435428333473425 ], [ 126.743617551882011, 37.43574733820315 ], [ 126.743616265289717, 37.435804980685923 ], [ 126.74346156612593, 37.43833359908465 ], [ 126.74340989242809, 37.438333487347315 ], [ 126.743245613291336, 37.438340011527814 ], [ 126.743159084495787, 37.438360492410901 ], [ 126.743101001699301, 37.438377190336809 ], [ 126.7430638907408, 37.438387862681488 ], [ 126.742994613817046, 37.438422157232409 ], [ 126.742930092476655, 37.438496502380829 ], [ 126.742899133249082, 37.438532176211687 ], [ 126.74281215800579, 37.438683544291152 ], [ 126.742803480767037, 37.438841084365052 ], [ 126.743932446736167, 37.439654734372716 ], [ 126.746671423672979, 37.44136572689024 ], [ 126.74767886461261, 37.441720719555299 ], [ 126.747743771075577, 37.44174051002291 ], [ 126.747798089859401, 37.441749003989628 ], [ 126.748265284913316, 37.441769003059711 ], [ 126.748663431136862, 37.44176563088282 ], [ 126.749277361112334, 37.441823607964629 ], [ 126.749348177102164, 37.44186782395785 ], [ 126.74963617366879, 37.442249835341393 ], [ 126.750195862080304, 37.44313141361674 ], [ 126.75023225654482, 37.44326563633669 ], [ 126.750258243695612, 37.443366244589932 ], [ 126.75034956452096, 37.444343226514512 ], [ 126.750379963629825, 37.444682767710468 ], [ 126.750363522667314, 37.444900787685832 ], [ 126.750315679242718, 37.445047374394882 ], [ 126.750251423278456, 37.445136617332118 ], [ 126.750075443266553, 37.445214551432315 ], [ 126.749953403196798, 37.445243824550573 ], [ 126.749310748836407, 37.445309677715983 ], [ 126.74868409932192, 37.445316712981729 ], [ 126.748378692068172, 37.445303441064844 ], [ 126.748085513552851, 37.445281921249432 ], [ 126.746409435854801, 37.445575227738907 ], [ 126.745714760727566, 37.446458050695391 ], [ 126.745374018569407, 37.446975667559776 ], [ 126.745193101939705, 37.447322119470293 ], [ 126.745062064810597, 37.447450232923806 ], [ 126.744989679619337, 37.447479434981219 ], [ 126.744701990983913, 37.447595481238423 ], [ 126.744182668816407, 37.447666314655933 ], [ 126.743832133475252, 37.447714123644062 ], [ 126.741575201023821, 37.447905761600417 ], [ 126.740267333328561, 37.448013032008902 ], [ 126.740225007198774, 37.448015031321191 ], [ 126.742722574686496, 37.450682553666951 ], [ 126.742940208745068, 37.452165305216589 ], [ 126.742997721587471, 37.456864417489733 ], [ 126.74296535087872, 37.457328170530921 ], [ 126.742648346716052, 37.458168589274386 ], [ 126.742271422860952, 37.459395466054687 ], [ 126.742282372874385, 37.45947231614862 ], [ 126.742329084661051, 37.459586751177895 ], [ 126.742420416479348, 37.459777325539335 ], [ 126.742633897377104, 37.460070326432614 ], [ 126.742823063356369, 37.460081900617226 ], [ 126.742987629910672, 37.460115746159701 ], [ 126.743134649676207, 37.460157931969093 ], [ 126.743547685623739, 37.460281618380243 ], [ 126.743586176580877, 37.460295651852711 ], [ 126.743591904665834, 37.460327546808593 ], [ 126.743348383723827, 37.460761705855781 ], [ 126.742927964966114, 37.461440688458254 ], [ 126.742432882796521, 37.462678579606319 ], [ 126.743490472558562, 37.464934304764782 ], [ 126.744122037935455, 37.465151991098189 ], [ 126.745135996324578, 37.465368107405773 ], [ 126.746047025198564, 37.464817913405277 ], [ 126.747202125205348, 37.465557963172394 ], [ 126.747569462541108, 37.465713081919013 ], [ 126.747664622700597, 37.465739432234592 ], [ 126.748710002166462, 37.46585451152616 ], [ 126.749713735409031, 37.465793477876979 ], [ 126.751068476975547, 37.465333363828293 ], [ 126.751298640817012, 37.465258007398326 ], [ 126.751378308280849, 37.465233135495893 ], [ 126.751721131721368, 37.465198630931837 ], [ 126.75273397376462, 37.46518531707089 ], [ 126.754523050967066, 37.465731739406081 ], [ 126.756274899172027, 37.467901696425436 ], [ 126.756778203713111, 37.468714772720148 ], [ 126.7569059558475, 37.469116911985346 ], [ 126.756935330701552, 37.469174521820413 ], [ 126.758397528960117, 37.469562708304437 ], [ 126.762527980227972, 37.470223508174044 ], [ 126.762633039475247, 37.47023941470993 ], [ 126.764831038967444, 37.47011987300916 ], [ 126.766130899648559, 37.469972938924663 ], [ 126.766367959473115, 37.469904006435605 ], [ 126.7664417151138, 37.469897037210245 ], [ 126.766755502055489, 37.470316725389679 ], [ 126.767741701104626, 37.471761614987166 ], [ 126.772201915287738, 37.472545395568382 ], [ 126.774062747874751, 37.471802538440151 ], [ 126.778167494064874, 37.471806995426263 ], [ 126.778052523444785, 37.470903756352953 ], [ 126.777974094611352, 37.470165628353413 ], [ 126.77795621966149, 37.469997074376757 ], [ 126.777968626507658, 37.469961564795575 ], [ 126.777987887502292, 37.469907366990505 ], [ 126.778461351786262, 37.46947535653716 ], [ 126.779194794103759, 37.468687769331439 ], [ 126.779421098542471, 37.468379309603378 ], [ 126.779455647984264, 37.46829132742527 ], [ 126.779661510024042, 37.467115501317195 ], [ 126.77984193551697, 37.465791386678632 ], [ 126.779709717236685, 37.465331076321036 ], [ 126.779694108288766, 37.465286692278859 ], [ 126.779679687258835, 37.465257571781407 ], [ 126.779647216031904, 37.465216939127174 ], [ 126.779594003418666, 37.465164786907657 ], [ 126.779456086659181, 37.465047419046634 ], [ 126.778514419440157, 37.461968535551947 ], [ 126.777696684774369, 37.459060116853266 ], [ 126.777447779183234, 37.457518504435313 ], [ 126.777476685686395, 37.457401514126275 ], [ 126.778294327212976, 37.455077842905752 ], [ 126.778966452917658, 37.454728001701248 ], [ 126.779365007946282, 37.454577995618656 ], [ 126.779715911469765, 37.454446175530926 ], [ 126.77976084898161, 37.454397217410694 ], [ 126.779769356462523, 37.454325945045106 ], [ 126.779206220018224, 37.452698945918669 ], [ 126.778315837519514, 37.450789381866805 ], [ 126.777546910953674, 37.450820503675942 ], [ 126.774755784301249, 37.450561583576985 ], [ 126.771737577937401, 37.4502721748783 ], [ 126.771624572630074, 37.450153806544037 ], [ 126.770706567685679, 37.448506200415601 ], [ 126.769576593660688, 37.445180836648632 ], [ 126.768838157185442, 37.442934885116834 ], [ 126.769228872224957, 37.442353206585693 ], [ 126.769327984873499, 37.44211083175756 ], [ 126.771048152876844, 37.436823351938493 ], [ 126.771120613652386, 37.436518752511994 ], [ 126.771151198998268, 37.436355705335622 ], [ 126.771307315298486, 37.435231800175956 ], [ 126.771310300855248, 37.435143046599265 ], [ 126.771274827486749, 37.431382306990464 ], [ 126.770609225956548, 37.429554186450638 ], [ 126.770352231524242, 37.429048176870879 ], [ 126.770045316732464, 37.428633148909135 ], [ 126.769781864964543, 37.428277278885894 ], [ 126.769307674620791, 37.427660586660977 ], [ 126.769025861323485, 37.427340971234365 ], [ 126.768740310695165, 37.427175761751549 ], [ 126.768671043974493, 37.427142722078266 ], [ 126.767369344332764, 37.426593557963251 ], [ 126.763814921086905, 37.425759109259602 ], [ 126.760982054618992, 37.426289006726307 ] ] ] ] } }
]
}
