{
"type": "FeatureCollection",
"name": "seogu",
"crs": { "type": "name", "properties": { "name": "urn:ogc:def:crs:OGC:1.3:CRS84" } },
"features": [
{ "type": "Feature", "properties": { "OBJECTID": 873, "adm_nm": "인천광역시 서구 검암경서동", "adm_cd": "2308051", "adm_cd2": "2826051500", "sgg": "28260", "sido": "28", "sidonm": "인천광역시", "sggnm": "서구" }, "geometry": { "type": "MultiPolygon", "coordinates": [ [ [ [ 126.568323495852439, 37.57281742128982 ], [ 126.568428253750952, 37.572813716202333 ], [ 126.568660772744451, 37.572838448214902 ], [ 126.568806958301181, 37.572907443309511 ], [ 126.569297880067197, 37.573335390934155 ], [ 126.569348619726455, 37.573339899215426 ], [ 126.569745890958373, 37.57323197301826 ], [ 126.571102533961081, 37.572551100540764 ], [ 126.571159058913182, 37.572268487842678 ], [ 126.57105912329817, 37.572029364089836 ], [ 126.570013371895016, 37.570466668809281 ], [ 126.569233263686925, 37.570246318684845 ], [ 126.564152167933614, 37.571017213885263 ], [ 126.561577171605421, 37.571683265289288 ], [ 126.561447153870063, 37.571733325885702 ], [ 126.561209544160931, 37.571850379714263 ], [ 126.558657208593743, 37.57314954348513 ], [ 126.555714817373328, 37.576137343707678 ], [ 126.555802989845418, 37.578855213817938 ], [ 126.556400039818186, 37.578856204474526 ], [ 126.556788457834415, 37.578760093969898 ], [ 126.558020056871342, 37.57785896984381 ], [ 126.55842632001476, 37.577136784798284 ], [ 126.559001633561238, 37.576367839660961 ], [ 126.559321216460205, 37.576193614833002 ], [ 126.560242239847994, 37.576116604284437 ], [ 126.561277155238244, 37.57534463522488 ], [ 126.563129850932086, 37.574508209753667 ], [ 126.566596108293624, 37.573134555645865 ], [ 126.567165271069896, 37.572959114395786 ], [ 126.568323495852439, 37.57281742128982 ] ] ], [ [ [ 126.6691022429101, 37.586166715804914 ], [ 126.669160846769088, 37.586129847571684 ], [ 126.669312802231445, 37.586057205524746 ], [ 126.669799388316335, 37.585824661101327 ], [ 126.672873919559294, 37.584830841292352 ], [ 126.675012993234432, 37.585592552356459 ], [ 126.675659891940015, 37.585786224199275 ], [ 126.676528509530044, 37.583872972664885 ], [ 126.678149637160786, 37.58366640952076 ], [ 126.67944430130639, 37.584021589888806 ], [ 126.681789204267673, 37.583382805456012 ], [ 126.683091207312387, 37.58146033855941 ], [ 126.682622703523677, 37.579530626271705 ], [ 126.68218275709512, 37.578488052498336 ], [ 126.68213714843543, 37.577514254883994 ], [ 126.682148658374928, 37.577478495005444 ], [ 126.682170313100485, 37.577411263332372 ], [ 126.682322571129234, 37.577279695377634 ], [ 126.682454256861789, 37.577221577524092 ], [ 126.686062823302294, 37.576107298029747 ], [ 126.686320696831629, 37.576083465431928 ], [ 126.68652512751116, 37.576139715034458 ], [ 126.687920806853697, 37.576576168538828 ], [ 126.692415371437605, 37.575086889489398 ], [ 126.694598744702319, 37.574498554962176 ], [ 126.697783091205778, 37.573819352411377 ], [ 126.69792512782972, 37.57380501836932 ], [ 126.698962338299083, 37.573421343537106 ], [ 126.69899361929285, 37.573408350376624 ], [ 126.699057810336811, 37.573381668439062 ], [ 126.70024219037461, 37.572094309366065 ], [ 126.700291320101115, 37.572038700979121 ], [ 126.700362504245206, 37.57195812542404 ], [ 126.700405598458232, 37.571685143997975 ], [ 126.700367295623451, 37.571162198833214 ], [ 126.700315977234013, 37.571030710847673 ], [ 126.699190706701216, 37.569325227913062 ], [ 126.699126178999038, 37.569268413569176 ], [ 126.699483339808012, 37.567744486565537 ], [ 126.700135732383259, 37.565590191930553 ], [ 126.700194488682115, 37.565474485592127 ], [ 126.700237720661562, 37.56544595922729 ], [ 126.70029175855521, 37.565410306191808 ], [ 126.701715393941896, 37.564909114886923 ], [ 126.701945132697261, 37.564886460125123 ], [ 126.702884605198676, 37.564966135302889 ], [ 126.703066305950273, 37.564951339908021 ], [ 126.70316134960612, 37.564910155957627 ], [ 126.703349728169158, 37.564699437123636 ], [ 126.703428285308533, 37.564470341506883 ], [ 126.703442132736484, 37.564264312419176 ], [ 126.703380536901051, 37.563870075005916 ], [ 126.702637419738053, 37.561253806671388 ], [ 126.702354755654881, 37.560753398762841 ], [ 126.702121262527513, 37.560500355799505 ], [ 126.701569536276764, 37.560151273974085 ], [ 126.699512612158955, 37.558894190078178 ], [ 126.697420577772391, 37.559360338854574 ], [ 126.695443926077473, 37.55897164676194 ], [ 126.69416502456221, 37.557919686419545 ], [ 126.69117010587334, 37.55811647863036 ], [ 126.690225439460832, 37.559000610604976 ], [ 126.689933852600021, 37.559681871173794 ], [ 126.686349998616862, 37.562155387277784 ], [ 126.685512411056948, 37.562143689896672 ], [ 126.682091527113386, 37.562095811507525 ], [ 126.680674561137678, 37.561258428771403 ], [ 126.679221049411581, 37.559549724492612 ], [ 126.678563739407153, 37.558688255951537 ], [ 126.677458750124217, 37.556228169448012 ], [ 126.677450367583248, 37.556119610266435 ], [ 126.670624094957631, 37.553748865681058 ], [ 126.670428422620631, 37.553696328566453 ], [ 126.670062884824745, 37.553664112034731 ], [ 126.667685244424675, 37.553823775577449 ], [ 126.667254453663546, 37.553780965646979 ], [ 126.6669935323376, 37.553717842441579 ], [ 126.665494074221229, 37.553172906943118 ], [ 126.663718816618712, 37.552486567446486 ], [ 126.662891664985523, 37.551886288798691 ], [ 126.661820504531363, 37.550988076058708 ], [ 126.661133515164707, 37.550411966846681 ], [ 126.660635943588574, 37.550122889860582 ], [ 126.659922824944132, 37.54995406107237 ], [ 126.658688938191105, 37.54975494526839 ], [ 126.657925470344551, 37.54968125820794 ], [ 126.656895452672259, 37.549593663708471 ], [ 126.656446750506049, 37.549465282482451 ], [ 126.656128239968496, 37.549249888801214 ], [ 126.655840145141198, 37.548935323454856 ], [ 126.65389601750941, 37.546913313514587 ], [ 126.653691823318454, 37.546809437828749 ], [ 126.652991447739893, 37.546505350395606 ], [ 126.650902683543578, 37.5458694569705 ], [ 126.650095245971485, 37.545739867566091 ], [ 126.649768598387809, 37.545657353956805 ], [ 126.649629251658993, 37.545565594254185 ], [ 126.649430645979308, 37.545334662487832 ], [ 126.64942702812192, 37.545048735101901 ], [ 126.649438356548117, 37.544758871083943 ], [ 126.649451446116302, 37.544676248149287 ], [ 126.650000550829589, 37.543833263707086 ], [ 126.646647808623058, 37.545477234181561 ], [ 126.644940285185328, 37.546314439425153 ], [ 126.644706166030474, 37.546512109710939 ], [ 126.644021090545209, 37.547038005330592 ], [ 126.643706796394028, 37.547232505496467 ], [ 126.641180958970764, 37.548373984996388 ], [ 126.641137201514269, 37.548388034856913 ], [ 126.636551775226607, 37.549842894711503 ], [ 126.635026758680667, 37.55013730744691 ], [ 126.633178081284143, 37.550650530476709 ], [ 126.632481920766381, 37.550876356741561 ], [ 126.633912740293113, 37.552949045639366 ], [ 126.635138665334296, 37.554724815515655 ], [ 126.636751208820584, 37.557060456120759 ], [ 126.637198215695136, 37.557331600310334 ], [ 126.637305215993564, 37.557396502942098 ], [ 126.637559461739244, 37.558065966695338 ], [ 126.63537552644965, 37.558469050400404 ], [ 126.633761453154989, 37.558121841395597 ], [ 126.629338185503372, 37.557047031991566 ], [ 126.626354391219948, 37.556183958095161 ], [ 126.620669557589466, 37.554707367672378 ], [ 126.617028515190086, 37.553859207376924 ], [ 126.615552412817678, 37.553517190232988 ], [ 126.610509005583495, 37.552279567596379 ], [ 126.61050282092782, 37.551988481386921 ], [ 126.610496850327138, 37.551706914826653 ], [ 126.609797187519575, 37.551089710234692 ], [ 126.606582112701616, 37.553685439218185 ], [ 126.606079649907144, 37.55409108397744 ], [ 126.60451019831747, 37.555604033047132 ], [ 126.598830834040555, 37.55470055356556 ], [ 126.593715792554988, 37.554256865548147 ], [ 126.593341546336134, 37.559354566174861 ], [ 126.590601646384428, 37.562149917988251 ], [ 126.585687038200021, 37.567163322441097 ], [ 126.581493493651976, 37.571440463397977 ], [ 126.575534262032448, 37.583408705721922 ], [ 126.572579069406274, 37.587784222507025 ], [ 126.579600900463532, 37.589539025633336 ], [ 126.590206410149761, 37.592189014531023 ], [ 126.591864447505472, 37.592707314660196 ], [ 126.593309355814014, 37.588199703394416 ], [ 126.593826406471607, 37.586324250214112 ], [ 126.593736220438018, 37.585964623381024 ], [ 126.593491550845812, 37.585208480169513 ], [ 126.59354772014278, 37.585047349139586 ], [ 126.593798627677629, 37.584659570103483 ], [ 126.594253524876493, 37.584037835397915 ], [ 126.595512956271904, 37.582883562885684 ], [ 126.596502960807584, 37.582131668813126 ], [ 126.596983638989514, 37.581847328755913 ], [ 126.597066761315162, 37.581810949027918 ], [ 126.598467331827862, 37.581808407065822 ], [ 126.599361442825966, 37.581745458502134 ], [ 126.600172236208806, 37.58175555137089 ], [ 126.602170144386562, 37.582048312363767 ], [ 126.602344938689797, 37.582100235015787 ], [ 126.602501106117742, 37.582188759212499 ], [ 126.60264786774529, 37.582313915472461 ], [ 126.602776081397408, 37.582461009429046 ], [ 126.602830663270112, 37.582593185480697 ], [ 126.602811140041993, 37.582798445545315 ], [ 126.602689478731989, 37.583150015555582 ], [ 126.601943447851113, 37.584812079037334 ], [ 126.601915138190904, 37.584936644878972 ], [ 126.601933058274554, 37.585032035062397 ], [ 126.602006105326694, 37.585156943045156 ], [ 126.603480055870392, 37.586275174186959 ], [ 126.606291492862042, 37.587518018152259 ], [ 126.610706181853431, 37.587570093090925 ], [ 126.613627236821657, 37.585823070319272 ], [ 126.619795578088343, 37.585956625045185 ], [ 126.621214796959862, 37.585563917206784 ], [ 126.621801864523263, 37.584820407627788 ], [ 126.621962316425837, 37.578852934336304 ], [ 126.621970591813181, 37.578148260718429 ], [ 126.6224974777233, 37.577907680206856 ], [ 126.623894093088467, 37.574823103244753 ], [ 126.623956054680463, 37.56754088840016 ], [ 126.623986242333629, 37.56736380026279 ], [ 126.624097396898932, 37.567278104672056 ], [ 126.624278868398051, 37.567167692502878 ], [ 126.632748032763317, 37.569808020288079 ], [ 126.632846931351153, 37.572008887497695 ], [ 126.63962153849792, 37.573973572403204 ], [ 126.64255437440579, 37.574784235170725 ], [ 126.646753521351712, 37.576341455611782 ], [ 126.650490851533021, 37.577727263362348 ], [ 126.650424145823223, 37.5794032299927 ], [ 126.649737542502493, 37.579685173736081 ], [ 126.649638774340545, 37.58004083140645 ], [ 126.649540503052506, 37.582623804195336 ], [ 126.650289752599392, 37.582779877163723 ], [ 126.65046107040348, 37.582812874042602 ], [ 126.651318959581445, 37.582730953254881 ], [ 126.651449792267584, 37.58269237153376 ], [ 126.651916842155259, 37.582362448500398 ], [ 126.652096981337579, 37.582259038034671 ], [ 126.652636813350554, 37.582078737194401 ], [ 126.65274340920611, 37.582048998723629 ], [ 126.65309418943707, 37.582017298964765 ], [ 126.653203994274151, 37.582022292366197 ], [ 126.655823697997775, 37.58239378962417 ], [ 126.656737530699061, 37.582571840114632 ], [ 126.657667641665782, 37.582762958117542 ], [ 126.658191179077676, 37.582896444783927 ], [ 126.658134948465559, 37.583406296780154 ], [ 126.658333464113056, 37.583706094681681 ], [ 126.660311962647839, 37.583881544857164 ], [ 126.666989497365208, 37.584330216356662 ], [ 126.66831635823047, 37.584085999482994 ], [ 126.669510791740592, 37.584020109452666 ], [ 126.669516911723534, 37.584057162897849 ], [ 126.669508541817407, 37.584472387873042 ], [ 126.669438588900519, 37.58500340408785 ], [ 126.669316997547213, 37.585601934090775 ], [ 126.6691022429101, 37.586166715804914 ] ] ] ] } },
{ "type": "Feature", "properties": { "OBJECTID": 874, "adm_nm": "인천광역시 서구 연희동", "adm_cd": "2308053", "adm_cd2": "2826053000", "sgg": "28260", "sido": "28", "sidonm": "인천광역시", "sggnm": "서구" }, "geometry": { "type": "MultiPolygon", "coordinates": [ [ [ [ 126.699512612158955, 37.558894190078178 ], [ 126.699679285036126, 37.558628060741832 ], [ 126.700367606789385, 37.557790749899489 ], [ 126.701930993525792, 37.556140307137603 ], [ 126.702104856545162, 37.556033450900742 ], [ 126.705147483430451, 37.55508328167496 ], [ 126.705217825741656, 37.555098154960142 ], [ 126.706511327769462, 37.555732977261343 ], [ 126.70721549721577, 37.556106093567003 ], [ 126.707466570610706, 37.556257104408232 ], [ 126.707666270428462, 37.556283120639677 ], [ 126.707852268936549, 37.556181432595103 ], [ 126.711053621224849, 37.554126078535198 ], [ 126.711027187376601, 37.55376490231302 ], [ 126.710997121593834, 37.553354143618854 ], [ 126.709535053621153, 37.551062056797228 ], [ 126.709295944048876, 37.550679116450738 ], [ 126.708400562053512, 37.547644674687213 ], [ 126.708104881568829, 37.54666831595037 ], [ 126.705606629092102, 37.544741950648287 ], [ 126.705714905734069, 37.544625653929373 ], [ 126.707087127106576, 37.543151791608075 ], [ 126.706920634277424, 37.542893103617388 ], [ 126.706161622797893, 37.542587744242972 ], [ 126.704876305824584, 37.542070658777426 ], [ 126.699276163568186, 37.540431971840007 ], [ 126.697567907281524, 37.541880661108038 ], [ 126.697202201797097, 37.541912643356234 ], [ 126.692080796594666, 37.541086974430328 ], [ 126.691934366942391, 37.541008491711857 ], [ 126.691898130476048, 37.540989063274026 ], [ 126.691995944106395, 37.54064897132362 ], [ 126.692214896929755, 37.539887639749111 ], [ 126.692908068084407, 37.537477222395879 ], [ 126.69169501032232, 37.535687967309542 ], [ 126.691506431051579, 37.535586519660612 ], [ 126.69062468789032, 37.535676120345165 ], [ 126.689420774434438, 37.535798478001404 ], [ 126.688007787436419, 37.535942038310793 ], [ 126.684617637309415, 37.535624362449241 ], [ 126.684160279041478, 37.535454794983572 ], [ 126.683611495053754, 37.535198348339186 ], [ 126.683352576729803, 37.535590842678623 ], [ 126.679900805772888, 37.536309659573412 ], [ 126.678120455875771, 37.536213990003482 ], [ 126.678127270636608, 37.537117697113118 ], [ 126.6765153846316, 37.538525334351036 ], [ 126.676285072222186, 37.538627210422462 ], [ 126.67605578939289, 37.538728247770266 ], [ 126.675582716989794, 37.538932642627053 ], [ 126.674925474022743, 37.539116350295338 ], [ 126.672836278054803, 37.539660925662176 ], [ 126.672473256128967, 37.539742677784417 ], [ 126.672352238319576, 37.539737753774112 ], [ 126.670484516767687, 37.539364234245397 ], [ 126.669956182510646, 37.539109434560615 ], [ 126.669844431361071, 37.53905553863796 ], [ 126.669797745647628, 37.538966230513751 ], [ 126.66959002193714, 37.538568879626823 ], [ 126.669313533645877, 37.5382441402962 ], [ 126.66835260854306, 37.537968603462687 ], [ 126.666280810928981, 37.537493871674705 ], [ 126.665671552846149, 37.537475091227698 ], [ 126.665063602882725, 37.537641219664245 ], [ 126.664143848432985, 37.53725761449563 ], [ 126.663741683903794, 37.537535380017538 ], [ 126.663451951687833, 37.538190205169606 ], [ 126.662608738548855, 37.53854754160411 ], [ 126.661635025089396, 37.538861668346129 ], [ 126.65978924163052, 37.54039283411187 ], [ 126.658673549412867, 37.540381482988266 ], [ 126.651323135657506, 37.540306430875411 ], [ 126.649953705200531, 37.540292396444521 ], [ 126.650000550829589, 37.543833263707086 ], [ 126.649451446116302, 37.544676248149287 ], [ 126.649438356548117, 37.544758871083943 ], [ 126.64942702812192, 37.545048735101901 ], [ 126.649430645979308, 37.545334662487832 ], [ 126.649629251658993, 37.545565594254185 ], [ 126.649768598387809, 37.545657353956805 ], [ 126.650095245971485, 37.545739867566091 ], [ 126.650902683543578, 37.5458694569705 ], [ 126.652991447739893, 37.546505350395606 ], [ 126.653691823318454, 37.546809437828749 ], [ 126.65389601750941, 37.546913313514587 ], [ 126.655840145141198, 37.548935323454856 ], [ 126.656128239968496, 37.549249888801214 ], [ 126.656446750506049, 37.549465282482451 ], [ 126.656895452672259, 37.549593663708471 ], [ 126.657925470344551, 37.54968125820794 ], [ 126.658688938191105, 37.54975494526839 ], [ 126.659922824944132, 37.54995406107237 ], [ 126.660635943588574, 37.550122889860582 ], [ 126.661133515164707, 37.550411966846681 ], [ 126.661820504531363, 37.550988076058708 ], [ 126.662891664985523, 37.551886288798691 ], [ 126.663718816618712, 37.552486567446486 ], [ 126.665494074221229, 37.553172906943118 ], [ 126.6669935323376, 37.553717842441579 ], [ 126.667254453663546, 37.553780965646979 ], [ 126.667685244424675, 37.553823775577449 ], [ 126.670062884824745, 37.553664112034731 ], [ 126.670428422620631, 37.553696328566453 ], [ 126.670624094957631, 37.553748865681058 ], [ 126.677450367583248, 37.556119610266435 ], [ 126.677458750124217, 37.556228169448012 ], [ 126.678563739407153, 37.558688255951537 ], [ 126.679221049411581, 37.559549724492612 ], [ 126.680674561137678, 37.561258428771403 ], [ 126.682091527113386, 37.562095811507525 ], [ 126.685512411056948, 37.562143689896672 ], [ 126.686349998616862, 37.562155387277784 ], [ 126.689933852600021, 37.559681871173794 ], [ 126.690225439460832, 37.559000610604976 ], [ 126.69117010587334, 37.55811647863036 ], [ 126.69416502456221, 37.557919686419545 ], [ 126.695443926077473, 37.55897164676194 ], [ 126.697420577772391, 37.559360338854574 ], [ 126.699512612158955, 37.558894190078178 ] ] ] ] } },
{ "type": "Feature", "properties": { "OBJECTID": 875, "adm_nm": "인천광역시 서구 가정1동", "adm_cd": "2308054", "adm_cd2": "2826054200", "sgg": "28260", "sido": "28", "sidonm": "인천광역시", "sggnm": "서구" }, "geometry": { "type": "MultiPolygon", "coordinates": [ [ [ [ 126.6765153846316, 37.538525334351036 ], [ 126.676585458399344, 37.538305676958672 ], [ 126.676440856004419, 37.536275646859664 ], [ 126.676193948844968, 37.53035174631168 ], [ 126.676094036140555, 37.527799231745703 ], [ 126.676107455787772, 37.527653579891265 ], [ 126.676130145243107, 37.527480469438352 ], [ 126.676149059063718, 37.527345644017053 ], [ 126.67619478192222, 37.527055571628281 ], [ 126.67626829379283, 37.52677312006913 ], [ 126.676310377945256, 37.526616377935369 ], [ 126.676478910481663, 37.526025261303261 ], [ 126.676588262992638, 37.525643614732608 ], [ 126.677195030891895, 37.523693378284342 ], [ 126.677490222350301, 37.523315860913939 ], [ 126.680112995414675, 37.520948391234775 ], [ 126.679820514732484, 37.520727224072076 ], [ 126.67960289163905, 37.520533462260907 ], [ 126.679507788992638, 37.52044877963133 ], [ 126.679471727170579, 37.520416666744268 ], [ 126.678964852272998, 37.51982235573378 ], [ 126.678749802304353, 37.519570198924697 ], [ 126.678448595598709, 37.519195400151006 ], [ 126.678178942702957, 37.518859854484468 ], [ 126.67811334506986, 37.518778226067539 ], [ 126.677927337044039, 37.518546759096893 ], [ 126.677904241304404, 37.518511262216215 ], [ 126.677844858973373, 37.518419941541794 ], [ 126.677750833699761, 37.518241832120324 ], [ 126.677618788073261, 37.517989013536415 ], [ 126.677234414084694, 37.5171544512568 ], [ 126.677150968544893, 37.516911943099693 ], [ 126.677030321400267, 37.516561306008228 ], [ 126.676900053728133, 37.516033160346574 ], [ 126.676873033775792, 37.515923600744095 ], [ 126.676868713851803, 37.51589389852527 ], [ 126.676791880919595, 37.515365480630479 ], [ 126.676750783167222, 37.515082825061519 ], [ 126.676746265013165, 37.515012463803856 ], [ 126.676634648415359, 37.513270246865481 ], [ 126.672693171497869, 37.513421443753622 ], [ 126.673011314145853, 37.518772286529121 ], [ 126.673103396551781, 37.520322416284927 ], [ 126.673226003086683, 37.522419401444061 ], [ 126.667863465883229, 37.523851650205586 ], [ 126.66663264891163, 37.523673295287246 ], [ 126.665697105286455, 37.523353741664778 ], [ 126.663569904809464, 37.525567051083797 ], [ 126.66151787010341, 37.526781023457254 ], [ 126.661424666760198, 37.527509841043916 ], [ 126.661400563318821, 37.52772150397962 ], [ 126.661400248916109, 37.527790527958253 ], [ 126.662310026296865, 37.532756036249587 ], [ 126.663599923977259, 37.534413172302635 ], [ 126.665381053278026, 37.535828603639573 ], [ 126.665063602882725, 37.537641219664245 ], [ 126.665671552846149, 37.537475091227698 ], [ 126.666280810928981, 37.537493871674705 ], [ 126.66835260854306, 37.537968603462687 ], [ 126.669313533645877, 37.5382441402962 ], [ 126.66959002193714, 37.538568879626823 ], [ 126.669797745647628, 37.538966230513751 ], [ 126.669844431361071, 37.53905553863796 ], [ 126.669956182510646, 37.539109434560615 ], [ 126.670484516767687, 37.539364234245397 ], [ 126.672352238319576, 37.539737753774112 ], [ 126.672473256128967, 37.539742677784417 ], [ 126.672836278054803, 37.539660925662176 ], [ 126.674925474022743, 37.539116350295338 ], [ 126.675582716989794, 37.538932642627053 ], [ 126.67605578939289, 37.538728247770266 ], [ 126.676285072222186, 37.538627210422462 ], [ 126.6765153846316, 37.538525334351036 ] ] ] ] } },
{ "type": "Feature", "properties": { "OBJECTID": 876, "adm_nm": "인천광역시 서구 가정2동", "adm_cd": "2308055", "adm_cd2": "2826054300", "sgg": "28260", "sido": "28", "sidonm": "인천광역시", "sggnm": "서구" }, "geometry": { "type": "MultiPolygon", "coordinates": [ [ [ [ 126.683611495053754, 37.535198348339186 ], [ 126.683702066444496, 37.534427000499548 ], [ 126.683285520035597, 37.533848960562395 ], [ 126.682781689956897, 37.533277612356734 ], [ 126.682718839970946, 37.533178976649339 ], [ 126.682590935507434, 37.532978198089864 ], [ 126.682464158800016, 37.532004690446421 ], [ 126.682895629249089, 37.531123079299803 ], [ 126.683448436402259, 37.531117504784817 ], [ 126.683986692733967, 37.531112078608501 ], [ 126.686920981354362, 37.530737635693875 ], [ 126.687481068810868, 37.528306258674625 ], [ 126.68771669559996, 37.526707959864289 ], [ 126.687784168151339, 37.526250233648106 ], [ 126.687831394184698, 37.525929923283726 ], [ 126.688944785516327, 37.52473728313624 ], [ 126.690309771786403, 37.523752964154284 ], [ 126.690569975486241, 37.523565334017135 ], [ 126.686377585296924, 37.523315119822939 ], [ 126.686013470078748, 37.523272110878636 ], [ 126.685054725435592, 37.523120879952835 ], [ 126.683998041874261, 37.522882010587217 ], [ 126.683299259235227, 37.522634762418377 ], [ 126.683198991679049, 37.522599279097079 ], [ 126.683015104170877, 37.522529189897661 ], [ 126.682926796784287, 37.522495525963414 ], [ 126.682280680707947, 37.522220687414801 ], [ 126.681722943163265, 37.521940060911291 ], [ 126.681476179085934, 37.521804773325933 ], [ 126.681355901366928, 37.521729217720299 ], [ 126.68018035798535, 37.520990713456875 ], [ 126.680112995414675, 37.520948391234775 ], [ 126.677490222350301, 37.523315860913939 ], [ 126.677195030891895, 37.523693378284342 ], [ 126.676588262992638, 37.525643614732608 ], [ 126.676478910481663, 37.526025261303261 ], [ 126.676310377945256, 37.526616377935369 ], [ 126.67626829379283, 37.52677312006913 ], [ 126.67619478192222, 37.527055571628281 ], [ 126.676149059063718, 37.527345644017053 ], [ 126.676130145243107, 37.527480469438352 ], [ 126.676107455787772, 37.527653579891265 ], [ 126.676094036140555, 37.527799231745703 ], [ 126.676193948844968, 37.53035174631168 ], [ 126.676440856004419, 37.536275646859664 ], [ 126.676585458399344, 37.538305676958672 ], [ 126.6765153846316, 37.538525334351036 ], [ 126.678127270636608, 37.537117697113118 ], [ 126.678120455875771, 37.536213990003482 ], [ 126.679900805772888, 37.536309659573412 ], [ 126.683352576729803, 37.535590842678623 ], [ 126.683611495053754, 37.535198348339186 ] ] ] ] } },
{ "type": "Feature", "properties": { "OBJECTID": 877, "adm_nm": "인천광역시 서구 가정3동", "adm_cd": "2308056", "adm_cd2": "2826054400", "sgg": "28260", "sido": "28", "sidonm": "인천광역시", "sggnm": "서구" }, "geometry": { "type": "MultiPolygon", "coordinates": [ [ [ [ 126.683280985551605, 37.514663075692283 ], [ 126.680353944595126, 37.511774385363559 ], [ 126.676634648415359, 37.513270246865481 ], [ 126.676746265013165, 37.515012463803856 ], [ 126.676750783167222, 37.515082825061519 ], [ 126.676791880919595, 37.515365480630479 ], [ 126.676868713851803, 37.51589389852527 ], [ 126.676873033775792, 37.515923600744095 ], [ 126.676900053728133, 37.516033160346574 ], [ 126.677030321400267, 37.516561306008228 ], [ 126.677150968544893, 37.516911943099693 ], [ 126.677234414084694, 37.5171544512568 ], [ 126.677618788073261, 37.517989013536415 ], [ 126.677750833699761, 37.518241832120324 ], [ 126.677844858973373, 37.518419941541794 ], [ 126.677904241304404, 37.518511262216215 ], [ 126.677927337044039, 37.518546759096893 ], [ 126.67811334506986, 37.518778226067539 ], [ 126.678178942702957, 37.518859854484468 ], [ 126.678448595598709, 37.519195400151006 ], [ 126.678749802304353, 37.519570198924697 ], [ 126.678964852272998, 37.51982235573378 ], [ 126.679471727170579, 37.520416666744268 ], [ 126.679507788992638, 37.52044877963133 ], [ 126.67960289163905, 37.520533462260907 ], [ 126.679820514732484, 37.520727224072076 ], [ 126.680112995414675, 37.520948391234775 ], [ 126.68018035798535, 37.520990713456875 ], [ 126.681355901366928, 37.521729217720299 ], [ 126.681476179085934, 37.521804773325933 ], [ 126.681722943163265, 37.521940060911291 ], [ 126.682280680707947, 37.522220687414801 ], [ 126.682926796784287, 37.522495525963414 ], [ 126.683015104170877, 37.522529189897661 ], [ 126.683198991679049, 37.522599279097079 ], [ 126.683299259235227, 37.522634762418377 ], [ 126.683998041874261, 37.522882010587217 ], [ 126.685054725435592, 37.523120879952835 ], [ 126.686013470078748, 37.523272110878636 ], [ 126.686377585296924, 37.523315119822939 ], [ 126.686702438835198, 37.523292131603426 ], [ 126.687049099204316, 37.523194704957248 ], [ 126.68725703680245, 37.522985951875235 ], [ 126.687274437701234, 37.522839033402569 ], [ 126.687256561924954, 37.522732005206173 ], [ 126.687241687850559, 37.522642978486068 ], [ 126.686144982120098, 37.520513240616673 ], [ 126.685634088287301, 37.520068226422531 ], [ 126.684452812422464, 37.518914578526356 ], [ 126.683405336417636, 37.517530725930669 ], [ 126.683367156844611, 37.517438725352676 ], [ 126.683254690838609, 37.517153980451525 ], [ 126.683216326179732, 37.516999160538774 ], [ 126.6832717764742, 37.514913977658736 ], [ 126.683280985551605, 37.514663075692283 ] ] ] ] } },
{ "type": "Feature", "properties": { "OBJECTID": 878, "adm_nm": "인천광역시 서구 석남1동", "adm_cd": "2308058", "adm_cd2": "2826055000", "sgg": "28260", "sido": "28", "sidonm": "인천광역시", "sggnm": "서구" }, "geometry": { "type": "MultiPolygon", "coordinates": [ [ [ [ 126.672693171497869, 37.513421443753622 ], [ 126.676634648415359, 37.513270246865481 ], [ 126.676213607176024, 37.50624064425029 ], [ 126.670408607368259, 37.50643612939718 ], [ 126.666253400465067, 37.506333615067462 ], [ 126.664263887182599, 37.50661112166032 ], [ 126.662123575536157, 37.506922584478019 ], [ 126.661245681204349, 37.509457800517815 ], [ 126.661294464252748, 37.509472954140939 ], [ 126.661675527816882, 37.509841470932145 ], [ 126.661812741890941, 37.510010027280124 ], [ 126.661830282218375, 37.510095700631979 ], [ 126.661659531622846, 37.511007805679014 ], [ 126.661627771435761, 37.51109333371415 ], [ 126.6613135907226, 37.511181632874219 ], [ 126.661031485790758, 37.511224951441946 ], [ 126.660882414082892, 37.511484944781373 ], [ 126.660764090468902, 37.51181206554417 ], [ 126.660718588869955, 37.511961780118511 ], [ 126.660713179913117, 37.512165112736106 ], [ 126.660721657493767, 37.512272184516178 ], [ 126.660739232989116, 37.512350707917591 ], [ 126.661667419148728, 37.514919178482927 ], [ 126.661686305273108, 37.514946732175609 ], [ 126.662310490765378, 37.515210894422353 ], [ 126.662407462900177, 37.5152468605827 ], [ 126.662492397808577, 37.515269656566339 ], [ 126.662666111369987, 37.515267170226096 ], [ 126.662810053278562, 37.515240835881734 ], [ 126.663030693609088, 37.515187956058853 ], [ 126.663281437781194, 37.515087601033322 ], [ 126.663746813796763, 37.514824882025394 ], [ 126.664118683264192, 37.514580206724546 ], [ 126.666747649583684, 37.513693827467236 ], [ 126.672693171497869, 37.513421443753622 ] ] ] ] } },
{ "type": "Feature", "properties": { "OBJECTID": 879, "adm_nm": "인천광역시 서구 석남2동", "adm_cd": "2308059", "adm_cd2": "2826056000", "sgg": "28260", "sido": "28", "sidonm": "인천광역시", "sggnm": "서구" }, "geometry": { "type": "MultiPolygon", "coordinates": [ [ [ [ 126.676213607176024, 37.50624064425029 ], [ 126.675803874852988, 37.499213561964474 ], [ 126.672972621159715, 37.499218015138254 ], [ 126.668594815618263, 37.499205758629905 ], [ 126.667782365673929, 37.499203465346518 ], [ 126.667721779481695, 37.499203284554824 ], [ 126.662204397257995, 37.499169716829464 ], [ 126.65560684222369, 37.499153708112246 ], [ 126.641007225798489, 37.499157678677889 ], [ 126.640755911272876, 37.499156012214137 ], [ 126.63990708308944, 37.502560214157697 ], [ 126.639928257888485, 37.503849932993027 ], [ 126.641112760079679, 37.504977656808933 ], [ 126.642610059747284, 37.506676630849164 ], [ 126.644618073832461, 37.506672181288941 ], [ 126.646235741430516, 37.506665238186514 ], [ 126.647795300572341, 37.506617383540181 ], [ 126.648433657039035, 37.506598634704375 ], [ 126.649624756420678, 37.506563696573302 ], [ 126.651686068155016, 37.506569819138093 ], [ 126.651991305237956, 37.506577283789802 ], [ 126.658929032849201, 37.508423367835931 ], [ 126.661245681204349, 37.509457800517815 ], [ 126.662123575536157, 37.506922584478019 ], [ 126.664263887182599, 37.50661112166032 ], [ 126.666253400465067, 37.506333615067462 ], [ 126.670408607368259, 37.50643612939718 ], [ 126.676213607176024, 37.50624064425029 ] ] ] ] } },
{ "type": "Feature", "properties": { "OBJECTID": 880, "adm_nm": "인천광역시 서구 석남3동", "adm_cd": "2308060", "adm_cd2": "2826056100", "sgg": "28260", "sido": "28", "sidonm": "인천광역시", "sggnm": "서구" }, "geometry": { "type": "MultiPolygon", "coordinates": [ [ [ [ 126.685943223273057, 37.513106165444327 ], [ 126.686598724359285, 37.511788051883869 ], [ 126.686710317164554, 37.510505256301528 ], [ 126.68848381281633, 37.508766099312815 ], [ 126.688597067051546, 37.508239673563878 ], [ 126.688608398805201, 37.508099681086264 ], [ 126.688764617783647, 37.505951956600491 ], [ 126.688453749631194, 37.505214306090977 ], [ 126.68790869850902, 37.505263417431415 ], [ 126.687921153261769, 37.505344959157469 ], [ 126.686685997923874, 37.50517086271001 ], [ 126.686368521724802, 37.504932607567859 ], [ 126.686327863778033, 37.504893118214483 ], [ 126.686288893815131, 37.504827161746114 ], [ 126.685224957309003, 37.502802115259534 ], [ 126.685123900402218, 37.502468114333247 ], [ 126.684840934921624, 37.501344995469559 ], [ 126.684167286885014, 37.500105937939992 ], [ 126.679216798891531, 37.498146656816772 ], [ 126.675803874852988, 37.499213561964474 ], [ 126.676213607176024, 37.50624064425029 ], [ 126.676634648415359, 37.513270246865481 ], [ 126.680353944595126, 37.511774385363559 ], [ 126.683280985551605, 37.514663075692283 ], [ 126.685943223273057, 37.513106165444327 ] ] ] ] } },
{ "type": "Feature", "properties": { "OBJECTID": 881, "adm_nm": "인천광역시 서구 가좌1동", "adm_cd": "2308062", "adm_cd2": "2826058000", "sgg": "28260", "sido": "28", "sidonm": "인천광역시", "sggnm": "서구" }, "geometry": { "type": "MultiPolygon", "coordinates": [ [ [ [ 126.675803874852988, 37.499213561964474 ], [ 126.675242736054471, 37.490562529082965 ], [ 126.675171182311558, 37.48945950853939 ], [ 126.675076930330519, 37.487894266969128 ], [ 126.674498917283103, 37.478243926175075 ], [ 126.674351432798119, 37.475587925177969 ], [ 126.67437770577088, 37.475506415289452 ], [ 126.670479920530326, 37.476847331202293 ], [ 126.671000779346059, 37.477784267932648 ], [ 126.669922835586092, 37.478628557295181 ], [ 126.664763132867634, 37.482457144840865 ], [ 126.663589531615187, 37.483265923099253 ], [ 126.66179783806912, 37.484294904439963 ], [ 126.655360068371451, 37.488159522735117 ], [ 126.653365872335272, 37.489290484117973 ], [ 126.653175577714777, 37.489393322603291 ], [ 126.651894505900756, 37.490085507709949 ], [ 126.650620535421893, 37.490773822462415 ], [ 126.650324811353897, 37.490928937687436 ], [ 126.645932823495869, 37.493232425859105 ], [ 126.641442678345356, 37.495554234548059 ], [ 126.640763020990065, 37.495873725075079 ], [ 126.641007225798489, 37.499157678677889 ], [ 126.65560684222369, 37.499153708112246 ], [ 126.662204397257995, 37.499169716829464 ], [ 126.667721779481695, 37.499203284554824 ], [ 126.667782365673929, 37.499203465346518 ], [ 126.668594815618263, 37.499205758629905 ], [ 126.672972621159715, 37.499218015138254 ], [ 126.675803874852988, 37.499213561964474 ] ] ] ] } },
{ "type": "Feature", "properties": { "OBJECTID": 882, "adm_nm": "인천광역시 서구 가좌2동", "adm_cd": "2308063", "adm_cd2": "2826059000", "sgg": "28260", "sido": "28", "sidonm": "인천광역시", "sggnm": "서구" }, "geometry": { "type": "MultiPolygon", "coordinates": [ [ [ [ 126.692838987512232, 37.495360000247793 ], [ 126.69107790955718, 37.495341743731039 ], [ 126.690328523171857, 37.495232942597433 ], [ 126.689674351140965, 37.495011305290234 ], [ 126.689241026394697, 37.49482165384044 ], [ 126.689115866948853, 37.494726139247533 ], [ 126.688910580855534, 37.494569457219058 ], [ 126.688580476057609, 37.494235575920349 ], [ 126.68798066136722, 37.493557643022974 ], [ 126.687928284286741, 37.49349844144254 ], [ 126.687678416637894, 37.493207064911722 ], [ 126.686524885732112, 37.491861863405965 ], [ 126.684900202610635, 37.489967127427853 ], [ 126.684562277234477, 37.48957301973801 ], [ 126.684349397939044, 37.48932474582756 ], [ 126.68430935034408, 37.489289178982673 ], [ 126.68424908197612, 37.489242922262136 ], [ 126.683631950975411, 37.488989351915208 ], [ 126.683258435501912, 37.488837246175919 ], [ 126.682588748420869, 37.488564533834619 ], [ 126.681920972082509, 37.488300647890263 ], [ 126.681180370813792, 37.488007971066025 ], [ 126.680905550629475, 37.487771172896124 ], [ 126.680015924883762, 37.487004609257134 ], [ 126.680022863741627, 37.487130288614416 ], [ 126.680057838969716, 37.487763537441005 ], [ 126.68026819382878, 37.491300135577902 ], [ 126.680376305403669, 37.493117575543607 ], [ 126.680395490410589, 37.493180237560004 ], [ 126.680468756994557, 37.493260363344433 ], [ 126.68292701299147, 37.495538064083902 ], [ 126.690008907573485, 37.502850051303945 ], [ 126.691004701300386, 37.503790394332555 ], [ 126.691222472653351, 37.503596109494254 ], [ 126.69203138577204, 37.502208545257204 ], [ 126.692077021891379, 37.502110730903915 ], [ 126.692173365338277, 37.501868610396848 ], [ 126.692225275991717, 37.501595384362318 ], [ 126.691122379033303, 37.50004637556281 ], [ 126.691085113292147, 37.50003222436635 ], [ 126.690999079924737, 37.499999395037356 ], [ 126.690796075504309, 37.499919561553043 ], [ 126.690738288299627, 37.499891840553296 ], [ 126.690707940181667, 37.499874384534564 ], [ 126.69002262035896, 37.499467567482903 ], [ 126.689971188207153, 37.49943598596731 ], [ 126.689827877823916, 37.499278135180184 ], [ 126.689728819366209, 37.499141718858333 ], [ 126.689541300658362, 37.49857484945943 ], [ 126.689532952025985, 37.498544463779879 ], [ 126.689525348336474, 37.4984983277295 ], [ 126.689517233337355, 37.498406135835374 ], [ 126.689506451215223, 37.498269942788205 ], [ 126.689508872623207, 37.498215685011687 ], [ 126.690052354788676, 37.497918203558761 ], [ 126.690484976469435, 37.497735734774757 ], [ 126.692838987512232, 37.495360000247793 ] ] ] ] } },
{ "type": "Feature", "properties": { "OBJECTID": 883, "adm_nm": "인천광역시 서구 가좌3동", "adm_cd": "2308064", "adm_cd2": "2826060000", "sgg": "28260", "sido": "28", "sidonm": "인천광역시", "sggnm": "서구" }, "geometry": { "type": "MultiPolygon", "coordinates": [ [ [ [ 126.688453749631194, 37.505214306090977 ], [ 126.691004701300386, 37.503790394332555 ], [ 126.690008907573485, 37.502850051303945 ], [ 126.68292701299147, 37.495538064083902 ], [ 126.680468756994557, 37.493260363344433 ], [ 126.680395490410589, 37.493180237560004 ], [ 126.680376305403669, 37.493117575543607 ], [ 126.68026819382878, 37.491300135577902 ], [ 126.680057838969716, 37.487763537441005 ], [ 126.680022863741627, 37.487130288614416 ], [ 126.680015924883762, 37.487004609257134 ], [ 126.676900550510496, 37.484356690146775 ], [ 126.676753191506634, 37.48418294592225 ], [ 126.677927593781163, 37.483316058419092 ], [ 126.68292720098249, 37.479625294780128 ], [ 126.683322325290433, 37.479333717456512 ], [ 126.687423029018206, 37.476308033211133 ], [ 126.684041290405773, 37.473347885798908 ], [ 126.683160506993204, 37.473436987536701 ], [ 126.683060887814833, 37.473447065377904 ], [ 126.681151058419061, 37.473745215164499 ], [ 126.681106456368738, 37.47375854882776 ], [ 126.681045138984359, 37.473776882659365 ], [ 126.67992837032466, 37.474120633005299 ], [ 126.67931838904839, 37.474313664557833 ], [ 126.679040760954251, 37.474408814448616 ], [ 126.678814261083005, 37.474486654460684 ], [ 126.678591482092401, 37.47454997577978 ], [ 126.678405238194657, 37.474601775548095 ], [ 126.676686605236156, 37.475062632246349 ], [ 126.675043301976899, 37.475488193740787 ], [ 126.674850451376685, 37.475536139866371 ], [ 126.674627014309479, 37.475591666849802 ], [ 126.674538899962442, 37.475603573671933 ], [ 126.674483895004073, 37.475595457623321 ], [ 126.674439032936789, 37.475579069563899 ], [ 126.67437770577088, 37.475506415289452 ], [ 126.674351432798119, 37.475587925177969 ], [ 126.674498917283103, 37.478243926175075 ], [ 126.675076930330519, 37.487894266969128 ], [ 126.675171182311558, 37.48945950853939 ], [ 126.675242736054471, 37.490562529082965 ], [ 126.675803874852988, 37.499213561964474 ], [ 126.679216798891531, 37.498146656816772 ], [ 126.684167286885014, 37.500105937939992 ], [ 126.684840934921624, 37.501344995469559 ], [ 126.685123900402218, 37.502468114333247 ], [ 126.685224957309003, 37.502802115259534 ], [ 126.686288893815131, 37.504827161746114 ], [ 126.686327863778033, 37.504893118214483 ], [ 126.686368521724802, 37.504932607567859 ], [ 126.686685997923874, 37.50517086271001 ], [ 126.687921153261769, 37.505344959157469 ], [ 126.68790869850902, 37.505263417431415 ], [ 126.688453749631194, 37.505214306090977 ] ] ] ] } },
{ "type": "Feature", "properties": { "OBJECTID": 884, "adm_nm": "인천광역시 서구 가좌4동", "adm_cd": "2308065", "adm_cd2": "2826061000", "sgg": "28260", "sido": "28", "sidonm": "인천광역시", "sggnm": "서구" }, "geometry": { "type": "MultiPolygon", "coordinates": [ [ [ [ 126.694834099844414, 37.491696182879814 ], [ 126.695089645780058, 37.49146069221004 ], [ 126.695281325508802, 37.491289729459417 ], [ 126.697925770160495, 37.489847669825217 ], [ 126.699410641974424, 37.488393522680283 ], [ 126.699632120659714, 37.486970316977974 ], [ 126.699913049161907, 37.486643625294001 ], [ 126.700470636143407, 37.486515962329179 ], [ 126.701535443735381, 37.486610075147603 ], [ 126.701354685940757, 37.485097572969416 ], [ 126.696070353797111, 37.485145268983423 ], [ 126.695848662995246, 37.485231009570356 ], [ 126.694492420530224, 37.485679437471703 ], [ 126.694382479820547, 37.48568762646515 ], [ 126.694084672635668, 37.485684051295358 ], [ 126.693904010119766, 37.485652508291956 ], [ 126.692628917027434, 37.485346937675018 ], [ 126.689820166732929, 37.482983827139307 ], [ 126.689981118823624, 37.482558099416551 ], [ 126.690106061829596, 37.48225687535966 ], [ 126.690195232802594, 37.482047079142518 ], [ 126.690318510864216, 37.481791709301078 ], [ 126.690376990454695, 37.481675146014823 ], [ 126.6907819002803, 37.480846147201362 ], [ 126.690838468404195, 37.480701970451229 ], [ 126.690682078087022, 37.47930927216278 ], [ 126.690650421957855, 37.479076623344106 ], [ 126.687423029018206, 37.476308033211133 ], [ 126.683322325290433, 37.479333717456512 ], [ 126.68292720098249, 37.479625294780128 ], [ 126.677927593781163, 37.483316058419092 ], [ 126.676753191506634, 37.48418294592225 ], [ 126.676900550510496, 37.484356690146775 ], [ 126.680015924883762, 37.487004609257134 ], [ 126.680905550629475, 37.487771172896124 ], [ 126.681180370813792, 37.488007971066025 ], [ 126.681920972082509, 37.488300647890263 ], [ 126.682588748420869, 37.488564533834619 ], [ 126.683258435501912, 37.488837246175919 ], [ 126.683631950975411, 37.488989351915208 ], [ 126.68424908197612, 37.489242922262136 ], [ 126.68430935034408, 37.489289178982673 ], [ 126.684349397939044, 37.48932474582756 ], [ 126.684562277234477, 37.48957301973801 ], [ 126.684900202610635, 37.489967127427853 ], [ 126.686524885732112, 37.491861863405965 ], [ 126.687678416637894, 37.493207064911722 ], [ 126.687928284286741, 37.49349844144254 ], [ 126.68798066136722, 37.493557643022974 ], [ 126.688580476057609, 37.494235575920349 ], [ 126.688910580855534, 37.494569457219058 ], [ 126.689115866948853, 37.494726139247533 ], [ 126.689241026394697, 37.49482165384044 ], [ 126.689674351140965, 37.495011305290234 ], [ 126.690328523171857, 37.495232942597433 ], [ 126.69107790955718, 37.495341743731039 ], [ 126.692838987512232, 37.495360000247793 ], [ 126.692228925295765, 37.492400998700482 ], [ 126.694834099844414, 37.491696182879814 ] ] ] ] } },
{ "type": "Feature", "properties": { "OBJECTID": 885, "adm_nm": "인천광역시 서구 불로대곡동", "adm_cd": "2308081", "adm_cd2": "2826069000", "sgg": "28260", "sido": "28", "sidonm": "인천광역시", "sggnm": "서구" }, "geometry": { "type": "MultiPolygon", "coordinates": [ [ [ [ 126.659436205188896, 37.638228288541391 ], [ 126.660314138253369, 37.637423627644679 ], [ 126.66041185989576, 37.637334083795459 ], [ 126.660998520173422, 37.636796527467013 ], [ 126.661084636458426, 37.636717877697535 ], [ 126.661687316055449, 37.636811608821773 ], [ 126.661916276331326, 37.636847539812074 ], [ 126.662028643761786, 37.636865418028918 ], [ 126.662450695398007, 37.636931548079836 ], [ 126.662810107279682, 37.636854066304359 ], [ 126.665631962445218, 37.636238914082803 ], [ 126.6684980613486, 37.635223467609364 ], [ 126.67093518006962, 37.634359576090759 ], [ 126.673936319172554, 37.632323359629481 ], [ 126.674076948623707, 37.632227506106965 ], [ 126.674088509914228, 37.632135219523271 ], [ 126.674204291636784, 37.631214355656155 ], [ 126.674423433605881, 37.630357379509299 ], [ 126.675067045559246, 37.630009437122446 ], [ 126.675170280975308, 37.629953672991164 ], [ 126.67703426208881, 37.629865246410979 ], [ 126.677367833907752, 37.629868455070238 ], [ 126.677708242647043, 37.629872198052219 ], [ 126.679307925430265, 37.629887085705818 ], [ 126.680073709534241, 37.629639653741584 ], [ 126.680246496350151, 37.629383993516619 ], [ 126.680744763518021, 37.628643862731622 ], [ 126.680807043997746, 37.627817204803677 ], [ 126.680770479889702, 37.627556899288265 ], [ 126.680845766669108, 37.627396503322544 ], [ 126.681675317685091, 37.626525450372206 ], [ 126.685015000003375, 37.624311002094771 ], [ 126.685155341800353, 37.624225309060236 ], [ 126.685193379525828, 37.624202089543708 ], [ 126.687448378219514, 37.622825493347179 ], [ 126.691520229955458, 37.621327016088244 ], [ 126.695500882614581, 37.619383648138033 ], [ 126.696274658428663, 37.618937789734268 ], [ 126.698063340729874, 37.617819634006487 ], [ 126.698633173009952, 37.617462451274363 ], [ 126.699502104588774, 37.616348225356013 ], [ 126.699823390763783, 37.615830782696044 ], [ 126.702136991457195, 37.613962532179038 ], [ 126.70416173450505, 37.612548782543463 ], [ 126.704968168364175, 37.611833198285275 ], [ 126.705282919107333, 37.611537766886805 ], [ 126.705801678974524, 37.610818457969017 ], [ 126.706282748059351, 37.610151368421313 ], [ 126.706077123029928, 37.607770923537394 ], [ 126.70598451082877, 37.607625157805586 ], [ 126.705341311374482, 37.606781420727735 ], [ 126.70424772308364, 37.605545649681822 ], [ 126.700720015295985, 37.60494503168438 ], [ 126.698196370540543, 37.60447873554579 ], [ 126.696321347208453, 37.604069702548507 ], [ 126.69606069983071, 37.60315296129685 ], [ 126.696031743863159, 37.603051130291455 ], [ 126.695753877901268, 37.602481981689778 ], [ 126.694014711616461, 37.599553108617791 ], [ 126.693042025155663, 37.598993826657612 ], [ 126.690589426919686, 37.597744662077865 ], [ 126.689515173230205, 37.597219275419853 ], [ 126.689310871823878, 37.597276638845855 ], [ 126.689180402036428, 37.597309264770857 ], [ 126.688966837330696, 37.59734011717687 ], [ 126.688241863278748, 37.597427794873177 ], [ 126.686389361453095, 37.59760207852856 ], [ 126.685276004412785, 37.597518387101573 ], [ 126.68404187390351, 37.597249119425591 ], [ 126.683769488971663, 37.597118769599518 ], [ 126.683481592922732, 37.596941331002526 ], [ 126.683191632002732, 37.59675394838191 ], [ 126.682931777408697, 37.596680399426226 ], [ 126.682524287607137, 37.596565066619156 ], [ 126.682167572462319, 37.596525798540291 ], [ 126.681813470935651, 37.596487262257021 ], [ 126.680950334308335, 37.596409799998611 ], [ 126.680558429349489, 37.596374923780935 ], [ 126.680166533752924, 37.596340054440198 ], [ 126.679816668387076, 37.596414219326959 ], [ 126.679584456962345, 37.596488714383675 ], [ 126.679449549224358, 37.596531995650459 ], [ 126.679305811921097, 37.59657810952703 ], [ 126.675814787121027, 37.598675995640399 ], [ 126.675855923335973, 37.598741987883088 ], [ 126.676040383484136, 37.599375153283383 ], [ 126.67612505787676, 37.599780878465687 ], [ 126.67616591143755, 37.600229263944655 ], [ 126.676146838733445, 37.600388930720541 ], [ 126.675834063785317, 37.60108493293653 ], [ 126.676333993379828, 37.603397092955213 ], [ 126.676401508937886, 37.603663400586505 ], [ 126.676503626298896, 37.60386840703746 ], [ 126.676723323383257, 37.604080540299286 ], [ 126.67806230787734, 37.605217177520643 ], [ 126.679478600918657, 37.606365359403178 ], [ 126.679690328604352, 37.606565957829744 ], [ 126.677693374644861, 37.610775276330934 ], [ 126.671298564857153, 37.612603724206849 ], [ 126.666099879314999, 37.614742604643006 ], [ 126.662051140903174, 37.615809662840746 ], [ 126.661079756441836, 37.61631251084335 ], [ 126.659392468069072, 37.620625592330512 ], [ 126.658897745151577, 37.620581404508741 ], [ 126.658056186441371, 37.620518123487855 ], [ 126.656932170182102, 37.620487360051982 ], [ 126.656863422125994, 37.620512580870688 ], [ 126.654557815918906, 37.622905320145016 ], [ 126.653202606368779, 37.624113019012093 ], [ 126.650536599538157, 37.625866006829305 ], [ 126.650419683223561, 37.625932872326224 ], [ 126.650329879940699, 37.625984231931149 ], [ 126.649066799035722, 37.62709156049182 ], [ 126.648276094703064, 37.627787452908137 ], [ 126.648054991347948, 37.628222826244276 ], [ 126.647987698313926, 37.628819546851439 ], [ 126.6475792237419, 37.628736108402819 ], [ 126.647764871302769, 37.628994479328597 ], [ 126.647874246990398, 37.629147087886842 ], [ 126.648059051318498, 37.629404947512121 ], [ 126.648303334791493, 37.629779885215754 ], [ 126.648427799003699, 37.629970926348761 ], [ 126.648961250502296, 37.63079048912207 ], [ 126.649563121670752, 37.631720197345551 ], [ 126.649974556983267, 37.632356105979838 ], [ 126.650607311114527, 37.633391684087229 ], [ 126.651693002363629, 37.635169175668665 ], [ 126.651753969169363, 37.635726179478567 ], [ 126.651673468606347, 37.636576221843107 ], [ 126.65153363704502, 37.637005200170705 ], [ 126.65144933629756, 37.63726322682048 ], [ 126.651306367842736, 37.637700807888791 ], [ 126.651582211616557, 37.63876662426982 ], [ 126.652463362748421, 37.639576831995079 ], [ 126.653103276394191, 37.639230565550541 ], [ 126.653409464003872, 37.638333431611066 ], [ 126.65388266328371, 37.638230398212485 ], [ 126.654277317598314, 37.638074921501847 ], [ 126.655318416351037, 37.637780949848413 ], [ 126.656010936766592, 37.63800689299029 ], [ 126.656932066022904, 37.637961397003799 ], [ 126.657094890450551, 37.638000881001254 ], [ 126.65716925983817, 37.63804414123107 ], [ 126.657941620319747, 37.63855375610234 ], [ 126.659436205188896, 37.638228288541391 ] ] ] ] } },
{ "type": "Feature", "properties": { "OBJECTID": 886, "adm_nm": "인천광역시 서구 원당동", "adm_cd": "2308082", "adm_cd2": "2826070000", "sgg": "28260", "sido": "28", "sidonm": "인천광역시", "sggnm": "서구" }, "geometry": { "type": "MultiPolygon", "coordinates": [ [ [ [ 126.724509806951346, 37.592942833007037 ], [ 126.725125922128953, 37.592000968556349 ], [ 126.724813800021863, 37.59159415901938 ], [ 126.724537734422654, 37.591426266208757 ], [ 126.723633171641907, 37.59087615787103 ], [ 126.722888084112626, 37.590434118622817 ], [ 126.722263611867987, 37.590063632154965 ], [ 126.720919143705345, 37.588874669076809 ], [ 126.717771820901788, 37.585332044182863 ], [ 126.717711093757771, 37.585229763270007 ], [ 126.717610118528867, 37.584880640871241 ], [ 126.71765520115423, 37.583577317006565 ], [ 126.718227580696251, 37.582870497262938 ], [ 126.717739877892853, 37.58149670010777 ], [ 126.717637444042055, 37.581332421252704 ], [ 126.717057220297178, 37.580401919481481 ], [ 126.716261068733644, 37.579396169354588 ], [ 126.71460117615301, 37.578353519856726 ], [ 126.713304380464209, 37.577686583321423 ], [ 126.71041119964103, 37.578683225511298 ], [ 126.709214360202807, 37.579159527411221 ], [ 126.706170600316497, 37.579883291765647 ], [ 126.700440534109674, 37.58089565533988 ], [ 126.69732615800919, 37.581352869118206 ], [ 126.695047219632102, 37.58154190068128 ], [ 126.693304648302814, 37.582247379279529 ], [ 126.693475500828882, 37.582332481271806 ], [ 126.692969563890074, 37.583143235124403 ], [ 126.693378518421611, 37.583988276292992 ], [ 126.694553031879408, 37.584929074766187 ], [ 126.692439646160025, 37.586193949628353 ], [ 126.691375716934274, 37.587011706529772 ], [ 126.688779495226811, 37.588071141568442 ], [ 126.689355168604052, 37.588578774326059 ], [ 126.689747111287843, 37.588859332973122 ], [ 126.690069012563086, 37.58908973922285 ], [ 126.690176001679177, 37.590097053120147 ], [ 126.689895279470704, 37.590323550614961 ], [ 126.687991992693455, 37.592548471366349 ], [ 126.687697180499313, 37.59296545706092 ], [ 126.687765097889155, 37.593565182087467 ], [ 126.687874786899854, 37.593918971236583 ], [ 126.687995074547544, 37.594152287660961 ], [ 126.688266721528905, 37.594442240837694 ], [ 126.688370714853576, 37.594540662787729 ], [ 126.688432798252876, 37.59459941109786 ], [ 126.689490312090356, 37.596011960695947 ], [ 126.689519901958633, 37.597014756791886 ], [ 126.689515173230205, 37.597219275419853 ], [ 126.690589426919686, 37.597744662077865 ], [ 126.693042025155663, 37.598993826657612 ], [ 126.694014711616461, 37.599553108617791 ], [ 126.695753877901268, 37.602481981689778 ], [ 126.696031743863159, 37.603051130291455 ], [ 126.69606069983071, 37.60315296129685 ], [ 126.696321347208453, 37.604069702548507 ], [ 126.698196370540543, 37.60447873554579 ], [ 126.700720015295985, 37.60494503168438 ], [ 126.70424772308364, 37.605545649681822 ], [ 126.704506595002286, 37.602648840231886 ], [ 126.704652088142893, 37.6026160210425 ], [ 126.706628376437806, 37.603431758400468 ], [ 126.706889299649589, 37.603657176910296 ], [ 126.708163246644332, 37.604757754243806 ], [ 126.708366720558189, 37.604933751724886 ], [ 126.709934521506753, 37.6050930405668 ], [ 126.710573795356325, 37.604998109427122 ], [ 126.711993921816315, 37.604786152337503 ], [ 126.71247177623944, 37.603956235904647 ], [ 126.713179819670017, 37.602815205622228 ], [ 126.71638707112254, 37.59932468008958 ], [ 126.717135331694962, 37.598577315026667 ], [ 126.717567841807238, 37.598232996370221 ], [ 126.717726640916922, 37.59810663164459 ], [ 126.71798971667512, 37.597898516645337 ], [ 126.718117897225284, 37.597797138865651 ], [ 126.718610330937835, 37.597826313464452 ], [ 126.718833579321995, 37.597841220265479 ], [ 126.71896612261915, 37.597850226586509 ], [ 126.719015190581899, 37.597878881907455 ], [ 126.719099667734355, 37.597928562486736 ], [ 126.719259461557257, 37.597836242792653 ], [ 126.719317834163618, 37.597798575678105 ], [ 126.721480164901251, 37.596301751126916 ], [ 126.721595033576563, 37.596221787442197 ], [ 126.721863538104373, 37.595927973018952 ], [ 126.721956257505937, 37.595826284182465 ], [ 126.724509806951346, 37.592942833007037 ] ] ] ] } },
{ "type": "Feature", "properties": { "OBJECTID": 887, "adm_nm": "인천광역시 서구 마전동", "adm_cd": "2308086", "adm_cd2": "2826073000", "sgg": "28260", "sido": "28", "sidonm": "인천광역시", "sggnm": "서구" }, "geometry": { "type": "MultiPolygon", "coordinates": [ [ [ [ 126.663478463874938, 37.593635998005944 ], [ 126.666996471929579, 37.594261375216512 ], [ 126.672832762320908, 37.593662297863737 ], [ 126.679137411601673, 37.593749936698515 ], [ 126.683436544116446, 37.594324196504886 ], [ 126.686233898566769, 37.594712627661316 ], [ 126.688432798252876, 37.59459941109786 ], [ 126.688370714853576, 37.594540662787729 ], [ 126.688266721528905, 37.594442240837694 ], [ 126.687995074547544, 37.594152287660961 ], [ 126.687874786899854, 37.593918971236583 ], [ 126.687765097889155, 37.593565182087467 ], [ 126.687697180499313, 37.59296545706092 ], [ 126.687991992693455, 37.592548471366349 ], [ 126.689895279470704, 37.590323550614961 ], [ 126.690176001679177, 37.590097053120147 ], [ 126.690069012563086, 37.58908973922285 ], [ 126.689747111287843, 37.588859332973122 ], [ 126.689355168604052, 37.588578774326059 ], [ 126.688779495226811, 37.588071141568442 ], [ 126.691375716934274, 37.587011706529772 ], [ 126.692439646160025, 37.586193949628353 ], [ 126.694553031879408, 37.584929074766187 ], [ 126.693378518421611, 37.583988276292992 ], [ 126.692969563890074, 37.583143235124403 ], [ 126.693475500828882, 37.582332481271806 ], [ 126.693304648302814, 37.582247379279529 ], [ 126.692952605496728, 37.582326207531551 ], [ 126.692864424774669, 37.582336318961168 ], [ 126.692383484981249, 37.582391506353829 ], [ 126.692060795028226, 37.582428533911042 ], [ 126.69145006580213, 37.582461260379759 ], [ 126.690791493188598, 37.582692116839141 ], [ 126.689819375815517, 37.582689566394308 ], [ 126.687111714690644, 37.58370821850832 ], [ 126.686989577417549, 37.583751269384315 ], [ 126.686806361079675, 37.583815843134261 ], [ 126.686147600754737, 37.584002309087232 ], [ 126.686015382349439, 37.583960490480337 ], [ 126.684923157495447, 37.584141838595677 ], [ 126.684246251997436, 37.583987644937693 ], [ 126.683614678102273, 37.583563964843265 ], [ 126.681993716839671, 37.583735437782693 ], [ 126.681912272473326, 37.583355497338495 ], [ 126.681789204267673, 37.583382805456012 ], [ 126.67944430130639, 37.584021589888806 ], [ 126.678149637160786, 37.58366640952076 ], [ 126.676528509530044, 37.583872972664885 ], [ 126.675659891940015, 37.585786224199275 ], [ 126.675012993234432, 37.585592552356459 ], [ 126.672873919559294, 37.584830841292352 ], [ 126.669799388316335, 37.585824661101327 ], [ 126.669312802231445, 37.586057205524746 ], [ 126.669160846769088, 37.586129847571684 ], [ 126.6691022429101, 37.586166715804914 ], [ 126.668706092937924, 37.586415920827335 ], [ 126.66797357109634, 37.586832518189787 ], [ 126.666717220723356, 37.586729305867841 ], [ 126.666385575574594, 37.586847620390095 ], [ 126.665783061999747, 37.58732330204586 ], [ 126.663998839796122, 37.589501275359034 ], [ 126.663492445462211, 37.590511614810815 ], [ 126.663481861796228, 37.590872157515541 ], [ 126.663794896730721, 37.591008440183273 ], [ 126.664455580285406, 37.591551851060963 ], [ 126.664671898588608, 37.591755490621807 ], [ 126.664051709893442, 37.592818194134104 ], [ 126.663478463874938, 37.593635998005944 ] ] ] ] } },
{ "type": "Feature", "properties": { "OBJECTID": 888, "adm_nm": "인천광역시 서구 신현원창동", "adm_cd": "2308073", "adm_cd2": "2826057500", "sgg": "28260", "sido": "28", "sidonm": "인천광역시", "sggnm": "서구" }, "geometry": { "type": "MultiPolygon", "coordinates": [ [ [ [ 126.663569904809464, 37.525567051083797 ], [ 126.665697105286455, 37.523353741664778 ], [ 126.66663264891163, 37.523673295287246 ], [ 126.667863465883229, 37.523851650205586 ], [ 126.673226003086683, 37.522419401444061 ], [ 126.673103396551781, 37.520322416284927 ], [ 126.673011314145853, 37.518772286529121 ], [ 126.672693171497869, 37.513421443753622 ], [ 126.666747649583684, 37.513693827467236 ], [ 126.664118683264192, 37.514580206724546 ], [ 126.663746813796763, 37.514824882025394 ], [ 126.663281437781194, 37.515087601033322 ], [ 126.663030693609088, 37.515187956058853 ], [ 126.662810053278562, 37.515240835881734 ], [ 126.662666111369987, 37.515267170226096 ], [ 126.662492397808577, 37.515269656566339 ], [ 126.662407462900177, 37.5152468605827 ], [ 126.662310490765378, 37.515210894422353 ], [ 126.661686305273108, 37.514946732175609 ], [ 126.661667419148728, 37.514919178482927 ], [ 126.660739232989116, 37.512350707917591 ], [ 126.660721657493767, 37.512272184516178 ], [ 126.660713179913117, 37.512165112736106 ], [ 126.660718588869955, 37.511961780118511 ], [ 126.660764090468902, 37.51181206554417 ], [ 126.660882414082892, 37.511484944781373 ], [ 126.661031485790758, 37.511224951441946 ], [ 126.6613135907226, 37.511181632874219 ], [ 126.661627771435761, 37.51109333371415 ], [ 126.661659531622846, 37.511007805679014 ], [ 126.661830282218375, 37.510095700631979 ], [ 126.661812741890941, 37.510010027280124 ], [ 126.661675527816882, 37.509841470932145 ], [ 126.661294464252748, 37.509472954140939 ], [ 126.661245681204349, 37.509457800517815 ], [ 126.658929032849201, 37.508423367835931 ], [ 126.651991305237956, 37.506577283789802 ], [ 126.651686068155016, 37.506569819138093 ], [ 126.649624756420678, 37.506563696573302 ], [ 126.648433657039035, 37.506598634704375 ], [ 126.647795300572341, 37.506617383540181 ], [ 126.646235741430516, 37.506665238186514 ], [ 126.644618073832461, 37.506672181288941 ], [ 126.642610059747284, 37.506676630849164 ], [ 126.641112760079679, 37.504977656808933 ], [ 126.639773878807617, 37.504651825662719 ], [ 126.638012419637363, 37.504667019569695 ], [ 126.634825831387531, 37.504392617949584 ], [ 126.63406909951965, 37.503320701984578 ], [ 126.632284110750334, 37.502814077289322 ], [ 126.63211247981954, 37.502765363555291 ], [ 126.629708846951715, 37.502377986143657 ], [ 126.629693803457243, 37.499565238679601 ], [ 126.626794179283195, 37.497217038619112 ], [ 126.608682869373041, 37.496890372586059 ], [ 126.604386941933285, 37.496812481189238 ], [ 126.604182354098, 37.506567511187043 ], [ 126.604127134854579, 37.51006125269884 ], [ 126.605446953902899, 37.510849278822207 ], [ 126.610941056392804, 37.512910917079417 ], [ 126.613470983840315, 37.512762104977455 ], [ 126.614063676568406, 37.512001444512293 ], [ 126.617407231335136, 37.5111847913481 ], [ 126.618264286144949, 37.511162303875203 ], [ 126.61829941474187, 37.511173410102153 ], [ 126.620173367327837, 37.511765869705307 ], [ 126.622687611664631, 37.513084338973286 ], [ 126.623324871476584, 37.513418506812492 ], [ 126.623592092615652, 37.513558622599042 ], [ 126.625602073201378, 37.51313227871848 ], [ 126.625705001371131, 37.513110444156048 ], [ 126.627676357889882, 37.513497289080092 ], [ 126.629244358221399, 37.514121437277424 ], [ 126.632663099391124, 37.515977118706658 ], [ 126.633097450344252, 37.516635228317362 ], [ 126.633141633057619, 37.516702171347561 ], [ 126.633145380860128, 37.51674305466792 ], [ 126.633190324333782, 37.517233351412415 ], [ 126.633201879678523, 37.517359471091005 ], [ 126.632865765035376, 37.518010914800307 ], [ 126.63257697491521, 37.518570642492584 ], [ 126.632616790740528, 37.518665114707161 ], [ 126.632843659778544, 37.519203311353387 ], [ 126.63444275449028, 37.51999176782973 ], [ 126.636172673509108, 37.519997132730722 ], [ 126.6363495428416, 37.519861764659296 ], [ 126.637701969068601, 37.518826637536428 ], [ 126.638138369379803, 37.518756878666061 ], [ 126.640342476982582, 37.518404538991405 ], [ 126.643830196448761, 37.517978574249184 ], [ 126.647816713583339, 37.516404311697436 ], [ 126.64789485561198, 37.516404542903963 ], [ 126.648959360742396, 37.516407721458002 ], [ 126.649046765615651, 37.519235252812202 ], [ 126.649241214705569, 37.52552518430214 ], [ 126.663569904809464, 37.525567051083797 ] ] ] ] } },
{ "type": "Feature", "properties": { "OBJECTID": 889, "adm_nm": "인천광역시 서구 청라1동", "adm_cd": "2308074", "adm_cd2": "2826053600", "sgg": "28260", "sido": "28", "sidonm": "인천광역시", "sggnm": "서구" }, "geometry": { "type": "MultiPolygon", "coordinates": [ [ [ [ 126.665063602882725, 37.537641219664245 ], [ 126.665381053278026, 37.535828603639573 ], [ 126.663599923977259, 37.534413172302635 ], [ 126.662310026296865, 37.532756036249587 ], [ 126.661400248916109, 37.527790527958253 ], [ 126.661400563318821, 37.52772150397962 ], [ 126.661424666760198, 37.527509841043916 ], [ 126.66151787010341, 37.526781023457254 ], [ 126.663569904809464, 37.525567051083797 ], [ 126.649241214705569, 37.52552518430214 ], [ 126.649573030670069, 37.531874734813606 ], [ 126.649632317883615, 37.533009156744981 ], [ 126.649719601602172, 37.5349079305158 ], [ 126.649774366409545, 37.53609925841922 ], [ 126.649953705200531, 37.540292396444521 ], [ 126.651323135657506, 37.540306430875411 ], [ 126.658673549412867, 37.540381482988266 ], [ 126.65978924163052, 37.54039283411187 ], [ 126.661635025089396, 37.538861668346129 ], [ 126.662608738548855, 37.53854754160411 ], [ 126.663451951687833, 37.538190205169606 ], [ 126.663741683903794, 37.537535380017538 ], [ 126.664143848432985, 37.53725761449563 ], [ 126.665063602882725, 37.537641219664245 ] ] ] ] } },
{ "type": "Feature", "properties": { "OBJECTID": 890, "adm_nm": "인천광역시 서구 청라2동", "adm_cd": "2308078", "adm_cd2": "2826053700", "sgg": "28260", "sido": "28", "sidonm": "인천광역시", "sggnm": "서구" }, "geometry": { "type": "MultiPolygon", "coordinates": [ [ [ [ 126.650000550829589, 37.543833263707086 ], [ 126.649953705200531, 37.540292396444521 ], [ 126.649774366409545, 37.53609925841922 ], [ 126.649719601602172, 37.5349079305158 ], [ 126.649632317883615, 37.533009156744981 ], [ 126.649573030670069, 37.531874734813606 ], [ 126.649241214705569, 37.52552518430214 ], [ 126.649046765615651, 37.519235252812202 ], [ 126.648959360742396, 37.516407721458002 ], [ 126.64789485561198, 37.516404542903963 ], [ 126.647816713583339, 37.516404311697436 ], [ 126.643830196448761, 37.517978574249184 ], [ 126.640342476982582, 37.518404538991405 ], [ 126.638138369379803, 37.518756878666061 ], [ 126.637701969068601, 37.518826637536428 ], [ 126.6363495428416, 37.519861764659296 ], [ 126.636172673509108, 37.519997132730722 ], [ 126.634316147557797, 37.522107619028368 ], [ 126.632569399116576, 37.52642754441581 ], [ 126.63188968924706, 37.529798568376435 ], [ 126.631921958590553, 37.54183593189974 ], [ 126.632091391801779, 37.550090465212385 ], [ 126.632481920766381, 37.550876356741561 ], [ 126.633178081284143, 37.550650530476709 ], [ 126.635026758680667, 37.55013730744691 ], [ 126.636551775226607, 37.549842894711503 ], [ 126.641137201514269, 37.548388034856913 ], [ 126.641180958970764, 37.548373984996388 ], [ 126.643706796394028, 37.547232505496467 ], [ 126.644021090545209, 37.547038005330592 ], [ 126.644706166030474, 37.546512109710939 ], [ 126.644940285185328, 37.546314439425153 ], [ 126.646647808623058, 37.545477234181561 ], [ 126.650000550829589, 37.543833263707086 ] ] ] ] } },
{ "type": "Feature", "properties": { "OBJECTID": 891, "adm_nm": "인천광역시 서구 검단동", "adm_cd": "2308080", "adm_cd2": "2826068000", "sgg": "28260", "sido": "28", "sidonm": "인천광역시", "sggnm": "서구" }, "geometry": { "type": "MultiPolygon", "coordinates": [ [ [ [ 126.675814787121027, 37.598675995640399 ], [ 126.67532492186885, 37.598959394035504 ], [ 126.675058629278965, 37.599113443663889 ], [ 126.67426022619162, 37.599251620025157 ], [ 126.671147608634541, 37.599705723908158 ], [ 126.670016927032805, 37.599601193998765 ], [ 126.670043788408236, 37.599394812267676 ], [ 126.669334175143319, 37.599357146655954 ], [ 126.668734005713304, 37.599384725940112 ], [ 126.668292610308271, 37.599482886482619 ], [ 126.667504025859046, 37.599704260678159 ], [ 126.66390126345739, 37.599141278162634 ], [ 126.659659663613738, 37.601231076968759 ], [ 126.658083354870328, 37.602002875388955 ], [ 126.656814305151357, 37.602478577878173 ], [ 126.656144248141459, 37.602726394080072 ], [ 126.655456234483111, 37.602890599862455 ], [ 126.648128768517594, 37.604411610946364 ], [ 126.645467364910274, 37.60488351929876 ], [ 126.639666064561197, 37.605431747710504 ], [ 126.63460326185529, 37.606330784086438 ], [ 126.631703918125865, 37.606345323238237 ], [ 126.627694943440304, 37.605968774960736 ], [ 126.62774963650817, 37.606899591096422 ], [ 126.629292946507007, 37.610960505350356 ], [ 126.631418322586228, 37.613464562274054 ], [ 126.632624855146659, 37.616339386685723 ], [ 126.632641918869425, 37.616392969539731 ], [ 126.632809333043184, 37.61691871548215 ], [ 126.63433944432127, 37.619412226946338 ], [ 126.636460996016794, 37.620351130911274 ], [ 126.636495615496003, 37.620366717557943 ], [ 126.636574299143305, 37.620490285039395 ], [ 126.63697660742649, 37.623431868687774 ], [ 126.636952905570652, 37.626033388939021 ], [ 126.639476884345981, 37.627757845660206 ], [ 126.639659659900531, 37.627723882852834 ], [ 126.642272413793663, 37.627731639341789 ], [ 126.643577367119292, 37.628002665100489 ], [ 126.644915029469757, 37.628595808670056 ], [ 126.6475792237419, 37.628736108402819 ], [ 126.647987698313926, 37.628819546851439 ], [ 126.648054991347948, 37.628222826244276 ], [ 126.648276094703064, 37.627787452908137 ], [ 126.649066799035722, 37.62709156049182 ], [ 126.650329879940699, 37.625984231931149 ], [ 126.650419683223561, 37.625932872326224 ], [ 126.650536599538157, 37.625866006829305 ], [ 126.653202606368779, 37.624113019012093 ], [ 126.654557815918906, 37.622905320145016 ], [ 126.656863422125994, 37.620512580870688 ], [ 126.656932170182102, 37.620487360051982 ], [ 126.658056186441371, 37.620518123487855 ], [ 126.658897745151577, 37.620581404508741 ], [ 126.659392468069072, 37.620625592330512 ], [ 126.661079756441836, 37.61631251084335 ], [ 126.662051140903174, 37.615809662840746 ], [ 126.666099879314999, 37.614742604643006 ], [ 126.671298564857153, 37.612603724206849 ], [ 126.677693374644861, 37.610775276330934 ], [ 126.679690328604352, 37.606565957829744 ], [ 126.679478600918657, 37.606365359403178 ], [ 126.67806230787734, 37.605217177520643 ], [ 126.676723323383257, 37.604080540299286 ], [ 126.676503626298896, 37.60386840703746 ], [ 126.676401508937886, 37.603663400586505 ], [ 126.676333993379828, 37.603397092955213 ], [ 126.675834063785317, 37.60108493293653 ], [ 126.676146838733445, 37.600388930720541 ], [ 126.67616591143755, 37.600229263944655 ], [ 126.67612505787676, 37.599780878465687 ], [ 126.676040383484136, 37.599375153283383 ], [ 126.675855923335973, 37.598741987883088 ], [ 126.675814787121027, 37.598675995640399 ] ] ] ] } },
{ "type": "Feature", "properties": { "OBJECTID": 892, "adm_nm": "인천광역시 서구 오류왕길동", "adm_cd": "2308084", "adm_cd2": "2826072000", "sgg": "28260", "sido": "28", "sidonm": "인천광역시", "sggnm": "서구" }, "geometry": { "type": "MultiPolygon", "coordinates": [ [ [ [ 126.66390126345739, 37.599141278162634 ], [ 126.662558869536696, 37.598136194404937 ], [ 126.661253502755528, 37.596837760314237 ], [ 126.661140368214632, 37.596120085826236 ], [ 126.661147420868332, 37.595847046479705 ], [ 126.661237104427087, 37.595671649301764 ], [ 126.661354720651772, 37.595553246766052 ], [ 126.662167723156387, 37.594895103464211 ], [ 126.662492855760235, 37.594658934343748 ], [ 126.662780167459644, 37.594526988705653 ], [ 126.663478463874938, 37.593635998005944 ], [ 126.664051709893442, 37.592818194134104 ], [ 126.664671898588608, 37.591755490621807 ], [ 126.664455580285406, 37.591551851060963 ], [ 126.663794896730721, 37.591008440183273 ], [ 126.663481861796228, 37.590872157515541 ], [ 126.663492445462211, 37.590511614810815 ], [ 126.663998839796122, 37.589501275359034 ], [ 126.665783061999747, 37.58732330204586 ], [ 126.666385575574594, 37.586847620390095 ], [ 126.666717220723356, 37.586729305867841 ], [ 126.66797357109634, 37.586832518189787 ], [ 126.668706092937924, 37.586415920827335 ], [ 126.6691022429101, 37.586166715804914 ], [ 126.669316997547213, 37.585601934090775 ], [ 126.669438588900519, 37.58500340408785 ], [ 126.669508541817407, 37.584472387873042 ], [ 126.669516911723534, 37.584057162897849 ], [ 126.669510791740592, 37.584020109452666 ], [ 126.66831635823047, 37.584085999482994 ], [ 126.666989497365208, 37.584330216356662 ], [ 126.660311962647839, 37.583881544857164 ], [ 126.658333464113056, 37.583706094681681 ], [ 126.658134948465559, 37.583406296780154 ], [ 126.658191179077676, 37.582896444783927 ], [ 126.657667641665782, 37.582762958117542 ], [ 126.656737530699061, 37.582571840114632 ], [ 126.655823697997775, 37.58239378962417 ], [ 126.653203994274151, 37.582022292366197 ], [ 126.65309418943707, 37.582017298964765 ], [ 126.65274340920611, 37.582048998723629 ], [ 126.652636813350554, 37.582078737194401 ], [ 126.652096981337579, 37.582259038034671 ], [ 126.651916842155259, 37.582362448500398 ], [ 126.651449792267584, 37.58269237153376 ], [ 126.651318959581445, 37.582730953254881 ], [ 126.65046107040348, 37.582812874042602 ], [ 126.650289752599392, 37.582779877163723 ], [ 126.649540503052506, 37.582623804195336 ], [ 126.649638774340545, 37.58004083140645 ], [ 126.649737542502493, 37.579685173736081 ], [ 126.650424145823223, 37.5794032299927 ], [ 126.650490851533021, 37.577727263362348 ], [ 126.646753521351712, 37.576341455611782 ], [ 126.64255437440579, 37.574784235170725 ], [ 126.63962153849792, 37.573973572403204 ], [ 126.632846931351153, 37.572008887497695 ], [ 126.632748032763317, 37.569808020288079 ], [ 126.624278868398051, 37.567167692502878 ], [ 126.624097396898932, 37.567278104672056 ], [ 126.623986242333629, 37.56736380026279 ], [ 126.623956054680463, 37.56754088840016 ], [ 126.623894093088467, 37.574823103244753 ], [ 126.6224974777233, 37.577907680206856 ], [ 126.621970591813181, 37.578148260718429 ], [ 126.621962316425837, 37.578852934336304 ], [ 126.621801864523263, 37.584820407627788 ], [ 126.621214796959862, 37.585563917206784 ], [ 126.619795578088343, 37.585956625045185 ], [ 126.613627236821657, 37.585823070319272 ], [ 126.610706181853431, 37.587570093090925 ], [ 126.606291492862042, 37.587518018152259 ], [ 126.603480055870392, 37.586275174186959 ], [ 126.602006105326694, 37.585156943045156 ], [ 126.601933058274554, 37.585032035062397 ], [ 126.601915138190904, 37.584936644878972 ], [ 126.601943447851113, 37.584812079037334 ], [ 126.602689478731989, 37.583150015555582 ], [ 126.602811140041993, 37.582798445545315 ], [ 126.602830663270112, 37.582593185480697 ], [ 126.602776081397408, 37.582461009429046 ], [ 126.60264786774529, 37.582313915472461 ], [ 126.602501106117742, 37.582188759212499 ], [ 126.602344938689797, 37.582100235015787 ], [ 126.602170144386562, 37.582048312363767 ], [ 126.600172236208806, 37.58175555137089 ], [ 126.599361442825966, 37.581745458502134 ], [ 126.598467331827862, 37.581808407065822 ], [ 126.597066761315162, 37.581810949027918 ], [ 126.596983638989514, 37.581847328755913 ], [ 126.596502960807584, 37.582131668813126 ], [ 126.595512956271904, 37.582883562885684 ], [ 126.594253524876493, 37.584037835397915 ], [ 126.593798627677629, 37.584659570103483 ], [ 126.59354772014278, 37.585047349139586 ], [ 126.593491550845812, 37.585208480169513 ], [ 126.593736220438018, 37.585964623381024 ], [ 126.593826406471607, 37.586324250214112 ], [ 126.593309355814014, 37.588199703394416 ], [ 126.591864447505472, 37.592707314660196 ], [ 126.59205733253998, 37.592767564051513 ], [ 126.592571291746893, 37.592928098291175 ], [ 126.592723731642906, 37.592975778527162 ], [ 126.602983164152192, 37.598160062885036 ], [ 126.603701443954691, 37.598581958507339 ], [ 126.604120224261848, 37.598828082714689 ], [ 126.604947597922077, 37.599439273643711 ], [ 126.605312295240481, 37.599725006692637 ], [ 126.605516466256049, 37.599884973606692 ], [ 126.606174212543138, 37.600400403381961 ], [ 126.607114015934073, 37.601267153499606 ], [ 126.607398757146356, 37.601678299899973 ], [ 126.607670104901317, 37.602070426464927 ], [ 126.60818978153948, 37.603017471907862 ], [ 126.608341830612332, 37.603300049849629 ], [ 126.608459555640465, 37.603519224321609 ], [ 126.608605457644359, 37.603790866592178 ], [ 126.609055352199576, 37.604152708315397 ], [ 126.611634227209365, 37.605124003469065 ], [ 126.612463077891505, 37.605430433709564 ], [ 126.612618063492093, 37.605471508006431 ], [ 126.612764609640834, 37.605510341955487 ], [ 126.613143601396089, 37.605610767939069 ], [ 126.613858159529912, 37.605779571739895 ], [ 126.613907911519959, 37.605791311903403 ], [ 126.614747259272079, 37.60586845529339 ], [ 126.615406228919795, 37.605650319383223 ], [ 126.615746816758204, 37.605488454425341 ], [ 126.619584164923054, 37.603888472624099 ], [ 126.623397948033258, 37.602797210497329 ], [ 126.62551829046626, 37.604327534918689 ], [ 126.627694943440304, 37.605968774960736 ], [ 126.631703918125865, 37.606345323238237 ], [ 126.63460326185529, 37.606330784086438 ], [ 126.639666064561197, 37.605431747710504 ], [ 126.645467364910274, 37.60488351929876 ], [ 126.648128768517594, 37.604411610946364 ], [ 126.655456234483111, 37.602890599862455 ], [ 126.656144248141459, 37.602726394080072 ], [ 126.656814305151357, 37.602478577878173 ], [ 126.658083354870328, 37.602002875388955 ], [ 126.659659663613738, 37.601231076968759 ], [ 126.66390126345739, 37.599141278162634 ] ] ] ] } },
{ "type": "Feature", "properties": { "OBJECTID": 3446, "adm_nm": "인천광역시 서구 청라3동", "adm_cd": "2308079", "adm_cd2": "2826053900", "sgg": "28260", "sido": "28", "sidonm": "인천광역시", "sggnm": "서구" }, "geometry": { "type": "MultiPolygon", "coordinates": [ [ [ [ 126.632481920766381, 37.550876356741561 ], [ 126.632091391801779, 37.550090465212385 ], [ 126.631921958590553, 37.54183593189974 ], [ 126.63188968924706, 37.529798568376435 ], [ 126.632569399116576, 37.52642754441581 ], [ 126.634316147557797, 37.522107619028368 ], [ 126.636172673509108, 37.519997132730722 ], [ 126.63444275449028, 37.51999176782973 ], [ 126.632843659778544, 37.519203311353387 ], [ 126.632616790740528, 37.518665114707161 ], [ 126.63257697491521, 37.518570642492584 ], [ 126.632865765035376, 37.518010914800307 ], [ 126.633201879678523, 37.517359471091005 ], [ 126.633190324333782, 37.517233351412415 ], [ 126.633145380860128, 37.51674305466792 ], [ 126.633141633057619, 37.516702171347561 ], [ 126.633097450344252, 37.516635228317362 ], [ 126.632663099391124, 37.515977118706658 ], [ 126.629244358221399, 37.514121437277424 ], [ 126.627676357889882, 37.513497289080092 ], [ 126.625705001371131, 37.513110444156048 ], [ 126.625602073201378, 37.51313227871848 ], [ 126.623592092615652, 37.513558622599042 ], [ 126.623324871476584, 37.513418506812492 ], [ 126.622687611664631, 37.513084338973286 ], [ 126.620173367327837, 37.511765869705307 ], [ 126.61829941474187, 37.511173410102153 ], [ 126.618264286144949, 37.511162303875203 ], [ 126.617407231335136, 37.5111847913481 ], [ 126.614063676568406, 37.512001444512293 ], [ 126.613470983840315, 37.512762104977455 ], [ 126.610941056392804, 37.512910917079417 ], [ 126.605446953902899, 37.510849278822207 ], [ 126.604127134854579, 37.51006125269884 ], [ 126.604495254881513, 37.511991685247573 ], [ 126.603267388687939, 37.513214330513257 ], [ 126.602773982278165, 37.516131522643477 ], [ 126.601977389932458, 37.516128841185484 ], [ 126.60186713313648, 37.516889908692917 ], [ 126.602609728505954, 37.517061618170864 ], [ 126.602663003255273, 37.527045098208994 ], [ 126.610894557561934, 37.527284015953889 ], [ 126.610998150011412, 37.527791982898492 ], [ 126.602658740425127, 37.527848823813592 ], [ 126.602470661945702, 37.53326285496167 ], [ 126.599388898764289, 37.533421649097285 ], [ 126.599145631538562, 37.539173897832171 ], [ 126.605094677027097, 37.539320848619241 ], [ 126.605413698214818, 37.549347481864167 ], [ 126.605939427495102, 37.550406785985821 ], [ 126.60481118018987, 37.552771922610816 ], [ 126.606582112701616, 37.553685439218185 ], [ 126.609797187519575, 37.551089710234692 ], [ 126.610496850327138, 37.551706914826653 ], [ 126.61050282092782, 37.551988481386921 ], [ 126.610509005583495, 37.552279567596379 ], [ 126.615552412817678, 37.553517190232988 ], [ 126.617028515190086, 37.553859207376924 ], [ 126.620669557589466, 37.554707367672378 ], [ 126.626354391219948, 37.556183958095161 ], [ 126.629338185503372, 37.557047031991566 ], [ 126.633761453154989, 37.558121841395597 ], [ 126.63537552644965, 37.558469050400404 ], [ 126.637559461739244, 37.558065966695338 ], [ 126.637305215993564, 37.557396502942098 ], [ 126.637198215695136, 37.557331600310334 ], [ 126.636751208820584, 37.557060456120759 ], [ 126.635138665334296, 37.554724815515655 ], [ 126.633912740293113, 37.552949045639366 ], [ 126.632481920766381, 37.550876356741561 ] ] ] ] } },
{ "type": "Feature", "properties": { "OBJECTID": 3478, "adm_nm": "인천광역시 서구 당하동", "adm_cd": "2308085", "adm_cd2": "2826071000", "sgg": "28260", "sido": "28", "sidonm": "인천광역시", "sggnm": "서구" }, "geometry": { "type": "MultiPolygon", "coordinates": [ [ [ [ 126.688432798252876, 37.59459941109786 ], [ 126.686233898566769, 37.594712627661316 ], [ 126.683436544116446, 37.594324196504886 ], [ 126.679137411601673, 37.593749936698515 ], [ 126.672832762320908, 37.593662297863737 ], [ 126.666996471929579, 37.594261375216512 ], [ 126.663478463874938, 37.593635998005944 ], [ 126.662780167459644, 37.594526988705653 ], [ 126.662492855760235, 37.594658934343748 ], [ 126.662167723156387, 37.594895103464211 ], [ 126.661354720651772, 37.595553246766052 ], [ 126.661237104427087, 37.595671649301764 ], [ 126.661147420868332, 37.595847046479705 ], [ 126.661140368214632, 37.596120085826236 ], [ 126.661253502755528, 37.596837760314237 ], [ 126.662558869536696, 37.598136194404937 ], [ 126.66390126345739, 37.599141278162634 ], [ 126.667504025859046, 37.599704260678159 ], [ 126.668292610308271, 37.599482886482619 ], [ 126.668734005713304, 37.599384725940112 ], [ 126.669334175143319, 37.599357146655954 ], [ 126.670043788408236, 37.599394812267676 ], [ 126.670016927032805, 37.599601193998765 ], [ 126.671147608634541, 37.599705723908158 ], [ 126.67426022619162, 37.599251620025157 ], [ 126.675058629278965, 37.599113443663889 ], [ 126.67532492186885, 37.598959394035504 ], [ 126.675814787121027, 37.598675995640399 ], [ 126.679305811921097, 37.59657810952703 ], [ 126.679449549224358, 37.596531995650459 ], [ 126.679584456962345, 37.596488714383675 ], [ 126.679816668387076, 37.596414219326959 ], [ 126.680166533752924, 37.596340054440198 ], [ 126.680558429349489, 37.596374923780935 ], [ 126.680950334308335, 37.596409799998611 ], [ 126.681813470935651, 37.596487262257021 ], [ 126.682167572462319, 37.596525798540291 ], [ 126.682524287607137, 37.596565066619156 ], [ 126.682931777408697, 37.596680399426226 ], [ 126.683191632002732, 37.59675394838191 ], [ 126.683481592922732, 37.596941331002526 ], [ 126.683769488971663, 37.597118769599518 ], [ 126.68404187390351, 37.597249119425591 ], [ 126.685276004412785, 37.597518387101573 ], [ 126.686389361453095, 37.59760207852856 ], [ 126.688241863278748, 37.597427794873177 ], [ 126.688966837330696, 37.59734011717687 ], [ 126.689180402036428, 37.597309264770857 ], [ 126.689310871823878, 37.597276638845855 ], [ 126.689515173230205, 37.597219275419853 ], [ 126.689519901958633, 37.597014756791886 ], [ 126.689490312090356, 37.596011960695947 ], [ 126.688432798252876, 37.59459941109786 ] ] ] ] } }
]
}
