{
"type": "FeatureCollection",
"name": "yeonsugu",
"crs": { "type": "name", "properties": { "name": "urn:ogc:def:crs:OGC:1.3:CRS84" } },
"features": [
{ "type": "Feature", "properties": { "OBJECTID": 807, "adm_nm": "인천광역시 연수구 옥련1동", "adm_cd": "2304051", "adm_cd2": "2818563000", "sgg": "28185", "sido": "28", "sidonm": "인천광역시", "sggnm": "연수구" }, "geometry": { "type": "MultiPolygon", "coordinates": [ [ [ [ 126.660508777655906, 37.427190490744657 ], [ 126.660638549479771, 37.425715547829036 ], [ 126.659204053432475, 37.42331398793997 ], [ 126.660077159436383, 37.420367620173963 ], [ 126.661104601725398, 37.419095111248822 ], [ 126.661279430179903, 37.417907554692768 ], [ 126.661283019575563, 37.417811876224356 ], [ 126.661285075134984, 37.417756554900272 ], [ 126.661285543994239, 37.417653209007099 ], [ 126.661283217938475, 37.417533164632623 ], [ 126.65762124743452, 37.416929934190229 ], [ 126.653197852922261, 37.415182989741176 ], [ 126.648240941629624, 37.41316909828722 ], [ 126.648126495383082, 37.413125706332416 ], [ 126.647930985738242, 37.413387673773464 ], [ 126.646521497480165, 37.415277278045131 ], [ 126.646138179215797, 37.415141875001446 ], [ 126.645174606629553, 37.414739841058669 ], [ 126.641117783063251, 37.413012987014483 ], [ 126.639687357542257, 37.415051819359419 ], [ 126.638951043184406, 37.415976731474316 ], [ 126.638774879776008, 37.416800334085607 ], [ 126.637680552823525, 37.420539956296118 ], [ 126.637288264169698, 37.421534589246463 ], [ 126.638777505273836, 37.422051460250579 ], [ 126.644743462203962, 37.424318909547175 ], [ 126.646364327883589, 37.424372047412753 ], [ 126.647989124704182, 37.424425269812097 ], [ 126.649461110293871, 37.424451018528082 ], [ 126.650630796581808, 37.424509005192071 ], [ 126.650866967811893, 37.424522318576535 ], [ 126.652029041090898, 37.424587935173022 ], [ 126.65212696968463, 37.424594886709151 ], [ 126.65290995702064, 37.426266716321805 ], [ 126.654836358376599, 37.42829686422462 ], [ 126.660508777655906, 37.427190490744657 ] ] ] ] } },
{ "type": "Feature", "properties": { "OBJECTID": 808, "adm_nm": "인천광역시 연수구 선학동", "adm_cd": "2304052", "adm_cd2": "2818575000", "sgg": "28185", "sido": "28", "sidonm": "인천광역시", "sggnm": "연수구" }, "geometry": { "type": "MultiPolygon", "coordinates": [ [ [ [ 126.702358327166806, 37.438870296792793 ], [ 126.702930480683833, 37.438868077967534 ], [ 126.704630489132811, 37.438844458682922 ], [ 126.704700692864265, 37.438714866736646 ], [ 126.704737117002793, 37.438620287667547 ], [ 126.704739710690362, 37.438500279126131 ], [ 126.704721947628101, 37.438172789017798 ], [ 126.704904563444131, 37.436596403161282 ], [ 126.706203838213639, 37.434145558182117 ], [ 126.706037672755087, 37.43278782229126 ], [ 126.705352628299053, 37.427331460795671 ], [ 126.705329711832903, 37.427228280065421 ], [ 126.705275237733886, 37.42698339787227 ], [ 126.705183307153305, 37.426634953188291 ], [ 126.705116301885255, 37.426416712719849 ], [ 126.705076422077184, 37.42631519172221 ], [ 126.705008682928892, 37.426145459882548 ], [ 126.704932920311222, 37.425998213319659 ], [ 126.704618059574173, 37.425556584457667 ], [ 126.70449363303922, 37.425385528946506 ], [ 126.704288977656546, 37.425122987434392 ], [ 126.704123876023971, 37.424919250393586 ], [ 126.703926303502172, 37.424709679906194 ], [ 126.703826020478957, 37.424605237787937 ], [ 126.702811496072215, 37.423587118409792 ], [ 126.698855284184148, 37.419664711255059 ], [ 126.698662987881008, 37.419486453737278 ], [ 126.697912019219629, 37.418944600719513 ], [ 126.695612172829058, 37.41729407763966 ], [ 126.695337497283631, 37.417100768448769 ], [ 126.694642977945747, 37.418768338654957 ], [ 126.695921406839616, 37.419953071425439 ], [ 126.696060961238942, 37.420092712150769 ], [ 126.696354171454686, 37.420386434944668 ], [ 126.69652180870213, 37.420570819133324 ], [ 126.696823618764284, 37.420916450578773 ], [ 126.697436197200773, 37.421624291998924 ], [ 126.697518427883594, 37.421741144016593 ], [ 126.697672043468202, 37.421992586847118 ], [ 126.697797170366101, 37.422197399224771 ], [ 126.697836623104067, 37.422261983156247 ], [ 126.697962966282986, 37.422507118521359 ], [ 126.698087002711432, 37.422747782698238 ], [ 126.698282476748332, 37.423185650217953 ], [ 126.698339162293379, 37.423324408890082 ], [ 126.697412653938969, 37.423289923052963 ], [ 126.696634297169965, 37.423244034262233 ], [ 126.696596744045536, 37.423241817691775 ], [ 126.693033738735693, 37.4230313310036 ], [ 126.692520657131226, 37.423000622605933 ], [ 126.692387865120338, 37.422992674055955 ], [ 126.69232553258837, 37.42298885998828 ], [ 126.692075212673203, 37.422973483053468 ], [ 126.691617287618485, 37.422945347007989 ], [ 126.69149247511956, 37.422937677359634 ], [ 126.69220537069296, 37.423794762214968 ], [ 126.688720311586962, 37.426248966909021 ], [ 126.687838130402056, 37.427803594279361 ], [ 126.685590524386754, 37.430189538498261 ], [ 126.687172492630211, 37.433177177269705 ], [ 126.687995166327411, 37.43319635658974 ], [ 126.695059760446824, 37.433360815828166 ], [ 126.695853854957321, 37.433379274421235 ], [ 126.696690592977419, 37.43339871875893 ], [ 126.696772272693352, 37.434322216498664 ], [ 126.69666169032422, 37.435065328408918 ], [ 126.696128807272885, 37.437026570345125 ], [ 126.694934518169433, 37.438771233742834 ], [ 126.699565500849261, 37.438902513577439 ], [ 126.702358327166806, 37.438870296792793 ] ] ] ] } },
{ "type": "Feature", "properties": { "OBJECTID": 809, "adm_nm": "인천광역시 연수구 연수1동", "adm_cd": "2304053", "adm_cd2": "2818576100", "sgg": "28185", "sido": "28", "sidonm": "인천광역시", "sggnm": "연수구" }, "geometry": { "type": "MultiPolygon", "coordinates": [ [ [ [ 126.685590524386754, 37.430189538498261 ], [ 126.687838130402056, 37.427803594279361 ], [ 126.688720311586962, 37.426248966909021 ], [ 126.69220537069296, 37.423794762214968 ], [ 126.69149247511956, 37.422937677359634 ], [ 126.691083346356137, 37.422905011978919 ], [ 126.688095661989749, 37.423654083218757 ], [ 126.687578771347276, 37.423741934622335 ], [ 126.686412111779831, 37.423891446676087 ], [ 126.684917923164406, 37.422040063029577 ], [ 126.683089754512864, 37.420426650325005 ], [ 126.681186711112119, 37.419477938252584 ], [ 126.680001034096861, 37.418363126468059 ], [ 126.679855423584257, 37.418191185228615 ], [ 126.679532487657625, 37.417807114219151 ], [ 126.677755863648287, 37.418463717834406 ], [ 126.675361186106556, 37.41985761000754 ], [ 126.674254368044586, 37.420504517467066 ], [ 126.673918672735923, 37.420720321373295 ], [ 126.673641455666314, 37.420898533834176 ], [ 126.673605732995256, 37.42092490469804 ], [ 126.67320417239128, 37.421221376937453 ], [ 126.673042683056792, 37.421340612331619 ], [ 126.672389693163083, 37.421942020836497 ], [ 126.672369543615616, 37.421962475697995 ], [ 126.67191121960856, 37.422427892336977 ], [ 126.67176296908265, 37.422578901256614 ], [ 126.671342581958172, 37.423007149995435 ], [ 126.669862162888165, 37.424536469049578 ], [ 126.669340189214608, 37.425126476673725 ], [ 126.66937606174811, 37.425188851810425 ], [ 126.670544696386969, 37.425825708437145 ], [ 126.670828755656387, 37.425833363650739 ], [ 126.670915585118337, 37.425834942551809 ], [ 126.671276387366305, 37.425841469232047 ], [ 126.672219625707015, 37.426647580390366 ], [ 126.673909212078797, 37.42833283437119 ], [ 126.674580245869393, 37.42913965771217 ], [ 126.674797164341797, 37.429497689765753 ], [ 126.674928114248829, 37.429791318206981 ], [ 126.675115724360921, 37.430282177519679 ], [ 126.67706523743243, 37.431501891721823 ], [ 126.680119050878915, 37.430918788104783 ], [ 126.685590524386754, 37.430189538498261 ] ] ] ] } },
{ "type": "Feature", "properties": { "OBJECTID": 810, "adm_nm": "인천광역시 연수구 연수2동", "adm_cd": "2304054", "adm_cd2": "2818576200", "sgg": "28185", "sido": "28", "sidonm": "인천광역시", "sggnm": "연수구" }, "geometry": { "type": "MultiPolygon", "coordinates": [ [ [ [ 126.695337497283631, 37.417100768448769 ], [ 126.69452732430446, 37.416560544232169 ], [ 126.693327452507447, 37.415710746955945 ], [ 126.69249643442943, 37.415083190149765 ], [ 126.687646196830897, 37.411231560510721 ], [ 126.687271235777573, 37.410835188953698 ], [ 126.687096167476994, 37.410626470546958 ], [ 126.685515890987674, 37.406571275608322 ], [ 126.685327676760011, 37.406657801629244 ], [ 126.684862005535408, 37.406874302124415 ], [ 126.684056893573953, 37.407257388165505 ], [ 126.683756938137051, 37.407403141930253 ], [ 126.683641090418391, 37.407478214648478 ], [ 126.680749425891094, 37.409424934689476 ], [ 126.677613066015681, 37.411542282092796 ], [ 126.677339138117233, 37.411734153284996 ], [ 126.676912148854527, 37.412103568183802 ], [ 126.676648368724315, 37.412377123422921 ], [ 126.676175156106794, 37.412953112563947 ], [ 126.67591637412238, 37.413287402704306 ], [ 126.675634834350888, 37.413651929958085 ], [ 126.677755863648287, 37.418463717834406 ], [ 126.679532487657625, 37.417807114219151 ], [ 126.684987816929549, 37.414109804397754 ], [ 126.687278006624894, 37.416127343125098 ], [ 126.687597087056233, 37.416369415870335 ], [ 126.687794062457499, 37.416453827459407 ], [ 126.688803453543798, 37.4168793738136 ], [ 126.690064384452739, 37.417407654644286 ], [ 126.690568933167128, 37.417057012872725 ], [ 126.69412570346104, 37.418520521797504 ], [ 126.694642977945747, 37.418768338654957 ], [ 126.695337497283631, 37.417100768448769 ] ] ] ] } },
{ "type": "Feature", "properties": { "OBJECTID": 811, "adm_nm": "인천광역시 연수구 연수3동", "adm_cd": "2304055", "adm_cd2": "2818576300", "sgg": "28185", "sido": "28", "sidonm": "인천광역시", "sggnm": "연수구" }, "geometry": { "type": "MultiPolygon", "coordinates": [ [ [ [ 126.69149247511956, 37.422937677359634 ], [ 126.691617287618485, 37.422945347007989 ], [ 126.692075212673203, 37.422973483053468 ], [ 126.69232553258837, 37.42298885998828 ], [ 126.692387865120338, 37.422992674055955 ], [ 126.692520657131226, 37.423000622605933 ], [ 126.693033738735693, 37.4230313310036 ], [ 126.696596744045536, 37.423241817691775 ], [ 126.696634297169965, 37.423244034262233 ], [ 126.697412653938969, 37.423289923052963 ], [ 126.698339162293379, 37.423324408890082 ], [ 126.698282476748332, 37.423185650217953 ], [ 126.698087002711432, 37.422747782698238 ], [ 126.697962966282986, 37.422507118521359 ], [ 126.697836623104067, 37.422261983156247 ], [ 126.697797170366101, 37.422197399224771 ], [ 126.697672043468202, 37.421992586847118 ], [ 126.697518427883594, 37.421741144016593 ], [ 126.697436197200773, 37.421624291998924 ], [ 126.696823618764284, 37.420916450578773 ], [ 126.69652180870213, 37.420570819133324 ], [ 126.696354171454686, 37.420386434944668 ], [ 126.696060961238942, 37.420092712150769 ], [ 126.695921406839616, 37.419953071425439 ], [ 126.694642977945747, 37.418768338654957 ], [ 126.69412570346104, 37.418520521797504 ], [ 126.690568933167128, 37.417057012872725 ], [ 126.690064384452739, 37.417407654644286 ], [ 126.688803453543798, 37.4168793738136 ], [ 126.687794062457499, 37.416453827459407 ], [ 126.687597087056233, 37.416369415870335 ], [ 126.687278006624894, 37.416127343125098 ], [ 126.684987816929549, 37.414109804397754 ], [ 126.679532487657625, 37.417807114219151 ], [ 126.679855423584257, 37.418191185228615 ], [ 126.680001034096861, 37.418363126468059 ], [ 126.681186711112119, 37.419477938252584 ], [ 126.683089754512864, 37.420426650325005 ], [ 126.684917923164406, 37.422040063029577 ], [ 126.686412111779831, 37.423891446676087 ], [ 126.687578771347276, 37.423741934622335 ], [ 126.688095661989749, 37.423654083218757 ], [ 126.691083346356137, 37.422905011978919 ], [ 126.69149247511956, 37.422937677359634 ] ] ] ] } },
{ "type": "Feature", "properties": { "OBJECTID": 812, "adm_nm": "인천광역시 연수구 청학동", "adm_cd": "2304056", "adm_cd2": "2818576600", "sgg": "28185", "sido": "28", "sidonm": "인천광역시", "sggnm": "연수구" }, "geometry": { "type": "MultiPolygon", "coordinates": [ [ [ [ 126.675115724360921, 37.430282177519679 ], [ 126.674928114248829, 37.429791318206981 ], [ 126.674797164341797, 37.429497689765753 ], [ 126.674580245869393, 37.42913965771217 ], [ 126.673909212078797, 37.42833283437119 ], [ 126.672219625707015, 37.426647580390366 ], [ 126.671276387366305, 37.425841469232047 ], [ 126.670915585118337, 37.425834942551809 ], [ 126.670828755656387, 37.425833363650739 ], [ 126.670544696386969, 37.425825708437145 ], [ 126.66937606174811, 37.425188851810425 ], [ 126.669340189214608, 37.425126476673725 ], [ 126.669862162888165, 37.424536469049578 ], [ 126.671342581958172, 37.423007149995435 ], [ 126.67176296908265, 37.422578901256614 ], [ 126.67191121960856, 37.422427892336977 ], [ 126.672369543615616, 37.421962475697995 ], [ 126.672389693163083, 37.421942020836497 ], [ 126.673042683056792, 37.421340612331619 ], [ 126.67320417239128, 37.421221376937453 ], [ 126.673605732995256, 37.42092490469804 ], [ 126.673641455666314, 37.420898533834176 ], [ 126.673918672735923, 37.420720321373295 ], [ 126.674254368044586, 37.420504517467066 ], [ 126.675361186106556, 37.41985761000754 ], [ 126.677755863648287, 37.418463717834406 ], [ 126.675634834350888, 37.413651929958085 ], [ 126.672621493594164, 37.416927140656931 ], [ 126.672546633502961, 37.416973766551664 ], [ 126.672326767142863, 37.417088400266294 ], [ 126.672090271215339, 37.417162271425646 ], [ 126.671872700851083, 37.417230227501157 ], [ 126.669812762795289, 37.417702887276249 ], [ 126.669649778558181, 37.417262144882422 ], [ 126.669522645601788, 37.416908151675351 ], [ 126.667524109019809, 37.415640539027081 ], [ 126.667494227638528, 37.415628553306647 ], [ 126.667434400942952, 37.415620364108889 ], [ 126.662352815003118, 37.416376795862391 ], [ 126.662258040850361, 37.416400397743935 ], [ 126.662173147016816, 37.41643990095514 ], [ 126.661927921411646, 37.416661639016269 ], [ 126.661657403651475, 37.41698271206905 ], [ 126.661283217938475, 37.417533164632623 ], [ 126.661285543994239, 37.417653209007099 ], [ 126.661285075134984, 37.417756554900272 ], [ 126.661283019575563, 37.417811876224356 ], [ 126.661279430179903, 37.417907554692768 ], [ 126.661104601725398, 37.419095111248822 ], [ 126.660077159436383, 37.420367620173963 ], [ 126.659204053432475, 37.42331398793997 ], [ 126.660638549479771, 37.425715547829036 ], [ 126.660508777655906, 37.427190490744657 ], [ 126.660370386451589, 37.428269471935401 ], [ 126.660335778245312, 37.428351267165986 ], [ 126.660188933906738, 37.428644306286834 ], [ 126.659739966013817, 37.429462007450894 ], [ 126.658648764611712, 37.430332464855063 ], [ 126.657273549427074, 37.431488719507392 ], [ 126.657213230268169, 37.431584119314756 ], [ 126.657192699569592, 37.431643207936482 ], [ 126.657161135826428, 37.431734073442286 ], [ 126.656370059351801, 37.434332159341402 ], [ 126.65630819854627, 37.434761941597202 ], [ 126.656316030558159, 37.4349257765614 ], [ 126.656332275576645, 37.435103217072736 ], [ 126.656366188753339, 37.435275546838938 ], [ 126.660538273341473, 37.435492486052723 ], [ 126.661726986016575, 37.435059657258101 ], [ 126.664454686320411, 37.433598101385904 ], [ 126.664874680540507, 37.433388020740956 ], [ 126.664974986100916, 37.433348408345097 ], [ 126.665118738751403, 37.433315185078101 ], [ 126.66604560678492, 37.43310591047144 ], [ 126.666270348237546, 37.433058550737904 ], [ 126.666658977819253, 37.433039895079276 ], [ 126.666992103909607, 37.433054443976488 ], [ 126.669288323507459, 37.432407753808086 ], [ 126.673605756444715, 37.43089660115286 ], [ 126.674019655219254, 37.430729517125869 ], [ 126.675115724360921, 37.430282177519679 ] ] ] ] } },
{ "type": "Feature", "properties": { "OBJECTID": 813, "adm_nm": "인천광역시 연수구 동춘1동", "adm_cd": "2304057", "adm_cd2": "2818578000", "sgg": "28185", "sido": "28", "sidonm": "인천광역시", "sggnm": "연수구" }, "geometry": { "type": "MultiPolygon", "coordinates": [ [ [ [ 126.675634834350888, 37.413651929958085 ], [ 126.670785743075626, 37.409118190068142 ], [ 126.66809828690613, 37.405690777521656 ], [ 126.667267395179351, 37.403006024765695 ], [ 126.667073850606485, 37.402406774639836 ], [ 126.666998194605739, 37.402263399176512 ], [ 126.666938865568397, 37.402193157586055 ], [ 126.666859794813476, 37.402099553406238 ], [ 126.66656004622061, 37.401764960164108 ], [ 126.666296509351042, 37.401488682381917 ], [ 126.665658553164889, 37.400836087052767 ], [ 126.665226926100615, 37.400328183380353 ], [ 126.665142460515398, 37.400148988594445 ], [ 126.665117467209271, 37.40005149083747 ], [ 126.665116255848844, 37.399988268341495 ], [ 126.665148801247071, 37.399733050972053 ], [ 126.665199524018732, 37.399431373500782 ], [ 126.665272640870811, 37.399189519402668 ], [ 126.665328770504857, 37.399010742157259 ], [ 126.665440272401597, 37.398834495554631 ], [ 126.665548720462667, 37.398667779866422 ], [ 126.665747671650408, 37.398367897151005 ], [ 126.665911419516974, 37.397891960574213 ], [ 126.666067731129985, 37.396081990614277 ], [ 126.666050379485498, 37.395920158428083 ], [ 126.666032836481037, 37.395829436568846 ], [ 126.665974862345152, 37.395746950053613 ], [ 126.6656350618467, 37.395462052906019 ], [ 126.665478792007519, 37.395358657733972 ], [ 126.664018688164759, 37.395424144446693 ], [ 126.663306278278768, 37.395072737107228 ], [ 126.662694499926232, 37.395432093110742 ], [ 126.66188621424034, 37.395893963620672 ], [ 126.659150651268732, 37.397883476372598 ], [ 126.658122161559774, 37.398620848881002 ], [ 126.656544986318124, 37.39989116955104 ], [ 126.655092976358418, 37.40064281150562 ], [ 126.654543509165521, 37.401245027245238 ], [ 126.651874045513097, 37.403113611858288 ], [ 126.650515894970994, 37.404194918998172 ], [ 126.649374977272572, 37.405260454910064 ], [ 126.648163021415186, 37.406845018548921 ], [ 126.647307967781089, 37.40758354419841 ], [ 126.646289494259364, 37.408372838599092 ], [ 126.644885979102881, 37.409609616771391 ], [ 126.642892812870841, 37.411216141138325 ], [ 126.641117783063251, 37.413012987014483 ], [ 126.645174606629553, 37.414739841058669 ], [ 126.646138179215797, 37.415141875001446 ], [ 126.646521497480165, 37.415277278045131 ], [ 126.647930985738242, 37.413387673773464 ], [ 126.648126495383082, 37.413125706332416 ], [ 126.648240941629624, 37.41316909828722 ], [ 126.653197852922261, 37.415182989741176 ], [ 126.65762124743452, 37.416929934190229 ], [ 126.661283217938475, 37.417533164632623 ], [ 126.661657403651475, 37.41698271206905 ], [ 126.661927921411646, 37.416661639016269 ], [ 126.662173147016816, 37.41643990095514 ], [ 126.662258040850361, 37.416400397743935 ], [ 126.662352815003118, 37.416376795862391 ], [ 126.667434400942952, 37.415620364108889 ], [ 126.667494227638528, 37.415628553306647 ], [ 126.667524109019809, 37.415640539027081 ], [ 126.669522645601788, 37.416908151675351 ], [ 126.669649778558181, 37.417262144882422 ], [ 126.669812762795289, 37.417702887276249 ], [ 126.671872700851083, 37.417230227501157 ], [ 126.672090271215339, 37.417162271425646 ], [ 126.672326767142863, 37.417088400266294 ], [ 126.672546633502961, 37.416973766551664 ], [ 126.672621493594164, 37.416927140656931 ], [ 126.675634834350888, 37.413651929958085 ] ] ] ] } },
{ "type": "Feature", "properties": { "OBJECTID": 814, "adm_nm": "인천광역시 연수구 동춘2동", "adm_cd": "2304058", "adm_cd2": "2818579000", "sgg": "28185", "sido": "28", "sidonm": "인천광역시", "sggnm": "연수구" }, "geometry": { "type": "MultiPolygon", "coordinates": [ [ [ [ 126.680268184350908, 37.402779575877219 ], [ 126.680051088759242, 37.402692135108033 ], [ 126.679310312991163, 37.402272354938333 ], [ 126.679018589349198, 37.402101221506619 ], [ 126.678699002643356, 37.401905678849623 ], [ 126.678487564953329, 37.401761747708932 ], [ 126.678221370778985, 37.401570408208705 ], [ 126.678095243101993, 37.401477885999277 ], [ 126.678016031290241, 37.401419775558146 ], [ 126.677828510764257, 37.401265149963962 ], [ 126.676932615087892, 37.40048443001043 ], [ 126.673358610745865, 37.397338051693751 ], [ 126.671354988383868, 37.39556954324236 ], [ 126.670130835238808, 37.394488040217908 ], [ 126.669842095806345, 37.394229689742822 ], [ 126.668367356977029, 37.39290775452681 ], [ 126.667979886003181, 37.392553819103213 ], [ 126.667777585664609, 37.392301773767571 ], [ 126.666991968412717, 37.392763829290317 ], [ 126.663306278278768, 37.395072737107228 ], [ 126.664018688164759, 37.395424144446693 ], [ 126.665478792007519, 37.395358657733972 ], [ 126.6656350618467, 37.395462052906019 ], [ 126.665974862345152, 37.395746950053613 ], [ 126.666032836481037, 37.395829436568846 ], [ 126.666050379485498, 37.395920158428083 ], [ 126.666067731129985, 37.396081990614277 ], [ 126.665911419516974, 37.397891960574213 ], [ 126.665747671650408, 37.398367897151005 ], [ 126.665548720462667, 37.398667779866422 ], [ 126.665440272401597, 37.398834495554631 ], [ 126.665328770504857, 37.399010742157259 ], [ 126.665272640870811, 37.399189519402668 ], [ 126.665199524018732, 37.399431373500782 ], [ 126.665148801247071, 37.399733050972053 ], [ 126.665116255848844, 37.399988268341495 ], [ 126.665117467209271, 37.40005149083747 ], [ 126.665142460515398, 37.400148988594445 ], [ 126.665226926100615, 37.400328183380353 ], [ 126.665658553164889, 37.400836087052767 ], [ 126.666296509351042, 37.401488682381917 ], [ 126.66656004622061, 37.401764960164108 ], [ 126.666859794813476, 37.402099553406238 ], [ 126.666938865568397, 37.402193157586055 ], [ 126.666998194605739, 37.402263399176512 ], [ 126.667073850606485, 37.402406774639836 ], [ 126.667267395179351, 37.403006024765695 ], [ 126.66809828690613, 37.405690777521656 ], [ 126.670785743075626, 37.409118190068142 ], [ 126.67446332399058, 37.406620634107369 ], [ 126.680268184350908, 37.402779575877219 ] ] ] ] } },
{ "type": "Feature", "properties": { "OBJECTID": 815, "adm_nm": "인천광역시 연수구 동춘3동", "adm_cd": "2304059", "adm_cd2": "2818579500", "sgg": "28185", "sido": "28", "sidonm": "인천광역시", "sggnm": "연수구" }, "geometry": { "type": "MultiPolygon", "coordinates": [ [ [ [ 126.685515890987674, 37.406571275608322 ], [ 126.685478908477748, 37.406250911140035 ], [ 126.685401707849763, 37.406011485412499 ], [ 126.685343056655284, 37.405868328882008 ], [ 126.685284573448499, 37.405751625600708 ], [ 126.685172618676134, 37.405544821886174 ], [ 126.68503223286865, 37.405325929581366 ], [ 126.68489326434495, 37.405126056497089 ], [ 126.684777199936576, 37.40498160878802 ], [ 126.684639434923383, 37.404815620303111 ], [ 126.684412140367414, 37.404598285708005 ], [ 126.68433548918587, 37.404533661414881 ], [ 126.684017653376429, 37.404292693342242 ], [ 126.683828468745034, 37.404160316659819 ], [ 126.68357148379809, 37.403990928684763 ], [ 126.683314403176922, 37.403847117302604 ], [ 126.682768238204446, 37.403609618760136 ], [ 126.682303547819657, 37.403444791589997 ], [ 126.681614975530834, 37.403206467695171 ], [ 126.681293643895515, 37.403097243827901 ], [ 126.680851968106126, 37.402947798762625 ], [ 126.680268184350908, 37.402779575877219 ], [ 126.67446332399058, 37.406620634107369 ], [ 126.670785743075626, 37.409118190068142 ], [ 126.675634834350888, 37.413651929958085 ], [ 126.67591637412238, 37.413287402704306 ], [ 126.676175156106794, 37.412953112563947 ], [ 126.676648368724315, 37.412377123422921 ], [ 126.676912148854527, 37.412103568183802 ], [ 126.677339138117233, 37.411734153284996 ], [ 126.677613066015681, 37.411542282092796 ], [ 126.680749425891094, 37.409424934689476 ], [ 126.683641090418391, 37.407478214648478 ], [ 126.683756938137051, 37.407403141930253 ], [ 126.684056893573953, 37.407257388165505 ], [ 126.684862005535408, 37.406874302124415 ], [ 126.685327676760011, 37.406657801629244 ], [ 126.685515890987674, 37.406571275608322 ] ] ] ] } },
{ "type": "Feature", "properties": { "OBJECTID": 816, "adm_nm": "인천광역시 연수구 옥련2동", "adm_cd": "2304060", "adm_cd2": "2818564000", "sgg": "28185", "sido": "28", "sidonm": "인천광역시", "sggnm": "연수구" }, "geometry": { "type": "MultiPolygon", "coordinates": [ [ [ [ 126.656366188753339, 37.435275546838938 ], [ 126.656332275576645, 37.435103217072736 ], [ 126.656316030558159, 37.4349257765614 ], [ 126.65630819854627, 37.434761941597202 ], [ 126.656370059351801, 37.434332159341402 ], [ 126.657161135826428, 37.431734073442286 ], [ 126.657192699569592, 37.431643207936482 ], [ 126.657213230268169, 37.431584119314756 ], [ 126.657273549427074, 37.431488719507392 ], [ 126.658648764611712, 37.430332464855063 ], [ 126.659739966013817, 37.429462007450894 ], [ 126.660188933906738, 37.428644306286834 ], [ 126.660335778245312, 37.428351267165986 ], [ 126.660370386451589, 37.428269471935401 ], [ 126.660508777655906, 37.427190490744657 ], [ 126.654836358376599, 37.42829686422462 ], [ 126.65290995702064, 37.426266716321805 ], [ 126.65212696968463, 37.424594886709151 ], [ 126.652029041090898, 37.424587935173022 ], [ 126.650866967811893, 37.424522318576535 ], [ 126.650630796581808, 37.424509005192071 ], [ 126.649461110293871, 37.424451018528082 ], [ 126.647989124704182, 37.424425269812097 ], [ 126.646364327883589, 37.424372047412753 ], [ 126.644743462203962, 37.424318909547175 ], [ 126.638777505273836, 37.422051460250579 ], [ 126.637288264169698, 37.421534589246463 ], [ 126.635425481995384, 37.4283280098348 ], [ 126.634965115513694, 37.430026375518096 ], [ 126.634675916548503, 37.43100284075858 ], [ 126.634898515605101, 37.431128519380643 ], [ 126.635894229876811, 37.431388015017106 ], [ 126.637242528006624, 37.430560911792156 ], [ 126.637321669461897, 37.430550175680196 ], [ 126.640587782632664, 37.430459365039709 ], [ 126.644412470994652, 37.431677244428073 ], [ 126.644448036604302, 37.431692932988334 ], [ 126.64448170346833, 37.431707816409073 ], [ 126.644661541380174, 37.431808118677509 ], [ 126.644993402355396, 37.43202679157293 ], [ 126.645186393467952, 37.432153958302401 ], [ 126.645221120084273, 37.432176864888085 ], [ 126.645319822106615, 37.432252988327733 ], [ 126.645498492433546, 37.432392576162982 ], [ 126.645774689379294, 37.432643624754661 ], [ 126.645853794592739, 37.432736130578618 ], [ 126.646464863533879, 37.433660587556645 ], [ 126.646835054207585, 37.434276901406463 ], [ 126.646924226752773, 37.434484934942219 ], [ 126.646961469538695, 37.434566137785467 ], [ 126.646986237666667, 37.434586126416328 ], [ 126.648129579850448, 37.435121010626879 ], [ 126.654204077681712, 37.435426381286874 ], [ 126.656366188753339, 37.435275546838938 ] ] ] ] } },
{ "type": "Feature", "properties": { "OBJECTID": 817, "adm_nm": "인천광역시 연수구 송도4동", "adm_cd": "2304068", "adm_cd2": "2818585000", "sgg": "28185", "sido": "28", "sidonm": "인천광역시", "sggnm": "연수구" }, "geometry": { "type": "MultiPolygon", "coordinates": [ [ [ [ 126.609770585890686, 37.406565185624011 ], [ 126.624799629253488, 37.409118480655124 ], [ 126.626940160860883, 37.405451385288366 ], [ 126.639583941044293, 37.385877502885151 ], [ 126.632567577633068, 37.3793314486526 ], [ 126.626761012907863, 37.374008885785855 ], [ 126.626124497638145, 37.373425331915918 ], [ 126.624732964405979, 37.374145073848091 ], [ 126.616074566272204, 37.379252171977889 ], [ 126.609874503592465, 37.387161802499968 ], [ 126.609770585890686, 37.406565185624011 ] ] ] ] } },
{ "type": "Feature", "properties": { "OBJECTID": 818, "adm_nm": "인천광역시 연수구 송도1동", "adm_cd": "2304064", "adm_cd2": "2818582000", "sgg": "28185", "sido": "28", "sidonm": "인천광역시", "sggnm": "연수구" }, "geometry": { "type": "MultiPolygon", "coordinates": [ [ [ [ 126.663306278278768, 37.395072737107228 ], [ 126.666991968412717, 37.392763829290317 ], [ 126.663914288765199, 37.389541874868222 ], [ 126.663086357096219, 37.388675072148786 ], [ 126.649606821735361, 37.374633501603434 ], [ 126.641321489353032, 37.36604066340027 ], [ 126.636030662843567, 37.367975344149926 ], [ 126.632601892644288, 37.37056502416241 ], [ 126.628524482941359, 37.372561499643304 ], [ 126.626761012907863, 37.374008885785855 ], [ 126.632567577633068, 37.3793314486526 ], [ 126.639583941044293, 37.385877502885151 ], [ 126.641542231567158, 37.387657006397404 ], [ 126.650949610907048, 37.396513093102101 ], [ 126.651003657425491, 37.396566273627329 ], [ 126.655092976358418, 37.40064281150562 ], [ 126.656544986318124, 37.39989116955104 ], [ 126.658122161559774, 37.398620848881002 ], [ 126.659150651268732, 37.397883476372598 ], [ 126.66188621424034, 37.395893963620672 ], [ 126.662694499926232, 37.395432093110742 ], [ 126.663306278278768, 37.395072737107228 ] ] ] ] } },
{ "type": "Feature", "properties": { "OBJECTID": 819, "adm_nm": "인천광역시 연수구 송도3동", "adm_cd": "2304065", "adm_cd2": "2818584000", "sgg": "28185", "sido": "28", "sidonm": "인천광역시", "sggnm": "연수구" }, "geometry": { "type": "MultiPolygon", "coordinates": [ [ [ [ 126.667777585664609, 37.392301773767571 ], [ 126.671830943542858, 37.389891762804183 ], [ 126.672983195029886, 37.38942298246657 ], [ 126.674496228131517, 37.389112518012482 ], [ 126.684852943091968, 37.387374864022448 ], [ 126.697295454476247, 37.385335025984119 ], [ 126.710264880352256, 37.383161237567997 ], [ 126.709885201615606, 37.38157294345767 ], [ 126.711400636815313, 37.381049739231955 ], [ 126.717707589821416, 37.381108582169702 ], [ 126.716079832777964, 37.380414191634429 ], [ 126.715932133617983, 37.379072572520229 ], [ 126.661068873027276, 37.343249576852855 ], [ 126.637816872649395, 37.342998208561689 ], [ 126.631917207804833, 37.342956398848827 ], [ 126.617306746095423, 37.342851600588368 ], [ 126.617267511179662, 37.347320935764849 ], [ 126.607386504283639, 37.347288430665778 ], [ 126.58461496792053, 37.34738163466011 ], [ 126.584527525866676, 37.35466406674054 ], [ 126.596595123912365, 37.354796748153618 ], [ 126.607347134296333, 37.354819645069313 ], [ 126.611908433884167, 37.355309751794628 ], [ 126.624732964405979, 37.374145073848091 ], [ 126.626124497638145, 37.373425331915918 ], [ 126.626761012907863, 37.374008885785855 ], [ 126.628524482941359, 37.372561499643304 ], [ 126.632601892644288, 37.37056502416241 ], [ 126.636030662843567, 37.367975344149926 ], [ 126.641321489353032, 37.36604066340027 ], [ 126.649606821735361, 37.374633501603434 ], [ 126.663086357096219, 37.388675072148786 ], [ 126.663914288765199, 37.389541874868222 ], [ 126.666991968412717, 37.392763829290317 ], [ 126.667777585664609, 37.392301773767571 ] ] ] ] } },
{ "type": "Feature", "properties": { "OBJECTID": 3462, "adm_nm": "인천광역시 연수구 송도2동", "adm_cd": "2304066", "adm_cd2": "2818583000", "sgg": "28185", "sido": "28", "sidonm": "인천광역시", "sggnm": "연수구" }, "geometry": { "type": "MultiPolygon", "coordinates": [ [ [ [ 126.639583941044293, 37.385877502885151 ], [ 126.626940160860883, 37.405451385288366 ], [ 126.624799629253488, 37.409118480655124 ], [ 126.629874330101046, 37.410128167463476 ], [ 126.630904953973101, 37.410646477763208 ], [ 126.631804933792353, 37.411473425255373 ], [ 126.632531394576731, 37.41257454034173 ], [ 126.632908281465816, 37.414739081224646 ], [ 126.633072610682802, 37.416353533594197 ], [ 126.634184935924367, 37.417799226599271 ], [ 126.633850212974792, 37.415806517363848 ], [ 126.633428737788748, 37.413950894423266 ], [ 126.633265410196771, 37.412130409699735 ], [ 126.634006935057812, 37.410141032598958 ], [ 126.634646026520926, 37.40950882886878 ], [ 126.636124082293094, 37.408535769621878 ], [ 126.638590526921561, 37.407658895765401 ], [ 126.64112213108946, 37.407589547281688 ], [ 126.642366973033688, 37.407755624677023 ], [ 126.643815092122182, 37.406415288943158 ], [ 126.646289494259364, 37.408372838599092 ], [ 126.647307967781089, 37.40758354419841 ], [ 126.648163021415186, 37.406845018548921 ], [ 126.649374977272572, 37.405260454910064 ], [ 126.650515894970994, 37.404194918998172 ], [ 126.651874045513097, 37.403113611858288 ], [ 126.654543509165521, 37.401245027245238 ], [ 126.655092976358418, 37.40064281150562 ], [ 126.651003657425491, 37.396566273627329 ], [ 126.650949610907048, 37.396513093102101 ], [ 126.641542231567158, 37.387657006397404 ], [ 126.639583941044293, 37.385877502885151 ] ] ] ] } },
{ "type": "Feature", "properties": { "OBJECTID": 817, "adm_nm": "인천광역시 연수구 송도5동", "adm_cd": "2304069", "adm_cd2": "2818586000", "sgg": "28185", "sido": "28", "sidonm": "인천광역시", "sggnm": "연수구" }, "geometry": { "type": "MultiPolygon", "coordinates": [ [ [ [ 126.634646026520926, 37.40950882886878 ], [ 126.634006935057812, 37.410141032598958 ], [ 126.633265410196771, 37.412130409699735 ], [ 126.633428737788748, 37.413950894423266 ], [ 126.633850212974792, 37.415806517363848 ], [ 126.634184935924367, 37.417799226599271 ], [ 126.633072610682802, 37.416353533594197 ], [ 126.632908281465816, 37.414739081224646 ], [ 126.632531394576731, 37.41257454034173 ], [ 126.631804933792353, 37.411473425255373 ], [ 126.630904953973101, 37.410646477763208 ], [ 126.629874330101046, 37.410128167463476 ], [ 126.624799629253488, 37.409118480655124 ], [ 126.609770585890686, 37.406565185624011 ], [ 126.609719725119803, 37.416051269203528 ], [ 126.596816038376161, 37.415953387234367 ], [ 126.590293957155595, 37.419135534994865 ], [ 126.589813731543387, 37.433054958038589 ], [ 126.607905686122336, 37.427076661362243 ], [ 126.610898879531717, 37.427049487968304 ], [ 126.610871917493995, 37.429918106413396 ], [ 126.611982184768337, 37.429974777794826 ], [ 126.634965115513694, 37.430026375518096 ], [ 126.635425481995384, 37.4283280098348 ], [ 126.637288264169698, 37.421534589246463 ], [ 126.637680552823525, 37.420539956296118 ], [ 126.638774879776008, 37.416800334085607 ], [ 126.638951043184406, 37.415976731474316 ], [ 126.639687357542257, 37.415051819359419 ], [ 126.641117783063251, 37.413012987014483 ], [ 126.642892812870841, 37.411216141138325 ], [ 126.644885979102881, 37.409609616771391 ], [ 126.646289494259364, 37.408372838599092 ], [ 126.643815092122182, 37.406415288943158 ], [ 126.642366973033688, 37.407755624677023 ], [ 126.64112213108946, 37.407589547281688 ], [ 126.638590526921561, 37.407658895765401 ], [ 126.636124082293094, 37.408535769621878 ], [ 126.634646026520926, 37.40950882886878 ] ] ] ] } }
]
}
