{
"type": "FeatureCollection",
"name": "bukgu",
"crs": { "type": "name", "properties": { "name": "urn:ogc:def:crs:OGC:1.3:CRS84" } },
"features": [
{ "type": "Feature", "properties": { "OBJECTID": 960, "adm_nm": "광주광역시 북구 중흥1동", "adm_cd": "2404051", "adm_cd2": "2917051000", "sgg": "29170", "sido": "29", "sidonm": "광주광역시", "sggnm": "북구" }, "geometry": { "type": "MultiPolygon", "coordinates": [ [ [ [ 126.913175116286808, 35.166416966574715 ], [ 126.915346044750777, 35.165832263412568 ], [ 126.916310004284213, 35.165537637322075 ], [ 126.913157608108648, 35.157506931122192 ], [ 126.913002537591282, 35.157112632706173 ], [ 126.911988566447334, 35.157715456514453 ], [ 126.911645681254626, 35.157855969017888 ], [ 126.909932617754819, 35.158337163183099 ], [ 126.906541203253454, 35.159291607070621 ], [ 126.907288666913061, 35.160988053008381 ], [ 126.909125821840902, 35.165115308591751 ], [ 126.908503309301082, 35.165349121068267 ], [ 126.907614181508194, 35.16558579272705 ], [ 126.907331174758355, 35.165661119076752 ], [ 126.906409621183514, 35.165937022215687 ], [ 126.90641920520369, 35.16662866452841 ], [ 126.906431359586819, 35.167505618380332 ], [ 126.906621328300304, 35.16786511657434 ], [ 126.913175116286808, 35.166416966574715 ] ] ] ] } },
{ "type": "Feature", "properties": { "OBJECTID": 961, "adm_nm": "광주광역시 북구 중흥2동", "adm_cd": "2404052", "adm_cd2": "2917052000", "sgg": "29170", "sido": "29", "sidonm": "광주광역시", "sggnm": "북구" }, "geometry": { "type": "MultiPolygon", "coordinates": [ [ [ [ 126.913175116286808, 35.166416966574715 ], [ 126.906621328300304, 35.16786511657434 ], [ 126.906238620132655, 35.167816199498844 ], [ 126.905453636362566, 35.167726014022179 ], [ 126.904764590176683, 35.167653805073144 ], [ 126.904868146795536, 35.168603342336858 ], [ 126.905045859253576, 35.169039300272374 ], [ 126.905428785751212, 35.169978641628767 ], [ 126.905613588128119, 35.170431954262483 ], [ 126.905881930182375, 35.17037697108573 ], [ 126.906076301209211, 35.170872047186911 ], [ 126.90626068132714, 35.17134176049143 ], [ 126.906438774599678, 35.171857382604621 ], [ 126.906386937606555, 35.171959343737051 ], [ 126.906209187531019, 35.172238277908775 ], [ 126.906142280867286, 35.172290582261944 ], [ 126.905736522254287, 35.172502834916806 ], [ 126.90663881952959, 35.172502913771318 ], [ 126.909151259053985, 35.172504854153438 ], [ 126.909216083329568, 35.172525366658327 ], [ 126.9092915770741, 35.172549260244232 ], [ 126.910319822383002, 35.172874765841769 ], [ 126.910457437395834, 35.172920472108729 ], [ 126.912534048900156, 35.173610176855782 ], [ 126.91261161870716, 35.173635954888795 ], [ 126.913934951180295, 35.172551801794881 ], [ 126.913974098149666, 35.172464609911401 ], [ 126.913993024414637, 35.172422443187592 ], [ 126.914722383530005, 35.170284931476168 ], [ 126.914732473159546, 35.17025535477849 ], [ 126.914698156638821, 35.170170759830441 ], [ 126.914574934726971, 35.16986706688526 ], [ 126.914324170893252, 35.169249034032937 ], [ 126.913340214145592, 35.166823890681002 ], [ 126.913175116286808, 35.166416966574715 ] ] ] ] } },
{ "type": "Feature", "properties": { "OBJECTID": 962, "adm_nm": "광주광역시 북구 중흥3동", "adm_cd": "2404053", "adm_cd2": "2917053000", "sgg": "29170", "sido": "29", "sidonm": "광주광역시", "sggnm": "북구" }, "geometry": { "type": "MultiPolygon", "coordinates": [ [ [ [ 126.918351924193885, 35.175515177345545 ], [ 126.919017368394762, 35.175382284242566 ], [ 126.919509761767642, 35.172459265828536 ], [ 126.919994873972001, 35.171869232175482 ], [ 126.919722947835282, 35.171816442604047 ], [ 126.916585614825195, 35.17015864068464 ], [ 126.916352841824889, 35.169971205902741 ], [ 126.916641713323756, 35.169676561072798 ], [ 126.91666796843613, 35.169650255886872 ], [ 126.915852047654582, 35.167109574248364 ], [ 126.915346044750777, 35.165832263412568 ], [ 126.913175116286808, 35.166416966574715 ], [ 126.913340214145592, 35.166823890681002 ], [ 126.914324170893252, 35.169249034032937 ], [ 126.914574934726971, 35.16986706688526 ], [ 126.914698156638821, 35.170170759830441 ], [ 126.914732473159546, 35.17025535477849 ], [ 126.914722383530005, 35.170284931476168 ], [ 126.913993024414637, 35.172422443187592 ], [ 126.913974098149666, 35.172464609911401 ], [ 126.913934951180295, 35.172551801794881 ], [ 126.91261161870716, 35.173635954888795 ], [ 126.915760868911178, 35.17601916996454 ], [ 126.918351924193885, 35.175515177345545 ] ] ] ] } },
{ "type": "Feature", "properties": { "OBJECTID": 963, "adm_nm": "광주광역시 북구 중앙동", "adm_cd": "2404054", "adm_cd2": "2917055500", "sgg": "29170", "sido": "29", "sidonm": "광주광역시", "sggnm": "북구" }, "geometry": { "type": "MultiPolygon", "coordinates": [ [ [ [ 126.907288666913061, 35.160988053008381 ], [ 126.906541203253454, 35.159291607070621 ], [ 126.909932617754819, 35.158337163183099 ], [ 126.911645681254626, 35.157855969017888 ], [ 126.911988566447334, 35.157715456514453 ], [ 126.913002537591282, 35.157112632706173 ], [ 126.913072955841926, 35.157070764166129 ], [ 126.912556088481125, 35.155920150938357 ], [ 126.912490205952608, 35.155773499211961 ], [ 126.912473593219985, 35.155736524497151 ], [ 126.912443736964192, 35.155711953428415 ], [ 126.912392232323356, 35.1556695768937 ], [ 126.910009101490814, 35.153708802440825 ], [ 126.90991453492704, 35.153632078403824 ], [ 126.909675902435097, 35.153438470462198 ], [ 126.909211063006595, 35.153061355143599 ], [ 126.908323846765697, 35.152341562458112 ], [ 126.907270753519427, 35.151487143369948 ], [ 126.901444991195063, 35.155482875216904 ], [ 126.901916449105727, 35.155938363956068 ], [ 126.901940869452901, 35.15596626420799 ], [ 126.902305419160257, 35.156931874939119 ], [ 126.902331679960881, 35.15703214955068 ], [ 126.902293948961869, 35.157838642273568 ], [ 126.902000435260376, 35.158729012394822 ], [ 126.901827253406253, 35.158921506195639 ], [ 126.901437777920293, 35.159199971868858 ], [ 126.901905734332217, 35.160406830114134 ], [ 126.904057353431696, 35.161796426522478 ], [ 126.904190701281038, 35.161882498074249 ], [ 126.907288666913061, 35.160988053008381 ] ] ] ] } },
{ "type": "Feature", "properties": { "OBJECTID": 964, "adm_nm": "광주광역시 북구 임동", "adm_cd": "2404055", "adm_cd2": "2917057000", "sgg": "29170", "sido": "29", "sidonm": "광주광역시", "sggnm": "북구" }, "geometry": { "type": "MultiPolygon", "coordinates": [ [ [ [ 126.891272850024109, 35.168856651711195 ], [ 126.892888489165102, 35.168421639089644 ], [ 126.896572556391376, 35.166003190926716 ], [ 126.900929369239407, 35.164486231107055 ], [ 126.900633393519655, 35.163719380891514 ], [ 126.900331832807993, 35.162938070480905 ], [ 126.904190701281038, 35.161882498074249 ], [ 126.904057353431696, 35.161796426522478 ], [ 126.901905734332217, 35.160406830114134 ], [ 126.901437777920293, 35.159199971868858 ], [ 126.901827253406253, 35.158921506195639 ], [ 126.902000435260376, 35.158729012394822 ], [ 126.902293948961869, 35.157838642273568 ], [ 126.902331679960881, 35.15703214955068 ], [ 126.902305419160257, 35.156931874939119 ], [ 126.901940869452901, 35.15596626420799 ], [ 126.901916449105727, 35.155938363956068 ], [ 126.901444991195063, 35.155482875216904 ], [ 126.900110745742282, 35.156646488925965 ], [ 126.899300773103661, 35.157280492561398 ], [ 126.899242687490869, 35.157325959711208 ], [ 126.898560985402042, 35.157859555632271 ], [ 126.898149005520381, 35.158180956281953 ], [ 126.896863017419321, 35.159012408671764 ], [ 126.896633106517527, 35.159149615843702 ], [ 126.896316938110999, 35.159338293036754 ], [ 126.896060797178308, 35.159454790628168 ], [ 126.895779712216537, 35.159582621214611 ], [ 126.895563382070804, 35.159663147161787 ], [ 126.893946302494953, 35.160264987792615 ], [ 126.893111431169785, 35.160499430648919 ], [ 126.892113281848296, 35.160637717805542 ], [ 126.891307757585025, 35.160744990297303 ], [ 126.89062777840104, 35.160804356616637 ], [ 126.89054231009716, 35.160556454324819 ], [ 126.887430379349595, 35.161226468175904 ], [ 126.887411223425659, 35.161341437587545 ], [ 126.8873561224068, 35.161637615324175 ], [ 126.887224105650603, 35.162185052933303 ], [ 126.886917269680822, 35.162898326921159 ], [ 126.886360806270417, 35.164191842664344 ], [ 126.884908564752351, 35.167262113287578 ], [ 126.88429196580222, 35.168676981291277 ], [ 126.884359379366998, 35.169369630350324 ], [ 126.884507578000324, 35.170892241293899 ], [ 126.885233646764249, 35.17067935056604 ], [ 126.887157334901289, 35.170115242886141 ], [ 126.891272850024109, 35.168856651711195 ] ] ] ] } },
{ "type": "Feature", "properties": { "OBJECTID": 965, "adm_nm": "광주광역시 북구 신안동", "adm_cd": "2404056", "adm_cd2": "2917058000", "sgg": "29170", "sido": "29", "sidonm": "광주광역시", "sggnm": "북구" }, "geometry": { "type": "MultiPolygon", "coordinates": [ [ [ [ 126.905736522254287, 35.172502834916806 ], [ 126.906142280867286, 35.172290582261944 ], [ 126.906209187531019, 35.172238277908775 ], [ 126.906386937606555, 35.171959343737051 ], [ 126.906438774599678, 35.171857382604621 ], [ 126.90626068132714, 35.17134176049143 ], [ 126.906076301209211, 35.170872047186911 ], [ 126.905881930182375, 35.17037697108573 ], [ 126.905613588128119, 35.170431954262483 ], [ 126.905428785751212, 35.169978641628767 ], [ 126.905045859253576, 35.169039300272374 ], [ 126.904868146795536, 35.168603342336858 ], [ 126.904764590176683, 35.167653805073144 ], [ 126.905453636362566, 35.167726014022179 ], [ 126.906238620132655, 35.167816199498844 ], [ 126.906621328300304, 35.16786511657434 ], [ 126.906431359586819, 35.167505618380332 ], [ 126.90641920520369, 35.16662866452841 ], [ 126.906409621183514, 35.165937022215687 ], [ 126.907331174758355, 35.165661119076752 ], [ 126.907614181508194, 35.16558579272705 ], [ 126.908503309301082, 35.165349121068267 ], [ 126.909125821840902, 35.165115308591751 ], [ 126.907288666913061, 35.160988053008381 ], [ 126.904190701281038, 35.161882498074249 ], [ 126.900331832807993, 35.162938070480905 ], [ 126.900633393519655, 35.163719380891514 ], [ 126.900929369239407, 35.164486231107055 ], [ 126.896572556391376, 35.166003190926716 ], [ 126.892888489165102, 35.168421639089644 ], [ 126.891272850024109, 35.168856651711195 ], [ 126.891783770805105, 35.169549334578249 ], [ 126.892189045809573, 35.170378377032868 ], [ 126.891675655598277, 35.173441667326543 ], [ 126.8915807254415, 35.173871460638878 ], [ 126.891449305253502, 35.174414975185961 ], [ 126.891298590606908, 35.174726395765482 ], [ 126.893815802695229, 35.174892097472664 ], [ 126.896795982731291, 35.172137884534493 ], [ 126.898696101727708, 35.171631888359961 ], [ 126.898778093610645, 35.17162073281942 ], [ 126.899038409757324, 35.171616378119431 ], [ 126.899340395787817, 35.171611332301815 ], [ 126.899471758003898, 35.171609148664892 ], [ 126.900015278081526, 35.171617732822469 ], [ 126.900967750466663, 35.171632803735697 ], [ 126.902425015987774, 35.171657146483959 ], [ 126.903388194141755, 35.171680339447931 ], [ 126.903688724655566, 35.171708603427803 ], [ 126.905736522254287, 35.172502834916806 ] ] ] ] } },
{ "type": "Feature", "properties": { "OBJECTID": 966, "adm_nm": "광주광역시 북구 용봉동", "adm_cd": "2404057", "adm_cd2": "2917059000", "sgg": "29170", "sido": "29", "sidonm": "광주광역시", "sggnm": "북구" }, "geometry": { "type": "MultiPolygon", "coordinates": [ [ [ [ 126.898301059377445, 35.187289616176685 ], [ 126.898297786184727, 35.18648757340258 ], [ 126.898321334052923, 35.186235105411775 ], [ 126.89834100763305, 35.186046750640934 ], [ 126.898690556247416, 35.184578526726689 ], [ 126.898769583466986, 35.184272125600813 ], [ 126.901520093974099, 35.184136082421333 ], [ 126.904005098079423, 35.184020782867506 ], [ 126.906448744374416, 35.183925828951253 ], [ 126.90741774891049, 35.182374869101523 ], [ 126.908741540647256, 35.182407879382502 ], [ 126.909989260987814, 35.183244985793429 ], [ 126.911468083250526, 35.183328376325079 ], [ 126.912942828262928, 35.18327754514948 ], [ 126.914512940458039, 35.182623835265318 ], [ 126.915760868911178, 35.17601916996454 ], [ 126.91261161870716, 35.173635954888795 ], [ 126.912534048900156, 35.173610176855782 ], [ 126.910457437395834, 35.172920472108729 ], [ 126.910319822383002, 35.172874765841769 ], [ 126.9092915770741, 35.172549260244232 ], [ 126.909216083329568, 35.172525366658327 ], [ 126.909151259053985, 35.172504854153438 ], [ 126.90663881952959, 35.172502913771318 ], [ 126.905736522254287, 35.172502834916806 ], [ 126.903688724655566, 35.171708603427803 ], [ 126.903388194141755, 35.171680339447931 ], [ 126.902425015987774, 35.171657146483959 ], [ 126.900967750466663, 35.171632803735697 ], [ 126.900015278081526, 35.171617732822469 ], [ 126.899471758003898, 35.171609148664892 ], [ 126.899340395787817, 35.171611332301815 ], [ 126.899038409757324, 35.171616378119431 ], [ 126.898778093610645, 35.17162073281942 ], [ 126.898696101727708, 35.171631888359961 ], [ 126.896795982731291, 35.172137884534493 ], [ 126.893815802695229, 35.174892097472664 ], [ 126.891298590606908, 35.174726395765482 ], [ 126.889589739216731, 35.176787732988231 ], [ 126.888895930371149, 35.176853843108042 ], [ 126.888852966420501, 35.176861257427241 ], [ 126.888280685747048, 35.177025664650422 ], [ 126.887827984266721, 35.177849621698527 ], [ 126.886919927958203, 35.179640386654611 ], [ 126.886217466158271, 35.181824006146449 ], [ 126.887436262034768, 35.183631660203197 ], [ 126.887303978006059, 35.184383877506967 ], [ 126.887803682661826, 35.184502014879406 ], [ 126.888380266283946, 35.184786763104086 ], [ 126.888847187110414, 35.185560880883621 ], [ 126.888861077241344, 35.186015574135517 ], [ 126.889304670825695, 35.186902116995142 ], [ 126.894390182825376, 35.187357398342428 ], [ 126.896454275027168, 35.187317380279062 ], [ 126.897159779536651, 35.187303692377583 ], [ 126.897311873516728, 35.187300737057889 ], [ 126.898301059377445, 35.187289616176685 ] ] ] ] } },
{ "type": "Feature", "properties": { "OBJECTID": 967, "adm_nm": "광주광역시 북구 운암1동", "adm_cd": "2404058", "adm_cd2": "2917060100", "sgg": "29170", "sido": "29", "sidonm": "광주광역시", "sggnm": "북구" }, "geometry": { "type": "MultiPolygon", "coordinates": [ [ [ [ 126.879257977227724, 35.176582681072922 ], [ 126.880491337744246, 35.175765836270564 ], [ 126.879709427513021, 35.173870027029338 ], [ 126.878411458821418, 35.173351147113486 ], [ 126.875822763386068, 35.173483760164643 ], [ 126.875742517096441, 35.171366227329386 ], [ 126.870268880912647, 35.171687274306571 ], [ 126.870319752830227, 35.172800033712328 ], [ 126.867586447395411, 35.174556159695108 ], [ 126.867647758945537, 35.176555057691594 ], [ 126.867647276412313, 35.176849794495098 ], [ 126.867426698144726, 35.179009808777579 ], [ 126.867161623019996, 35.179628079620919 ], [ 126.867219502337463, 35.179689969847544 ], [ 126.86730703619213, 35.17977745187742 ], [ 126.868036551527098, 35.1800672883044 ], [ 126.868315596153067, 35.1801781506651 ], [ 126.869138968664288, 35.180453067119373 ], [ 126.873309808051374, 35.181591233801967 ], [ 126.873723419637201, 35.181149793278244 ], [ 126.874553348964056, 35.180263998492357 ], [ 126.874587451580595, 35.180219061682159 ], [ 126.874617256165905, 35.180179781570644 ], [ 126.874642511993812, 35.180146488691868 ], [ 126.879257977227724, 35.176582681072922 ] ] ] ] } },
{ "type": "Feature", "properties": { "OBJECTID": 968, "adm_nm": "광주광역시 북구 운암2동", "adm_cd": "2404059", "adm_cd2": "2917060200", "sgg": "29170", "sido": "29", "sidonm": "광주광역시", "sggnm": "북구" }, "geometry": { "type": "MultiPolygon", "coordinates": [ [ [ [ 126.887303978006059, 35.184383877506967 ], [ 126.887436262034768, 35.183631660203197 ], [ 126.886217466158271, 35.181824006146449 ], [ 126.886919927958203, 35.179640386654611 ], [ 126.887827984266721, 35.177849621698527 ], [ 126.888280685747048, 35.177025664650422 ], [ 126.888852966420501, 35.176861257427241 ], [ 126.888895930371149, 35.176853843108042 ], [ 126.889589739216731, 35.176787732988231 ], [ 126.891298590606908, 35.174726395765482 ], [ 126.891449305253502, 35.174414975185961 ], [ 126.8915807254415, 35.173871460638878 ], [ 126.891675655598277, 35.173441667326543 ], [ 126.892189045809573, 35.170378377032868 ], [ 126.891783770805105, 35.169549334578249 ], [ 126.891272850024109, 35.168856651711195 ], [ 126.887157334901289, 35.170115242886141 ], [ 126.885233646764249, 35.17067935056604 ], [ 126.884507578000324, 35.170892241293899 ], [ 126.884359379366998, 35.169369630350324 ], [ 126.88429196580222, 35.168676981291277 ], [ 126.883277285409619, 35.169147268721851 ], [ 126.881716812867353, 35.169641003427934 ], [ 126.880908728195806, 35.169802552953577 ], [ 126.880363806465397, 35.16991147850112 ], [ 126.879559834077369, 35.17000210231695 ], [ 126.879022655871381, 35.170062297490098 ], [ 126.878948163673797, 35.170070641354101 ], [ 126.877854851159185, 35.170121531628546 ], [ 126.8776551380124, 35.170115219970683 ], [ 126.877541255723173, 35.170111620446271 ], [ 126.87679335547611, 35.170087957420122 ], [ 126.87568839776263, 35.169938197529298 ], [ 126.875742517096441, 35.171366227329386 ], [ 126.875822763386068, 35.173483760164643 ], [ 126.878411458821418, 35.173351147113486 ], [ 126.879709427513021, 35.173870027029338 ], [ 126.880491337744246, 35.175765836270564 ], [ 126.879257977227724, 35.176582681072922 ], [ 126.880264155433196, 35.178759375359171 ], [ 126.883597319640799, 35.181967538638759 ], [ 126.884086343515065, 35.182540677702185 ], [ 126.884184621060015, 35.183396637545393 ], [ 126.884170166770517, 35.183939915331329 ], [ 126.884160341386803, 35.184309107536627 ], [ 126.884603816681263, 35.184636774081902 ], [ 126.885070423133612, 35.184838596312396 ], [ 126.887256292003201, 35.184747817233919 ], [ 126.887303978006059, 35.184383877506967 ] ] ] ] } },
{ "type": "Feature", "properties": { "OBJECTID": 969, "adm_nm": "광주광역시 북구 운암3동", "adm_cd": "2404060", "adm_cd2": "2917060300", "sgg": "29170", "sido": "29", "sidonm": "광주광역시", "sggnm": "북구" }, "geometry": { "type": "MultiPolygon", "coordinates": [ [ [ [ 126.879521510950184, 35.190568584030352 ], [ 126.879719655585447, 35.190099228353304 ], [ 126.880644231621474, 35.187073825150257 ], [ 126.881189336420519, 35.184616456676359 ], [ 126.881285101466347, 35.18436457846127 ], [ 126.884170166770517, 35.183939915331329 ], [ 126.884184621060015, 35.183396637545393 ], [ 126.884086343515065, 35.182540677702185 ], [ 126.883597319640799, 35.181967538638759 ], [ 126.880264155433196, 35.178759375359171 ], [ 126.879257977227724, 35.176582681072922 ], [ 126.874642511993812, 35.180146488691868 ], [ 126.874617256165905, 35.180179781570644 ], [ 126.874587451580595, 35.180219061682159 ], [ 126.874553348964056, 35.180263998492357 ], [ 126.873723419637201, 35.181149793278244 ], [ 126.873309808051374, 35.181591233801967 ], [ 126.869138968664288, 35.180453067119373 ], [ 126.868315596153067, 35.1801781506651 ], [ 126.868036551527098, 35.1800672883044 ], [ 126.86730703619213, 35.17977745187742 ], [ 126.867219502337463, 35.179689969847544 ], [ 126.867161623019996, 35.179628079620919 ], [ 126.866286908306819, 35.18079256023951 ], [ 126.867997853190218, 35.184733379165813 ], [ 126.868157241252717, 35.185043621263084 ], [ 126.868361174861988, 35.185224353753199 ], [ 126.869440637293863, 35.185309849310848 ], [ 126.871162631910067, 35.18550918164118 ], [ 126.87329687863469, 35.187011350054803 ], [ 126.873875596215584, 35.188294590353792 ], [ 126.874099390485242, 35.190053408553219 ], [ 126.8781935785385, 35.191199920784619 ], [ 126.879521510950184, 35.190568584030352 ] ] ] ] } },
{ "type": "Feature", "properties": { "OBJECTID": 970, "adm_nm": "광주광역시 북구 동림동", "adm_cd": "2404061", "adm_cd2": "2917061500", "sgg": "29170", "sido": "29", "sidonm": "광주광역시", "sggnm": "북구" }, "geometry": { "type": "MultiPolygon", "coordinates": [ [ [ [ 126.874099390485242, 35.190053408553219 ], [ 126.873875596215584, 35.188294590353792 ], [ 126.87329687863469, 35.187011350054803 ], [ 126.871162631910067, 35.18550918164118 ], [ 126.869440637293863, 35.185309849310848 ], [ 126.868361174861988, 35.185224353753199 ], [ 126.868157241252717, 35.185043621263084 ], [ 126.867997853190218, 35.184733379165813 ], [ 126.866286908306819, 35.18079256023951 ], [ 126.867161623019996, 35.179628079620919 ], [ 126.867426698144726, 35.179009808777579 ], [ 126.867647276412313, 35.176849794495098 ], [ 126.867647758945537, 35.176555057691594 ], [ 126.867586447395411, 35.174556159695108 ], [ 126.870319752830227, 35.172800033712328 ], [ 126.870268880912647, 35.171687274306571 ], [ 126.860402934004398, 35.172220651797304 ], [ 126.859983778449319, 35.172262736534684 ], [ 126.859663565557952, 35.172333751841833 ], [ 126.858734040280126, 35.172539892565041 ], [ 126.858335440494187, 35.172628289784804 ], [ 126.858042482455375, 35.172693263110475 ], [ 126.85418361463563, 35.173577410830958 ], [ 126.852944700022846, 35.173861243437045 ], [ 126.852897599461286, 35.173872034024861 ], [ 126.852543101659009, 35.173953248350024 ], [ 126.851820183911627, 35.174120877015667 ], [ 126.851153538859222, 35.174275453147168 ], [ 126.849763976239174, 35.174597650942331 ], [ 126.848374389726601, 35.17491983078542 ], [ 126.845177957601365, 35.175659717099165 ], [ 126.842789159715906, 35.17620050480847 ], [ 126.839903941914926, 35.178585389326678 ], [ 126.8387272957807, 35.178322619420932 ], [ 126.840783665111886, 35.181603264474361 ], [ 126.845014910532583, 35.182060434485344 ], [ 126.845831620112108, 35.181152934109257 ], [ 126.846207353245163, 35.180200877844996 ], [ 126.847128648068818, 35.179540118746061 ], [ 126.84820603075498, 35.179627223822017 ], [ 126.848316851929511, 35.179636184291006 ], [ 126.848968575155766, 35.179768047585881 ], [ 126.850041278016207, 35.179985080105133 ], [ 126.85086433380711, 35.180213539775401 ], [ 126.857466561053897, 35.1822575731669 ], [ 126.85781696732397, 35.182366937423424 ], [ 126.858170843148343, 35.182477392977518 ], [ 126.858576499421403, 35.182853656407978 ], [ 126.858678171285661, 35.182972440756821 ], [ 126.858864923283022, 35.183190644872973 ], [ 126.859115468091275, 35.183554604871659 ], [ 126.859177375834548, 35.183716540114766 ], [ 126.859328727902067, 35.184112471960809 ], [ 126.859416574127252, 35.184579263961325 ], [ 126.85948876365174, 35.185549114840008 ], [ 126.85949516185724, 35.186116795132207 ], [ 126.859439654666815, 35.188792662031069 ], [ 126.859435472970929, 35.188819835092737 ], [ 126.859424716841843, 35.188889634464928 ], [ 126.8593578765243, 35.189089555000535 ], [ 126.859239156533633, 35.18938034092151 ], [ 126.859187154180205, 35.189543935642718 ], [ 126.859135067555172, 35.18975600330598 ], [ 126.859089375286757, 35.190279867323071 ], [ 126.859082785007487, 35.190585885431041 ], [ 126.859318225858331, 35.19176693808798 ], [ 126.859707439402627, 35.192537949789944 ], [ 126.865624496094981, 35.192831309127413 ], [ 126.866157864870317, 35.192818250136149 ], [ 126.866584075730586, 35.192807785193011 ], [ 126.866778289978043, 35.192798632439988 ], [ 126.867603659998053, 35.192759730677004 ], [ 126.868447992511747, 35.192578475705652 ], [ 126.874099390485242, 35.190053408553219 ] ] ] ] } },
{ "type": "Feature", "properties": { "OBJECTID": 971, "adm_nm": "광주광역시 북구 우산동", "adm_cd": "2404062", "adm_cd2": "2917062000", "sgg": "29170", "sido": "29", "sidonm": "광주광역시", "sggnm": "북구" }, "geometry": { "type": "MultiPolygon", "coordinates": [ [ [ [ 126.922682270082873, 35.181582369829719 ], [ 126.92348829257098, 35.179014040635728 ], [ 126.927483326962033, 35.179400952286876 ], [ 126.928026208762958, 35.179243657985289 ], [ 126.928126142185533, 35.178147747318043 ], [ 126.926652793368788, 35.176046052388564 ], [ 126.925829215095348, 35.174952025160408 ], [ 126.925856664427329, 35.173927679306054 ], [ 126.921568033453667, 35.170284460508775 ], [ 126.920993016227953, 35.169864896565358 ], [ 126.919427017046843, 35.167224257964783 ], [ 126.9193999392091, 35.167176988931061 ], [ 126.919347062502766, 35.167034001229581 ], [ 126.9192957722871, 35.166883967982301 ], [ 126.91974761991294, 35.166779821386207 ], [ 126.919732156207019, 35.165656081133548 ], [ 126.919718390730893, 35.165096199590856 ], [ 126.919697462481565, 35.164799298097023 ], [ 126.919694358516125, 35.164676993241407 ], [ 126.916310004284213, 35.165537637322075 ], [ 126.915346044750777, 35.165832263412568 ], [ 126.915852047654582, 35.167109574248364 ], [ 126.91666796843613, 35.169650255886872 ], [ 126.916641713323756, 35.169676561072798 ], [ 126.916352841824889, 35.169971205902741 ], [ 126.916585614825195, 35.17015864068464 ], [ 126.919722947835282, 35.171816442604047 ], [ 126.919994873972001, 35.171869232175482 ], [ 126.919509761767642, 35.172459265828536 ], [ 126.919017368394762, 35.175382284242566 ], [ 126.918351924193885, 35.175515177345545 ], [ 126.918095970247379, 35.178192995831502 ], [ 126.918059968589688, 35.178737751922426 ], [ 126.918053337325404, 35.178838225542805 ], [ 126.918065039700977, 35.1790074915085 ], [ 126.918071058208199, 35.179094384055929 ], [ 126.919279218459266, 35.182346170195032 ], [ 126.91945007859627, 35.182412775623163 ], [ 126.919878935077904, 35.182366257657449 ], [ 126.920187714346795, 35.182331540147679 ], [ 126.920466749847776, 35.182300161902418 ], [ 126.922608108795913, 35.181996178657577 ], [ 126.922682270082873, 35.181582369829719 ] ] ] ] } },
{ "type": "Feature", "properties": { "OBJECTID": 972, "adm_nm": "광주광역시 북구 풍향동", "adm_cd": "2404063", "adm_cd2": "2917063500", "sgg": "29170", "sido": "29", "sidonm": "광주광역시", "sggnm": "북구" }, "geometry": { "type": "MultiPolygon", "coordinates": [ [ [ [ 126.931462941877498, 35.164924787744901 ], [ 126.932702799016724, 35.16364711373393 ], [ 126.934625587820463, 35.162569250460557 ], [ 126.935104233963258, 35.161732172553599 ], [ 126.931496134485897, 35.160494799967076 ], [ 126.930323651688269, 35.161020864610116 ], [ 126.930175961033441, 35.161144275306 ], [ 126.929590010321789, 35.161723561189241 ], [ 126.929091647792305, 35.162037376651874 ], [ 126.92863000682371, 35.162289526117817 ], [ 126.928353539362675, 35.162413071025362 ], [ 126.928146417694634, 35.162505613822923 ], [ 126.924542009602234, 35.163521531561209 ], [ 126.922170584063522, 35.164162126248073 ], [ 126.919697462481565, 35.164799298097023 ], [ 126.919718390730893, 35.165096199590856 ], [ 126.919732156207019, 35.165656081133548 ], [ 126.91974761991294, 35.166779821386207 ], [ 126.9192957722871, 35.166883967982301 ], [ 126.919347062502766, 35.167034001229581 ], [ 126.9193999392091, 35.167176988931061 ], [ 126.919427017046843, 35.167224257964783 ], [ 126.920993016227953, 35.169864896565358 ], [ 126.921568033453667, 35.170284460508775 ], [ 126.92238136539936, 35.16986788359695 ], [ 126.924671931679867, 35.169050409035371 ], [ 126.92987346431768, 35.166255613790973 ], [ 126.931462941877498, 35.164924787744901 ] ] ] ] } },
{ "type": "Feature", "properties": { "OBJECTID": 973, "adm_nm": "광주광역시 북구 문화동", "adm_cd": "2404064", "adm_cd2": "2917065000", "sgg": "29170", "sido": "29", "sidonm": "광주광역시", "sggnm": "북구" }, "geometry": { "type": "MultiPolygon", "coordinates": [ [ [ [ 126.942262988809091, 35.193054128207827 ], [ 126.94348185153639, 35.191562326562732 ], [ 126.946176415114181, 35.187532962920834 ], [ 126.946274972746082, 35.187444202791191 ], [ 126.946610769086902, 35.187168284813502 ], [ 126.94953706846438, 35.185209472311627 ], [ 126.952060063923312, 35.183411643004241 ], [ 126.952597737644609, 35.183013059962541 ], [ 126.952783902419213, 35.182792524120281 ], [ 126.95393234192349, 35.180722560145291 ], [ 126.954346311872598, 35.179738414000646 ], [ 126.954316222905192, 35.178151656058034 ], [ 126.95359407709978, 35.175945203400765 ], [ 126.953521819563804, 35.175800919471037 ], [ 126.952974680567536, 35.174807921487847 ], [ 126.951921623806896, 35.173084978208067 ], [ 126.950268608733722, 35.172380013863886 ], [ 126.94968998820481, 35.172243988397263 ], [ 126.949503742367042, 35.172608785951304 ], [ 126.949307171085039, 35.172973564200696 ], [ 126.949069276871057, 35.173287413463214 ], [ 126.948655609995441, 35.173762428202153 ], [ 126.94661835721584, 35.175865878987324 ], [ 126.946359861354452, 35.176052425235675 ], [ 126.945440003522052, 35.176187772163068 ], [ 126.942221949844821, 35.176155897922754 ], [ 126.938429693971429, 35.177234673416606 ], [ 126.936526794746001, 35.177662440630748 ], [ 126.932551797315242, 35.178943753723388 ], [ 126.931490908610868, 35.180041587944324 ], [ 126.929131528748016, 35.181143237890993 ], [ 126.928189030375577, 35.18099900019714 ], [ 126.927483326962033, 35.179400952286876 ], [ 126.92348829257098, 35.179014040635728 ], [ 126.922682270082873, 35.181582369829719 ], [ 126.926495461396556, 35.182964093040866 ], [ 126.926559217377473, 35.183007782996292 ], [ 126.926782375336686, 35.183160703944928 ], [ 126.926964119303449, 35.183255087553789 ], [ 126.927471092737377, 35.183498968039181 ], [ 126.928858366656925, 35.183900505615355 ], [ 126.928997000534309, 35.183907705646376 ], [ 126.929873038545651, 35.183712718857336 ], [ 126.9300471891098, 35.18364477113775 ], [ 126.931072427897917, 35.183388211551552 ], [ 126.931174740462367, 35.18336761212678 ], [ 126.931260818059968, 35.18342264506466 ], [ 126.932436673429535, 35.1849003991587 ], [ 126.933105714257508, 35.185922158708856 ], [ 126.93368163700805, 35.187620455705272 ], [ 126.934301236507352, 35.189447429799877 ], [ 126.934341157907625, 35.189565122342415 ], [ 126.936115908444066, 35.193241384395265 ], [ 126.936863951951551, 35.194364593334775 ], [ 126.93852090433306, 35.194482242332342 ], [ 126.938936124114747, 35.194488889905912 ], [ 126.939227145347573, 35.19447640579979 ], [ 126.942262988809091, 35.193054128207827 ] ] ] ] } },
{ "type": "Feature", "properties": { "OBJECTID": 974, "adm_nm": "광주광역시 북구 문흥1동", "adm_cd": "2404065", "adm_cd2": "2917065600", "sgg": "29170", "sido": "29", "sidonm": "광주광역시", "sggnm": "북구" }, "geometry": { "type": "MultiPolygon", "coordinates": [ [ [ [ 126.942262988809091, 35.193054128207827 ], [ 126.939227145347573, 35.19447640579979 ], [ 126.938936124114747, 35.194488889905912 ], [ 126.93852090433306, 35.194482242332342 ], [ 126.936863951951551, 35.194364593334775 ], [ 126.936115908444066, 35.193241384395265 ], [ 126.934341157907625, 35.189565122342415 ], [ 126.934301236507352, 35.189447429799877 ], [ 126.93368163700805, 35.187620455705272 ], [ 126.933105714257508, 35.185922158708856 ], [ 126.932436673429535, 35.1849003991587 ], [ 126.931260818059968, 35.18342264506466 ], [ 126.931174740462367, 35.18336761212678 ], [ 126.931072427897917, 35.183388211551552 ], [ 126.9300471891098, 35.18364477113775 ], [ 126.929873038545651, 35.183712718857336 ], [ 126.928997000534309, 35.183907705646376 ], [ 126.928858366656925, 35.183900505615355 ], [ 126.927471092737377, 35.183498968039181 ], [ 126.926964119303449, 35.183255087553789 ], [ 126.926782375336686, 35.183160703944928 ], [ 126.926559217377473, 35.183007782996292 ], [ 126.926495461396556, 35.182964093040866 ], [ 126.924018847064616, 35.184128309719441 ], [ 126.923254734934616, 35.18467774359133 ], [ 126.922754808123827, 35.185005307859321 ], [ 126.922722434420407, 35.185023852131835 ], [ 126.921674822667441, 35.18556685758881 ], [ 126.921471342202551, 35.185526460703613 ], [ 126.917119522082658, 35.186831525657624 ], [ 126.917132595567537, 35.187321755663319 ], [ 126.917151973322703, 35.188048155963294 ], [ 126.918549490449166, 35.187972395075889 ], [ 126.918589198263575, 35.18796829181202 ], [ 126.919332952901328, 35.187891323823784 ], [ 126.919964622684873, 35.18783608018601 ], [ 126.920662398991922, 35.188737475007251 ], [ 126.920727796599195, 35.189583838857232 ], [ 126.920727513069849, 35.19069252391148 ], [ 126.920727434930669, 35.190997407283412 ], [ 126.920725515912949, 35.192882400059823 ], [ 126.920721942401045, 35.196406248278848 ], [ 126.920755523608463, 35.196455062804809 ], [ 126.922304734149805, 35.19870697118359 ], [ 126.924452452575395, 35.198749870409891 ], [ 126.927812700549907, 35.198162608519979 ], [ 126.929869308827065, 35.197973812355116 ], [ 126.930700431732376, 35.196878067357446 ], [ 126.932279571620299, 35.196111050623038 ], [ 126.933310658171067, 35.197197846113419 ], [ 126.933433313938721, 35.197525618059821 ], [ 126.933617451763183, 35.197836606469473 ], [ 126.933873305543202, 35.19814764856153 ], [ 126.934149709327087, 35.198383077623944 ], [ 126.934397097767686, 35.198527347553515 ], [ 126.937646941175316, 35.199826258594115 ], [ 126.938169575166953, 35.20001710918514 ], [ 126.938653373467758, 35.200146728823235 ], [ 126.939311625346349, 35.200226462681194 ], [ 126.93987320733163, 35.200131468918535 ], [ 126.940705997685612, 35.199846025923257 ], [ 126.942043160258081, 35.198462750626291 ], [ 126.94221759837933, 35.198224626256881 ], [ 126.942237236164544, 35.197827593518127 ], [ 126.942257566034826, 35.196725686750526 ], [ 126.942262988809091, 35.193054128207827 ] ] ] ] } },
{ "type": "Feature", "properties": { "OBJECTID": 975, "adm_nm": "광주광역시 북구 문흥2동", "adm_cd": "2404066", "adm_cd2": "2917065700", "sgg": "29170", "sido": "29", "sidonm": "광주광역시", "sggnm": "북구" }, "geometry": { "type": "MultiPolygon", "coordinates": [ [ [ [ 126.926495461396556, 35.182964093040866 ], [ 126.922682270082873, 35.181582369829719 ], [ 126.922608108795913, 35.181996178657577 ], [ 126.920466749847776, 35.182300161902418 ], [ 126.920187714346795, 35.182331540147679 ], [ 126.919878935077904, 35.182366257657449 ], [ 126.91945007859627, 35.182412775623163 ], [ 126.919279218459266, 35.182346170195032 ], [ 126.918071058208199, 35.179094384055929 ], [ 126.918065039700977, 35.1790074915085 ], [ 126.918053337325404, 35.178838225542805 ], [ 126.918059968589688, 35.178737751922426 ], [ 126.918095970247379, 35.178192995831502 ], [ 126.918351924193885, 35.175515177345545 ], [ 126.915760868911178, 35.17601916996454 ], [ 126.914512940458039, 35.182623835265318 ], [ 126.912942828262928, 35.18327754514948 ], [ 126.912846130741329, 35.183723506659661 ], [ 126.913063139733751, 35.185109890810232 ], [ 126.913922634073018, 35.185062723739158 ], [ 126.915037036513752, 35.18503363660043 ], [ 126.917072660684198, 35.185238173635462 ], [ 126.91710646956659, 35.18634206666686 ], [ 126.917119522082658, 35.186831525657624 ], [ 126.921471342202551, 35.185526460703613 ], [ 126.921674822667441, 35.18556685758881 ], [ 126.922722434420407, 35.185023852131835 ], [ 126.922754808123827, 35.185005307859321 ], [ 126.923254734934616, 35.18467774359133 ], [ 126.924018847064616, 35.184128309719441 ], [ 126.926495461396556, 35.182964093040866 ] ] ] ] } },
{ "type": "Feature", "properties": { "OBJECTID": 976, "adm_nm": "광주광역시 북구 두암1동", "adm_cd": "2404067", "adm_cd2": "2917066100", "sgg": "29170", "sido": "29", "sidonm": "광주광역시", "sggnm": "북구" }, "geometry": { "type": "MultiPolygon", "coordinates": [ [ [ [ 126.932632811316793, 35.171731823572543 ], [ 126.932659709451755, 35.167257044634155 ], [ 126.932562603649018, 35.166782733400474 ], [ 126.932532014378381, 35.166633348129906 ], [ 126.932170890590754, 35.166020349996721 ], [ 126.932145692683619, 35.165979967175282 ], [ 126.931933640771646, 35.165652245806953 ], [ 126.931730511943371, 35.165338312400436 ], [ 126.931462941877498, 35.164924787744901 ], [ 126.92987346431768, 35.166255613790973 ], [ 126.924671931679867, 35.169050409035371 ], [ 126.92238136539936, 35.16986788359695 ], [ 126.921568033453667, 35.170284460508775 ], [ 126.925856664427329, 35.173927679306054 ], [ 126.929811183286702, 35.171705747028184 ], [ 126.932632811316793, 35.171731823572543 ] ] ] ] } },
{ "type": "Feature", "properties": { "OBJECTID": 977, "adm_nm": "광주광역시 북구 두암2동", "adm_cd": "2404068", "adm_cd2": "2917066200", "sgg": "29170", "sido": "29", "sidonm": "광주광역시", "sggnm": "북구" }, "geometry": { "type": "MultiPolygon", "coordinates": [ [ [ [ 126.94968998820481, 35.172243988397263 ], [ 126.947991571316507, 35.170862808704491 ], [ 126.946566364360123, 35.169106089898598 ], [ 126.946272615000638, 35.167851657401151 ], [ 126.946647537515787, 35.167231591847091 ], [ 126.94472270680555, 35.167629888569266 ], [ 126.938325141568939, 35.170421787533733 ], [ 126.938291337486064, 35.170441458358063 ], [ 126.937445300312675, 35.170944343128582 ], [ 126.937416034560528, 35.171075589083273 ], [ 126.937385328478555, 35.171213293554892 ], [ 126.937290269535865, 35.171397894270591 ], [ 126.937127818811319, 35.171512717213368 ], [ 126.937030056614432, 35.17154354931899 ], [ 126.936997898809892, 35.171553686497894 ], [ 126.93679805694336, 35.171565880005851 ], [ 126.933500731042699, 35.171738474449207 ], [ 126.932632811316793, 35.171731823572543 ], [ 126.929811183286702, 35.171705747028184 ], [ 126.925856664427329, 35.173927679306054 ], [ 126.925829215095348, 35.174952025160408 ], [ 126.926652793368788, 35.176046052388564 ], [ 126.928126142185533, 35.178147747318043 ], [ 126.928026208762958, 35.179243657985289 ], [ 126.927483326962033, 35.179400952286876 ], [ 126.928189030375577, 35.18099900019714 ], [ 126.929131528748016, 35.181143237890993 ], [ 126.931490908610868, 35.180041587944324 ], [ 126.932551797315242, 35.178943753723388 ], [ 126.936526794746001, 35.177662440630748 ], [ 126.938429693971429, 35.177234673416606 ], [ 126.942221949844821, 35.176155897922754 ], [ 126.945440003522052, 35.176187772163068 ], [ 126.946359861354452, 35.176052425235675 ], [ 126.94661835721584, 35.175865878987324 ], [ 126.948655609995441, 35.173762428202153 ], [ 126.949069276871057, 35.173287413463214 ], [ 126.949307171085039, 35.172973564200696 ], [ 126.949503742367042, 35.172608785951304 ], [ 126.94968998820481, 35.172243988397263 ] ] ] ] } },
{ "type": "Feature", "properties": { "OBJECTID": 978, "adm_nm": "광주광역시 북구 두암3동", "adm_cd": "2404069", "adm_cd2": "2917066300", "sgg": "29170", "sido": "29", "sidonm": "광주광역시", "sggnm": "북구" }, "geometry": { "type": "MultiPolygon", "coordinates": [ [ [ [ 126.946647537515787, 35.167231591847091 ], [ 126.947232607102251, 35.166597176783526 ], [ 126.947998770493172, 35.164594062322585 ], [ 126.947144333274366, 35.163052117908066 ], [ 126.944879119976747, 35.159504024979661 ], [ 126.943493986613646, 35.158916354896434 ], [ 126.939520965964562, 35.159024916237158 ], [ 126.939162334568977, 35.161731454509905 ], [ 126.938744860748713, 35.161739426388436 ], [ 126.935683996117888, 35.161768862488898 ], [ 126.935104233963258, 35.161732172553599 ], [ 126.934625587820463, 35.162569250460557 ], [ 126.932702799016724, 35.16364711373393 ], [ 126.931462941877498, 35.164924787744901 ], [ 126.931730511943371, 35.165338312400436 ], [ 126.931933640771646, 35.165652245806953 ], [ 126.932145692683619, 35.165979967175282 ], [ 126.932170890590754, 35.166020349996721 ], [ 126.932532014378381, 35.166633348129906 ], [ 126.932562603649018, 35.166782733400474 ], [ 126.932659709451755, 35.167257044634155 ], [ 126.932632811316793, 35.171731823572543 ], [ 126.933500731042699, 35.171738474449207 ], [ 126.93679805694336, 35.171565880005851 ], [ 126.936997898809892, 35.171553686497894 ], [ 126.937030056614432, 35.17154354931899 ], [ 126.937127818811319, 35.171512717213368 ], [ 126.937290269535865, 35.171397894270591 ], [ 126.937385328478555, 35.171213293554892 ], [ 126.937416034560528, 35.171075589083273 ], [ 126.937445300312675, 35.170944343128582 ], [ 126.938291337486064, 35.170441458358063 ], [ 126.938325141568939, 35.170421787533733 ], [ 126.94472270680555, 35.167629888569266 ], [ 126.946647537515787, 35.167231591847091 ] ] ] ] } },
{ "type": "Feature", "properties": { "OBJECTID": 979, "adm_nm": "광주광역시 북구 삼각동", "adm_cd": "2404070", "adm_cd2": "2917066600", "sgg": "29170", "sido": "29", "sidonm": "광주광역시", "sggnm": "북구" }, "geometry": { "type": "MultiPolygon", "coordinates": [ [ [ [ 126.927812700549907, 35.198162608519979 ], [ 126.924452452575395, 35.198749870409891 ], [ 126.922304734149805, 35.19870697118359 ], [ 126.920755523608463, 35.196455062804809 ], [ 126.916577301024745, 35.196006540830318 ], [ 126.910695275050415, 35.195400624020031 ], [ 126.908319601669689, 35.194353678524976 ], [ 126.908027868850326, 35.194225098812602 ], [ 126.904527638393461, 35.192506852375239 ], [ 126.904428001898225, 35.193195756326233 ], [ 126.904307050072418, 35.194000427158002 ], [ 126.904250152636763, 35.194365134168329 ], [ 126.904187302409667, 35.194748155094977 ], [ 126.904029513196008, 35.194848611459115 ], [ 126.898693314928721, 35.192623425292851 ], [ 126.898655111257966, 35.192563685611191 ], [ 126.898653069701211, 35.192288752056783 ], [ 126.898698227190081, 35.191815416734535 ], [ 126.897750354000493, 35.19203150467294 ], [ 126.897447588210511, 35.192100524978756 ], [ 126.896119695386673, 35.19312611199296 ], [ 126.895205414322916, 35.195804418861343 ], [ 126.89517460537337, 35.19589468004672 ], [ 126.894073327604559, 35.198051265470603 ], [ 126.893464506422632, 35.198651938260589 ], [ 126.893245153370827, 35.1988683558221 ], [ 126.893054367559259, 35.201179449702522 ], [ 126.890826696621929, 35.204378892272828 ], [ 126.891530053009177, 35.204761423578617 ], [ 126.891679133865424, 35.20483499365794 ], [ 126.891867986613448, 35.204900422620767 ], [ 126.892116579472273, 35.204925118624637 ], [ 126.892395032035338, 35.204925371091655 ], [ 126.892554153776373, 35.20492551213831 ], [ 126.892812758245171, 35.204893118235859 ], [ 126.893011695084397, 35.204860650104962 ], [ 126.893220613103196, 35.204803732570014 ], [ 126.893499165474751, 35.204722394785549 ], [ 126.893728103833794, 35.204567589280224 ], [ 126.893947146285669, 35.204371979819427 ], [ 126.894191442993531, 35.204122092435796 ], [ 126.894239846338522, 35.204072575367292 ], [ 126.894234008911269, 35.203797503414535 ], [ 126.894223876211768, 35.203320334297132 ], [ 126.89421340257195, 35.202827102411568 ], [ 126.894186518675326, 35.201560788778977 ], [ 126.900189962391991, 35.203133698903137 ], [ 126.901278442923598, 35.20341884558885 ], [ 126.901820413639655, 35.20356082201392 ], [ 126.90133950121745, 35.204969861786516 ], [ 126.901313047868186, 35.205340800924994 ], [ 126.901290619176933, 35.205655364206038 ], [ 126.901302950671251, 35.208168537693041 ], [ 126.901592660817869, 35.208978930461328 ], [ 126.902936668878084, 35.211236736971109 ], [ 126.905106774626489, 35.212456974275241 ], [ 126.907012829627774, 35.21197217722392 ], [ 126.909766272726415, 35.212336970464527 ], [ 126.909886837092145, 35.2123782697537 ], [ 126.91051957084882, 35.212782632213859 ], [ 126.910911180389391, 35.213120876413313 ], [ 126.911081869948674, 35.213269374004497 ], [ 126.911674115824724, 35.21394569786878 ], [ 126.911794531826644, 35.214127137970515 ], [ 126.912055339229568, 35.214588902840916 ], [ 126.912431309207335, 35.214882444811607 ], [ 126.912913634105976, 35.214989945884433 ], [ 126.913925938429372, 35.215072163776028 ], [ 126.914778695979408, 35.21249968956802 ], [ 126.915324260960617, 35.211800857701299 ], [ 126.91560112159263, 35.210541416610141 ], [ 126.91565806679516, 35.209986204641986 ], [ 126.915683604802055, 35.209513203841347 ], [ 126.916010164097841, 35.208623996352394 ], [ 126.916606153714454, 35.207565288591219 ], [ 126.917434815225377, 35.206146475448264 ], [ 126.922388206756068, 35.203899317817921 ], [ 126.922843922866122, 35.20388791850413 ], [ 126.924338891123639, 35.204262919020728 ], [ 126.926005713954964, 35.203597703262027 ], [ 126.926105658525643, 35.203317229373901 ], [ 126.926091815160774, 35.202896431197111 ], [ 126.926479278666932, 35.199670542088441 ], [ 126.927812700549907, 35.198162608519979 ] ] ] ] } },
{ "type": "Feature", "properties": { "OBJECTID": 980, "adm_nm": "광주광역시 북구 매곡동", "adm_cd": "2404071", "adm_cd2": "2917067300", "sgg": "29170", "sido": "29", "sidonm": "광주광역시", "sggnm": "북구" }, "geometry": { "type": "MultiPolygon", "coordinates": [ [ [ [ 126.898698227190081, 35.191815416734535 ], [ 126.899081032256547, 35.191338606744324 ], [ 126.899194062747071, 35.191022378192208 ], [ 126.899174723082751, 35.190547618903814 ], [ 126.899012580813817, 35.188699832533089 ], [ 126.898923931899148, 35.188454480247024 ], [ 126.898645455920104, 35.187683840987383 ], [ 126.898301059377445, 35.187289616176685 ], [ 126.897311873516728, 35.187300737057889 ], [ 126.897159779536651, 35.187303692377583 ], [ 126.896454275027168, 35.187317380279062 ], [ 126.894390182825376, 35.187357398342428 ], [ 126.889304670825695, 35.186902116995142 ], [ 126.888861077241344, 35.186015574135517 ], [ 126.888847187110414, 35.185560880883621 ], [ 126.888380266283946, 35.184786763104086 ], [ 126.887803682661826, 35.184502014879406 ], [ 126.887303978006059, 35.184383877506967 ], [ 126.887256292003201, 35.184747817233919 ], [ 126.885070423133612, 35.184838596312396 ], [ 126.884603816681263, 35.184636774081902 ], [ 126.884160341386803, 35.184309107536627 ], [ 126.884170166770517, 35.183939915331329 ], [ 126.881285101466347, 35.18436457846127 ], [ 126.881189336420519, 35.184616456676359 ], [ 126.880644231621474, 35.187073825150257 ], [ 126.879719655585447, 35.190099228353304 ], [ 126.879521510950184, 35.190568584030352 ], [ 126.879556267459762, 35.191071120501221 ], [ 126.879626335461694, 35.191712035616256 ], [ 126.879732217221985, 35.192149078994845 ], [ 126.879890550420242, 35.192387745065382 ], [ 126.880446807947735, 35.192763154670573 ], [ 126.881807071367518, 35.193329036955497 ], [ 126.883418565848075, 35.193844378187642 ], [ 126.883527707287911, 35.193874349015722 ], [ 126.884073571776483, 35.193903254175986 ], [ 126.88457590556969, 35.193826079062269 ], [ 126.884921732285122, 35.193771167960143 ], [ 126.885362261977306, 35.193658072112932 ], [ 126.885549866834708, 35.193608538094502 ], [ 126.886026605481206, 35.193994375109988 ], [ 126.886830060057179, 35.194685351177974 ], [ 126.886864640841608, 35.19472961387595 ], [ 126.887575025304344, 35.195938582612733 ], [ 126.887951765778951, 35.196656447770152 ], [ 126.88820055993429, 35.197278544397371 ], [ 126.88833118180375, 35.19744923462936 ], [ 126.888777231420008, 35.197775015900596 ], [ 126.888915683995393, 35.197869918591714 ], [ 126.889650368566294, 35.1982291288653 ], [ 126.889781189003287, 35.198264012998457 ], [ 126.889962054342092, 35.198300494448503 ], [ 126.890169885259127, 35.198316497729856 ], [ 126.890858908497762, 35.198302906521583 ], [ 126.892182885238356, 35.198390977246888 ], [ 126.892348370261701, 35.198419545792952 ], [ 126.892617662671043, 35.198528774102257 ], [ 126.893245153370827, 35.1988683558221 ], [ 126.893464506422632, 35.198651938260589 ], [ 126.894073327604559, 35.198051265470603 ], [ 126.89517460537337, 35.19589468004672 ], [ 126.895205414322916, 35.195804418861343 ], [ 126.896119695386673, 35.19312611199296 ], [ 126.897447588210511, 35.192100524978756 ], [ 126.897750354000493, 35.19203150467294 ], [ 126.898698227190081, 35.191815416734535 ] ] ] ] } },
{ "type": "Feature", "properties": { "OBJECTID": 981, "adm_nm": "광주광역시 북구 오치1동", "adm_cd": "2404072", "adm_cd2": "2917067600", "sgg": "29170", "sido": "29", "sidonm": "광주광역시", "sggnm": "북구" }, "geometry": { "type": "MultiPolygon", "coordinates": [ [ [ [ 126.917119522082658, 35.186831525657624 ], [ 126.91710646956659, 35.18634206666686 ], [ 126.917072660684198, 35.185238173635462 ], [ 126.915037036513752, 35.18503363660043 ], [ 126.913922634073018, 35.185062723739158 ], [ 126.913063139733751, 35.185109890810232 ], [ 126.912846130741329, 35.183723506659661 ], [ 126.912942828262928, 35.18327754514948 ], [ 126.911468083250526, 35.183328376325079 ], [ 126.909989260987814, 35.183244985793429 ], [ 126.908741540647256, 35.182407879382502 ], [ 126.90741774891049, 35.182374869101523 ], [ 126.906448744374416, 35.183925828951253 ], [ 126.905626613896843, 35.185287153373118 ], [ 126.905538958821467, 35.185433060974141 ], [ 126.905258126557072, 35.18594684689814 ], [ 126.905183384936379, 35.186145738403823 ], [ 126.905141023943614, 35.1862592365148 ], [ 126.905088244707642, 35.186400655967901 ], [ 126.905262521001859, 35.187855703051639 ], [ 126.905268849468911, 35.187904737901711 ], [ 126.905332795550549, 35.188296219148043 ], [ 126.905436258598115, 35.188928037687894 ], [ 126.905499450499065, 35.18938315703727 ], [ 126.90556928434431, 35.189886180147688 ], [ 126.90528570798287, 35.190888362152997 ], [ 126.90517944029763, 35.191229869197585 ], [ 126.904846952450399, 35.191854887722634 ], [ 126.904527638393461, 35.192506852375239 ], [ 126.908027868850326, 35.194225098812602 ], [ 126.908319601669689, 35.194353678524976 ], [ 126.910695275050415, 35.195400624020031 ], [ 126.916577301024745, 35.196006540830318 ], [ 126.920755523608463, 35.196455062804809 ], [ 126.920721942401045, 35.196406248278848 ], [ 126.920725515912949, 35.192882400059823 ], [ 126.920727434930669, 35.190997407283412 ], [ 126.920727513069849, 35.19069252391148 ], [ 126.920727796599195, 35.189583838857232 ], [ 126.920662398991922, 35.188737475007251 ], [ 126.919964622684873, 35.18783608018601 ], [ 126.919332952901328, 35.187891323823784 ], [ 126.918589198263575, 35.18796829181202 ], [ 126.918549490449166, 35.187972395075889 ], [ 126.917151973322703, 35.188048155963294 ], [ 126.917132595567537, 35.187321755663319 ], [ 126.917119522082658, 35.186831525657624 ] ] ] ] } },
{ "type": "Feature", "properties": { "OBJECTID": 982, "adm_nm": "광주광역시 북구 오치2동", "adm_cd": "2404073", "adm_cd2": "2917067700", "sgg": "29170", "sido": "29", "sidonm": "광주광역시", "sggnm": "북구" }, "geometry": { "type": "MultiPolygon", "coordinates": [ [ [ [ 126.904527638393461, 35.192506852375239 ], [ 126.904846952450399, 35.191854887722634 ], [ 126.90517944029763, 35.191229869197585 ], [ 126.90528570798287, 35.190888362152997 ], [ 126.90556928434431, 35.189886180147688 ], [ 126.905499450499065, 35.18938315703727 ], [ 126.905436258598115, 35.188928037687894 ], [ 126.905332795550549, 35.188296219148043 ], [ 126.905268849468911, 35.187904737901711 ], [ 126.905262521001859, 35.187855703051639 ], [ 126.905088244707642, 35.186400655967901 ], [ 126.905141023943614, 35.1862592365148 ], [ 126.905183384936379, 35.186145738403823 ], [ 126.905258126557072, 35.18594684689814 ], [ 126.905538958821467, 35.185433060974141 ], [ 126.905626613896843, 35.185287153373118 ], [ 126.906448744374416, 35.183925828951253 ], [ 126.904005098079423, 35.184020782867506 ], [ 126.901520093974099, 35.184136082421333 ], [ 126.898769583466986, 35.184272125600813 ], [ 126.898690556247416, 35.184578526726689 ], [ 126.89834100763305, 35.186046750640934 ], [ 126.898321334052923, 35.186235105411775 ], [ 126.898297786184727, 35.18648757340258 ], [ 126.898301059377445, 35.187289616176685 ], [ 126.898645455920104, 35.187683840987383 ], [ 126.898923931899148, 35.188454480247024 ], [ 126.899012580813817, 35.188699832533089 ], [ 126.899174723082751, 35.190547618903814 ], [ 126.899194062747071, 35.191022378192208 ], [ 126.899081032256547, 35.191338606744324 ], [ 126.898698227190081, 35.191815416734535 ], [ 126.898653069701211, 35.192288752056783 ], [ 126.898655111257966, 35.192563685611191 ], [ 126.898693314928721, 35.192623425292851 ], [ 126.904029513196008, 35.194848611459115 ], [ 126.904187302409667, 35.194748155094977 ], [ 126.904250152636763, 35.194365134168329 ], [ 126.904307050072418, 35.194000427158002 ], [ 126.904428001898225, 35.193195756326233 ], [ 126.904527638393461, 35.192506852375239 ] ] ] ] } },
{ "type": "Feature", "properties": { "OBJECTID": 983, "adm_nm": "광주광역시 북구 석곡동", "adm_cd": "2404074", "adm_cd2": "2917068500", "sgg": "29170", "sido": "29", "sidonm": "광주광역시", "sggnm": "북구" }, "geometry": { "type": "MultiPolygon", "coordinates": [ [ [ [ 126.966193102623237, 35.184121679448545 ], [ 126.967485266397659, 35.182267925785929 ], [ 126.968668357111682, 35.180940972189255 ], [ 126.970489402067017, 35.180123490112472 ], [ 126.971752905572558, 35.179743901034598 ], [ 126.971904385202635, 35.180447925241225 ], [ 126.972458025411115, 35.183976997146345 ], [ 126.97217471351432, 35.184535602693153 ], [ 126.972140509570963, 35.185159447882121 ], [ 126.973105603824692, 35.18561740649092 ], [ 126.974869432779869, 35.186454331437119 ], [ 126.975446987011182, 35.186575515614017 ], [ 126.978505204560079, 35.185253935004631 ], [ 126.979898449681571, 35.184239277352482 ], [ 126.982333390483518, 35.183932406681571 ], [ 126.983522420098581, 35.184332965950667 ], [ 126.984801789305749, 35.186092977998499 ], [ 126.983837315670968, 35.187303275448514 ], [ 126.983748256499624, 35.187415019119193 ], [ 126.984796374943102, 35.188303404579536 ], [ 126.984857967663103, 35.188355599308665 ], [ 126.986137701745804, 35.188579237454114 ], [ 126.987529673771036, 35.188353621309346 ], [ 126.993533353877638, 35.188011961823349 ], [ 126.995968327814026, 35.188235564374324 ], [ 126.996076731372185, 35.188249749337615 ], [ 126.997463295979472, 35.188431167276555 ], [ 126.999615146461807, 35.188356720016657 ], [ 127.001778324893763, 35.187863241848206 ], [ 127.005221182932274, 35.186075433234919 ], [ 127.00645050698229, 35.18539399272229 ], [ 127.007237002005894, 35.184958005233234 ], [ 127.009124237545336, 35.183188091723039 ], [ 127.010668126866221, 35.181633690108413 ], [ 127.012276091507843, 35.180683813639362 ], [ 127.014233410791874, 35.180095336021331 ], [ 127.016613127346787, 35.179379777335754 ], [ 127.017314967691476, 35.177955074483464 ], [ 127.017416574651705, 35.176409395532623 ], [ 127.018027779651931, 35.175021949399103 ], [ 127.018412717055938, 35.174677374528073 ], [ 127.020767821842682, 35.173792468279444 ], [ 127.021469806876695, 35.173457147340883 ], [ 127.021571492777099, 35.172544617728789 ], [ 127.021718325284453, 35.171082742767048 ], [ 127.021117455915288, 35.167972886655164 ], [ 127.020908700654914, 35.167451055881486 ], [ 127.020845547004228, 35.16729320638823 ], [ 127.020041552393565, 35.166920882200714 ], [ 127.018263749175219, 35.166157625722683 ], [ 127.015421639118216, 35.165143057616326 ], [ 127.014972707609658, 35.165077337122852 ], [ 127.013451505976036, 35.164854625064962 ], [ 127.012715429560885, 35.163904943749372 ], [ 127.012634292553599, 35.16333578975393 ], [ 127.012568096107188, 35.162871422035757 ], [ 127.01334916378795, 35.161828476961929 ], [ 127.013450528406608, 35.161702075856233 ], [ 127.013700088138862, 35.161390816913929 ], [ 127.011288300646683, 35.159379811749325 ], [ 127.009102970671236, 35.156540032158873 ], [ 127.007959396109115, 35.154910640506777 ], [ 127.009475988712651, 35.150599435111282 ], [ 127.010143783221224, 35.149686877960058 ], [ 127.009946649274994, 35.149318997111372 ], [ 127.00955502796991, 35.14858819190507 ], [ 127.009466246125072, 35.148560235658408 ], [ 127.008490917924561, 35.148253072192098 ], [ 127.008174020136778, 35.147773291669111 ], [ 127.007992766079411, 35.147498871250804 ], [ 127.00751704728593, 35.143616101030013 ], [ 127.008072842262351, 35.143063879076287 ], [ 127.008988431381056, 35.142154145992016 ], [ 127.009825944620189, 35.14120433710481 ], [ 127.011127344696774, 35.13871813028355 ], [ 127.010993655731184, 35.138319008781046 ], [ 127.010606505826203, 35.137163205294968 ], [ 127.010469248856026, 35.134009752739232 ], [ 127.010458985956575, 35.133773904313685 ], [ 127.010379588943522, 35.132153753289103 ], [ 127.010160709831808, 35.130441108436251 ], [ 127.01007376067875, 35.129760761263924 ], [ 127.009077326903977, 35.124406830529246 ], [ 127.007768435223781, 35.123973344750389 ], [ 127.006463110794613, 35.12354101899318 ], [ 127.003962102975578, 35.122088538934172 ], [ 127.003000179469197, 35.120244922284058 ], [ 127.003011465814282, 35.11883891206292 ], [ 127.002626717111738, 35.118391967927373 ], [ 126.999990140329615, 35.117190799287002 ], [ 126.998605304467063, 35.115693104883782 ], [ 126.997567840537585, 35.114571024093252 ], [ 126.99433676184151, 35.119316033254414 ], [ 126.993739362212835, 35.120057118493371 ], [ 126.993488693206814, 35.121362195230446 ], [ 126.993541403856213, 35.122164010393504 ], [ 126.993237818694737, 35.122597407288559 ], [ 126.991970470167885, 35.124183304721143 ], [ 126.989692895673457, 35.126819022825735 ], [ 126.987872025283522, 35.128714433668961 ], [ 126.985855359899588, 35.132757954328795 ], [ 126.985228768152027, 35.134314794336021 ], [ 126.984902701424801, 35.134737482099069 ], [ 126.982352813508186, 35.136715886502948 ], [ 126.978175635992727, 35.138477200652424 ], [ 126.977986900780408, 35.138477163269954 ], [ 126.973697423608925, 35.137814022940383 ], [ 126.970894040008872, 35.136568315871976 ], [ 126.970438644848272, 35.136368807001659 ], [ 126.970089617592862, 35.1363687177438 ], [ 126.968419777039855, 35.136492842404763 ], [ 126.968100974737126, 35.136592537048742 ], [ 126.967729063657544, 35.136741967690746 ], [ 126.96746331344545, 35.136978781418797 ], [ 126.967311484547366, 35.137159449909106 ], [ 126.966620512102622, 35.137757581881317 ], [ 126.96617255639849, 35.138118894978611 ], [ 126.965770179291482, 35.138392961268089 ], [ 126.964471935972426, 35.139246439061388 ], [ 126.963158610250034, 35.13990662652045 ], [ 126.961625149354887, 35.140566742413448 ], [ 126.961268370221106, 35.14065387962178 ], [ 126.958923042829326, 35.140547163758811 ], [ 126.958695379970052, 35.140503459184572 ], [ 126.958300758285091, 35.140347483623195 ], [ 126.957830308148431, 35.140210202630421 ], [ 126.955477148063139, 35.140595763513403 ], [ 126.95539502205817, 35.140643076842643 ], [ 126.955196252697391, 35.140757613890045 ], [ 126.954991234054532, 35.141038050534384 ], [ 126.954375730727008, 35.142209474658657 ], [ 126.954820949995494, 35.142765747352485 ], [ 126.956877986711277, 35.144041518758591 ], [ 126.955604355998631, 35.146264681297396 ], [ 126.954855496184848, 35.148908664264155 ], [ 126.955631724530733, 35.150927593197629 ], [ 126.955625025875534, 35.151424325654141 ], [ 126.955361307431474, 35.151963232773753 ], [ 126.95144096193485, 35.154059571892255 ], [ 126.949410549274106, 35.154317662277357 ], [ 126.947540773332392, 35.15452292671938 ], [ 126.944665914790875, 35.155925546256938 ], [ 126.943493986613646, 35.158916354896434 ], [ 126.944879119976747, 35.159504024979661 ], [ 126.947144333274366, 35.163052117908066 ], [ 126.947998770493172, 35.164594062322585 ], [ 126.947232607102251, 35.166597176783526 ], [ 126.946647537515787, 35.167231591847091 ], [ 126.946272615000638, 35.167851657401151 ], [ 126.946566364360123, 35.169106089898598 ], [ 126.947991571316507, 35.170862808704491 ], [ 126.94968998820481, 35.172243988397263 ], [ 126.950268608733722, 35.172380013863886 ], [ 126.951921623806896, 35.173084978208067 ], [ 126.952974680567536, 35.174807921487847 ], [ 126.953521819563804, 35.175800919471037 ], [ 126.95359407709978, 35.175945203400765 ], [ 126.954316222905192, 35.178151656058034 ], [ 126.954346311872598, 35.179738414000646 ], [ 126.95393234192349, 35.180722560145291 ], [ 126.952783902419213, 35.182792524120281 ], [ 126.952597737644609, 35.183013059962541 ], [ 126.952060063923312, 35.183411643004241 ], [ 126.94953706846438, 35.185209472311627 ], [ 126.946610769086902, 35.187168284813502 ], [ 126.946274972746082, 35.187444202791191 ], [ 126.946176415114181, 35.187532962920834 ], [ 126.94348185153639, 35.191562326562732 ], [ 126.942262988809091, 35.193054128207827 ], [ 126.942257566034826, 35.196725686750526 ], [ 126.942237236164544, 35.197827593518127 ], [ 126.94221759837933, 35.198224626256881 ], [ 126.942043160258081, 35.198462750626291 ], [ 126.940705997685612, 35.199846025923257 ], [ 126.93987320733163, 35.200131468918535 ], [ 126.939311625346349, 35.200226462681194 ], [ 126.938653373467758, 35.200146728823235 ], [ 126.938169575166953, 35.20001710918514 ], [ 126.937646941175316, 35.199826258594115 ], [ 126.934397097767686, 35.198527347553515 ], [ 126.934149709327087, 35.198383077623944 ], [ 126.933873305543202, 35.19814764856153 ], [ 126.933617451763183, 35.197836606469473 ], [ 126.933433313938721, 35.197525618059821 ], [ 126.933310658171067, 35.197197846113419 ], [ 126.932279571620299, 35.196111050623038 ], [ 126.930700431732376, 35.196878067357446 ], [ 126.929869308827065, 35.197973812355116 ], [ 126.927812700549907, 35.198162608519979 ], [ 126.926479278666932, 35.199670542088441 ], [ 126.926091815160774, 35.202896431197111 ], [ 126.926105658525643, 35.203317229373901 ], [ 126.926005713954964, 35.203597703262027 ], [ 126.924338891123639, 35.204262919020728 ], [ 126.922843922866122, 35.20388791850413 ], [ 126.922388206756068, 35.203899317817921 ], [ 126.917434815225377, 35.206146475448264 ], [ 126.916606153714454, 35.207565288591219 ], [ 126.916010164097841, 35.208623996352394 ], [ 126.915683604802055, 35.209513203841347 ], [ 126.91565806679516, 35.209986204641986 ], [ 126.91560112159263, 35.210541416610141 ], [ 126.915324260960617, 35.211800857701299 ], [ 126.914778695979408, 35.21249968956802 ], [ 126.913925938429372, 35.215072163776028 ], [ 126.91404259554767, 35.215686772687754 ], [ 126.913371214236662, 35.216879080059229 ], [ 126.913084607095684, 35.217672245451602 ], [ 126.912929612127726, 35.218386901098242 ], [ 126.91249996062696, 35.220548940000597 ], [ 126.913111111644625, 35.221764965769161 ], [ 126.916029485576288, 35.223263169947387 ], [ 126.918137695332419, 35.22314774245271 ], [ 126.918678982350329, 35.223124745642842 ], [ 126.920715772365511, 35.223219628474673 ], [ 126.921014873992519, 35.223243205021767 ], [ 126.923748787608702, 35.224191751672116 ], [ 126.924218596487037, 35.22444919220726 ], [ 126.92609644628385, 35.227021796749241 ], [ 126.926649725140237, 35.229476684303563 ], [ 126.926520819262691, 35.23024803880746 ], [ 126.92657109280924, 35.230379017285536 ], [ 126.926691346058661, 35.230692294580351 ], [ 126.927018625188126, 35.231089903646996 ], [ 126.928370926744492, 35.232201122942499 ], [ 126.930991963083628, 35.232354616561345 ], [ 126.934053694353722, 35.234700227950142 ], [ 126.934234818971248, 35.238562949259986 ], [ 126.934178470302896, 35.239587285817265 ], [ 126.935003776531488, 35.238995842199451 ], [ 126.936913383879443, 35.238295575392527 ], [ 126.938267015362413, 35.238015761417138 ], [ 126.939178934952238, 35.237829228788904 ], [ 126.939460567221133, 35.237656162899853 ], [ 126.939521008418481, 35.23761901347541 ], [ 126.941744610113076, 35.236030518980428 ], [ 126.942842592248297, 35.234605075586643 ], [ 126.943356481706587, 35.233155988833957 ], [ 126.943576674611435, 35.232075879587427 ], [ 126.943628091906064, 35.231823655693319 ], [ 126.944084375986733, 35.231216072625884 ], [ 126.944925057961029, 35.230912569743467 ], [ 126.947531943928354, 35.230890383107578 ], [ 126.947748953409857, 35.230794061484445 ], [ 126.947873932427527, 35.23073857951254 ], [ 126.951894572060922, 35.225001339259961 ], [ 126.952037286087801, 35.224545550069536 ], [ 126.951460080164949, 35.224265702039027 ], [ 126.950300029717837, 35.223703267042275 ], [ 126.949460186051354, 35.222837967535483 ], [ 126.949053172555438, 35.219932663830853 ], [ 126.948892797529979, 35.218787766444763 ], [ 126.948902474405941, 35.218720489762404 ], [ 126.949461587432296, 35.217619287261542 ], [ 126.950890214781708, 35.215335772964103 ], [ 126.95290123657621, 35.212388832259094 ], [ 126.954291918975187, 35.210444789773447 ], [ 126.956434103928501, 35.207575005310673 ], [ 126.957316948959289, 35.206942568430733 ], [ 126.960453610365846, 35.204952760136841 ], [ 126.962932766009345, 35.20339481060612 ], [ 126.963740137232818, 35.20337963537515 ], [ 126.965129372134555, 35.203735026628948 ], [ 126.965533195655524, 35.203193042838592 ], [ 126.965899627266793, 35.202701225637426 ], [ 126.965915903402362, 35.202609148124061 ], [ 126.966276047018269, 35.200571545842458 ], [ 126.966215837828216, 35.200562359016345 ], [ 126.96581926820221, 35.200501866211347 ], [ 126.965262262946979, 35.200416896694243 ], [ 126.964023653024995, 35.199274460395515 ], [ 126.962766338988672, 35.198023964093942 ], [ 126.95944513695386, 35.194396034300567 ], [ 126.958600962598624, 35.193191934179843 ], [ 126.958807827339115, 35.192497497043099 ], [ 126.959352936377911, 35.191170428175525 ], [ 126.961325228154536, 35.188825231969219 ], [ 126.965494545306242, 35.184597780900745 ], [ 126.966193102623237, 35.184121679448545 ] ] ] ] } },
{ "type": "Feature", "properties": { "OBJECTID": 984, "adm_nm": "광주광역시 북구 일곡동", "adm_cd": "2404078", "adm_cd2": "2917066900", "sgg": "29170", "sido": "29", "sidonm": "광주광역시", "sggnm": "북구" }, "geometry": { "type": "MultiPolygon", "coordinates": [ [ [ [ 126.913084607095684, 35.217672245451602 ], [ 126.913371214236662, 35.216879080059229 ], [ 126.91404259554767, 35.215686772687754 ], [ 126.913925938429372, 35.215072163776028 ], [ 126.912913634105976, 35.214989945884433 ], [ 126.912431309207335, 35.214882444811607 ], [ 126.912055339229568, 35.214588902840916 ], [ 126.911794531826644, 35.214127137970515 ], [ 126.911674115824724, 35.21394569786878 ], [ 126.911081869948674, 35.213269374004497 ], [ 126.910911180389391, 35.213120876413313 ], [ 126.91051957084882, 35.212782632213859 ], [ 126.909886837092145, 35.2123782697537 ], [ 126.909766272726415, 35.212336970464527 ], [ 126.907012829627774, 35.21197217722392 ], [ 126.905106774626489, 35.212456974275241 ], [ 126.902936668878084, 35.211236736971109 ], [ 126.901592660817869, 35.208978930461328 ], [ 126.901302950671251, 35.208168537693041 ], [ 126.901290619176933, 35.205655364206038 ], [ 126.901313047868186, 35.205340800924994 ], [ 126.90133950121745, 35.204969861786516 ], [ 126.901820413639655, 35.20356082201392 ], [ 126.901278442923598, 35.20341884558885 ], [ 126.900189962391991, 35.203133698903137 ], [ 126.894186518675326, 35.201560788778977 ], [ 126.89421340257195, 35.202827102411568 ], [ 126.894223876211768, 35.203320334297132 ], [ 126.894234008911269, 35.203797503414535 ], [ 126.894239846338522, 35.204072575367292 ], [ 126.894191442993531, 35.204122092435796 ], [ 126.893947146285669, 35.204371979819427 ], [ 126.893728103833794, 35.204567589280224 ], [ 126.893499165474751, 35.204722394785549 ], [ 126.893220613103196, 35.204803732570014 ], [ 126.893011695084397, 35.204860650104962 ], [ 126.892812758245171, 35.204893118235859 ], [ 126.892554153776373, 35.20492551213831 ], [ 126.892395032035338, 35.204925371091655 ], [ 126.892116579472273, 35.204925118624637 ], [ 126.891867986613448, 35.204900422620767 ], [ 126.891679133865424, 35.20483499365794 ], [ 126.891530053009177, 35.204761423578617 ], [ 126.890826696621929, 35.204378892272828 ], [ 126.89039468868306, 35.204399356054864 ], [ 126.889797136235018, 35.204701221422418 ], [ 126.888724973285008, 35.205275215533632 ], [ 126.887057524875118, 35.206579552678626 ], [ 126.886913061067546, 35.206898176715548 ], [ 126.886981076631258, 35.207510071044595 ], [ 126.886996478391353, 35.207615162316415 ], [ 126.88706171217278, 35.208060264814193 ], [ 126.887904317915755, 35.210391727106462 ], [ 126.889416685002317, 35.213429254368236 ], [ 126.889618982232619, 35.21416983565959 ], [ 126.889071632947363, 35.214868011926193 ], [ 126.887313950497472, 35.217817555023736 ], [ 126.887030340083456, 35.218569980826381 ], [ 126.890895660021329, 35.219113966135261 ], [ 126.893805261499708, 35.219439851562761 ], [ 126.895165194218364, 35.219274215317725 ], [ 126.896092654006864, 35.21942101382087 ], [ 126.896791047142088, 35.219828317804151 ], [ 126.89746326705432, 35.220840416278008 ], [ 126.89832998600383, 35.21879724545434 ], [ 126.899218665048139, 35.219465412604706 ], [ 126.900730918996118, 35.2194249593826 ], [ 126.903058043764531, 35.218223310689091 ], [ 126.903115185103701, 35.218193810341909 ], [ 126.906030870926628, 35.218667989027374 ], [ 126.907262792613594, 35.219284229346947 ], [ 126.907732301902158, 35.21986856244358 ], [ 126.908837688464388, 35.220025837816642 ], [ 126.909943537647777, 35.219776393028702 ], [ 126.911380540996092, 35.21883893200949 ], [ 126.912055232032998, 35.217744487241347 ], [ 126.913084607095684, 35.217672245451602 ] ] ] ] } },
{ "type": "Feature", "properties": { "OBJECTID": 985, "adm_nm": "광주광역시 북구 신용동", "adm_cd": "2404082", "adm_cd2": "2917069700", "sgg": "29170", "sido": "29", "sidonm": "광주광역시", "sggnm": "북구" }, "geometry": { "type": "MultiPolygon", "coordinates": [ [ [ [ 126.854523917646333, 35.213526439917146 ], [ 126.859963595253859, 35.216240758491956 ], [ 126.861642987843396, 35.218300163460846 ], [ 126.863708212714585, 35.220483629250062 ], [ 126.865212916114245, 35.222078253978559 ], [ 126.868762619491633, 35.220827435054616 ], [ 126.867516680109532, 35.22038153096608 ], [ 126.867758436116858, 35.219894570453917 ], [ 126.867704813019998, 35.219137544138739 ], [ 126.867499622700635, 35.218745893525451 ], [ 126.867829474503964, 35.218405859993531 ], [ 126.868309185244442, 35.217920140507978 ], [ 126.868793047813242, 35.216897394726182 ], [ 126.869482656265049, 35.216193063903503 ], [ 126.870259223778618, 35.21578211563402 ], [ 126.871035030325686, 35.215468803124878 ], [ 126.871376521732813, 35.21361532592389 ], [ 126.870909848908568, 35.212416753115953 ], [ 126.869865814213526, 35.212801902986769 ], [ 126.869722379589874, 35.212117642746534 ], [ 126.870116960400267, 35.211094425614668 ], [ 126.870684146681, 35.210828851777798 ], [ 126.87072217706563, 35.209754956157653 ], [ 126.870772525857717, 35.209024568859633 ], [ 126.87009757754619, 35.208609721116424 ], [ 126.868686441514669, 35.208394876135777 ], [ 126.868094724976572, 35.207989004345514 ], [ 126.867708272047025, 35.207962575615632 ], [ 126.867067878500066, 35.208081285737322 ], [ 126.867269347873233, 35.208948936799302 ], [ 126.866882132732982, 35.209020146271506 ], [ 126.866179098737021, 35.206275724114555 ], [ 126.865794159525109, 35.206337026363109 ], [ 126.864381433334543, 35.206337063702421 ], [ 126.862238276137248, 35.206337087818156 ], [ 126.856712587675005, 35.206336972163847 ], [ 126.854559568223323, 35.206336857542475 ], [ 126.854435977399191, 35.208092191678261 ], [ 126.854523917646333, 35.213526439917146 ] ] ] ] } },
{ "type": "Feature", "properties": { "OBJECTID": 986, "adm_nm": "광주광역시 북구 양산동", "adm_cd": "2404080", "adm_cd2": "2917069600", "sgg": "29170", "sido": "29", "sidonm": "광주광역시", "sggnm": "북구" }, "geometry": { "type": "MultiPolygon", "coordinates": [ [ [ [ 126.887904317915755, 35.210391727106462 ], [ 126.88706171217278, 35.208060264814193 ], [ 126.886996478391353, 35.207615162316415 ], [ 126.886981076631258, 35.207510071044595 ], [ 126.886913061067546, 35.206898176715548 ], [ 126.887057524875118, 35.206579552678626 ], [ 126.888724973285008, 35.205275215533632 ], [ 126.889797136235018, 35.204701221422418 ], [ 126.89039468868306, 35.204399356054864 ], [ 126.890826696621929, 35.204378892272828 ], [ 126.893054367559259, 35.201179449702522 ], [ 126.893245153370827, 35.1988683558221 ], [ 126.892617662671043, 35.198528774102257 ], [ 126.892348370261701, 35.198419545792952 ], [ 126.892182885238356, 35.198390977246888 ], [ 126.890858908497762, 35.198302906521583 ], [ 126.890169885259127, 35.198316497729856 ], [ 126.889962054342092, 35.198300494448503 ], [ 126.889781189003287, 35.198264012998457 ], [ 126.889650368566294, 35.1982291288653 ], [ 126.888915683995393, 35.197869918591714 ], [ 126.888777231420008, 35.197775015900596 ], [ 126.88833118180375, 35.19744923462936 ], [ 126.88820055993429, 35.197278544397371 ], [ 126.887951765778951, 35.196656447770152 ], [ 126.887575025304344, 35.195938582612733 ], [ 126.886864640841608, 35.19472961387595 ], [ 126.886830060057179, 35.194685351177974 ], [ 126.886026605481206, 35.193994375109988 ], [ 126.885549866834708, 35.193608538094502 ], [ 126.885362261977306, 35.193658072112932 ], [ 126.884921732285122, 35.193771167960143 ], [ 126.88457590556969, 35.193826079062269 ], [ 126.884073571776483, 35.193903254175986 ], [ 126.883527707287911, 35.193874349015722 ], [ 126.883418565848075, 35.193844378187642 ], [ 126.881807071367518, 35.193329036955497 ], [ 126.880446807947735, 35.192763154670573 ], [ 126.879890550420242, 35.192387745065382 ], [ 126.879732217221985, 35.192149078994845 ], [ 126.879626335461694, 35.191712035616256 ], [ 126.879556267459762, 35.191071120501221 ], [ 126.879521510950184, 35.190568584030352 ], [ 126.8781935785385, 35.191199920784619 ], [ 126.874099390485242, 35.190053408553219 ], [ 126.868447992511747, 35.192578475705652 ], [ 126.867603659998053, 35.192759730677004 ], [ 126.866778289978043, 35.192798632439988 ], [ 126.866584075730586, 35.192807785193011 ], [ 126.866157864870317, 35.192818250136149 ], [ 126.865624496094981, 35.192831309127413 ], [ 126.859707439402627, 35.192537949789944 ], [ 126.858728454006936, 35.19250365209362 ], [ 126.85864962856536, 35.193693347487006 ], [ 126.85671256976309, 35.195038571068224 ], [ 126.854272408169322, 35.19572552880291 ], [ 126.853818816757695, 35.195853216696911 ], [ 126.853615269948733, 35.196131818296593 ], [ 126.85280007017181, 35.19724760787696 ], [ 126.854868508819749, 35.199121951655044 ], [ 126.854870693758997, 35.199225173124802 ], [ 126.854910486594946, 35.201107363242741 ], [ 126.854914467959176, 35.201295716045138 ], [ 126.854559568223323, 35.206336857542475 ], [ 126.856712587675005, 35.206336972163847 ], [ 126.862238276137248, 35.206337087818156 ], [ 126.864381433334543, 35.206337063702421 ], [ 126.865794159525109, 35.206337026363109 ], [ 126.866179098737021, 35.206275724114555 ], [ 126.866882132732982, 35.209020146271506 ], [ 126.867269347873233, 35.208948936799302 ], [ 126.867067878500066, 35.208081285737322 ], [ 126.867708272047025, 35.207962575615632 ], [ 126.868094724976572, 35.207989004345514 ], [ 126.868686441514669, 35.208394876135777 ], [ 126.87009757754619, 35.208609721116424 ], [ 126.870772525857717, 35.209024568859633 ], [ 126.871780860217967, 35.210611929036844 ], [ 126.874459629993353, 35.212012129745894 ], [ 126.874758599644707, 35.212145728106201 ], [ 126.878939318782543, 35.213985889058243 ], [ 126.880415485410964, 35.213599963850235 ], [ 126.881724208917703, 35.213166015956858 ], [ 126.881856195657249, 35.212329669239033 ], [ 126.887904317915755, 35.210391727106462 ] ] ] ] } },
{ "type": "Feature", "properties": { "OBJECTID": 3491, "adm_nm": "광주광역시 북구 건국동", "adm_cd": "2404081", "adm_cd2": "2917069500", "sgg": "29170", "sido": "29", "sidonm": "광주광역시", "sggnm": "북구" }, "geometry": { "type": "MultiPolygon", "coordinates": [ [ [ [ 126.870772525857717, 35.209024568859633 ], [ 126.87072217706563, 35.209754956157653 ], [ 126.870684146681, 35.210828851777798 ], [ 126.870116960400267, 35.211094425614668 ], [ 126.869722379589874, 35.212117642746534 ], [ 126.869865814213526, 35.212801902986769 ], [ 126.870909848908568, 35.212416753115953 ], [ 126.871376521732813, 35.21361532592389 ], [ 126.871035030325686, 35.215468803124878 ], [ 126.870259223778618, 35.21578211563402 ], [ 126.869482656265049, 35.216193063903503 ], [ 126.868793047813242, 35.216897394726182 ], [ 126.868309185244442, 35.217920140507978 ], [ 126.867829474503964, 35.218405859993531 ], [ 126.867499622700635, 35.218745893525451 ], [ 126.867704813019998, 35.219137544138739 ], [ 126.867758436116858, 35.219894570453917 ], [ 126.867516680109532, 35.22038153096608 ], [ 126.868762619491633, 35.220827435054616 ], [ 126.865212916114245, 35.222078253978559 ], [ 126.863708212714585, 35.220483629250062 ], [ 126.861642987843396, 35.218300163460846 ], [ 126.859963595253859, 35.216240758491956 ], [ 126.854523917646333, 35.213526439917146 ], [ 126.855425624348939, 35.214830925268714 ], [ 126.856971886513421, 35.216613378154889 ], [ 126.856183220064537, 35.217520713978708 ], [ 126.852859245222064, 35.217707203079456 ], [ 126.852862028580233, 35.218046052270147 ], [ 126.852872876788965, 35.220413407197526 ], [ 126.852862665564359, 35.22185655359452 ], [ 126.849136680485415, 35.221863298882838 ], [ 126.846796526701837, 35.221874639723623 ], [ 126.845992425323729, 35.221892273367644 ], [ 126.846017023390772, 35.222766532751237 ], [ 126.845935393741016, 35.223103088863077 ], [ 126.845805665772517, 35.223513469714682 ], [ 126.844691740322062, 35.225721655595834 ], [ 126.844376926601356, 35.225618507147445 ], [ 126.84335749054668, 35.225284490222187 ], [ 126.842134883215692, 35.224890718414528 ], [ 126.838218599762058, 35.2238219267376 ], [ 126.836343631124677, 35.227392805542003 ], [ 126.83645267546062, 35.229070082786897 ], [ 126.837138693496215, 35.230065085937184 ], [ 126.840972277686902, 35.234341872813395 ], [ 126.84322532856693, 35.234969704258766 ], [ 126.843809102695317, 35.234751363366286 ], [ 126.844353600120527, 35.234386891010487 ], [ 126.844946228528357, 35.234696030308037 ], [ 126.844876133158948, 35.235158485330437 ], [ 126.844309554523619, 35.23671586515291 ], [ 126.844533561836798, 35.236795716576239 ], [ 126.845406311333335, 35.237106803094846 ], [ 126.845715895678268, 35.237186217053747 ], [ 126.846137630899008, 35.237294397698996 ], [ 126.846613570737091, 35.237398552221094 ], [ 126.847293983246786, 35.237547438651241 ], [ 126.850425318579269, 35.237314633110309 ], [ 126.854034334748263, 35.237976885473309 ], [ 126.856625417702205, 35.238897959331162 ], [ 126.857811173844226, 35.239337587909326 ], [ 126.85882891367244, 35.239736441332475 ], [ 126.859045152097138, 35.239842736291976 ], [ 126.859956520940528, 35.240333360707425 ], [ 126.861139479803469, 35.241581267691657 ], [ 126.861246596015505, 35.242538960827481 ], [ 126.861194381978933, 35.242605412039154 ], [ 126.861068211739109, 35.242765987864381 ], [ 126.861500999886118, 35.24410548753027 ], [ 126.862418822393494, 35.245153396400944 ], [ 126.863268590929138, 35.245527642913501 ], [ 126.863849403818719, 35.245707157847107 ], [ 126.86397039028698, 35.245744540276405 ], [ 126.866372373914615, 35.24626151419271 ], [ 126.867173487941827, 35.246213718145569 ], [ 126.868607379196504, 35.246150370868435 ], [ 126.869981591169562, 35.246254403782977 ], [ 126.870021269227209, 35.246257414587987 ], [ 126.870860061696391, 35.247175262114105 ], [ 126.872104471518341, 35.248329012416988 ], [ 126.873457622173419, 35.249361076382208 ], [ 126.878221161616082, 35.251312001639974 ], [ 126.879554627523476, 35.251493967267095 ], [ 126.87861938034608, 35.249551438979786 ], [ 126.878611590634904, 35.248987145356338 ], [ 126.878824814000353, 35.248375354614716 ], [ 126.878980944038005, 35.248181021331405 ], [ 126.879034040246196, 35.248114943880665 ], [ 126.880333071202259, 35.247605541236943 ], [ 126.88639226608781, 35.246260478605194 ], [ 126.887551413490741, 35.246287992584442 ], [ 126.889664880799543, 35.246985810798485 ], [ 126.89024302003034, 35.248060950927467 ], [ 126.891668196694638, 35.249815080875628 ], [ 126.892536621994438, 35.250555754097157 ], [ 126.895143463824724, 35.251676714346509 ], [ 126.896463274713369, 35.252030191182278 ], [ 126.897439519561999, 35.25245383153505 ], [ 126.898179688813158, 35.252824421401826 ], [ 126.898619306007248, 35.253212340773764 ], [ 126.898993461828326, 35.253709956714346 ], [ 126.899122966878323, 35.25388218326421 ], [ 126.899808814010427, 35.254790012225634 ], [ 126.900601939246656, 35.255768386667839 ], [ 126.900902733986811, 35.2560157164638 ], [ 126.901384768499256, 35.256412046518768 ], [ 126.901942565214455, 35.256738405628923 ], [ 126.905718613703939, 35.258873029166217 ], [ 126.908037808277456, 35.258951537895314 ], [ 126.908321501172878, 35.258887877554891 ], [ 126.909465131470299, 35.258814278794709 ], [ 126.910388690463506, 35.258489066239001 ], [ 126.912257089403909, 35.257988395568873 ], [ 126.916631921270749, 35.256828605345461 ], [ 126.919216659372211, 35.254558119885409 ], [ 126.920645307798864, 35.25355495734474 ], [ 126.92161168128456, 35.253247311926685 ], [ 126.924136761489791, 35.252984013203985 ], [ 126.925401003839539, 35.253047153045678 ], [ 126.925959171423628, 35.253047503689373 ], [ 126.929427018196279, 35.252212848278937 ], [ 126.929963963133332, 35.25193129362637 ], [ 126.930876807139896, 35.251394527357171 ], [ 126.931274361210427, 35.250927933240163 ], [ 126.931362860225221, 35.250809112099752 ], [ 126.931661223858427, 35.250408462830848 ], [ 126.933165691325073, 35.248321790834368 ], [ 126.933692701157725, 35.247036078704902 ], [ 126.933735957137557, 35.24664853618755 ], [ 126.933758960064438, 35.244798834763316 ], [ 126.933759377349531, 35.244296756088282 ], [ 126.932604776971459, 35.241486451931259 ], [ 126.93365708850051, 35.239960921092987 ], [ 126.934178470302896, 35.239587285817265 ], [ 126.934234818971248, 35.238562949259986 ], [ 126.934053694353722, 35.234700227950142 ], [ 126.930991963083628, 35.232354616561345 ], [ 126.928370926744492, 35.232201122942499 ], [ 126.927018625188126, 35.231089903646996 ], [ 126.926691346058661, 35.230692294580351 ], [ 126.92657109280924, 35.230379017285536 ], [ 126.926520819262691, 35.23024803880746 ], [ 126.926649725140237, 35.229476684303563 ], [ 126.92609644628385, 35.227021796749241 ], [ 126.924218596487037, 35.22444919220726 ], [ 126.923748787608702, 35.224191751672116 ], [ 126.921014873992519, 35.223243205021767 ], [ 126.920715772365511, 35.223219628474673 ], [ 126.918678982350329, 35.223124745642842 ], [ 126.918137695332419, 35.22314774245271 ], [ 126.916029485576288, 35.223263169947387 ], [ 126.913111111644625, 35.221764965769161 ], [ 126.91249996062696, 35.220548940000597 ], [ 126.912929612127726, 35.218386901098242 ], [ 126.913084607095684, 35.217672245451602 ], [ 126.912055232032998, 35.217744487241347 ], [ 126.911380540996092, 35.21883893200949 ], [ 126.909943537647777, 35.219776393028702 ], [ 126.908837688464388, 35.220025837816642 ], [ 126.907732301902158, 35.21986856244358 ], [ 126.907262792613594, 35.219284229346947 ], [ 126.906030870926628, 35.218667989027374 ], [ 126.903115185103701, 35.218193810341909 ], [ 126.903058043764531, 35.218223310689091 ], [ 126.900730918996118, 35.2194249593826 ], [ 126.899218665048139, 35.219465412604706 ], [ 126.89832998600383, 35.21879724545434 ], [ 126.89746326705432, 35.220840416278008 ], [ 126.896791047142088, 35.219828317804151 ], [ 126.896092654006864, 35.21942101382087 ], [ 126.895165194218364, 35.219274215317725 ], [ 126.893805261499708, 35.219439851562761 ], [ 126.890895660021329, 35.219113966135261 ], [ 126.887030340083456, 35.218569980826381 ], [ 126.887313950497472, 35.217817555023736 ], [ 126.889071632947363, 35.214868011926193 ], [ 126.889618982232619, 35.21416983565959 ], [ 126.889416685002317, 35.213429254368236 ], [ 126.887904317915755, 35.210391727106462 ], [ 126.881856195657249, 35.212329669239033 ], [ 126.881724208917703, 35.213166015956858 ], [ 126.880415485410964, 35.213599963850235 ], [ 126.878939318782543, 35.213985889058243 ], [ 126.874758599644707, 35.212145728106201 ], [ 126.874459629993353, 35.212012129745894 ], [ 126.871780860217967, 35.210611929036844 ], [ 126.870772525857717, 35.209024568859633 ] ] ] ] } }
]
}
