{
"type": "FeatureCollection",
"name": "donggu",
"crs": { "type": "name", "properties": { "name": "urn:ogc:def:crs:OGC:1.3:CRS84" } },
"features": [
{ "type": "Feature", "properties": { "OBJECTID": 913, "adm_nm": "광주광역시 동구 충장동", "adm_cd": "2401051", "adm_cd2": "2911052500", "sgg": "29110", "sido": "29", "sidonm": "광주광역시", "sggnm": "동구" }, "geometry": { "type": "MultiPolygon", "coordinates": [ [ [ [ 126.919205074071513, 35.153254079093607 ], [ 126.919170632995545, 35.153225637406486 ], [ 126.919713017423035, 35.15281850488077 ], [ 126.921156230982149, 35.151757736380709 ], [ 126.922167811837156, 35.151192988765622 ], [ 126.92392414654104, 35.149780566865914 ], [ 126.925047237570737, 35.148847898461582 ], [ 126.92507819645617, 35.14882218712237 ], [ 126.924928408737898, 35.148679275379841 ], [ 126.924339281116247, 35.148117250294312 ], [ 126.922231846075974, 35.148363067205885 ], [ 126.921636545636417, 35.148258731979567 ], [ 126.920437072994176, 35.147760567075274 ], [ 126.920407667133631, 35.147746395867806 ], [ 126.920307628406547, 35.147697970868791 ], [ 126.919587956558431, 35.147349572485119 ], [ 126.918990117062094, 35.147060147695406 ], [ 126.918483659610558, 35.14678244341205 ], [ 126.916439187760645, 35.145798752478726 ], [ 126.913750474914579, 35.144665234933719 ], [ 126.909971956007624, 35.148970114785236 ], [ 126.907270753519427, 35.151487143369948 ], [ 126.908323846765697, 35.152341562458112 ], [ 126.909211063006595, 35.153061355143599 ], [ 126.909675902435097, 35.153438470462198 ], [ 126.90991453492704, 35.153632078403824 ], [ 126.910009101490814, 35.153708802440825 ], [ 126.912392232323356, 35.1556695768937 ], [ 126.912443736964192, 35.155711953428415 ], [ 126.912473593219985, 35.155736524497151 ], [ 126.912490205952608, 35.155773499211961 ], [ 126.912556088481125, 35.155920150938357 ], [ 126.913072955841926, 35.157070764166129 ], [ 126.91636084030641, 35.155063609205726 ], [ 126.919205074071513, 35.153254079093607 ] ] ] ] } },
{ "type": "Feature", "properties": { "OBJECTID": 914, "adm_nm": "광주광역시 동구 동명동", "adm_cd": "2401054", "adm_cd2": "2911054500", "sgg": "29110", "sido": "29", "sidonm": "광주광역시", "sggnm": "동구" }, "geometry": { "type": "MultiPolygon", "coordinates": [ [ [ [ 126.926120684015586, 35.152600107348611 ], [ 126.926253910501643, 35.15237063102402 ], [ 126.927486618874823, 35.151126537610587 ], [ 126.928204876195579, 35.15086313604953 ], [ 126.928767304249703, 35.150746448090771 ], [ 126.92888847775157, 35.150740081576267 ], [ 126.929110740113984, 35.150744034310165 ], [ 126.929346594563611, 35.150752169647731 ], [ 126.929475062540291, 35.150761336334412 ], [ 126.930670973719998, 35.15020784489343 ], [ 126.930947976732213, 35.15005310491162 ], [ 126.93094681514242, 35.149975212737097 ], [ 126.930935929239993, 35.149762737543114 ], [ 126.930908567742847, 35.149621715553359 ], [ 126.929849277809879, 35.147342639973232 ], [ 126.929664885605817, 35.147274601332811 ], [ 126.929553565288202, 35.147228821532281 ], [ 126.929103773062849, 35.147040381626034 ], [ 126.928976903779741, 35.14698722871811 ], [ 126.92841554682316, 35.146700763380899 ], [ 126.927882197508623, 35.146386741678199 ], [ 126.927599536801409, 35.146151680665149 ], [ 126.92744965669786, 35.145966842162885 ], [ 126.924339281116247, 35.148117250294312 ], [ 126.924928408737898, 35.148679275379841 ], [ 126.92507819645617, 35.14882218712237 ], [ 126.925047237570737, 35.148847898461582 ], [ 126.92392414654104, 35.149780566865914 ], [ 126.922167811837156, 35.151192988765622 ], [ 126.921156230982149, 35.151757736380709 ], [ 126.919713017423035, 35.15281850488077 ], [ 126.919170632995545, 35.153225637406486 ], [ 126.919205074071513, 35.153254079093607 ], [ 126.920666580863795, 35.15477467458895 ], [ 126.921798647503707, 35.155317876689644 ], [ 126.921821886413284, 35.155270063750848 ], [ 126.926120684015586, 35.152600107348611 ] ] ] ] } },
{ "type": "Feature", "properties": { "OBJECTID": 915, "adm_nm": "광주광역시 동구 계림1동", "adm_cd": "2401056", "adm_cd2": "2911056000", "sgg": "29110", "sido": "29", "sidonm": "광주광역시", "sggnm": "동구" }, "geometry": { "type": "MultiPolygon", "coordinates": [ [ [ [ 126.919694358516125, 35.164676993241407 ], [ 126.919936449410358, 35.162904248290424 ], [ 126.920531061171232, 35.16107361694344 ], [ 126.920560196617686, 35.15971954296004 ], [ 126.920606481156526, 35.157568307331545 ], [ 126.920655108606994, 35.155307749443409 ], [ 126.920666580863795, 35.15477467458895 ], [ 126.919205074071513, 35.153254079093607 ], [ 126.91636084030641, 35.155063609205726 ], [ 126.913072955841926, 35.157070764166129 ], [ 126.913002537591282, 35.157112632706173 ], [ 126.913157608108648, 35.157506931122192 ], [ 126.916310004284213, 35.165537637322075 ], [ 126.919694358516125, 35.164676993241407 ] ] ] ] } },
{ "type": "Feature", "properties": { "OBJECTID": 916, "adm_nm": "광주광역시 동구 계림2동", "adm_cd": "2401058", "adm_cd2": "2911057000", "sgg": "29110", "sido": "29", "sidonm": "광주광역시", "sggnm": "동구" }, "geometry": { "type": "MultiPolygon", "coordinates": [ [ [ [ 126.930175961033441, 35.161144275306 ], [ 126.929507157560863, 35.160759104184031 ], [ 126.927542294178807, 35.159627447406073 ], [ 126.925337655576797, 35.157469669635041 ], [ 126.924973872765847, 35.156380646527431 ], [ 126.921798647503707, 35.155317876689644 ], [ 126.920666580863795, 35.15477467458895 ], [ 126.920655108606994, 35.155307749443409 ], [ 126.920606481156526, 35.157568307331545 ], [ 126.920560196617686, 35.15971954296004 ], [ 126.920531061171232, 35.16107361694344 ], [ 126.919936449410358, 35.162904248290424 ], [ 126.919694358516125, 35.164676993241407 ], [ 126.919697462481565, 35.164799298097023 ], [ 126.922170584063522, 35.164162126248073 ], [ 126.924542009602234, 35.163521531561209 ], [ 126.928146417694634, 35.162505613822923 ], [ 126.928353539362675, 35.162413071025362 ], [ 126.92863000682371, 35.162289526117817 ], [ 126.929091647792305, 35.162037376651874 ], [ 126.929590010321789, 35.161723561189241 ], [ 126.930175961033441, 35.161144275306 ] ] ] ] } },
{ "type": "Feature", "properties": { "OBJECTID": 917, "adm_nm": "광주광역시 동구 산수1동", "adm_cd": "2401059", "adm_cd2": "2911059000", "sgg": "29110", "sido": "29", "sidonm": "광주광역시", "sggnm": "동구" }, "geometry": { "type": "MultiPolygon", "coordinates": [ [ [ [ 126.931496134485897, 35.160494799967076 ], [ 126.933094832315277, 35.153190139076955 ], [ 126.933109170942188, 35.151991455097239 ], [ 126.933075178576814, 35.15199646373032 ], [ 126.931762051316227, 35.152189952042995 ], [ 126.929011660816414, 35.152712804811941 ], [ 126.928982146495187, 35.152846785495832 ], [ 126.928959625854404, 35.152983885671176 ], [ 126.928879136804582, 35.153435237611859 ], [ 126.927978057272469, 35.153323401535147 ], [ 126.927544107316223, 35.153256810584629 ], [ 126.927238472372025, 35.153128454627925 ], [ 126.926120684015586, 35.152600107348611 ], [ 126.921821886413284, 35.155270063750848 ], [ 126.921798647503707, 35.155317876689644 ], [ 126.924973872765847, 35.156380646527431 ], [ 126.925337655576797, 35.157469669635041 ], [ 126.927542294178807, 35.159627447406073 ], [ 126.929507157560863, 35.160759104184031 ], [ 126.930175961033441, 35.161144275306 ], [ 126.930323651688269, 35.161020864610116 ], [ 126.931496134485897, 35.160494799967076 ] ] ] ] } },
{ "type": "Feature", "properties": { "OBJECTID": 918, "adm_nm": "광주광역시 동구 산수2동", "adm_cd": "2401061", "adm_cd2": "2911060000", "sgg": "29110", "sido": "29", "sidonm": "광주광역시", "sggnm": "동구" }, "geometry": { "type": "MultiPolygon", "coordinates": [ [ [ [ 126.943493986613646, 35.158916354896434 ], [ 126.944665914790875, 35.155925546256938 ], [ 126.942329729775921, 35.154295996276019 ], [ 126.940686230784976, 35.153156435945405 ], [ 126.937024396970131, 35.152478613053525 ], [ 126.936646732975859, 35.152448633339631 ], [ 126.936468234285357, 35.152434463414643 ], [ 126.936225146481192, 35.152431619311756 ], [ 126.933094832315277, 35.153190139076955 ], [ 126.931496134485897, 35.160494799967076 ], [ 126.935104233963258, 35.161732172553599 ], [ 126.935683996117888, 35.161768862488898 ], [ 126.938744860748713, 35.161739426388436 ], [ 126.939162334568977, 35.161731454509905 ], [ 126.939520965964562, 35.159024916237158 ], [ 126.943493986613646, 35.158916354896434 ] ] ] ] } },
{ "type": "Feature", "properties": { "OBJECTID": 919, "adm_nm": "광주광역시 동구 지산1동", "adm_cd": "2401062", "adm_cd2": "2911062000", "sgg": "29110", "sido": "29", "sidonm": "광주광역시", "sggnm": "동구" }, "geometry": { "type": "MultiPolygon", "coordinates": [ [ [ [ 126.933094832315277, 35.153190139076955 ], [ 126.936225146481192, 35.152431619311756 ], [ 126.936493282731888, 35.151870604770949 ], [ 126.935813176082632, 35.151444667402309 ], [ 126.934701665904015, 35.151465436871327 ], [ 126.933900064145121, 35.151480417313245 ], [ 126.933029062538878, 35.14939443005558 ], [ 126.932513702852077, 35.148069078074663 ], [ 126.932497327905438, 35.148026966503977 ], [ 126.931285752055445, 35.146131775739811 ], [ 126.931218608005139, 35.146029367479777 ], [ 126.930895629599291, 35.145521672169487 ], [ 126.930521919342908, 35.144934270086416 ], [ 126.929868862510006, 35.144430462984666 ], [ 126.929671038496451, 35.144473100748499 ], [ 126.92945393000079, 35.144535326251557 ], [ 126.92942338008244, 35.144544082255734 ], [ 126.92932772564734, 35.144603521408058 ], [ 126.927792719845485, 35.145634630868898 ], [ 126.92744965669786, 35.145966842162885 ], [ 126.927599536801409, 35.146151680665149 ], [ 126.927882197508623, 35.146386741678199 ], [ 126.92841554682316, 35.146700763380899 ], [ 126.928976903779741, 35.14698722871811 ], [ 126.929103773062849, 35.147040381626034 ], [ 126.929553565288202, 35.147228821532281 ], [ 126.929664885605817, 35.147274601332811 ], [ 126.929849277809879, 35.147342639973232 ], [ 126.930908567742847, 35.149621715553359 ], [ 126.930935929239993, 35.149762737543114 ], [ 126.93094681514242, 35.149975212737097 ], [ 126.930947976732213, 35.15005310491162 ], [ 126.930670973719998, 35.15020784489343 ], [ 126.929475062540291, 35.150761336334412 ], [ 126.929346594563611, 35.150752169647731 ], [ 126.929110740113984, 35.150744034310165 ], [ 126.92888847775157, 35.150740081576267 ], [ 126.928767304249703, 35.150746448090771 ], [ 126.928204876195579, 35.15086313604953 ], [ 126.927486618874823, 35.151126537610587 ], [ 126.926253910501643, 35.15237063102402 ], [ 126.926120684015586, 35.152600107348611 ], [ 126.927238472372025, 35.153128454627925 ], [ 126.927544107316223, 35.153256810584629 ], [ 126.927978057272469, 35.153323401535147 ], [ 126.928879136804582, 35.153435237611859 ], [ 126.928959625854404, 35.152983885671176 ], [ 126.928982146495187, 35.152846785495832 ], [ 126.929011660816414, 35.152712804811941 ], [ 126.931762051316227, 35.152189952042995 ], [ 126.933075178576814, 35.15199646373032 ], [ 126.933109170942188, 35.151991455097239 ], [ 126.933094832315277, 35.153190139076955 ] ] ] ] } },
{ "type": "Feature", "properties": { "OBJECTID": 920, "adm_nm": "광주광역시 동구 지산2동", "adm_cd": "2401063", "adm_cd2": "2911063000", "sgg": "29110", "sido": "29", "sidonm": "광주광역시", "sggnm": "동구" }, "geometry": { "type": "MultiPolygon", "coordinates": [ [ [ [ 126.954375730727008, 35.142209474658657 ], [ 126.953259855863024, 35.14239598701522 ], [ 126.952158921658892, 35.142925277220435 ], [ 126.951589536878004, 35.143249161745452 ], [ 126.951414787352761, 35.143498315395767 ], [ 126.951050233057174, 35.143897109656479 ], [ 126.9505945059244, 35.144239619570726 ], [ 126.95032362305588, 35.144405084532771 ], [ 126.948577257938339, 35.144502956468784 ], [ 126.947979711258327, 35.144028297794662 ], [ 126.947679990890791, 35.142194508683509 ], [ 126.94741103470129, 35.140910296943012 ], [ 126.947152334948854, 35.140536095323377 ], [ 126.946756172091426, 35.140365699289127 ], [ 126.946473403759043, 35.140529388261911 ], [ 126.945733872621375, 35.141702179776665 ], [ 126.944575212499515, 35.142022852136833 ], [ 126.944424828739102, 35.142061354612821 ], [ 126.943102523059153, 35.142304069871109 ], [ 126.938902601085928, 35.142854864434 ], [ 126.936850878981758, 35.142861125719818 ], [ 126.934688686082183, 35.144570337049274 ], [ 126.935053025268203, 35.145630996290265 ], [ 126.934965857280204, 35.146335304922331 ], [ 126.934380834633174, 35.146978448638009 ], [ 126.933361021338214, 35.146562683891055 ], [ 126.932556560095065, 35.146083014367839 ], [ 126.931973148961362, 35.145781137643148 ], [ 126.931643511714171, 35.14593888213782 ], [ 126.931285752055445, 35.146131775739811 ], [ 126.932497327905438, 35.148026966503977 ], [ 126.932513702852077, 35.148069078074663 ], [ 126.933029062538878, 35.14939443005558 ], [ 126.933900064145121, 35.151480417313245 ], [ 126.934701665904015, 35.151465436871327 ], [ 126.935813176082632, 35.151444667402309 ], [ 126.936493282731888, 35.151870604770949 ], [ 126.936225146481192, 35.152431619311756 ], [ 126.936468234285357, 35.152434463414643 ], [ 126.936646732975859, 35.152448633339631 ], [ 126.937024396970131, 35.152478613053525 ], [ 126.940686230784976, 35.153156435945405 ], [ 126.942329729775921, 35.154295996276019 ], [ 126.944665914790875, 35.155925546256938 ], [ 126.947540773332392, 35.15452292671938 ], [ 126.949410549274106, 35.154317662277357 ], [ 126.95144096193485, 35.154059571892255 ], [ 126.955361307431474, 35.151963232773753 ], [ 126.955625025875534, 35.151424325654141 ], [ 126.955631724530733, 35.150927593197629 ], [ 126.954855496184848, 35.148908664264155 ], [ 126.955604355998631, 35.146264681297396 ], [ 126.956877986711277, 35.144041518758591 ], [ 126.954820949995494, 35.142765747352485 ], [ 126.954375730727008, 35.142209474658657 ] ] ] ] } },
{ "type": "Feature", "properties": { "OBJECTID": 921, "adm_nm": "광주광역시 동구 서남동", "adm_cd": "2401064", "adm_cd2": "2911065500", "sgg": "29110", "sido": "29", "sidonm": "광주광역시", "sggnm": "동구" }, "geometry": { "type": "MultiPolygon", "coordinates": [ [ [ [ 126.924339281116247, 35.148117250294312 ], [ 126.92744965669786, 35.145966842162885 ], [ 126.927792719845485, 35.145634630868898 ], [ 126.92932772564734, 35.144603521408058 ], [ 126.92942338008244, 35.144544082255734 ], [ 126.92945393000079, 35.144535326251557 ], [ 126.929671038496451, 35.144473100748499 ], [ 126.929868862510006, 35.144430462984666 ], [ 126.930521919342908, 35.144934270086416 ], [ 126.930895629599291, 35.145521672169487 ], [ 126.931218608005139, 35.146029367479777 ], [ 126.931285752055445, 35.146131775739811 ], [ 126.931643511714171, 35.14593888213782 ], [ 126.931973148961362, 35.145781137643148 ], [ 126.932556560095065, 35.146083014367839 ], [ 126.933361021338214, 35.146562683891055 ], [ 126.934380834633174, 35.146978448638009 ], [ 126.934965857280204, 35.146335304922331 ], [ 126.935053025268203, 35.145630996290265 ], [ 126.934688686082183, 35.144570337049274 ], [ 126.934972127955348, 35.143362531115578 ], [ 126.935966719823668, 35.140235864949993 ], [ 126.936220761609576, 35.139138290067926 ], [ 126.936197679117853, 35.13903015618618 ], [ 126.934885018875335, 35.137584159287364 ], [ 126.934046934475631, 35.137452237999845 ], [ 126.933120960030195, 35.137318691534823 ], [ 126.931892685630231, 35.137144684447193 ], [ 126.931486923974333, 35.13708809114997 ], [ 126.931061907245635, 35.137028822704004 ], [ 126.927865309209025, 35.138091858421085 ], [ 126.926135402340805, 35.140226706966629 ], [ 126.92423563022912, 35.140381737736384 ], [ 126.924176017339079, 35.140375130805332 ], [ 126.923945584767949, 35.14030289718476 ], [ 126.92374048422505, 35.140186519661562 ], [ 126.923645232282041, 35.140048535490216 ], [ 126.923379371729951, 35.139580810064004 ], [ 126.923021910467554, 35.139700759817735 ], [ 126.924673222043836, 35.142377452888503 ], [ 126.924636313623282, 35.142411877065882 ], [ 126.924545635599657, 35.142496410768565 ], [ 126.92360992904274, 35.143240948773666 ], [ 126.923075740894603, 35.143476618769945 ], [ 126.923035982125086, 35.143494152524646 ], [ 126.917487862356438, 35.141292536056561 ], [ 126.916916502181436, 35.141987522845952 ], [ 126.915952724541029, 35.142926098573867 ], [ 126.913750474914579, 35.144665234933719 ], [ 126.916439187760645, 35.145798752478726 ], [ 126.918483659610558, 35.14678244341205 ], [ 126.918990117062094, 35.147060147695406 ], [ 126.919587956558431, 35.147349572485119 ], [ 126.920307628406547, 35.147697970868791 ], [ 126.920407667133631, 35.147746395867806 ], [ 126.920437072994176, 35.147760567075274 ], [ 126.921636545636417, 35.148258731979567 ], [ 126.922231846075974, 35.148363067205885 ], [ 126.924339281116247, 35.148117250294312 ] ] ] ] } },
{ "type": "Feature", "properties": { "OBJECTID": 922, "adm_nm": "광주광역시 동구 학동", "adm_cd": "2401068", "adm_cd2": "2911068500", "sgg": "29110", "sido": "29", "sidonm": "광주광역시", "sggnm": "동구" }, "geometry": { "type": "MultiPolygon", "coordinates": [ [ [ [ 126.931061907245635, 35.137028822704004 ], [ 126.931194983563586, 35.136105203199996 ], [ 126.930619925259052, 35.135688614792379 ], [ 126.929644408806269, 35.135015757630448 ], [ 126.928431482737381, 35.133297467041103 ], [ 126.928383911967828, 35.133187427138459 ], [ 126.929129427376708, 35.131068740547718 ], [ 126.929706900495916, 35.129666540845236 ], [ 126.927576221635348, 35.129339755312493 ], [ 126.926203941322356, 35.130068141280063 ], [ 126.925268281442428, 35.131763071696973 ], [ 126.923119417303752, 35.134327541846446 ], [ 126.922077512445057, 35.135491506564584 ], [ 126.92061829916473, 35.13761171628623 ], [ 126.917487862356438, 35.141292536056561 ], [ 126.923035982125086, 35.143494152524646 ], [ 126.923075740894603, 35.143476618769945 ], [ 126.92360992904274, 35.143240948773666 ], [ 126.924545635599657, 35.142496410768565 ], [ 126.924636313623282, 35.142411877065882 ], [ 126.924673222043836, 35.142377452888503 ], [ 126.923021910467554, 35.139700759817735 ], [ 126.923379371729951, 35.139580810064004 ], [ 126.923645232282041, 35.140048535490216 ], [ 126.92374048422505, 35.140186519661562 ], [ 126.923945584767949, 35.14030289718476 ], [ 126.924176017339079, 35.140375130805332 ], [ 126.92423563022912, 35.140381737736384 ], [ 126.926135402340805, 35.140226706966629 ], [ 126.927865309209025, 35.138091858421085 ], [ 126.931061907245635, 35.137028822704004 ] ] ] ] } },
{ "type": "Feature", "properties": { "OBJECTID": 923, "adm_nm": "광주광역시 동구 학운동", "adm_cd": "2401071", "adm_cd2": "2911071000", "sgg": "29110", "sido": "29", "sidonm": "광주광역시", "sggnm": "동구" }, "geometry": { "type": "MultiPolygon", "coordinates": [ [ [ [ 126.954375730727008, 35.142209474658657 ], [ 126.954991234054532, 35.141038050534384 ], [ 126.955196252697391, 35.140757613890045 ], [ 126.95539502205817, 35.140643076842643 ], [ 126.955477148063139, 35.140595763513403 ], [ 126.957830308148431, 35.140210202630421 ], [ 126.958300758285091, 35.140347483623195 ], [ 126.958695379970052, 35.140503459184572 ], [ 126.958923042829326, 35.140547163758811 ], [ 126.961268370221106, 35.14065387962178 ], [ 126.961625149354887, 35.140566742413448 ], [ 126.963158610250034, 35.13990662652045 ], [ 126.964471935972426, 35.139246439061388 ], [ 126.965770179291482, 35.138392961268089 ], [ 126.96617255639849, 35.138118894978611 ], [ 126.966620512102622, 35.137757581881317 ], [ 126.967311484547366, 35.137159449909106 ], [ 126.96746331344545, 35.136978781418797 ], [ 126.967729063657544, 35.136741967690746 ], [ 126.968100974737126, 35.136592537048742 ], [ 126.968419777039855, 35.136492842404763 ], [ 126.970089617592862, 35.1363687177438 ], [ 126.970438644848272, 35.136368807001659 ], [ 126.970894040008872, 35.136568315871976 ], [ 126.973697423608925, 35.137814022940383 ], [ 126.977986900780408, 35.138477163269954 ], [ 126.978175635992727, 35.138477200652424 ], [ 126.982352813508186, 35.136715886502948 ], [ 126.984902701424801, 35.134737482099069 ], [ 126.985228768152027, 35.134314794336021 ], [ 126.985855359899588, 35.132757954328795 ], [ 126.987872025283522, 35.128714433668961 ], [ 126.989692895673457, 35.126819022825735 ], [ 126.991970470167885, 35.124183304721143 ], [ 126.993237818694737, 35.122597407288559 ], [ 126.993541403856213, 35.122164010393504 ], [ 126.993488693206814, 35.121362195230446 ], [ 126.993739362212835, 35.120057118493371 ], [ 126.99433676184151, 35.119316033254414 ], [ 126.989387081385999, 35.118560399991964 ], [ 126.989102010296378, 35.118560371021829 ], [ 126.988312107482699, 35.118809233259604 ], [ 126.986684807851347, 35.119028712872485 ], [ 126.985467344726274, 35.119004155146406 ], [ 126.985421946044369, 35.118990114804014 ], [ 126.983477944094062, 35.118388809904509 ], [ 126.98136989808674, 35.117353613037032 ], [ 126.980734535777486, 35.116992265900571 ], [ 126.980117033009776, 35.11653329942429 ], [ 126.979588669799838, 35.115830283052951 ], [ 126.979185010889935, 35.115215127616018 ], [ 126.978929863284876, 35.114409637891832 ], [ 126.978502353922522, 35.114175253632439 ], [ 126.975159433235675, 35.112671067677759 ], [ 126.973467170760145, 35.112084916795652 ], [ 126.969850680342532, 35.112108426982886 ], [ 126.966916942701459, 35.112503035950802 ], [ 126.962575161933486, 35.114146781103322 ], [ 126.960701482422579, 35.114409838517545 ], [ 126.960110531794584, 35.114414448730656 ], [ 126.954294717212633, 35.117814719152221 ], [ 126.953545915852132, 35.118683341468895 ], [ 126.952125073084417, 35.121084452495033 ], [ 126.95169087866465, 35.122133793312649 ], [ 126.951173404690294, 35.123393015509734 ], [ 126.946979310127318, 35.124909330944512 ], [ 126.946639857531821, 35.124936684182927 ], [ 126.946557586208684, 35.124943311230574 ], [ 126.946989199684708, 35.125376009814623 ], [ 126.947271985225981, 35.125893839569983 ], [ 126.947222347612239, 35.126890741487529 ], [ 126.9466964940259, 35.127760162063232 ], [ 126.94581080918536, 35.129042417449838 ], [ 126.945460368706492, 35.129408802577025 ], [ 126.944409622385336, 35.129645494497701 ], [ 126.943691444653126, 35.130026079820709 ], [ 126.94155337233326, 35.131701796375886 ], [ 126.941081116622513, 35.132151623074428 ], [ 126.939287659135786, 35.132104177431486 ], [ 126.937277383456333, 35.132042869191345 ], [ 126.936236633404079, 35.131908961584614 ], [ 126.931082198183432, 35.130339116419677 ], [ 126.930399355494714, 35.130084884846823 ], [ 126.929706900495916, 35.129666540845236 ], [ 126.929129427376708, 35.131068740547718 ], [ 126.928383911967828, 35.133187427138459 ], [ 126.928431482737381, 35.133297467041103 ], [ 126.929644408806269, 35.135015757630448 ], [ 126.930619925259052, 35.135688614792379 ], [ 126.931194983563586, 35.136105203199996 ], [ 126.931061907245635, 35.137028822704004 ], [ 126.931486923974333, 35.13708809114997 ], [ 126.931892685630231, 35.137144684447193 ], [ 126.933120960030195, 35.137318691534823 ], [ 126.934046934475631, 35.137452237999845 ], [ 126.934885018875335, 35.137584159287364 ], [ 126.936197679117853, 35.13903015618618 ], [ 126.936220761609576, 35.139138290067926 ], [ 126.935966719823668, 35.140235864949993 ], [ 126.934972127955348, 35.143362531115578 ], [ 126.934688686082183, 35.144570337049274 ], [ 126.936850878981758, 35.142861125719818 ], [ 126.938902601085928, 35.142854864434 ], [ 126.943102523059153, 35.142304069871109 ], [ 126.944424828739102, 35.142061354612821 ], [ 126.944575212499515, 35.142022852136833 ], [ 126.945733872621375, 35.141702179776665 ], [ 126.946473403759043, 35.140529388261911 ], [ 126.946756172091426, 35.140365699289127 ], [ 126.947152334948854, 35.140536095323377 ], [ 126.94741103470129, 35.140910296943012 ], [ 126.947679990890791, 35.142194508683509 ], [ 126.947979711258327, 35.144028297794662 ], [ 126.948577257938339, 35.144502956468784 ], [ 126.95032362305588, 35.144405084532771 ], [ 126.9505945059244, 35.144239619570726 ], [ 126.951050233057174, 35.143897109656479 ], [ 126.951414787352761, 35.143498315395767 ], [ 126.951589536878004, 35.143249161745452 ], [ 126.952158921658892, 35.142925277220435 ], [ 126.953259855863024, 35.14239598701522 ], [ 126.954375730727008, 35.142209474658657 ] ] ] ] } },
{ "type": "Feature", "properties": { "OBJECTID": 924, "adm_nm": "광주광역시 동구 지원1동", "adm_cd": "2401072", "adm_cd2": "2911073000", "sgg": "29110", "sido": "29", "sidonm": "광주광역시", "sggnm": "동구" }, "geometry": { "type": "MultiPolygon", "coordinates": [ [ [ [ 126.946557586208684, 35.124943311230574 ], [ 126.945895676422609, 35.12472660037438 ], [ 126.945694908530371, 35.124700764474703 ], [ 126.945532626328784, 35.124700690363632 ], [ 126.945344975382952, 35.124741670274311 ], [ 126.945250493571308, 35.124787241368445 ], [ 126.944750345985597, 35.125083222771167 ], [ 126.944132179583761, 35.125629904608132 ], [ 126.942808831887035, 35.126239277373209 ], [ 126.942514269408207, 35.126304666575187 ], [ 126.941793073591853, 35.126323949450516 ], [ 126.941024971430394, 35.126020898992337 ], [ 126.940626813960804, 35.125509688342511 ], [ 126.940251336648146, 35.125180173054872 ], [ 126.939112846903058, 35.124406302341093 ], [ 126.938318274614218, 35.124179630555084 ], [ 126.938034005711515, 35.124121120957263 ], [ 126.930811045019723, 35.123243691228041 ], [ 126.930264510841681, 35.12429538986958 ], [ 126.930052989505668, 35.125129057305088 ], [ 126.92987199920745, 35.126210482880161 ], [ 126.927576221635348, 35.129339755312493 ], [ 126.929706900495916, 35.129666540845236 ], [ 126.930399355494714, 35.130084884846823 ], [ 126.931082198183432, 35.130339116419677 ], [ 126.936236633404079, 35.131908961584614 ], [ 126.937277383456333, 35.132042869191345 ], [ 126.939287659135786, 35.132104177431486 ], [ 126.941081116622513, 35.132151623074428 ], [ 126.94155337233326, 35.131701796375886 ], [ 126.943691444653126, 35.130026079820709 ], [ 126.944409622385336, 35.129645494497701 ], [ 126.945460368706492, 35.129408802577025 ], [ 126.94581080918536, 35.129042417449838 ], [ 126.9466964940259, 35.127760162063232 ], [ 126.947222347612239, 35.126890741487529 ], [ 126.947271985225981, 35.125893839569983 ], [ 126.946989199684708, 35.125376009814623 ], [ 126.946557586208684, 35.124943311230574 ] ] ] ] } },
{ "type": "Feature", "properties": { "OBJECTID": 925, "adm_nm": "광주광역시 동구 지원2동", "adm_cd": "2401073", "adm_cd2": "2911074000", "sgg": "29110", "sido": "29", "sidonm": "광주광역시", "sggnm": "동구" }, "geometry": { "type": "MultiPolygon", "coordinates": [ [ [ [ 126.946557586208684, 35.124943311230574 ], [ 126.946639857531821, 35.124936684182927 ], [ 126.946979310127318, 35.124909330944512 ], [ 126.951173404690294, 35.123393015509734 ], [ 126.95169087866465, 35.122133793312649 ], [ 126.952125073084417, 35.121084452495033 ], [ 126.953545915852132, 35.118683341468895 ], [ 126.954294717212633, 35.117814719152221 ], [ 126.960110531794584, 35.114414448730656 ], [ 126.960701482422579, 35.114409838517545 ], [ 126.962575161933486, 35.114146781103322 ], [ 126.966916942701459, 35.112503035950802 ], [ 126.969850680342532, 35.112108426982886 ], [ 126.973467170760145, 35.112084916795652 ], [ 126.975159433235675, 35.112671067677759 ], [ 126.978502353922522, 35.114175253632439 ], [ 126.978929863284876, 35.114409637891832 ], [ 126.979185010889935, 35.115215127616018 ], [ 126.979588669799838, 35.115830283052951 ], [ 126.980117033009776, 35.11653329942429 ], [ 126.980734535777486, 35.116992265900571 ], [ 126.98136989808674, 35.117353613037032 ], [ 126.983477944094062, 35.118388809904509 ], [ 126.985421946044369, 35.118990114804014 ], [ 126.985467344726274, 35.119004155146406 ], [ 126.986684807851347, 35.119028712872485 ], [ 126.988312107482699, 35.118809233259604 ], [ 126.989102010296378, 35.118560371021829 ], [ 126.989387081385999, 35.118560399991964 ], [ 126.99433676184151, 35.119316033254414 ], [ 126.997567840537585, 35.114571024093252 ], [ 126.997866451125148, 35.112023269563863 ], [ 126.994398970857929, 35.111750833745084 ], [ 126.990417075171379, 35.111035081433144 ], [ 126.989346556032615, 35.11073925224045 ], [ 126.988734179156879, 35.109944550120801 ], [ 126.986351735987952, 35.105945330041735 ], [ 126.986564072072326, 35.105050049045019 ], [ 126.987490871751064, 35.103161391516295 ], [ 126.988754110125257, 35.101279807178834 ], [ 126.988513166637134, 35.096959272833431 ], [ 126.988503752010018, 35.096821717597976 ], [ 126.988380298467035, 35.09525315585234 ], [ 126.988345936055723, 35.095034909685744 ], [ 126.988257401280393, 35.094929908839788 ], [ 126.988173525792732, 35.094854821343127 ], [ 126.987862194433376, 35.094584551377373 ], [ 126.98779125015605, 35.094522995307365 ], [ 126.987683480172961, 35.09442950887091 ], [ 126.987534215252168, 35.094311657484916 ], [ 126.987406606983171, 35.094212693779099 ], [ 126.98730146113428, 35.094167392369272 ], [ 126.987194741614019, 35.094134792121864 ], [ 126.980238394986841, 35.092157081481247 ], [ 126.97568469628871, 35.091773853179461 ], [ 126.975602979578554, 35.091804111308114 ], [ 126.975493421393878, 35.091831404933558 ], [ 126.975382108624217, 35.091828935992062 ], [ 126.974205088256682, 35.091797945853131 ], [ 126.974097288828418, 35.091772688334956 ], [ 126.966685520194389, 35.089578390494523 ], [ 126.963180267222739, 35.087477157648905 ], [ 126.962400678382451, 35.086828741361238 ], [ 126.960753861561926, 35.085309680544754 ], [ 126.958532020120984, 35.082664202799819 ], [ 126.958429380417456, 35.082255666526457 ], [ 126.958601301375126, 35.07893778682066 ], [ 126.955754747414005, 35.075959006894571 ], [ 126.95553875853237, 35.075734138816834 ], [ 126.955146457038438, 35.075348194225363 ], [ 126.953519376208163, 35.074170742543153 ], [ 126.951821495413881, 35.073033355071225 ], [ 126.951413591656717, 35.072926455022987 ], [ 126.951093595882298, 35.072878088936953 ], [ 126.950750989243062, 35.07282631210677 ], [ 126.947527290319584, 35.072592364872101 ], [ 126.94702735526775, 35.072567002504528 ], [ 126.946912554227808, 35.072573171587308 ], [ 126.946734035755185, 35.072617161965439 ], [ 126.945698322126503, 35.073023836649888 ], [ 126.943958495419622, 35.073426035523795 ], [ 126.93679936951095, 35.074249812438531 ], [ 126.93480902170451, 35.074332097530402 ], [ 126.932656345585187, 35.074421211994135 ], [ 126.932616583728048, 35.074423126083374 ], [ 126.932442094030691, 35.07443153872368 ], [ 126.932401196379857, 35.074435749512858 ], [ 126.932375733208758, 35.074465034460019 ], [ 126.932420875350118, 35.075422032392886 ], [ 126.932529771067152, 35.076314355227694 ], [ 126.931569768266655, 35.07818324961616 ], [ 126.930431327871105, 35.078662289071964 ], [ 126.93006943955109, 35.078852089273738 ], [ 126.929527616370024, 35.07916318508078 ], [ 126.927670728857194, 35.080364397541423 ], [ 126.927574764744804, 35.080428096345216 ], [ 126.924697005808241, 35.084959972615152 ], [ 126.924149852897884, 35.086095167823892 ], [ 126.92411560928538, 35.086247747734731 ], [ 126.92415328486976, 35.086409746755479 ], [ 126.924285423419803, 35.086861416880907 ], [ 126.924500888358622, 35.087469434042802 ], [ 126.923924221502233, 35.0883598756499 ], [ 126.923738473995428, 35.088584018836102 ], [ 126.922118444751035, 35.09028276711966 ], [ 126.921932074776848, 35.09045201075179 ], [ 126.920890898598785, 35.091258859224709 ], [ 126.920624300368729, 35.091382347818652 ], [ 126.920429383278119, 35.091423315385825 ], [ 126.920283938657377, 35.091453878041641 ], [ 126.919869682969036, 35.091499376557657 ], [ 126.919465102276533, 35.091531203995402 ], [ 126.919223180909441, 35.091531670377485 ], [ 126.91925919220435, 35.091983699288569 ], [ 126.91968296681253, 35.093547881023007 ], [ 126.919866379190609, 35.093938213673539 ], [ 126.920062793880149, 35.094274186154628 ], [ 126.920417246611393, 35.094607025657368 ], [ 126.920592237552142, 35.094864020102243 ], [ 126.921125262785679, 35.09707446366032 ], [ 126.917536463205323, 35.102309737724255 ], [ 126.914986153464554, 35.104953809229485 ], [ 126.914499285238705, 35.105452804647442 ], [ 126.91404854761403, 35.106321397874886 ], [ 126.914060277642037, 35.106641030392176 ], [ 126.914241514894442, 35.10773982908708 ], [ 126.914398393852309, 35.108848523185195 ], [ 126.91442205348504, 35.109193430443852 ], [ 126.9143854089575, 35.109607553929372 ], [ 126.913139888522309, 35.114761347378554 ], [ 126.912102347095896, 35.115703004372428 ], [ 126.914122953939781, 35.116368922679065 ], [ 126.916918992276649, 35.116950209246149 ], [ 126.917563318204017, 35.117110471528946 ], [ 126.918863876444945, 35.11768065812668 ], [ 126.918887827938505, 35.117702884707583 ], [ 126.918914562822962, 35.11772769540454 ], [ 126.919337665245649, 35.118120396390545 ], [ 126.920090409898435, 35.119359374367122 ], [ 126.920766776380162, 35.120275213478358 ], [ 126.923139612311573, 35.122279226736055 ], [ 126.924695015941197, 35.123366933330523 ], [ 126.924741701909326, 35.12341510246074 ], [ 126.924741647095232, 35.123472692633001 ], [ 126.924723057835379, 35.124577754849263 ], [ 126.92987199920745, 35.126210482880161 ], [ 126.930052989505668, 35.125129057305088 ], [ 126.930264510841681, 35.12429538986958 ], [ 126.930811045019723, 35.123243691228041 ], [ 126.938034005711515, 35.124121120957263 ], [ 126.938318274614218, 35.124179630555084 ], [ 126.939112846903058, 35.124406302341093 ], [ 126.940251336648146, 35.125180173054872 ], [ 126.940626813960804, 35.125509688342511 ], [ 126.941024971430394, 35.126020898992337 ], [ 126.941793073591853, 35.126323949450516 ], [ 126.942514269408207, 35.126304666575187 ], [ 126.942808831887035, 35.126239277373209 ], [ 126.944132179583761, 35.125629904608132 ], [ 126.944750345985597, 35.125083222771167 ], [ 126.945250493571308, 35.124787241368445 ], [ 126.945344975382952, 35.124741670274311 ], [ 126.945532626328784, 35.124700690363632 ], [ 126.945694908530371, 35.124700764474703 ], [ 126.945895676422609, 35.12472660037438 ], [ 126.946557586208684, 35.124943311230574 ] ] ] ] } }
]
}
