{
"type": "FeatureCollection",
"name": "namgu",
"crs": { "type": "name", "properties": { "name": "urn:ogc:def:crs:OGC:1.3:CRS84" } },
"features": [
{ "type": "Feature", "properties": { "OBJECTID": 944, "adm_nm": "광주광역시 남구 양림동", "adm_cd": "2403051", "adm_cd2": "2915551000", "sgg": "29155", "sido": "29", "sidonm": "광주광역시", "sggnm": "남구" }, "geometry": { "type": "MultiPolygon", "coordinates": [ [ [ [ 126.917487862356438, 35.141292536056561 ], [ 126.92061829916473, 35.13761171628623 ], [ 126.919137883444066, 35.136528548203444 ], [ 126.918348644339744, 35.135954142893304 ], [ 126.917837198223509, 35.135581911897347 ], [ 126.917460744819394, 35.135309375849111 ], [ 126.916983730095922, 35.134996307323654 ], [ 126.916281829228637, 35.134671774377232 ], [ 126.916225296809188, 35.134654092789319 ], [ 126.915823002602707, 35.134528270356149 ], [ 126.915584871454513, 35.134486521924067 ], [ 126.91499958762067, 35.134383912334258 ], [ 126.914446383840726, 35.134333911799864 ], [ 126.912223772554043, 35.134143385111024 ], [ 126.911439567060881, 35.134077570462964 ], [ 126.91155499012919, 35.134302092684685 ], [ 126.909560929905581, 35.135664282747037 ], [ 126.909197906652196, 35.135748918734166 ], [ 126.909105497545426, 35.135801309159099 ], [ 126.908930916588417, 35.135932259489039 ], [ 126.908635112253492, 35.136334527979471 ], [ 126.908761440480163, 35.138017310159057 ], [ 126.908813002956251, 35.138297392131108 ], [ 126.908900531504301, 35.138314236488654 ], [ 126.909162738289851, 35.138272756227153 ], [ 126.909553800839021, 35.138269692946317 ], [ 126.909851367562297, 35.138516869384844 ], [ 126.910046274883754, 35.138803345810864 ], [ 126.910122413186386, 35.13894255050883 ], [ 126.910088308313874, 35.139116485213229 ], [ 126.909577161657054, 35.139761279100277 ], [ 126.910884419089385, 35.140553140905972 ], [ 126.914753932956359, 35.142292268594232 ], [ 126.915952724541029, 35.142926098573867 ], [ 126.916916502181436, 35.141987522845952 ], [ 126.917487862356438, 35.141292536056561 ] ] ] ] } },
{ "type": "Feature", "properties": { "OBJECTID": 945, "adm_nm": "광주광역시 남구 방림1동", "adm_cd": "2403052", "adm_cd2": "2915552000", "sgg": "29155", "sido": "29", "sidonm": "광주광역시", "sggnm": "남구" }, "geometry": { "type": "MultiPolygon", "coordinates": [ [ [ [ 126.922077512445057, 35.135491506564584 ], [ 126.919578051733936, 35.134248316419018 ], [ 126.919007977750425, 35.133956592637311 ], [ 126.917707257021704, 35.133290949479246 ], [ 126.917717986733933, 35.133216898631716 ], [ 126.917798447741859, 35.132662857095269 ], [ 126.917874740882439, 35.1322067678759 ], [ 126.91807243901772, 35.131026674575409 ], [ 126.916274901429674, 35.130238537179508 ], [ 126.914378693760611, 35.130162098513047 ], [ 126.911119098457959, 35.133496506667129 ], [ 126.91101804446474, 35.134257691038378 ], [ 126.91155499012919, 35.134302092684685 ], [ 126.911439567060881, 35.134077570462964 ], [ 126.912223772554043, 35.134143385111024 ], [ 126.914446383840726, 35.134333911799864 ], [ 126.91499958762067, 35.134383912334258 ], [ 126.915584871454513, 35.134486521924067 ], [ 126.915823002602707, 35.134528270356149 ], [ 126.916225296809188, 35.134654092789319 ], [ 126.916281829228637, 35.134671774377232 ], [ 126.916983730095922, 35.134996307323654 ], [ 126.917460744819394, 35.135309375849111 ], [ 126.917837198223509, 35.135581911897347 ], [ 126.918348644339744, 35.135954142893304 ], [ 126.919137883444066, 35.136528548203444 ], [ 126.92061829916473, 35.13761171628623 ], [ 126.922077512445057, 35.135491506564584 ] ] ] ] } },
{ "type": "Feature", "properties": { "OBJECTID": 946, "adm_nm": "광주광역시 남구 방림2동", "adm_cd": "2403053", "adm_cd2": "2915553000", "sgg": "29155", "sido": "29", "sidonm": "광주광역시", "sggnm": "남구" }, "geometry": { "type": "MultiPolygon", "coordinates": [ [ [ [ 126.927576221635348, 35.129339755312493 ], [ 126.92987199920745, 35.126210482880161 ], [ 126.924723057835379, 35.124577754849263 ], [ 126.923471596919484, 35.126629959533538 ], [ 126.921158995481832, 35.12825932137013 ], [ 126.920713113082826, 35.128415431991968 ], [ 126.916811616561574, 35.127228819402838 ], [ 126.914378693760611, 35.130162098513047 ], [ 126.916274901429674, 35.130238537179508 ], [ 126.91807243901772, 35.131026674575409 ], [ 126.917874740882439, 35.1322067678759 ], [ 126.917798447741859, 35.132662857095269 ], [ 126.917717986733933, 35.133216898631716 ], [ 126.917707257021704, 35.133290949479246 ], [ 126.919007977750425, 35.133956592637311 ], [ 126.919578051733936, 35.134248316419018 ], [ 126.922077512445057, 35.135491506564584 ], [ 126.923119417303752, 35.134327541846446 ], [ 126.925268281442428, 35.131763071696973 ], [ 126.926203941322356, 35.130068141280063 ], [ 126.927576221635348, 35.129339755312493 ] ] ] ] } },
{ "type": "Feature", "properties": { "OBJECTID": 947, "adm_nm": "광주광역시 남구 사직동", "adm_cd": "2403054", "adm_cd2": "2915554500", "sgg": "29155", "sido": "29", "sidonm": "광주광역시", "sggnm": "남구" }, "geometry": { "type": "MultiPolygon", "coordinates": [ [ [ [ 126.913750474914579, 35.144665234933719 ], [ 126.915952724541029, 35.142926098573867 ], [ 126.914753932956359, 35.142292268594232 ], [ 126.910884419089385, 35.140553140905972 ], [ 126.909577161657054, 35.139761279100277 ], [ 126.909272872059617, 35.139967824459063 ], [ 126.908492949009442, 35.140822212321495 ], [ 126.908527860173706, 35.140964717149423 ], [ 126.908562502359331, 35.141103904174201 ], [ 126.908794936430013, 35.141655901879361 ], [ 126.90882755043144, 35.141733335455733 ], [ 126.908905394271187, 35.142336848758717 ], [ 126.907738003897592, 35.143337365639766 ], [ 126.906634158969794, 35.143023418612209 ], [ 126.906563211036413, 35.143001260703272 ], [ 126.906471614651238, 35.142852777146501 ], [ 126.90336258869192, 35.143883673939285 ], [ 126.905508782709944, 35.148269761912509 ], [ 126.909971956007624, 35.148970114785236 ], [ 126.913750474914579, 35.144665234933719 ] ] ] ] } },
{ "type": "Feature", "properties": { "OBJECTID": 948, "adm_nm": "광주광역시 남구 월산동", "adm_cd": "2403057", "adm_cd2": "2915560500", "sgg": "29155", "sido": "29", "sidonm": "광주광역시", "sggnm": "남구" }, "geometry": { "type": "MultiPolygon", "coordinates": [ [ [ [ 126.905508782709944, 35.148269761912509 ], [ 126.90336258869192, 35.143883673939285 ], [ 126.902086129401582, 35.140099122767246 ], [ 126.898884558515334, 35.138878066314845 ], [ 126.896832658583349, 35.144260552627642 ], [ 126.896281285253991, 35.145432573142891 ], [ 126.895855966979553, 35.147727488903705 ], [ 126.895845955189557, 35.147787445655872 ], [ 126.895822601578672, 35.1479368048631 ], [ 126.895797968706205, 35.148101786034651 ], [ 126.895727470675141, 35.148574735830231 ], [ 126.895771016629936, 35.149642524703459 ], [ 126.895861764610629, 35.150010360601762 ], [ 126.894588865078305, 35.150892566723748 ], [ 126.894343092045219, 35.151335959017153 ], [ 126.896479896279175, 35.15216465589112 ], [ 126.900902801613697, 35.152419274808835 ], [ 126.903061186183805, 35.149604532651324 ], [ 126.903180913742162, 35.14950873015448 ], [ 126.903693256659508, 35.14909910212269 ], [ 126.904148522031264, 35.14884927637312 ], [ 126.904402416337476, 35.148709957800591 ], [ 126.905354981134778, 35.148330943562044 ], [ 126.905508782709944, 35.148269761912509 ] ] ] ] } },
{ "type": "Feature", "properties": { "OBJECTID": 949, "adm_nm": "광주광역시 남구 월산4동", "adm_cd": "2403060", "adm_cd2": "2915563000", "sgg": "29155", "sido": "29", "sidonm": "광주광역시", "sggnm": "남구" }, "geometry": { "type": "MultiPolygon", "coordinates": [ [ [ [ 126.896832658583349, 35.144260552627642 ], [ 126.896658537537974, 35.144191229185637 ], [ 126.896634127335076, 35.144220083953044 ], [ 126.896579415329782, 35.144284751450719 ], [ 126.896340825880714, 35.144398792050765 ], [ 126.896217620536873, 35.144408479291435 ], [ 126.89616396791763, 35.144410063141152 ], [ 126.893694246639669, 35.143375166908569 ], [ 126.893195297397398, 35.143119217043029 ], [ 126.889046173485028, 35.140987426296277 ], [ 126.887895560929366, 35.141987921330049 ], [ 126.888309300938516, 35.142794100999694 ], [ 126.887767154616128, 35.143533830820594 ], [ 126.887203378313544, 35.14425325861086 ], [ 126.886706705719973, 35.144887029491571 ], [ 126.886059900445829, 35.145737022100583 ], [ 126.885433878597325, 35.146560137478254 ], [ 126.885882180709288, 35.146798429807319 ], [ 126.88652372414208, 35.147139422117796 ], [ 126.886998701273058, 35.147391863278891 ], [ 126.890192705889802, 35.149038947288496 ], [ 126.893450146526163, 35.150497139577297 ], [ 126.894588865078305, 35.150892566723748 ], [ 126.895861764610629, 35.150010360601762 ], [ 126.895771016629936, 35.149642524703459 ], [ 126.895727470675141, 35.148574735830231 ], [ 126.895797968706205, 35.148101786034651 ], [ 126.895822601578672, 35.1479368048631 ], [ 126.895845955189557, 35.147787445655872 ], [ 126.895855966979553, 35.147727488903705 ], [ 126.896281285253991, 35.145432573142891 ], [ 126.896832658583349, 35.144260552627642 ] ] ] ] } },
{ "type": "Feature", "properties": { "OBJECTID": 950, "adm_nm": "광주광역시 남구 월산5동", "adm_cd": "2403061", "adm_cd2": "2915564000", "sgg": "29155", "sido": "29", "sidonm": "광주광역시", "sggnm": "남구" }, "geometry": { "type": "MultiPolygon", "coordinates": [ [ [ [ 126.896832658583349, 35.144260552627642 ], [ 126.898884558515334, 35.138878066314845 ], [ 126.897083185859827, 35.136999965151773 ], [ 126.896115554630441, 35.137042319019095 ], [ 126.892832123862888, 35.136862814629048 ], [ 126.890376361839117, 35.139268539900691 ], [ 126.889046173485028, 35.140987426296277 ], [ 126.893195297397398, 35.143119217043029 ], [ 126.893694246639669, 35.143375166908569 ], [ 126.89616396791763, 35.144410063141152 ], [ 126.896217620536873, 35.144408479291435 ], [ 126.896340825880714, 35.144398792050765 ], [ 126.896579415329782, 35.144284751450719 ], [ 126.896634127335076, 35.144220083953044 ], [ 126.896658537537974, 35.144191229185637 ], [ 126.896832658583349, 35.144260552627642 ] ] ] ] } },
{ "type": "Feature", "properties": { "OBJECTID": 951, "adm_nm": "광주광역시 남구 백운1동", "adm_cd": "2403062", "adm_cd2": "2915567000", "sgg": "29155", "sido": "29", "sidonm": "광주광역시", "sggnm": "남구" }, "geometry": { "type": "MultiPolygon", "coordinates": [ [ [ [ 126.909577161657054, 35.139761279100277 ], [ 126.910088308313874, 35.139116485213229 ], [ 126.910122413186386, 35.13894255050883 ], [ 126.910046274883754, 35.138803345810864 ], [ 126.909851367562297, 35.138516869384844 ], [ 126.909553800839021, 35.138269692946317 ], [ 126.909162738289851, 35.138272756227153 ], [ 126.908900531504301, 35.138314236488654 ], [ 126.908813002956251, 35.138297392131108 ], [ 126.908761440480163, 35.138017310159057 ], [ 126.908635112253492, 35.136334527979471 ], [ 126.908930916588417, 35.135932259489039 ], [ 126.909105497545426, 35.135801309159099 ], [ 126.909197906652196, 35.135748918734166 ], [ 126.909560929905581, 35.135664282747037 ], [ 126.908774175408084, 35.135794635531894 ], [ 126.901624992112843, 35.137014188820096 ], [ 126.901615375586914, 35.137292269250764 ], [ 126.901604941517675, 35.138366228183195 ], [ 126.901608283320343, 35.138421524722425 ], [ 126.901852096242095, 35.139360296937923 ], [ 126.902086129401582, 35.140099122767246 ], [ 126.90336258869192, 35.143883673939285 ], [ 126.906471614651238, 35.142852777146501 ], [ 126.906563211036413, 35.143001260703272 ], [ 126.906634158969794, 35.143023418612209 ], [ 126.907738003897592, 35.143337365639766 ], [ 126.908905394271187, 35.142336848758717 ], [ 126.90882755043144, 35.141733335455733 ], [ 126.908794936430013, 35.141655901879361 ], [ 126.908562502359331, 35.141103904174201 ], [ 126.908527860173706, 35.140964717149423 ], [ 126.908492949009442, 35.140822212321495 ], [ 126.909272872059617, 35.139967824459063 ], [ 126.909577161657054, 35.139761279100277 ] ] ] ] } },
{ "type": "Feature", "properties": { "OBJECTID": 952, "adm_nm": "광주광역시 남구 백운2동", "adm_cd": "2403063", "adm_cd2": "2915568000", "sgg": "29155", "sido": "29", "sidonm": "광주광역시", "sggnm": "남구" }, "geometry": { "type": "MultiPolygon", "coordinates": [ [ [ [ 126.909560929905581, 35.135664282747037 ], [ 126.91155499012919, 35.134302092684685 ], [ 126.91101804446474, 35.134257691038378 ], [ 126.901528397297369, 35.133527978445606 ], [ 126.900936375663491, 35.133573309198077 ], [ 126.899052863957792, 35.134856932164503 ], [ 126.897083185859827, 35.136999965151773 ], [ 126.898884558515334, 35.138878066314845 ], [ 126.902086129401582, 35.140099122767246 ], [ 126.901852096242095, 35.139360296937923 ], [ 126.901608283320343, 35.138421524722425 ], [ 126.901604941517675, 35.138366228183195 ], [ 126.901615375586914, 35.137292269250764 ], [ 126.901624992112843, 35.137014188820096 ], [ 126.908774175408084, 35.135794635531894 ], [ 126.909560929905581, 35.135664282747037 ] ] ] ] } },
{ "type": "Feature", "properties": { "OBJECTID": 953, "adm_nm": "광주광역시 남구 주월1동", "adm_cd": "2403064", "adm_cd2": "2915569000", "sgg": "29155", "sido": "29", "sidonm": "광주광역시", "sggnm": "남구" }, "geometry": { "type": "MultiPolygon", "coordinates": [ [ [ [ 126.901528397297369, 35.133527978445606 ], [ 126.906011472400508, 35.125938408596291 ], [ 126.903795391652366, 35.124247014616031 ], [ 126.90149883847171, 35.124474739982496 ], [ 126.900958084628442, 35.124507354210472 ], [ 126.900187778175038, 35.124529670671009 ], [ 126.898258825512357, 35.124585517447436 ], [ 126.897278656658415, 35.125146907564321 ], [ 126.896850790426527, 35.125557188084436 ], [ 126.896314385279396, 35.125211368778373 ], [ 126.895306392981581, 35.124606673589398 ], [ 126.889016440685822, 35.121764441218168 ], [ 126.888421317846223, 35.121659055360801 ], [ 126.887534721477877, 35.125534007680507 ], [ 126.887372178290306, 35.125716824417033 ], [ 126.88661836492787, 35.127476730443405 ], [ 126.886588095309378, 35.127630002786823 ], [ 126.886475961662086, 35.130263592863479 ], [ 126.887104919214948, 35.130560320564705 ], [ 126.888103219107933, 35.131016981418043 ], [ 126.890950711509717, 35.131901016859175 ], [ 126.891874013297013, 35.132273610328454 ], [ 126.894795789823348, 35.133567734471725 ], [ 126.899052863957792, 35.134856932164503 ], [ 126.900936375663491, 35.133573309198077 ], [ 126.901528397297369, 35.133527978445606 ] ] ] ] } },
{ "type": "Feature", "properties": { "OBJECTID": 954, "adm_nm": "광주광역시 남구 주월2동", "adm_cd": "2403065", "adm_cd2": "2915570000", "sgg": "29155", "sido": "29", "sidonm": "광주광역시", "sggnm": "남구" }, "geometry": { "type": "MultiPolygon", "coordinates": [ [ [ [ 126.889046173485028, 35.140987426296277 ], [ 126.890376361839117, 35.139268539900691 ], [ 126.892832123862888, 35.136862814629048 ], [ 126.896115554630441, 35.137042319019095 ], [ 126.897083185859827, 35.136999965151773 ], [ 126.899052863957792, 35.134856932164503 ], [ 126.894795789823348, 35.133567734471725 ], [ 126.891874013297013, 35.132273610328454 ], [ 126.890950711509717, 35.131901016859175 ], [ 126.888103219107933, 35.131016981418043 ], [ 126.887567233380778, 35.132096823854425 ], [ 126.886938957685288, 35.134257912096707 ], [ 126.885746395429223, 35.136289784767143 ], [ 126.885613206388896, 35.136467406669439 ], [ 126.885472174045091, 35.136608924906447 ], [ 126.885259885648836, 35.136775673753398 ], [ 126.885149607170561, 35.136862272298373 ], [ 126.88499396773615, 35.136971368045742 ], [ 126.884363568288506, 35.137408634308159 ], [ 126.88418202418832, 35.137511225934198 ], [ 126.884064827873459, 35.137535192791532 ], [ 126.883778630534323, 35.137558965737313 ], [ 126.8835866464524, 35.137573587049943 ], [ 126.883363153014898, 35.137950538895588 ], [ 126.883232299869903, 35.13823247840233 ], [ 126.883177513217618, 35.138541053610076 ], [ 126.883153383212843, 35.138677005392772 ], [ 126.883194180992902, 35.138818095557149 ], [ 126.88539790678837, 35.140764150737496 ], [ 126.885766945485017, 35.14106490842115 ], [ 126.88603825707014, 35.141286018165459 ], [ 126.887895560929366, 35.141987921330049 ], [ 126.889046173485028, 35.140987426296277 ] ] ] ] } },
{ "type": "Feature", "properties": { "OBJECTID": 955, "adm_nm": "광주광역시 남구 효덕동", "adm_cd": "2403066", "adm_cd2": "2915571000", "sgg": "29155", "sido": "29", "sidonm": "광주광역시", "sggnm": "남구" }, "geometry": { "type": "MultiPolygon", "coordinates": [ [ [ [ 126.903795391652366, 35.124247014616031 ], [ 126.903785859589505, 35.122272866680255 ], [ 126.904152918389713, 35.118658597994411 ], [ 126.904178870649233, 35.118590611304356 ], [ 126.904909822701939, 35.11737299641149 ], [ 126.904958124839041, 35.117320130025668 ], [ 126.905067191188209, 35.117269648429321 ], [ 126.905261849648653, 35.117220340550865 ], [ 126.905460632311431, 35.117223250784001 ], [ 126.905721265598444, 35.117258481866557 ], [ 126.905810533199954, 35.11726705471564 ], [ 126.906048264793895, 35.117289880717557 ], [ 126.906583091430946, 35.117303704844929 ], [ 126.906669123933597, 35.117305927612023 ], [ 126.906884579416015, 35.117295436553775 ], [ 126.907063780396271, 35.117286477416528 ], [ 126.907548034381847, 35.117208657050156 ], [ 126.90820698936642, 35.117076845771521 ], [ 126.912102347095896, 35.115703004372428 ], [ 126.913139888522309, 35.114761347378554 ], [ 126.9143854089575, 35.109607553929372 ], [ 126.91442205348504, 35.109193430443852 ], [ 126.914398393852309, 35.108848523185195 ], [ 126.914241514894442, 35.10773982908708 ], [ 126.914060277642037, 35.106641030392176 ], [ 126.91404854761403, 35.106321397874886 ], [ 126.914499285238705, 35.105452804647442 ], [ 126.914986153464554, 35.104953809229485 ], [ 126.917536463205323, 35.102309737724255 ], [ 126.921125262785679, 35.09707446366032 ], [ 126.920592237552142, 35.094864020102243 ], [ 126.920417246611393, 35.094607025657368 ], [ 126.920062793880149, 35.094274186154628 ], [ 126.919866379190609, 35.093938213673539 ], [ 126.91968296681253, 35.093547881023007 ], [ 126.91925919220435, 35.091983699288569 ], [ 126.919223180909441, 35.091531670377485 ], [ 126.918989818962231, 35.091532130402172 ], [ 126.918061988271219, 35.091493192183918 ], [ 126.917596439686804, 35.091403830587808 ], [ 126.916655861462999, 35.091179348518409 ], [ 126.910776581045667, 35.088455688469224 ], [ 126.910741537742382, 35.088223206717295 ], [ 126.910655229283051, 35.087829867775923 ], [ 126.910564140753124, 35.087430743558706 ], [ 126.910556134615433, 35.087395687447597 ], [ 126.91020360367331, 35.086890948046644 ], [ 126.90990542141958, 35.086510970067785 ], [ 126.906439169217578, 35.08259557882149 ], [ 126.906346662774766, 35.082520826460012 ], [ 126.906201776577603, 35.082403754339438 ], [ 126.905762235407252, 35.082165883878609 ], [ 126.905539466659974, 35.082059810751659 ], [ 126.905484817874651, 35.082034561726331 ], [ 126.905287375040004, 35.08194919124265 ], [ 126.905081956919915, 35.081889632590268 ], [ 126.902042591934816, 35.08101537906915 ], [ 126.901822077430907, 35.080959530379801 ], [ 126.901586911135993, 35.080899979586889 ], [ 126.901439243428854, 35.080877600634892 ], [ 126.900033272588928, 35.080720583139005 ], [ 126.899997945876663, 35.080735433639767 ], [ 126.899324281632715, 35.081105197768395 ], [ 126.900176165223201, 35.082994335130763 ], [ 126.899517857141745, 35.086013446943909 ], [ 126.8973758544182, 35.086631971287936 ], [ 126.893524603048419, 35.087723337773419 ], [ 126.891527251927798, 35.087958727551467 ], [ 126.889216649712154, 35.090082236616716 ], [ 126.889165666687163, 35.090140455897966 ], [ 126.887460851984244, 35.092087608064851 ], [ 126.886017418309095, 35.094514897233829 ], [ 126.889931927772992, 35.096173236703706 ], [ 126.89112379617147, 35.099265331644311 ], [ 126.890779278045798, 35.100214421003429 ], [ 126.889713194113455, 35.100578563667206 ], [ 126.888619971865708, 35.100560271278269 ], [ 126.888073497786692, 35.100456098806546 ], [ 126.887051646900048, 35.100408606109312 ], [ 126.885163554370962, 35.100945500076683 ], [ 126.885134991556896, 35.100996861879239 ], [ 126.884639920595816, 35.101887110104578 ], [ 126.885943955983706, 35.104808172992669 ], [ 126.889137540771259, 35.106418048348104 ], [ 126.89248522829314, 35.106079003150654 ], [ 126.896339845140702, 35.109035792942187 ], [ 126.896325282588407, 35.110654426424198 ], [ 126.896086819947797, 35.111251425347724 ], [ 126.896007893390717, 35.111409289527295 ], [ 126.895629337830286, 35.111964215278626 ], [ 126.89490520628604, 35.112801288075197 ], [ 126.893678302790264, 35.114209956840249 ], [ 126.893440680724865, 35.114414813271104 ], [ 126.893006277466398, 35.114493852203289 ], [ 126.891624545436557, 35.114745221949896 ], [ 126.890093559634408, 35.11481218283064 ], [ 126.888513554382399, 35.116011867798498 ], [ 126.887735804303759, 35.116978586787553 ], [ 126.888421317846223, 35.121659055360801 ], [ 126.889016440685822, 35.121764441218168 ], [ 126.895306392981581, 35.124606673589398 ], [ 126.896314385279396, 35.125211368778373 ], [ 126.896850790426527, 35.125557188084436 ], [ 126.897278656658415, 35.125146907564321 ], [ 126.898258825512357, 35.124585517447436 ], [ 126.900187778175038, 35.124529670671009 ], [ 126.900958084628442, 35.124507354210472 ], [ 126.90149883847171, 35.124474739982496 ], [ 126.903795391652366, 35.124247014616031 ] ] ] ] } },
{ "type": "Feature", "properties": { "OBJECTID": 956, "adm_nm": "광주광역시 남구 송암동", "adm_cd": "2403067", "adm_cd2": "2915572000", "sgg": "29155", "sido": "29", "sidonm": "광주광역시", "sggnm": "남구" }, "geometry": { "type": "MultiPolygon", "coordinates": [ [ [ [ 126.887735804303759, 35.116978586787553 ], [ 126.888513554382399, 35.116011867798498 ], [ 126.890093559634408, 35.11481218283064 ], [ 126.891624545436557, 35.114745221949896 ], [ 126.893006277466398, 35.114493852203289 ], [ 126.893440680724865, 35.114414813271104 ], [ 126.893678302790264, 35.114209956840249 ], [ 126.89490520628604, 35.112801288075197 ], [ 126.895629337830286, 35.111964215278626 ], [ 126.896007893390717, 35.111409289527295 ], [ 126.896086819947797, 35.111251425347724 ], [ 126.896325282588407, 35.110654426424198 ], [ 126.896339845140702, 35.109035792942187 ], [ 126.89248522829314, 35.106079003150654 ], [ 126.889137540771259, 35.106418048348104 ], [ 126.885943955983706, 35.104808172992669 ], [ 126.884639920595816, 35.101887110104578 ], [ 126.885134991556896, 35.100996861879239 ], [ 126.885163554370962, 35.100945500076683 ], [ 126.887051646900048, 35.100408606109312 ], [ 126.888073497786692, 35.100456098806546 ], [ 126.888619971865708, 35.100560271278269 ], [ 126.889713194113455, 35.100578563667206 ], [ 126.890779278045798, 35.100214421003429 ], [ 126.89112379617147, 35.099265331644311 ], [ 126.889931927772992, 35.096173236703706 ], [ 126.886017418309095, 35.094514897233829 ], [ 126.884571826827482, 35.092258310631252 ], [ 126.884001446226748, 35.092227548629879 ], [ 126.882977130258126, 35.092172317042142 ], [ 126.882543229198347, 35.09214891980308 ], [ 126.878580402936464, 35.0923012040884 ], [ 126.876603760088571, 35.092381765338686 ], [ 126.876510417468552, 35.092387900356215 ], [ 126.873893680475547, 35.09256003576381 ], [ 126.873143025798527, 35.094619787794628 ], [ 126.872855928979675, 35.09611362124857 ], [ 126.871857087594876, 35.097509023669481 ], [ 126.86996570983068, 35.099620100671885 ], [ 126.869512233579144, 35.10007140655118 ], [ 126.868940376068579, 35.100407424922949 ], [ 126.867070090535549, 35.100226795080346 ], [ 126.865088506452082, 35.100205625240541 ], [ 126.862484183294526, 35.10084702150197 ], [ 126.860629014303143, 35.106522305424292 ], [ 126.861241115203526, 35.10737296194263 ], [ 126.85444253496189, 35.106654653378008 ], [ 126.854648752929606, 35.107028690843244 ], [ 126.860572311495531, 35.10925570377708 ], [ 126.860877863706904, 35.109278718041935 ], [ 126.863220186128657, 35.109455099628448 ], [ 126.865074575332812, 35.109381399262233 ], [ 126.866150553937146, 35.110809928475568 ], [ 126.86786853351488, 35.11064054298933 ], [ 126.868314109710226, 35.110432081267398 ], [ 126.869034854340697, 35.110362870353711 ], [ 126.87055164619656, 35.110695040937856 ], [ 126.87014379028912, 35.111130707633656 ], [ 126.868226718429824, 35.112977566433003 ], [ 126.869769449789672, 35.115232756602872 ], [ 126.871554030437864, 35.115703706501328 ], [ 126.873974707477473, 35.116729868101601 ], [ 126.873972579254556, 35.118097047998745 ], [ 126.875046180567693, 35.11926801255094 ], [ 126.875677579736447, 35.119058639057805 ], [ 126.879313275160442, 35.117563832863169 ], [ 126.883518100316266, 35.115876466110592 ], [ 126.883685159403228, 35.114835415910449 ], [ 126.885382375426119, 35.11470034499952 ], [ 126.885250757671059, 35.115461931237917 ], [ 126.885510919521508, 35.116116462956469 ], [ 126.886577757335331, 35.116996376486455 ], [ 126.887735804303759, 35.116978586787553 ] ] ] ] } },
{ "type": "Feature", "properties": { "OBJECTID": 957, "adm_nm": "광주광역시 남구 봉선1동", "adm_cd": "2403068", "adm_cd2": "2915553700", "sgg": "29155", "sido": "29", "sidonm": "광주광역시", "sggnm": "남구" }, "geometry": { "type": "MultiPolygon", "coordinates": [ [ [ [ 126.914378693760611, 35.130162098513047 ], [ 126.916811616561574, 35.127228819402838 ], [ 126.91667794317236, 35.127053844151369 ], [ 126.91564022557823, 35.126470767565138 ], [ 126.914586236247899, 35.12657561133669 ], [ 126.914014215485693, 35.126920766143961 ], [ 126.913214596208235, 35.127107343831817 ], [ 126.912983398064213, 35.127159980560684 ], [ 126.911993685693986, 35.127115345453788 ], [ 126.911260755354547, 35.127082269042489 ], [ 126.910731395112677, 35.127054483782885 ], [ 126.906606058870295, 35.126534234375171 ], [ 126.906011472400508, 35.125938408596291 ], [ 126.901528397297369, 35.133527978445606 ], [ 126.91101804446474, 35.134257691038378 ], [ 126.911119098457959, 35.133496506667129 ], [ 126.914378693760611, 35.130162098513047 ] ] ] ] } },
{ "type": "Feature", "properties": { "OBJECTID": 958, "adm_nm": "광주광역시 남구 봉선2동", "adm_cd": "2403069", "adm_cd2": "2915553800", "sgg": "29155", "sido": "29", "sidonm": "광주광역시", "sggnm": "남구" }, "geometry": { "type": "MultiPolygon", "coordinates": [ [ [ [ 126.924723057835379, 35.124577754849263 ], [ 126.924741647095232, 35.123472692633001 ], [ 126.924741701909326, 35.12341510246074 ], [ 126.924695015941197, 35.123366933330523 ], [ 126.923139612311573, 35.122279226736055 ], [ 126.920766776380162, 35.120275213478358 ], [ 126.920090409898435, 35.119359374367122 ], [ 126.919337665245649, 35.118120396390545 ], [ 126.918914562822962, 35.11772769540454 ], [ 126.918887827938505, 35.117702884707583 ], [ 126.918863876444945, 35.11768065812668 ], [ 126.917563318204017, 35.117110471528946 ], [ 126.916918992276649, 35.116950209246149 ], [ 126.914122953939781, 35.116368922679065 ], [ 126.912102347095896, 35.115703004372428 ], [ 126.90820698936642, 35.117076845771521 ], [ 126.907548034381847, 35.117208657050156 ], [ 126.907063780396271, 35.117286477416528 ], [ 126.906884579416015, 35.117295436553775 ], [ 126.906669123933597, 35.117305927612023 ], [ 126.906583091430946, 35.117303704844929 ], [ 126.906048264793895, 35.117289880717557 ], [ 126.905810533199954, 35.11726705471564 ], [ 126.905721265598444, 35.117258481866557 ], [ 126.905460632311431, 35.117223250784001 ], [ 126.905261849648653, 35.117220340550865 ], [ 126.905067191188209, 35.117269648429321 ], [ 126.904958124839041, 35.117320130025668 ], [ 126.904909822701939, 35.11737299641149 ], [ 126.904178870649233, 35.118590611304356 ], [ 126.904152918389713, 35.118658597994411 ], [ 126.903785859589505, 35.122272866680255 ], [ 126.903795391652366, 35.124247014616031 ], [ 126.906011472400508, 35.125938408596291 ], [ 126.906606058870295, 35.126534234375171 ], [ 126.910731395112677, 35.127054483782885 ], [ 126.911260755354547, 35.127082269042489 ], [ 126.911993685693986, 35.127115345453788 ], [ 126.912983398064213, 35.127159980560684 ], [ 126.913214596208235, 35.127107343831817 ], [ 126.914014215485693, 35.126920766143961 ], [ 126.914586236247899, 35.12657561133669 ], [ 126.91564022557823, 35.126470767565138 ], [ 126.91667794317236, 35.127053844151369 ], [ 126.916811616561574, 35.127228819402838 ], [ 126.920713113082826, 35.128415431991968 ], [ 126.921158995481832, 35.12825932137013 ], [ 126.923471596919484, 35.126629959533538 ], [ 126.924723057835379, 35.124577754849263 ] ] ] ] } },
{ "type": "Feature", "properties": { "OBJECTID": 959, "adm_nm": "광주광역시 남구 대촌동", "adm_cd": "2403070", "adm_cd2": "2915573000", "sgg": "29155", "sido": "29", "sidonm": "광주광역시", "sggnm": "남구" }, "geometry": { "type": "MultiPolygon", "coordinates": [ [ [ [ 126.886017418309095, 35.094514897233829 ], [ 126.887460851984244, 35.092087608064851 ], [ 126.889165666687163, 35.090140455897966 ], [ 126.889216649712154, 35.090082236616716 ], [ 126.891527251927798, 35.087958727551467 ], [ 126.893524603048419, 35.087723337773419 ], [ 126.8973758544182, 35.086631971287936 ], [ 126.899517857141745, 35.086013446943909 ], [ 126.900176165223201, 35.082994335130763 ], [ 126.899324281632715, 35.081105197768395 ], [ 126.895408561667978, 35.080800788059967 ], [ 126.894713058848708, 35.080117262328457 ], [ 126.8933367282755, 35.078764573463495 ], [ 126.892061787091848, 35.078161321118365 ], [ 126.887843429255568, 35.08023745102561 ], [ 126.885055198692257, 35.081534500095238 ], [ 126.884993339521614, 35.081490737293485 ], [ 126.883252383124756, 35.080259211670885 ], [ 126.883073308971731, 35.080132540519962 ], [ 126.881067377655469, 35.078753017443297 ], [ 126.871754277387836, 35.074324490362784 ], [ 126.869814310065678, 35.074526588046588 ], [ 126.86538706426046, 35.075242409318712 ], [ 126.864621063678015, 35.075597335769302 ], [ 126.862400416339241, 35.07679902272384 ], [ 126.862040004496563, 35.07753701214066 ], [ 126.861888345775967, 35.077847558766337 ], [ 126.860633278295282, 35.078731013351351 ], [ 126.859512785415589, 35.078766211646695 ], [ 126.857438869235921, 35.078444458983384 ], [ 126.855686649781504, 35.078141322785093 ], [ 126.855188788892974, 35.077269955500192 ], [ 126.854835582850754, 35.076397826425698 ], [ 126.854150676135902, 35.074800506365413 ], [ 126.853220867244801, 35.07369552395793 ], [ 126.852405217829357, 35.073490043291464 ], [ 126.851801645739187, 35.073337983887271 ], [ 126.85001669999663, 35.072806652582521 ], [ 126.848032712263702, 35.071955733775738 ], [ 126.847960973442312, 35.071318951192232 ], [ 126.84789087020701, 35.070696603816835 ], [ 126.846283358278171, 35.068672533395585 ], [ 126.842894459837481, 35.06528408290329 ], [ 126.837084214106596, 35.06581913399387 ], [ 126.8363239298411, 35.064003491047956 ], [ 126.834525903388084, 35.063401354254182 ], [ 126.830194237860994, 35.062143069123458 ], [ 126.829295769061773, 35.062178272145289 ], [ 126.828195335976204, 35.062227509697841 ], [ 126.827822193268631, 35.062474343366141 ], [ 126.827375497250742, 35.062450554217534 ], [ 126.826821916674987, 35.062421067479377 ], [ 126.822178756798621, 35.05992457800879 ], [ 126.819905550659215, 35.055349842347475 ], [ 126.819734293251258, 35.054864412716867 ], [ 126.819680413125539, 35.054711687494859 ], [ 126.819118734924331, 35.053114603792551 ], [ 126.819087281294472, 35.052989646204168 ], [ 126.818969171843605, 35.052520348676921 ], [ 126.818558822216715, 35.052528861277324 ], [ 126.816710629452913, 35.052946573130235 ], [ 126.814209563399814, 35.053416262870897 ], [ 126.811779266840915, 35.053081064647799 ], [ 126.808963944287498, 35.052423205669157 ], [ 126.803716786685229, 35.052386096761566 ], [ 126.803361760836239, 35.054147113719196 ], [ 126.80292664348076, 35.055222896260766 ], [ 126.802265796207237, 35.056126034440631 ], [ 126.801102408867237, 35.057445873780118 ], [ 126.798236433143714, 35.05931127844142 ], [ 126.797820164017267, 35.059316266213209 ], [ 126.797777339141291, 35.059188985100072 ], [ 126.797355174006213, 35.058994170945091 ], [ 126.796954380264822, 35.059075488760264 ], [ 126.796677858270172, 35.05932994852953 ], [ 126.79603338380862, 35.060185782249228 ], [ 126.796066067766517, 35.060325095246291 ], [ 126.79613590023925, 35.060622913899401 ], [ 126.795947309656285, 35.060733081624711 ], [ 126.795203986772066, 35.06116723750484 ], [ 126.794814696891493, 35.061054133820221 ], [ 126.794572243042552, 35.06098368898617 ], [ 126.792256528163819, 35.060076560006323 ], [ 126.78700681867798, 35.05725756712912 ], [ 126.786004921139451, 35.056661740930437 ], [ 126.785545158298035, 35.056388303979823 ], [ 126.783529040734422, 35.05512788385591 ], [ 126.782345430976775, 35.054366432339229 ], [ 126.779963643710886, 35.053404213547758 ], [ 126.778400601665723, 35.053164149076252 ], [ 126.778281489341182, 35.053163348512342 ], [ 126.775730292051037, 35.053259176720722 ], [ 126.773785250022087, 35.053858041191383 ], [ 126.770112301152537, 35.054617393958495 ], [ 126.768890843502888, 35.055162433710741 ], [ 126.767233707990769, 35.056801370367651 ], [ 126.7671648874487, 35.05716762432224 ], [ 126.767154833477449, 35.057221659890686 ], [ 126.767131579343484, 35.057613097921404 ], [ 126.767417465301548, 35.059234130380318 ], [ 126.76748083469829, 35.059593428841204 ], [ 126.768484878098434, 35.061429049408112 ], [ 126.768970737374048, 35.062187163208897 ], [ 126.769177798662966, 35.063483000018991 ], [ 126.768998143957404, 35.064258099034177 ], [ 126.768685687939339, 35.064923467833573 ], [ 126.767198937129209, 35.06509393823525 ], [ 126.76634491326773, 35.065083165057558 ], [ 126.760894038734065, 35.062974220632462 ], [ 126.759477791256487, 35.061951368984268 ], [ 126.758614125383332, 35.061327584720807 ], [ 126.757044684900691, 35.059481632211323 ], [ 126.756353770884019, 35.061107744437301 ], [ 126.756273989495824, 35.061295505976823 ], [ 126.755649291033393, 35.062498443630396 ], [ 126.754214762375312, 35.063745360233959 ], [ 126.753799894063221, 35.063899899786342 ], [ 126.753459693605862, 35.064026624434234 ], [ 126.752814846612807, 35.064536184756768 ], [ 126.752912264684156, 35.065330068950693 ], [ 126.753441650633249, 35.066325537505364 ], [ 126.754481755156874, 35.06716697177351 ], [ 126.756120762127338, 35.068027840004888 ], [ 126.757248992867019, 35.068607570810038 ], [ 126.758370099677464, 35.068816917029309 ], [ 126.761475753117935, 35.068859600553679 ], [ 126.763129129870904, 35.068634780856215 ], [ 126.765106274412318, 35.067680766555469 ], [ 126.76579221298806, 35.067669121065656 ], [ 126.766071318409672, 35.067664389233315 ], [ 126.767035305632049, 35.067976079171117 ], [ 126.767689240263906, 35.068187516994477 ], [ 126.768317781427442, 35.068462169307836 ], [ 126.768863540398314, 35.068700647776936 ], [ 126.769782254910595, 35.069277620624455 ], [ 126.770881456277493, 35.069967929027563 ], [ 126.772967524323548, 35.071034635998814 ], [ 126.774305915008483, 35.071198442606686 ], [ 126.776041678108555, 35.071297082661147 ], [ 126.777292618284193, 35.071368151709386 ], [ 126.778794993875877, 35.071453491333074 ], [ 126.782567627204315, 35.072519339090128 ], [ 126.782716276563221, 35.072561347092822 ], [ 126.786517509591008, 35.075471745248187 ], [ 126.790338457344674, 35.080705617615223 ], [ 126.795629795726896, 35.087149418755885 ], [ 126.797529210556633, 35.088161227594135 ], [ 126.799263411446333, 35.089084977808191 ], [ 126.800633399529147, 35.08981469629127 ], [ 126.802962079978954, 35.09248293038155 ], [ 126.803881278429472, 35.093522979181785 ], [ 126.80530842823687, 35.095131167645846 ], [ 126.805939751852648, 35.0958276605528 ], [ 126.806803072836587, 35.095121355262016 ], [ 126.806860845850906, 35.094979912794273 ], [ 126.806947744317625, 35.094668674835347 ], [ 126.807039996725223, 35.094522550209234 ], [ 126.810310180506704, 35.091998376994795 ], [ 126.811051753782053, 35.091592675431116 ], [ 126.812009081177536, 35.091471712392874 ], [ 126.813269153979022, 35.092180893233646 ], [ 126.813792367601977, 35.092616221861888 ], [ 126.813972677327854, 35.092776547879275 ], [ 126.814332556887706, 35.093136560801049 ], [ 126.814860883338326, 35.093445499653072 ], [ 126.815664996824012, 35.093719989680331 ], [ 126.816322577828075, 35.093605749576632 ], [ 126.816615587694216, 35.093412718066489 ], [ 126.81768734340524, 35.092648090807387 ], [ 126.818779409294237, 35.091837905443029 ], [ 126.819280512090472, 35.091412011316521 ], [ 126.819709581694923, 35.090942584004495 ], [ 126.820109810606169, 35.090976981970208 ], [ 126.82231427784879, 35.092093378913958 ], [ 126.825815068567096, 35.09368563655832 ], [ 126.8265642390609, 35.0940263582266 ], [ 126.835660435779431, 35.098157824229787 ], [ 126.835918371741641, 35.098245253110989 ], [ 126.836249953815596, 35.098385767890747 ], [ 126.836660486729798, 35.098630024334227 ], [ 126.836991240171471, 35.099179367327253 ], [ 126.83793719436602, 35.101874216226797 ], [ 126.838083846702332, 35.102294614376646 ], [ 126.837991160234054, 35.102847688680932 ], [ 126.837829400313865, 35.103265974273832 ], [ 126.84046116432836, 35.104542320397591 ], [ 126.844020020584267, 35.104037326439929 ], [ 126.85155378357581, 35.105805686753534 ], [ 126.853946358030583, 35.106456956156741 ], [ 126.85444253496189, 35.106654653378008 ], [ 126.861241115203526, 35.10737296194263 ], [ 126.860629014303143, 35.106522305424292 ], [ 126.862484183294526, 35.10084702150197 ], [ 126.865088506452082, 35.100205625240541 ], [ 126.867070090535549, 35.100226795080346 ], [ 126.868940376068579, 35.100407424922949 ], [ 126.869512233579144, 35.10007140655118 ], [ 126.86996570983068, 35.099620100671885 ], [ 126.871857087594876, 35.097509023669481 ], [ 126.872855928979675, 35.09611362124857 ], [ 126.873143025798527, 35.094619787794628 ], [ 126.873893680475547, 35.09256003576381 ], [ 126.876510417468552, 35.092387900356215 ], [ 126.876603760088571, 35.092381765338686 ], [ 126.878580402936464, 35.0923012040884 ], [ 126.882543229198347, 35.09214891980308 ], [ 126.882977130258126, 35.092172317042142 ], [ 126.884001446226748, 35.092227548629879 ], [ 126.884571826827482, 35.092258310631252 ], [ 126.886017418309095, 35.094514897233829 ] ] ] ] } }
]
}
