{
"type": "FeatureCollection",
"name": "seogu",
"crs": { "type": "name", "properties": { "name": "urn:ogc:def:crs:OGC:1.3:CRS84" } },
"features": [
{ "type": "Feature", "properties": { "OBJECTID": 926, "adm_nm": "광주광역시 서구 양동", "adm_cd": "2402051", "adm_cd2": "2914057500", "sgg": "29140", "sido": "29", "sidonm": "광주광역시", "sggnm": "서구" }, "geometry": { "type": "MultiPolygon", "coordinates": [ [ [ [ 126.900110745742282, 35.156646488925965 ], [ 126.901444991195063, 35.155482875216904 ], [ 126.907270753519427, 35.151487143369948 ], [ 126.909971956007624, 35.148970114785236 ], [ 126.905508782709944, 35.148269761912509 ], [ 126.905354981134778, 35.148330943562044 ], [ 126.904402416337476, 35.148709957800591 ], [ 126.904148522031264, 35.14884927637312 ], [ 126.903693256659508, 35.14909910212269 ], [ 126.903180913742162, 35.14950873015448 ], [ 126.903061186183805, 35.149604532651324 ], [ 126.900902801613697, 35.152419274808835 ], [ 126.896479896279175, 35.15216465589112 ], [ 126.896011363340889, 35.15437001791274 ], [ 126.897109293840614, 35.154411484080434 ], [ 126.897196930358149, 35.15441613469811 ], [ 126.897847048641651, 35.154563921514189 ], [ 126.898027036453058, 35.154604837155077 ], [ 126.898316718971671, 35.154758004059282 ], [ 126.898413985916051, 35.155607988852992 ], [ 126.898244281368477, 35.155913102392809 ], [ 126.898222169152319, 35.155974796260288 ], [ 126.898168751950962, 35.15620442667543 ], [ 126.89817937485887, 35.156319920095527 ], [ 126.898276578611473, 35.156522006774097 ], [ 126.898326555619917, 35.156615848239554 ], [ 126.898385609461926, 35.156660328594569 ], [ 126.898509795401381, 35.156701581385263 ], [ 126.898959603768233, 35.156639602442979 ], [ 126.89955852091957, 35.156461419804067 ], [ 126.899649269262412, 35.156418234253671 ], [ 126.900110745742282, 35.156646488925965 ] ] ] ] } },
{ "type": "Feature", "properties": { "OBJECTID": 927, "adm_nm": "광주광역시 서구 양3동", "adm_cd": "2402053", "adm_cd2": "2914059000", "sgg": "29140", "sido": "29", "sidonm": "광주광역시", "sggnm": "서구" }, "geometry": { "type": "MultiPolygon", "coordinates": [ [ [ [ 126.900110745742282, 35.156646488925965 ], [ 126.899649269262412, 35.156418234253671 ], [ 126.89955852091957, 35.156461419804067 ], [ 126.898959603768233, 35.156639602442979 ], [ 126.898509795401381, 35.156701581385263 ], [ 126.898385609461926, 35.156660328594569 ], [ 126.898326555619917, 35.156615848239554 ], [ 126.898276578611473, 35.156522006774097 ], [ 126.89817937485887, 35.156319920095527 ], [ 126.898168751950962, 35.15620442667543 ], [ 126.898222169152319, 35.155974796260288 ], [ 126.898244281368477, 35.155913102392809 ], [ 126.898413985916051, 35.155607988852992 ], [ 126.898316718971671, 35.154758004059282 ], [ 126.898027036453058, 35.154604837155077 ], [ 126.897847048641651, 35.154563921514189 ], [ 126.897196930358149, 35.15441613469811 ], [ 126.897109293840614, 35.154411484080434 ], [ 126.896011363340889, 35.15437001791274 ], [ 126.893843968381347, 35.156367032249221 ], [ 126.891588417217363, 35.158006506551381 ], [ 126.890825248730081, 35.15896052663561 ], [ 126.890499961979557, 35.159740652742983 ], [ 126.89054231009716, 35.160556454324819 ], [ 126.89062777840104, 35.160804356616637 ], [ 126.891307757585025, 35.160744990297303 ], [ 126.892113281848296, 35.160637717805542 ], [ 126.893111431169785, 35.160499430648919 ], [ 126.893946302494953, 35.160264987792615 ], [ 126.895563382070804, 35.159663147161787 ], [ 126.895779712216537, 35.159582621214611 ], [ 126.896060797178308, 35.159454790628168 ], [ 126.896316938110999, 35.159338293036754 ], [ 126.896633106517527, 35.159149615843702 ], [ 126.896863017419321, 35.159012408671764 ], [ 126.898149005520381, 35.158180956281953 ], [ 126.898560985402042, 35.157859555632271 ], [ 126.899242687490869, 35.157325959711208 ], [ 126.899300773103661, 35.157280492561398 ], [ 126.900110745742282, 35.156646488925965 ] ] ] ] } },
{ "type": "Feature", "properties": { "OBJECTID": 928, "adm_nm": "광주광역시 서구 농성1동", "adm_cd": "2402054", "adm_cd2": "2914065000", "sgg": "29140", "sido": "29", "sidonm": "광주광역시", "sggnm": "서구" }, "geometry": { "type": "MultiPolygon", "coordinates": [ [ [ [ 126.887430379349595, 35.161226468175904 ], [ 126.89054231009716, 35.160556454324819 ], [ 126.890499961979557, 35.159740652742983 ], [ 126.890825248730081, 35.15896052663561 ], [ 126.891588417217363, 35.158006506551381 ], [ 126.893843968381347, 35.156367032249221 ], [ 126.896011363340889, 35.15437001791274 ], [ 126.896479896279175, 35.15216465589112 ], [ 126.894343092045219, 35.151335959017153 ], [ 126.89211813095946, 35.150674092676567 ], [ 126.891611144661397, 35.150629782909704 ], [ 126.891019501847111, 35.150691370037734 ], [ 126.890503336966205, 35.150851682868975 ], [ 126.890053811733736, 35.151066891100669 ], [ 126.889604225657081, 35.15132594631293 ], [ 126.889207887921643, 35.151676416135679 ], [ 126.887831614023, 35.153027280567102 ], [ 126.882974011670683, 35.153018104139498 ], [ 126.882978256860497, 35.158320711372774 ], [ 126.883023129834868, 35.159353397651429 ], [ 126.883466229359001, 35.161277444809329 ], [ 126.887430379349595, 35.161226468175904 ] ] ] ] } },
{ "type": "Feature", "properties": { "OBJECTID": 929, "adm_nm": "광주광역시 서구 농성2동", "adm_cd": "2402055", "adm_cd2": "2914066000", "sgg": "29140", "sido": "29", "sidonm": "광주광역시", "sggnm": "서구" }, "geometry": { "type": "MultiPolygon", "coordinates": [ [ [ [ 126.894343092045219, 35.151335959017153 ], [ 126.894588865078305, 35.150892566723748 ], [ 126.893450146526163, 35.150497139577297 ], [ 126.890192705889802, 35.149038947288496 ], [ 126.886998701273058, 35.147391863278891 ], [ 126.88652372414208, 35.147139422117796 ], [ 126.88457453983581, 35.147641157700399 ], [ 126.881411303314493, 35.150759813408541 ], [ 126.880735018037839, 35.151456308152241 ], [ 126.881329788094916, 35.15230472983194 ], [ 126.881204660779133, 35.152699294896145 ], [ 126.882974011670683, 35.153018104139498 ], [ 126.887831614023, 35.153027280567102 ], [ 126.889207887921643, 35.151676416135679 ], [ 126.889604225657081, 35.15132594631293 ], [ 126.890053811733736, 35.151066891100669 ], [ 126.890503336966205, 35.150851682868975 ], [ 126.891019501847111, 35.150691370037734 ], [ 126.891611144661397, 35.150629782909704 ], [ 126.89211813095946, 35.150674092676567 ], [ 126.894343092045219, 35.151335959017153 ] ] ] ] } },
{ "type": "Feature", "properties": { "OBJECTID": 930, "adm_nm": "광주광역시 서구 광천동", "adm_cd": "2402056", "adm_cd2": "2914073000", "sgg": "29140", "sido": "29", "sidonm": "광주광역시", "sggnm": "서구" }, "geometry": { "type": "MultiPolygon", "coordinates": [ [ [ [ 126.88429196580222, 35.168676981291277 ], [ 126.884908564752351, 35.167262113287578 ], [ 126.886360806270417, 35.164191842664344 ], [ 126.886917269680822, 35.162898326921159 ], [ 126.887224105650603, 35.162185052933303 ], [ 126.8873561224068, 35.161637615324175 ], [ 126.887411223425659, 35.161341437587545 ], [ 126.887430379349595, 35.161226468175904 ], [ 126.883466229359001, 35.161277444809329 ], [ 126.883023129834868, 35.159353397651429 ], [ 126.87699660079663, 35.159546062687248 ], [ 126.877090133822009, 35.160759700089294 ], [ 126.877281114681423, 35.165824008645473 ], [ 126.87547778748602, 35.165824764857334 ], [ 126.874409075345866, 35.165865725156863 ], [ 126.872135056767192, 35.165962531537993 ], [ 126.871914327241498, 35.166012932147531 ], [ 126.871549940045469, 35.166694624544341 ], [ 126.871661573261292, 35.167691136720165 ], [ 126.87568839776263, 35.169938197529298 ], [ 126.87679335547611, 35.170087957420122 ], [ 126.877541255723173, 35.170111620446271 ], [ 126.8776551380124, 35.170115219970683 ], [ 126.877854851159185, 35.170121531628546 ], [ 126.878948163673797, 35.170070641354101 ], [ 126.879022655871381, 35.170062297490098 ], [ 126.879559834077369, 35.17000210231695 ], [ 126.880363806465397, 35.16991147850112 ], [ 126.880908728195806, 35.169802552953577 ], [ 126.881716812867353, 35.169641003427934 ], [ 126.883277285409619, 35.169147268721851 ], [ 126.88429196580222, 35.168676981291277 ] ] ] ] } },
{ "type": "Feature", "properties": { "OBJECTID": 931, "adm_nm": "광주광역시 서구 유덕동", "adm_cd": "2402057", "adm_cd2": "2914074000", "sgg": "29140", "sido": "29", "sidonm": "광주광역시", "sggnm": "서구" }, "geometry": { "type": "MultiPolygon", "coordinates": [ [ [ [ 126.842789159715906, 35.17620050480847 ], [ 126.841757936469591, 35.174566971700663 ], [ 126.842171209232063, 35.17447127260251 ], [ 126.847169724133224, 35.173313682471978 ], [ 126.852306788095476, 35.172123768042681 ], [ 126.851095187594311, 35.168460415484297 ], [ 126.851409541210458, 35.168388233589539 ], [ 126.853604656982526, 35.167884172957407 ], [ 126.857998309390894, 35.167362447742107 ], [ 126.859944519441456, 35.167814399216283 ], [ 126.860030684649885, 35.16783290288523 ], [ 126.86096950654192, 35.168034503595685 ], [ 126.861359067882304, 35.168118150141154 ], [ 126.86158397848105, 35.168166436877343 ], [ 126.862477807041529, 35.168270792910981 ], [ 126.863394984560941, 35.16831274838836 ], [ 126.86361137983998, 35.168315397556647 ], [ 126.86378504003784, 35.168317521634023 ], [ 126.864404297701483, 35.16829366279012 ], [ 126.865533739665793, 35.168013710332929 ], [ 126.866940169736182, 35.167665100539821 ], [ 126.867712577641583, 35.167519298147894 ], [ 126.868939876615187, 35.16736047205405 ], [ 126.869915966669666, 35.167338656140757 ], [ 126.869947717045562, 35.167341755415492 ], [ 126.870547985630452, 35.167400360328848 ], [ 126.871064573452102, 35.167519939974767 ], [ 126.871661573261292, 35.167691136720165 ], [ 126.871549940045469, 35.166694624544341 ], [ 126.871914327241498, 35.166012932147531 ], [ 126.872135056767192, 35.165962531537993 ], [ 126.874409075345866, 35.165865725156863 ], [ 126.87547778748602, 35.165824764857334 ], [ 126.877281114681423, 35.165824008645473 ], [ 126.877090133822009, 35.160759700089294 ], [ 126.87699660079663, 35.159546062687248 ], [ 126.876933398728411, 35.158470892215199 ], [ 126.876098549364983, 35.157491261247991 ], [ 126.869697345448202, 35.15774678359017 ], [ 126.86820444956858, 35.158272847593373 ], [ 126.868240735808129, 35.15909030244967 ], [ 126.86823962815329, 35.159165823219332 ], [ 126.868039260673399, 35.159475531694973 ], [ 126.86802350511627, 35.159499884723964 ], [ 126.866580168228296, 35.160568939951602 ], [ 126.866412219956203, 35.160627526235771 ], [ 126.866512632438685, 35.161487035579398 ], [ 126.866517411709438, 35.161759258965034 ], [ 126.864619235773617, 35.161844298246038 ], [ 126.856023603693274, 35.162196153151704 ], [ 126.856018453415857, 35.161735836426786 ], [ 126.856014555999138, 35.161387098273515 ], [ 126.856012198891534, 35.161176155386535 ], [ 126.856013287886029, 35.160514909674426 ], [ 126.856013560688439, 35.160352695129994 ], [ 126.852629959708594, 35.160748449542339 ], [ 126.850338070250274, 35.160790180114255 ], [ 126.848236641513097, 35.160667644698854 ], [ 126.84716324252129, 35.160572198297587 ], [ 126.847079251746251, 35.16056472863221 ], [ 126.846175963178581, 35.160479324397286 ], [ 126.84609041952092, 35.160471232510218 ], [ 126.846043837264105, 35.160466687172686 ], [ 126.8458454597112, 35.160447308051431 ], [ 126.845391340173492, 35.160402938694773 ], [ 126.845346061447927, 35.160398513746948 ], [ 126.845307782187518, 35.160394530569548 ], [ 126.845274136000938, 35.160390604879986 ], [ 126.845214268028911, 35.160383605130825 ], [ 126.844484091606304, 35.160298225719366 ], [ 126.843492684842246, 35.16011434593517 ], [ 126.84326453674575, 35.160072026120289 ], [ 126.843223765594473, 35.160064456241088 ], [ 126.843133091356037, 35.160027326759788 ], [ 126.84183616175946, 35.15949620174306 ], [ 126.841304696462259, 35.159278531943229 ], [ 126.839972478771685, 35.158670759852704 ], [ 126.839321290192288, 35.158347085242447 ], [ 126.839211647793675, 35.158275620855107 ], [ 126.838708339212417, 35.157947530399291 ], [ 126.838645957361848, 35.157906855026454 ], [ 126.838566812195069, 35.157846480631598 ], [ 126.838380343781324, 35.157704229153481 ], [ 126.838181000813165, 35.15755215426983 ], [ 126.83807756336914, 35.157441314845649 ], [ 126.837858588527041, 35.157206663565333 ], [ 126.837726123055702, 35.157064696292423 ], [ 126.837557428101348, 35.156841999929426 ], [ 126.837397372097072, 35.156616530057377 ], [ 126.837045754618174, 35.155948864006021 ], [ 126.833961720510587, 35.151631070127827 ], [ 126.832233209406624, 35.149267381676516 ], [ 126.828559264875167, 35.15068191303795 ], [ 126.828196953879001, 35.150892719574138 ], [ 126.827145254118875, 35.151526007222564 ], [ 126.826531083011815, 35.151926686566441 ], [ 126.826104253005965, 35.15220514244664 ], [ 126.825364507465807, 35.152754648002137 ], [ 126.825060085398988, 35.153071242774871 ], [ 126.824969451238829, 35.153225805012248 ], [ 126.824818335008857, 35.153512020991947 ], [ 126.824611146405928, 35.154204125594909 ], [ 126.824615829665703, 35.15435456065282 ], [ 126.82486483684248, 35.155210144048603 ], [ 126.825073723548641, 35.156053288022186 ], [ 126.825083561837985, 35.156139863615138 ], [ 126.825098198082813, 35.156333591455741 ], [ 126.825062623872043, 35.156543747173401 ], [ 126.824921011122953, 35.157069025919149 ], [ 126.824804781992512, 35.157464521845924 ], [ 126.824567798109356, 35.158006155553288 ], [ 126.823928096987743, 35.159169567494857 ], [ 126.823550183126585, 35.161536909053723 ], [ 126.823419089496639, 35.162511346071732 ], [ 126.823448470668552, 35.16284729008521 ], [ 126.823518201384957, 35.163082315874981 ], [ 126.823638170628911, 35.16328856939078 ], [ 126.825163580849619, 35.165559688373754 ], [ 126.825844432560075, 35.166275767692809 ], [ 126.826049706494601, 35.166486245440858 ], [ 126.826640503674383, 35.167082664315963 ], [ 126.826855815564301, 35.16728905949914 ], [ 126.827061169633794, 35.167462441916399 ], [ 126.82761713886201, 35.16792690461007 ], [ 126.82922040319194, 35.169068803766102 ], [ 126.829556153629568, 35.169273293877367 ], [ 126.830944927265847, 35.169825474415376 ], [ 126.831250777898319, 35.169941302958158 ], [ 126.831496630175295, 35.169951951991841 ], [ 126.833759725970538, 35.169926261245521 ], [ 126.834080977318195, 35.16987311969914 ], [ 126.834417449083418, 35.169735512293272 ], [ 126.83500516994313, 35.169423088035828 ], [ 126.835376727825803, 35.169302023744045 ], [ 126.835773346967216, 35.169195385842045 ], [ 126.835994111885938, 35.169203939602951 ], [ 126.836114430896302, 35.169257696486987 ], [ 126.836374909588443, 35.169478530434468 ], [ 126.836740570124434, 35.16979638904369 ], [ 126.83685066347158, 35.169940791046123 ], [ 126.836945652985918, 35.170118141287162 ], [ 126.837162796055324, 35.171923656642193 ], [ 126.837628341756314, 35.174990695613317 ], [ 126.837906386381476, 35.176472752657972 ], [ 126.838140891200581, 35.177148981853954 ], [ 126.838205924612183, 35.177248001828019 ], [ 126.8387272957807, 35.178322619420932 ], [ 126.839903941914926, 35.178585389326678 ], [ 126.842789159715906, 35.17620050480847 ] ] ] ] } },
{ "type": "Feature", "properties": { "OBJECTID": 932, "adm_nm": "광주광역시 서구 상무1동", "adm_cd": "2402058", "adm_cd2": "2914075100", "sgg": "29140", "sido": "29", "sidonm": "광주광역시", "sggnm": "서구" }, "geometry": { "type": "MultiPolygon", "coordinates": [ [ [ [ 126.869697345448202, 35.15774678359017 ], [ 126.869517896705887, 35.151764297770804 ], [ 126.869101222950519, 35.151748390491612 ], [ 126.868937976921757, 35.151739465598311 ], [ 126.865105065858174, 35.151438031866185 ], [ 126.859300310914364, 35.150807208750926 ], [ 126.858651873178417, 35.150715575403808 ], [ 126.857995878949623, 35.150565974087669 ], [ 126.856200776775651, 35.150086673924925 ], [ 126.855878632008285, 35.149990822261557 ], [ 126.854899659712189, 35.152152448631838 ], [ 126.85486468268698, 35.152936690845557 ], [ 126.854875474086043, 35.15610142737787 ], [ 126.855030121918816, 35.156393105374505 ], [ 126.855352022479636, 35.157000199286642 ], [ 126.855502880866581, 35.157284698786789 ], [ 126.855935298169825, 35.158100166104852 ], [ 126.856015791927362, 35.159007659407727 ], [ 126.856014131910314, 35.160009829084565 ], [ 126.856013560688439, 35.160352695129994 ], [ 126.856013287886029, 35.160514909674426 ], [ 126.856012198891534, 35.161176155386535 ], [ 126.856014555999138, 35.161387098273515 ], [ 126.856018453415857, 35.161735836426786 ], [ 126.856023603693274, 35.162196153151704 ], [ 126.864619235773617, 35.161844298246038 ], [ 126.866517411709438, 35.161759258965034 ], [ 126.866512632438685, 35.161487035579398 ], [ 126.866412219956203, 35.160627526235771 ], [ 126.866580168228296, 35.160568939951602 ], [ 126.86802350511627, 35.159499884723964 ], [ 126.868039260673399, 35.159475531694973 ], [ 126.86823962815329, 35.159165823219332 ], [ 126.868240735808129, 35.15909030244967 ], [ 126.86820444956858, 35.158272847593373 ], [ 126.869697345448202, 35.15774678359017 ] ] ] ] } },
{ "type": "Feature", "properties": { "OBJECTID": 933, "adm_nm": "광주광역시 서구 상무2동", "adm_cd": "2402059", "adm_cd2": "2914075200", "sgg": "29140", "sido": "29", "sidonm": "광주광역시", "sggnm": "서구" }, "geometry": { "type": "MultiPolygon", "coordinates": [ [ [ [ 126.871881727382785, 35.151653650531685 ], [ 126.871974923496253, 35.150198771945085 ], [ 126.871972909722558, 35.149868180812241 ], [ 126.871969557151985, 35.149320615731867 ], [ 126.871354521311261, 35.149276705365558 ], [ 126.870989669414286, 35.148936088744868 ], [ 126.871518922245684, 35.147946570699695 ], [ 126.871870304437721, 35.147361610858944 ], [ 126.872117974550704, 35.146949303704488 ], [ 126.870228438706789, 35.14658789450489 ], [ 126.87020596011628, 35.145109044580487 ], [ 126.870393520347221, 35.143705750356851 ], [ 126.86678323315364, 35.144528457668294 ], [ 126.863549908378005, 35.142786034702581 ], [ 126.863078331109392, 35.142173233166659 ], [ 126.861281857785997, 35.141023442741947 ], [ 126.86110048678681, 35.140974846884284 ], [ 126.855748283113797, 35.140009964030206 ], [ 126.85487798489099, 35.140113268806203 ], [ 126.854223188412504, 35.140190990343299 ], [ 126.853777532188801, 35.142299701087154 ], [ 126.853590299201869, 35.143135762704468 ], [ 126.853566453026332, 35.143237466651811 ], [ 126.853538982673356, 35.143322699681271 ], [ 126.852736068291748, 35.14498542000166 ], [ 126.85236650762792, 35.14555559479868 ], [ 126.851902950526366, 35.145764727018388 ], [ 126.85163488684401, 35.145927264897495 ], [ 126.851515912516419, 35.145999408262767 ], [ 126.850662981050476, 35.147086119813636 ], [ 126.850345035279005, 35.147514472632317 ], [ 126.855878632008285, 35.149990822261557 ], [ 126.856200776775651, 35.150086673924925 ], [ 126.857995878949623, 35.150565974087669 ], [ 126.858651873178417, 35.150715575403808 ], [ 126.859300310914364, 35.150807208750926 ], [ 126.865105065858174, 35.151438031866185 ], [ 126.868937976921757, 35.151739465598311 ], [ 126.869101222950519, 35.151748390491612 ], [ 126.869517896705887, 35.151764297770804 ], [ 126.870313953768488, 35.151705533836193 ], [ 126.871881727382785, 35.151653650531685 ] ] ] ] } },
{ "type": "Feature", "properties": { "OBJECTID": 934, "adm_nm": "광주광역시 서구 화정1동", "adm_cd": "2402060", "adm_cd2": "2914076000", "sgg": "29140", "sido": "29", "sidonm": "광주광역시", "sggnm": "서구" }, "geometry": { "type": "MultiPolygon", "coordinates": [ [ [ [ 126.883023129834868, 35.159353397651429 ], [ 126.882978256860497, 35.158320711372774 ], [ 126.882974011670683, 35.153018104139498 ], [ 126.881204660779133, 35.152699294896145 ], [ 126.876937921868731, 35.151505792161124 ], [ 126.871881727382785, 35.151653650531685 ], [ 126.870313953768488, 35.151705533836193 ], [ 126.869517896705887, 35.151764297770804 ], [ 126.869697345448202, 35.15774678359017 ], [ 126.876098549364983, 35.157491261247991 ], [ 126.876933398728411, 35.158470892215199 ], [ 126.87699660079663, 35.159546062687248 ], [ 126.883023129834868, 35.159353397651429 ] ] ] ] } },
{ "type": "Feature", "properties": { "OBJECTID": 935, "adm_nm": "광주광역시 서구 화정2동", "adm_cd": "2402061", "adm_cd2": "2914077000", "sgg": "29140", "sido": "29", "sidonm": "광주광역시", "sggnm": "서구" }, "geometry": { "type": "MultiPolygon", "coordinates": [ [ [ [ 126.88652372414208, 35.147139422117796 ], [ 126.885882180709288, 35.146798429807319 ], [ 126.885433878597325, 35.146560137478254 ], [ 126.886059900445829, 35.145737022100583 ], [ 126.886706705719973, 35.144887029491571 ], [ 126.887203378313544, 35.14425325861086 ], [ 126.887767154616128, 35.143533830820594 ], [ 126.888309300938516, 35.142794100999694 ], [ 126.887895560929366, 35.141987921330049 ], [ 126.88603825707014, 35.141286018165459 ], [ 126.885766945485017, 35.14106490842115 ], [ 126.88539790678837, 35.140764150737496 ], [ 126.883194180992902, 35.138818095557149 ], [ 126.883153383212843, 35.138677005392772 ], [ 126.883177513217618, 35.138541053610076 ], [ 126.883232299869903, 35.13823247840233 ], [ 126.883363153014898, 35.137950538895588 ], [ 126.8835866464524, 35.137573587049943 ], [ 126.881188605642024, 35.137931629242587 ], [ 126.880676333909591, 35.138188442020237 ], [ 126.880208006188425, 35.139573599312051 ], [ 126.87856331388582, 35.144063707526008 ], [ 126.877488104691551, 35.148317523101476 ], [ 126.876979822285961, 35.148492950308182 ], [ 126.876388850528954, 35.148777195744636 ], [ 126.876605673169323, 35.14998355216882 ], [ 126.876937921868731, 35.151505792161124 ], [ 126.881204660779133, 35.152699294896145 ], [ 126.881329788094916, 35.15230472983194 ], [ 126.880735018037839, 35.151456308152241 ], [ 126.881411303314493, 35.150759813408541 ], [ 126.88457453983581, 35.147641157700399 ], [ 126.88652372414208, 35.147139422117796 ] ] ] ] } },
{ "type": "Feature", "properties": { "OBJECTID": 936, "adm_nm": "광주광역시 서구 화정3동", "adm_cd": "2402062", "adm_cd2": "2914078000", "sgg": "29140", "sido": "29", "sidonm": "광주광역시", "sggnm": "서구" }, "geometry": { "type": "MultiPolygon", "coordinates": [ [ [ [ 126.876937921868731, 35.151505792161124 ], [ 126.876605673169323, 35.14998355216882 ], [ 126.876388850528954, 35.148777195744636 ], [ 126.876979822285961, 35.148492950308182 ], [ 126.877488104691551, 35.148317523101476 ], [ 126.87856331388582, 35.144063707526008 ], [ 126.880208006188425, 35.139573599312051 ], [ 126.880676333909591, 35.138188442020237 ], [ 126.879679366059477, 35.136514601972166 ], [ 126.878111930370778, 35.136661542823212 ], [ 126.877584215559224, 35.137496006846185 ], [ 126.877479113814985, 35.137675279693639 ], [ 126.877426320796388, 35.137765339539591 ], [ 126.874427067767542, 35.14301076792934 ], [ 126.872117974550704, 35.146949303704488 ], [ 126.871870304437721, 35.147361610858944 ], [ 126.871518922245684, 35.147946570699695 ], [ 126.870989669414286, 35.148936088744868 ], [ 126.871354521311261, 35.149276705365558 ], [ 126.871969557151985, 35.149320615731867 ], [ 126.871972909722558, 35.149868180812241 ], [ 126.871974923496253, 35.150198771945085 ], [ 126.871881727382785, 35.151653650531685 ], [ 126.876937921868731, 35.151505792161124 ] ] ] ] } },
{ "type": "Feature", "properties": { "OBJECTID": 937, "adm_nm": "광주광역시 서구 화정4동", "adm_cd": "2402063", "adm_cd2": "2914079000", "sgg": "29140", "sido": "29", "sidonm": "광주광역시", "sggnm": "서구" }, "geometry": { "type": "MultiPolygon", "coordinates": [ [ [ [ 126.879679366059477, 35.136514601972166 ], [ 126.879754445057628, 35.136410658895912 ], [ 126.879743260371242, 35.136139513697955 ], [ 126.879720803943187, 35.135834486903128 ], [ 126.879649786244144, 35.135069994284443 ], [ 126.878545091993416, 35.134625759906932 ], [ 126.877932836688359, 35.13494232306396 ], [ 126.877823654688029, 35.135047581372625 ], [ 126.877737278467947, 35.135214431386025 ], [ 126.877364200989817, 35.136016348037309 ], [ 126.877038618336172, 35.136769534120731 ], [ 126.875579199932787, 35.136576978637756 ], [ 126.875334727085914, 35.136468012686464 ], [ 126.87526384497788, 35.136431349135506 ], [ 126.874882568585591, 35.136234130349031 ], [ 126.871063861175912, 35.134015589119024 ], [ 126.87003341277584, 35.133976807156237 ], [ 126.869797593306757, 35.134010318390885 ], [ 126.869610918357765, 35.134036847722115 ], [ 126.869097681027526, 35.134115420591137 ], [ 126.86889175240114, 35.134358088384488 ], [ 126.868469753232489, 35.135205218988084 ], [ 126.868308826138289, 35.135501326252083 ], [ 126.868161702816124, 35.135769777815533 ], [ 126.868126745667041, 35.135813797143335 ], [ 126.868088219276387, 35.135862309982215 ], [ 126.867964329533308, 35.13601578336646 ], [ 126.867736459730324, 35.13623947818369 ], [ 126.867262465635079, 35.136303784555842 ], [ 126.866703940585168, 35.136307799380759 ], [ 126.865096389052056, 35.136276857884212 ], [ 126.864801093178372, 35.136949168968492 ], [ 126.863662202633165, 35.140689789058193 ], [ 126.863649227823331, 35.140740943136635 ], [ 126.863536375452483, 35.141443106258457 ], [ 126.863495064544367, 35.141933068257714 ], [ 126.863549908378005, 35.142786034702581 ], [ 126.86678323315364, 35.144528457668294 ], [ 126.870393520347221, 35.143705750356851 ], [ 126.87020596011628, 35.145109044580487 ], [ 126.870228438706789, 35.14658789450489 ], [ 126.872117974550704, 35.146949303704488 ], [ 126.874427067767542, 35.14301076792934 ], [ 126.877426320796388, 35.137765339539591 ], [ 126.877479113814985, 35.137675279693639 ], [ 126.877584215559224, 35.137496006846185 ], [ 126.878111930370778, 35.136661542823212 ], [ 126.879679366059477, 35.136514601972166 ] ] ] ] } },
{ "type": "Feature", "properties": { "OBJECTID": 938, "adm_nm": "광주광역시 서구 서창동", "adm_cd": "2402064", "adm_cd2": "2914080000", "sgg": "29140", "sido": "29", "sidonm": "광주광역시", "sggnm": "서구" }, "geometry": { "type": "MultiPolygon", "coordinates": [ [ [ [ 126.832233209406624, 35.149267381676516 ], [ 126.833625596587055, 35.149111453573276 ], [ 126.834609882286429, 35.148990459670365 ], [ 126.835607551786708, 35.148719049803596 ], [ 126.837458071763436, 35.148161212590566 ], [ 126.837379347540832, 35.147312616283301 ], [ 126.837311768438724, 35.146584161304105 ], [ 126.837299151713736, 35.146448156243054 ], [ 126.837596483579148, 35.145883732373974 ], [ 126.838560514643262, 35.145073985304734 ], [ 126.841142626541043, 35.143307165289905 ], [ 126.8421104546008, 35.143502462097246 ], [ 126.842241845530495, 35.143566948300602 ], [ 126.844470138735332, 35.144660581498087 ], [ 126.845988258281693, 35.145405634567446 ], [ 126.84620059737253, 35.145509842358472 ], [ 126.846866483315083, 35.14583662706589 ], [ 126.847684767620123, 35.14623818539124 ], [ 126.847978417917275, 35.146382285386032 ], [ 126.850002590090099, 35.147356790347565 ], [ 126.850140619691274, 35.147423235973925 ], [ 126.850345035279005, 35.147514472632317 ], [ 126.850662981050476, 35.147086119813636 ], [ 126.851515912516419, 35.145999408262767 ], [ 126.85163488684401, 35.145927264897495 ], [ 126.851902950526366, 35.145764727018388 ], [ 126.85236650762792, 35.14555559479868 ], [ 126.852736068291748, 35.14498542000166 ], [ 126.853538982673356, 35.143322699681271 ], [ 126.853566453026332, 35.143237466651811 ], [ 126.853590299201869, 35.143135762704468 ], [ 126.853777532188801, 35.142299701087154 ], [ 126.854223188412504, 35.140190990343299 ], [ 126.854043276402294, 35.139914163277524 ], [ 126.853749817044289, 35.139672592109513 ], [ 126.853260353218374, 35.139511216024331 ], [ 126.849552933299961, 35.138737562029888 ], [ 126.846476197221222, 35.137684281000929 ], [ 126.84494187571137, 35.136923426898186 ], [ 126.840095439402546, 35.133745332142475 ], [ 126.839948906750053, 35.133544119636362 ], [ 126.84004900189295, 35.132458767904971 ], [ 126.840147991042997, 35.131936268040896 ], [ 126.840344687385183, 35.131534502492542 ], [ 126.842208247185354, 35.130290658355449 ], [ 126.843237384520791, 35.129970394350266 ], [ 126.844413122616501, 35.129811102494031 ], [ 126.844853913692219, 35.129811672768675 ], [ 126.847865758239635, 35.129883902543249 ], [ 126.849249956998989, 35.12932944355817 ], [ 126.851133189317807, 35.128555426036449 ], [ 126.851900992770126, 35.127954324962559 ], [ 126.852561752001421, 35.126938280033592 ], [ 126.852639254351075, 35.126339624208562 ], [ 126.852225798061511, 35.126103862521482 ], [ 126.8522383770635, 35.125136179399213 ], [ 126.858264364425636, 35.121439518483477 ], [ 126.859828395725515, 35.120672357295916 ], [ 126.859691859069898, 35.120563726109474 ], [ 126.862813560888355, 35.118648372629679 ], [ 126.86442958907331, 35.117656783880449 ], [ 126.86603693024685, 35.11667046949573 ], [ 126.866779578929666, 35.116168673468188 ], [ 126.866187488435983, 35.11552591448222 ], [ 126.865219253860502, 35.11070822264567 ], [ 126.865074575332812, 35.109381399262233 ], [ 126.863220186128657, 35.109455099628448 ], [ 126.860877863706904, 35.109278718041935 ], [ 126.860572311495531, 35.10925570377708 ], [ 126.854648752929606, 35.107028690843244 ], [ 126.85444253496189, 35.106654653378008 ], [ 126.853946358030583, 35.106456956156741 ], [ 126.85155378357581, 35.105805686753534 ], [ 126.844020020584267, 35.104037326439929 ], [ 126.84046116432836, 35.104542320397591 ], [ 126.837829400313865, 35.103265974273832 ], [ 126.837991160234054, 35.102847688680932 ], [ 126.838083846702332, 35.102294614376646 ], [ 126.83793719436602, 35.101874216226797 ], [ 126.836991240171471, 35.099179367327253 ], [ 126.836660486729798, 35.098630024334227 ], [ 126.836249953815596, 35.098385767890747 ], [ 126.835918371741641, 35.098245253110989 ], [ 126.835660435779431, 35.098157824229787 ], [ 126.8265642390609, 35.0940263582266 ], [ 126.825815068567096, 35.09368563655832 ], [ 126.82231427784879, 35.092093378913958 ], [ 126.820109810606169, 35.090976981970208 ], [ 126.819709581694923, 35.090942584004495 ], [ 126.819280512090472, 35.091412011316521 ], [ 126.818779409294237, 35.091837905443029 ], [ 126.81768734340524, 35.092648090807387 ], [ 126.816615587694216, 35.093412718066489 ], [ 126.816322577828075, 35.093605749576632 ], [ 126.815664996824012, 35.093719989680331 ], [ 126.814860883338326, 35.093445499653072 ], [ 126.814332556887706, 35.093136560801049 ], [ 126.813972677327854, 35.092776547879275 ], [ 126.813792367601977, 35.092616221861888 ], [ 126.813269153979022, 35.092180893233646 ], [ 126.812009081177536, 35.091471712392874 ], [ 126.811051753782053, 35.091592675431116 ], [ 126.810310180506704, 35.091998376994795 ], [ 126.807039996725223, 35.094522550209234 ], [ 126.806947744317625, 35.094668674835347 ], [ 126.806860845850906, 35.094979912794273 ], [ 126.806803072836587, 35.095121355262016 ], [ 126.805939751852648, 35.0958276605528 ], [ 126.80530842823687, 35.095131167645846 ], [ 126.803881278429472, 35.093522979181785 ], [ 126.802962079978954, 35.09248293038155 ], [ 126.80129276655434, 35.096158977537186 ], [ 126.800359541719317, 35.09936908451121 ], [ 126.800492049016512, 35.100580429502045 ], [ 126.803089882940739, 35.100549863272064 ], [ 126.803795978649035, 35.100535270059027 ], [ 126.804514485496057, 35.100757339085213 ], [ 126.80483746284952, 35.100993092283083 ], [ 126.804930722522869, 35.101151504966296 ], [ 126.804971368955421, 35.101220561636083 ], [ 126.805020600624673, 35.101494821041591 ], [ 126.805027594444041, 35.101768202597576 ], [ 126.804409081014867, 35.106796556015745 ], [ 126.804077638428552, 35.108546970396326 ], [ 126.803163010112527, 35.11080891214938 ], [ 126.805091141772436, 35.11156710800028 ], [ 126.808568356586406, 35.11212680624196 ], [ 126.809621934771286, 35.113687058463952 ], [ 126.809618849930686, 35.113782695552629 ], [ 126.809548785265761, 35.113986286474322 ], [ 126.80948479359796, 35.114402346378135 ], [ 126.80947689413118, 35.11518982052695 ], [ 126.809732425937725, 35.116099214928802 ], [ 126.809744441740165, 35.116138979092483 ], [ 126.809792768015626, 35.116171350449761 ], [ 126.809986227929357, 35.116251152647791 ], [ 126.812302086048547, 35.116928829304804 ], [ 126.812374644370408, 35.116948816043944 ], [ 126.813005476491981, 35.117021677296734 ], [ 126.816414506881529, 35.118800191766354 ], [ 126.817068525626055, 35.120691787935087 ], [ 126.817158129800376, 35.120788968095766 ], [ 126.817955242218815, 35.121632467656646 ], [ 126.818434112913494, 35.122043086076879 ], [ 126.819156150060749, 35.122638042601139 ], [ 126.819770068849678, 35.122961141947229 ], [ 126.820373497018338, 35.123214763477826 ], [ 126.82046532956727, 35.123253359146062 ], [ 126.820780861213166, 35.123476205804252 ], [ 126.820825888105375, 35.123531872354057 ], [ 126.821155555552664, 35.124841432715037 ], [ 126.821034407863024, 35.12643452111449 ], [ 126.821024959560191, 35.126520694506645 ], [ 126.820888206722344, 35.126910955738026 ], [ 126.820860254795605, 35.126984429528136 ], [ 126.820810598724762, 35.127090839942646 ], [ 126.820764085121425, 35.12717698682777 ], [ 126.820717576496364, 35.127258028275307 ], [ 126.820658697493329, 35.127349225684092 ], [ 126.82032876987769, 35.127823250861383 ], [ 126.820150275689926, 35.128055034409257 ], [ 126.819296992534191, 35.12900371416211 ], [ 126.819206339927831, 35.129097075886364 ], [ 126.819115939820364, 35.129145442164138 ], [ 126.819087035836375, 35.129163174978089 ], [ 126.818986874125116, 35.129224682740535 ], [ 126.8188082356465, 35.129747100366458 ], [ 126.818681600035077, 35.132304865988729 ], [ 126.821342807978482, 35.134932767235107 ], [ 126.822644529039167, 35.136218108733871 ], [ 126.823719229670758, 35.137279237128105 ], [ 126.824895453089695, 35.138319897505269 ], [ 126.826005978555898, 35.139302390977051 ], [ 126.826792473649689, 35.139998194391488 ], [ 126.827271878901982, 35.141476324451425 ], [ 126.826588612317224, 35.142342188237535 ], [ 126.828945484888365, 35.142367938450228 ], [ 126.828949805635233, 35.142451128148018 ], [ 126.828974779438752, 35.14298131745862 ], [ 126.828992933306964, 35.144865153961014 ], [ 126.828991589973384, 35.144979998952095 ], [ 126.828965627179045, 35.147197650998763 ], [ 126.828603659315036, 35.150603834622082 ], [ 126.828559264875167, 35.15068191303795 ], [ 126.832233209406624, 35.149267381676516 ] ] ] ] } },
{ "type": "Feature", "properties": { "OBJECTID": 939, "adm_nm": "광주광역시 서구 치평동", "adm_cd": "2402066", "adm_cd2": "2914074500", "sgg": "29140", "sido": "29", "sidonm": "광주광역시", "sggnm": "서구" }, "geometry": { "type": "MultiPolygon", "coordinates": [ [ [ [ 126.856013560688439, 35.160352695129994 ], [ 126.856014131910314, 35.160009829084565 ], [ 126.856015791927362, 35.159007659407727 ], [ 126.855935298169825, 35.158100166104852 ], [ 126.855502880866581, 35.157284698786789 ], [ 126.855352022479636, 35.157000199286642 ], [ 126.855030121918816, 35.156393105374505 ], [ 126.854875474086043, 35.15610142737787 ], [ 126.85486468268698, 35.152936690845557 ], [ 126.854899659712189, 35.152152448631838 ], [ 126.855878632008285, 35.149990822261557 ], [ 126.850345035279005, 35.147514472632317 ], [ 126.850140619691274, 35.147423235973925 ], [ 126.850002590090099, 35.147356790347565 ], [ 126.847978417917275, 35.146382285386032 ], [ 126.847684767620123, 35.14623818539124 ], [ 126.846866483315083, 35.14583662706589 ], [ 126.84620059737253, 35.145509842358472 ], [ 126.845988258281693, 35.145405634567446 ], [ 126.844470138735332, 35.144660581498087 ], [ 126.842241845530495, 35.143566948300602 ], [ 126.8421104546008, 35.143502462097246 ], [ 126.841142626541043, 35.143307165289905 ], [ 126.838560514643262, 35.145073985304734 ], [ 126.837596483579148, 35.145883732373974 ], [ 126.837299151713736, 35.146448156243054 ], [ 126.837311768438724, 35.146584161304105 ], [ 126.837379347540832, 35.147312616283301 ], [ 126.837458071763436, 35.148161212590566 ], [ 126.835607551786708, 35.148719049803596 ], [ 126.834609882286429, 35.148990459670365 ], [ 126.833625596587055, 35.149111453573276 ], [ 126.832233209406624, 35.149267381676516 ], [ 126.833961720510587, 35.151631070127827 ], [ 126.837045754618174, 35.155948864006021 ], [ 126.837397372097072, 35.156616530057377 ], [ 126.837557428101348, 35.156841999929426 ], [ 126.837726123055702, 35.157064696292423 ], [ 126.837858588527041, 35.157206663565333 ], [ 126.83807756336914, 35.157441314845649 ], [ 126.838181000813165, 35.15755215426983 ], [ 126.838380343781324, 35.157704229153481 ], [ 126.838566812195069, 35.157846480631598 ], [ 126.838645957361848, 35.157906855026454 ], [ 126.838708339212417, 35.157947530399291 ], [ 126.839211647793675, 35.158275620855107 ], [ 126.839321290192288, 35.158347085242447 ], [ 126.839972478771685, 35.158670759852704 ], [ 126.841304696462259, 35.159278531943229 ], [ 126.84183616175946, 35.15949620174306 ], [ 126.843133091356037, 35.160027326759788 ], [ 126.843223765594473, 35.160064456241088 ], [ 126.84326453674575, 35.160072026120289 ], [ 126.843492684842246, 35.16011434593517 ], [ 126.844484091606304, 35.160298225719366 ], [ 126.845214268028911, 35.160383605130825 ], [ 126.845274136000938, 35.160390604879986 ], [ 126.845307782187518, 35.160394530569548 ], [ 126.845346061447927, 35.160398513746948 ], [ 126.845391340173492, 35.160402938694773 ], [ 126.8458454597112, 35.160447308051431 ], [ 126.846043837264105, 35.160466687172686 ], [ 126.84609041952092, 35.160471232510218 ], [ 126.846175963178581, 35.160479324397286 ], [ 126.847079251746251, 35.16056472863221 ], [ 126.84716324252129, 35.160572198297587 ], [ 126.848236641513097, 35.160667644698854 ], [ 126.850338070250274, 35.160790180114255 ], [ 126.852629959708594, 35.160748449542339 ], [ 126.856013560688439, 35.160352695129994 ] ] ] ] } },
{ "type": "Feature", "properties": { "OBJECTID": 940, "adm_nm": "광주광역시 서구 풍암동", "adm_cd": "2402067", "adm_cd2": "2914083000", "sgg": "29140", "sido": "29", "sidonm": "광주광역시", "sggnm": "서구" }, "geometry": { "type": "MultiPolygon", "coordinates": [ [ [ [ 126.8835866464524, 35.137573587049943 ], [ 126.883778630534323, 35.137558965737313 ], [ 126.884064827873459, 35.137535192791532 ], [ 126.88418202418832, 35.137511225934198 ], [ 126.884363568288506, 35.137408634308159 ], [ 126.88499396773615, 35.136971368045742 ], [ 126.885149607170561, 35.136862272298373 ], [ 126.885259885648836, 35.136775673753398 ], [ 126.885472174045091, 35.136608924906447 ], [ 126.885613206388896, 35.136467406669439 ], [ 126.885746395429223, 35.136289784767143 ], [ 126.886938957685288, 35.134257912096707 ], [ 126.887567233380778, 35.132096823854425 ], [ 126.888103219107933, 35.131016981418043 ], [ 126.887104919214948, 35.130560320564705 ], [ 126.886475961662086, 35.130263592863479 ], [ 126.886588095309378, 35.127630002786823 ], [ 126.88661836492787, 35.127476730443405 ], [ 126.887372178290306, 35.125716824417033 ], [ 126.887534721477877, 35.125534007680507 ], [ 126.888421317846223, 35.121659055360801 ], [ 126.887735804303759, 35.116978586787553 ], [ 126.886577757335331, 35.116996376486455 ], [ 126.885510919521508, 35.116116462956469 ], [ 126.885250757671059, 35.115461931237917 ], [ 126.885382375426119, 35.11470034499952 ], [ 126.883685159403228, 35.114835415910449 ], [ 126.883518100316266, 35.115876466110592 ], [ 126.879313275160442, 35.117563832863169 ], [ 126.875677579736447, 35.119058639057805 ], [ 126.875046180567693, 35.11926801255094 ], [ 126.873972579254556, 35.118097047998745 ], [ 126.873974707477473, 35.116729868101601 ], [ 126.871554030437864, 35.115703706501328 ], [ 126.869769449789672, 35.115232756602872 ], [ 126.868226718429824, 35.112977566433003 ], [ 126.87014379028912, 35.111130707633656 ], [ 126.87055164619656, 35.110695040937856 ], [ 126.869034854340697, 35.110362870353711 ], [ 126.868314109710226, 35.110432081267398 ], [ 126.86786853351488, 35.11064054298933 ], [ 126.866150553937146, 35.110809928475568 ], [ 126.865074575332812, 35.109381399262233 ], [ 126.865219253860502, 35.11070822264567 ], [ 126.866187488435983, 35.11552591448222 ], [ 126.866779578929666, 35.116168673468188 ], [ 126.86603693024685, 35.11667046949573 ], [ 126.86442958907331, 35.117656783880449 ], [ 126.862813560888355, 35.118648372629679 ], [ 126.859691859069898, 35.120563726109474 ], [ 126.859828395725515, 35.120672357295916 ], [ 126.864053428265038, 35.124033659164105 ], [ 126.86345390605068, 35.125168994205488 ], [ 126.863847899895902, 35.126498402689457 ], [ 126.864902971101756, 35.130304024172737 ], [ 126.865026319811307, 35.130748921135883 ], [ 126.865139485924345, 35.131157095841182 ], [ 126.865340982214008, 35.132624156908257 ], [ 126.871063861175912, 35.134015589119024 ], [ 126.874882568585591, 35.136234130349031 ], [ 126.87526384497788, 35.136431349135506 ], [ 126.875334727085914, 35.136468012686464 ], [ 126.875579199932787, 35.136576978637756 ], [ 126.877038618336172, 35.136769534120731 ], [ 126.877364200989817, 35.136016348037309 ], [ 126.877737278467947, 35.135214431386025 ], [ 126.877823654688029, 35.135047581372625 ], [ 126.877932836688359, 35.13494232306396 ], [ 126.878545091993416, 35.134625759906932 ], [ 126.879649786244144, 35.135069994284443 ], [ 126.879720803943187, 35.135834486903128 ], [ 126.879743260371242, 35.136139513697955 ], [ 126.879754445057628, 35.136410658895912 ], [ 126.879679366059477, 35.136514601972166 ], [ 126.880676333909591, 35.138188442020237 ], [ 126.881188605642024, 35.137931629242587 ], [ 126.8835866464524, 35.137573587049943 ] ] ] ] } },
{ "type": "Feature", "properties": { "OBJECTID": 941, "adm_nm": "광주광역시 서구 금호1동", "adm_cd": "2402068", "adm_cd2": "2914082100", "sgg": "29140", "sido": "29", "sidonm": "광주광역시", "sggnm": "서구" }, "geometry": { "type": "MultiPolygon", "coordinates": [ [ [ [ 126.871063861175912, 35.134015589119024 ], [ 126.865340982214008, 35.132624156908257 ], [ 126.862492619301605, 35.13267598183576 ], [ 126.861301747036009, 35.13268562304463 ], [ 126.860746488540272, 35.132680428561869 ], [ 126.857009013219425, 35.132254921728887 ], [ 126.856357692168203, 35.132180314390062 ], [ 126.855109445416218, 35.13203575737014 ], [ 126.852324250703006, 35.131912107619932 ], [ 126.851736490892478, 35.13191045378386 ], [ 126.851243338689159, 35.131909066434552 ], [ 126.850529894856876, 35.131996566213601 ], [ 126.84908681254646, 35.132173540983665 ], [ 126.848677506917113, 35.132054284432819 ], [ 126.848545139326944, 35.131700384271873 ], [ 126.847895118371667, 35.129962406056485 ], [ 126.847865758239635, 35.129883902543249 ], [ 126.844853913692219, 35.129811672768675 ], [ 126.844413122616501, 35.129811102494031 ], [ 126.843237384520791, 35.129970394350266 ], [ 126.842208247185354, 35.130290658355449 ], [ 126.840344687385183, 35.131534502492542 ], [ 126.840147991042997, 35.131936268040896 ], [ 126.84004900189295, 35.132458767904971 ], [ 126.839948906750053, 35.133544119636362 ], [ 126.840095439402546, 35.133745332142475 ], [ 126.84494187571137, 35.136923426898186 ], [ 126.846476197221222, 35.137684281000929 ], [ 126.849552933299961, 35.138737562029888 ], [ 126.853260353218374, 35.139511216024331 ], [ 126.853749817044289, 35.139672592109513 ], [ 126.854043276402294, 35.139914163277524 ], [ 126.854223188412504, 35.140190990343299 ], [ 126.85487798489099, 35.140113268806203 ], [ 126.855748283113797, 35.140009964030206 ], [ 126.86110048678681, 35.140974846884284 ], [ 126.861281857785997, 35.141023442741947 ], [ 126.863078331109392, 35.142173233166659 ], [ 126.863549908378005, 35.142786034702581 ], [ 126.863495064544367, 35.141933068257714 ], [ 126.863536375452483, 35.141443106258457 ], [ 126.863649227823331, 35.140740943136635 ], [ 126.863662202633165, 35.140689789058193 ], [ 126.864801093178372, 35.136949168968492 ], [ 126.865096389052056, 35.136276857884212 ], [ 126.866703940585168, 35.136307799380759 ], [ 126.867262465635079, 35.136303784555842 ], [ 126.867736459730324, 35.13623947818369 ], [ 126.867964329533308, 35.13601578336646 ], [ 126.868088219276387, 35.135862309982215 ], [ 126.868126745667041, 35.135813797143335 ], [ 126.868161702816124, 35.135769777815533 ], [ 126.868308826138289, 35.135501326252083 ], [ 126.868469753232489, 35.135205218988084 ], [ 126.86889175240114, 35.134358088384488 ], [ 126.869097681027526, 35.134115420591137 ], [ 126.869610918357765, 35.134036847722115 ], [ 126.869797593306757, 35.134010318390885 ], [ 126.87003341277584, 35.133976807156237 ], [ 126.871063861175912, 35.134015589119024 ] ] ] ] } },
{ "type": "Feature", "properties": { "OBJECTID": 942, "adm_nm": "광주광역시 서구 금호2동", "adm_cd": "2402069", "adm_cd2": "2914082400", "sgg": "29140", "sido": "29", "sidonm": "광주광역시", "sggnm": "서구" }, "geometry": { "type": "MultiPolygon", "coordinates": [ [ [ [ 126.865340982214008, 35.132624156908257 ], [ 126.865139485924345, 35.131157095841182 ], [ 126.865026319811307, 35.130748921135883 ], [ 126.864902971101756, 35.130304024172737 ], [ 126.863847899895902, 35.126498402689457 ], [ 126.86345390605068, 35.125168994205488 ], [ 126.864053428265038, 35.124033659164105 ], [ 126.859828395725515, 35.120672357295916 ], [ 126.858264364425636, 35.121439518483477 ], [ 126.8522383770635, 35.125136179399213 ], [ 126.852225798061511, 35.126103862521482 ], [ 126.852639254351075, 35.126339624208562 ], [ 126.852561752001421, 35.126938280033592 ], [ 126.851900992770126, 35.127954324962559 ], [ 126.851133189317807, 35.128555426036449 ], [ 126.849249956998989, 35.12932944355817 ], [ 126.847865758239635, 35.129883902543249 ], [ 126.847895118371667, 35.129962406056485 ], [ 126.848545139326944, 35.131700384271873 ], [ 126.848677506917113, 35.132054284432819 ], [ 126.84908681254646, 35.132173540983665 ], [ 126.850529894856876, 35.131996566213601 ], [ 126.851243338689159, 35.131909066434552 ], [ 126.851736490892478, 35.13191045378386 ], [ 126.852324250703006, 35.131912107619932 ], [ 126.855109445416218, 35.13203575737014 ], [ 126.856357692168203, 35.132180314390062 ], [ 126.857009013219425, 35.132254921728887 ], [ 126.860746488540272, 35.132680428561869 ], [ 126.861301747036009, 35.13268562304463 ], [ 126.862492619301605, 35.13267598183576 ], [ 126.865340982214008, 35.132624156908257 ] ] ] ] } },
{ "type": "Feature", "properties": { "OBJECTID": 943, "adm_nm": "광주광역시 서구 동천동", "adm_cd": "2402070", "adm_cd2": "2914084000", "sgg": "29140", "sido": "29", "sidonm": "광주광역시", "sggnm": "서구" }, "geometry": { "type": "MultiPolygon", "coordinates": [ [ [ [ 126.870268880912647, 35.171687274306571 ], [ 126.875742517096441, 35.171366227329386 ], [ 126.87568839776263, 35.169938197529298 ], [ 126.871661573261292, 35.167691136720165 ], [ 126.871064573452102, 35.167519939974767 ], [ 126.870547985630452, 35.167400360328848 ], [ 126.869947717045562, 35.167341755415492 ], [ 126.869915966669666, 35.167338656140757 ], [ 126.868939876615187, 35.16736047205405 ], [ 126.867712577641583, 35.167519298147894 ], [ 126.866940169736182, 35.167665100539821 ], [ 126.865533739665793, 35.168013710332929 ], [ 126.864404297701483, 35.16829366279012 ], [ 126.86378504003784, 35.168317521634023 ], [ 126.86361137983998, 35.168315397556647 ], [ 126.863394984560941, 35.16831274838836 ], [ 126.862477807041529, 35.168270792910981 ], [ 126.86158397848105, 35.168166436877343 ], [ 126.861359067882304, 35.168118150141154 ], [ 126.86096950654192, 35.168034503595685 ], [ 126.860030684649885, 35.16783290288523 ], [ 126.859944519441456, 35.167814399216283 ], [ 126.857998309390894, 35.167362447742107 ], [ 126.853604656982526, 35.167884172957407 ], [ 126.851409541210458, 35.168388233589539 ], [ 126.851095187594311, 35.168460415484297 ], [ 126.852306788095476, 35.172123768042681 ], [ 126.847169724133224, 35.173313682471978 ], [ 126.842171209232063, 35.17447127260251 ], [ 126.841757936469591, 35.174566971700663 ], [ 126.842789159715906, 35.17620050480847 ], [ 126.845177957601365, 35.175659717099165 ], [ 126.848374389726601, 35.17491983078542 ], [ 126.849763976239174, 35.174597650942331 ], [ 126.851153538859222, 35.174275453147168 ], [ 126.851820183911627, 35.174120877015667 ], [ 126.852543101659009, 35.173953248350024 ], [ 126.852897599461286, 35.173872034024861 ], [ 126.852944700022846, 35.173861243437045 ], [ 126.85418361463563, 35.173577410830958 ], [ 126.858042482455375, 35.172693263110475 ], [ 126.858335440494187, 35.172628289784804 ], [ 126.858734040280126, 35.172539892565041 ], [ 126.859663565557952, 35.172333751841833 ], [ 126.859983778449319, 35.172262736534684 ], [ 126.860402934004398, 35.172220651797304 ], [ 126.870268880912647, 35.171687274306571 ] ] ] ] } }
]
}
