{
"type": "FeatureCollection",
"name": "bukgu",
"crs": { "type": "name", "properties": { "name": "urn:ogc:def:crs:OGC:1.3:CRS84" } },
"features": [
{ "type": "Feature", "properties": { "OBJECTID": 518, "adm_nm": "부산광역시 북구 구포1동", "adm_cd": "2108051", "adm_cd2": "2632051000", "sgg": "26320", "sido": "26", "sidonm": "부산광역시", "sggnm": "북구" }, "geometry": { "type": "MultiPolygon", "coordinates": [ [ [ [ 129.01390349163475, 35.205351049314537 ], [ 129.014820015624537, 35.204281339112008 ], [ 129.017017578507307, 35.202184425693332 ], [ 129.017562007906633, 35.201718125319076 ], [ 129.018245325774075, 35.200860141177863 ], [ 129.01832173116037, 35.200011565824916 ], [ 129.017080407865933, 35.200415582962016 ], [ 129.013838209839122, 35.200951561540755 ], [ 129.013066808990459, 35.200839725915685 ], [ 129.011660213419987, 35.201271110167106 ], [ 129.011067509634728, 35.201508938841542 ], [ 129.010710195556925, 35.201760516301277 ], [ 129.009919030447378, 35.202639432018003 ], [ 129.009037105397312, 35.203775009577626 ], [ 129.008994771231556, 35.203832114977622 ], [ 129.008713829137434, 35.2042109631711 ], [ 129.008643172673516, 35.204266893188205 ], [ 129.008132425505778, 35.204166707667568 ], [ 129.006368362892516, 35.203761126473303 ], [ 129.005849542052886, 35.203252264928899 ], [ 129.005654715180185, 35.203018259342016 ], [ 129.005372565875149, 35.202702457996402 ], [ 129.005287836045568, 35.202655069019507 ], [ 129.004577494549949, 35.202443703875488 ], [ 129.004138606245476, 35.20231430035642 ], [ 129.003598367761924, 35.202174013863505 ], [ 129.003338436694406, 35.202065069118618 ], [ 129.003187753141589, 35.202157669999799 ], [ 129.001818714463354, 35.203424073088371 ], [ 129.001484977836299, 35.203883991495168 ], [ 129.001317526328108, 35.204146672025239 ], [ 129.001266260688624, 35.204457177282762 ], [ 129.001249828419191, 35.204556114458448 ], [ 129.001130077750162, 35.205237440532997 ], [ 129.001094501637795, 35.20543770886335 ], [ 129.000926199173165, 35.206224800354569 ], [ 128.998917686112406, 35.206207527811991 ], [ 128.996332007580435, 35.206109954409136 ], [ 128.995694854181039, 35.205592692948549 ], [ 128.994341171482517, 35.206711744525244 ], [ 128.995052033291728, 35.207302846170322 ], [ 128.995813516780913, 35.207936038012726 ], [ 128.995930532781898, 35.209662907388861 ], [ 128.996160663228181, 35.213058897548734 ], [ 129.001089358113461, 35.210614696236767 ], [ 129.002452913471558, 35.210148260594579 ], [ 129.003538837802438, 35.209855610014138 ], [ 129.004096099116509, 35.209806271967864 ], [ 129.0048594323803, 35.209980234220914 ], [ 129.007331745707432, 35.209376237704255 ], [ 129.009005187217412, 35.207834104733713 ], [ 129.009952247692695, 35.206946799523294 ], [ 129.010411240675381, 35.20650521308599 ], [ 129.010554668746749, 35.206367222135789 ], [ 129.010543791485105, 35.206327852128162 ], [ 129.010469281852522, 35.206058231062883 ], [ 129.010406825716842, 35.20583221636435 ], [ 129.011386523556524, 35.205080451740855 ], [ 129.012098881148859, 35.204865414331749 ], [ 129.012289720880545, 35.20486539810274 ], [ 129.01390349163475, 35.205351049314537 ] ] ] ] } },
{ "type": "Feature", "properties": { "OBJECTID": 519, "adm_nm": "부산광역시 북구 구포2동", "adm_cd": "2108052", "adm_cd2": "2632052000", "sgg": "26320", "sido": "26", "sidonm": "부산광역시", "sggnm": "북구" }, "geometry": { "type": "MultiPolygon", "coordinates": [ [ [ [ 129.003598367761924, 35.202174013863505 ], [ 129.003916705773094, 35.201981961537726 ], [ 129.003973604445463, 35.201947595832458 ], [ 129.004051154987309, 35.20187600035014 ], [ 129.004131261598701, 35.201792915414714 ], [ 129.004500247199076, 35.201323179587888 ], [ 129.004576609688144, 35.201217663779602 ], [ 129.004632510020286, 35.201140417030835 ], [ 129.004905320162038, 35.20062835728465 ], [ 129.005178776732635, 35.19917438773421 ], [ 129.00504959271521, 35.198858455085329 ], [ 129.002580128812099, 35.194403085680023 ], [ 129.00171348937323, 35.192806147374441 ], [ 129.000607139349484, 35.191662898354998 ], [ 128.998207318399892, 35.19230153181104 ], [ 128.995478227030617, 35.193857242802572 ], [ 128.99495594137619, 35.194792606615522 ], [ 128.994241596503372, 35.195125323250608 ], [ 128.993971056448515, 35.195239635753808 ], [ 128.993919350259631, 35.195261479659663 ], [ 128.991588803163012, 35.194104879066685 ], [ 128.991419735402474, 35.194013636831016 ], [ 128.991115626956258, 35.193822401683143 ], [ 128.987946053341005, 35.1959047485512 ], [ 128.988036817754704, 35.196411273077871 ], [ 128.988185047174653, 35.1972385175836 ], [ 128.989865829154667, 35.19890837213844 ], [ 128.99178006158067, 35.200961716437568 ], [ 128.989281729824683, 35.20250427236374 ], [ 128.992874610938884, 35.205492219772502 ], [ 128.993514803899018, 35.206024583335406 ], [ 128.994204703344792, 35.206598269124193 ], [ 128.994341171482517, 35.206711744525244 ], [ 128.995694854181039, 35.205592692948549 ], [ 128.996332007580435, 35.206109954409136 ], [ 128.998917686112406, 35.206207527811991 ], [ 129.000926199173165, 35.206224800354569 ], [ 129.001094501637795, 35.20543770886335 ], [ 129.001130077750162, 35.205237440532997 ], [ 129.001249828419191, 35.204556114458448 ], [ 129.001266260688624, 35.204457177282762 ], [ 129.001317526328108, 35.204146672025239 ], [ 129.001484977836299, 35.203883991495168 ], [ 129.001818714463354, 35.203424073088371 ], [ 129.003187753141589, 35.202157669999799 ], [ 129.003338436694406, 35.202065069118618 ], [ 129.003598367761924, 35.202174013863505 ] ] ] ] } },
{ "type": "Feature", "properties": { "OBJECTID": 520, "adm_nm": "부산광역시 북구 구포3동", "adm_cd": "2108053", "adm_cd2": "2632052100", "sgg": "26320", "sido": "26", "sidonm": "부산광역시", "sggnm": "북구" }, "geometry": { "type": "MultiPolygon", "coordinates": [ [ [ [ 129.01832173116037, 35.200011565824916 ], [ 129.021784643246889, 35.199397102116833 ], [ 129.023222143076168, 35.1978892987905 ], [ 129.024487623039619, 35.196319072668018 ], [ 129.025141051795572, 35.194911262552772 ], [ 129.025499741113066, 35.193408328667076 ], [ 129.025335797055817, 35.192601550613674 ], [ 129.024642199152623, 35.191368313323402 ], [ 129.023031023390757, 35.189346515551641 ], [ 129.022061312375115, 35.188346317622219 ], [ 129.021143823795342, 35.187751167562432 ], [ 129.020684843926887, 35.187603669162975 ], [ 129.020524416741551, 35.187588286399958 ], [ 129.019378939828272, 35.18777817432737 ], [ 129.017927394877091, 35.188265102823486 ], [ 129.017084053924179, 35.18859615901286 ], [ 129.016822753769731, 35.188899762202603 ], [ 129.015990565371169, 35.189307475638117 ], [ 129.011584401642921, 35.188922719058262 ], [ 129.009114535608063, 35.188814527044947 ], [ 129.008260028644798, 35.189007483327188 ], [ 129.00786428481436, 35.189504261340126 ], [ 129.007207121991058, 35.190451863483979 ], [ 129.007351974418128, 35.191681926461698 ], [ 129.007586788521138, 35.192238659252794 ], [ 129.007696306699444, 35.192498314295918 ], [ 129.007285095676053, 35.192519489087722 ], [ 129.005508555116677, 35.192610928560192 ], [ 129.00332303302207, 35.192723368367524 ], [ 129.00171348937323, 35.192806147374441 ], [ 129.002580128812099, 35.194403085680023 ], [ 129.00504959271521, 35.198858455085329 ], [ 129.005178776732635, 35.19917438773421 ], [ 129.004905320162038, 35.20062835728465 ], [ 129.004632510020286, 35.201140417030835 ], [ 129.004576609688144, 35.201217663779602 ], [ 129.004500247199076, 35.201323179587888 ], [ 129.004131261598701, 35.201792915414714 ], [ 129.004051154987309, 35.20187600035014 ], [ 129.003973604445463, 35.201947595832458 ], [ 129.003916705773094, 35.201981961537726 ], [ 129.003598367761924, 35.202174013863505 ], [ 129.004138606245476, 35.20231430035642 ], [ 129.004577494549949, 35.202443703875488 ], [ 129.005287836045568, 35.202655069019507 ], [ 129.005372565875149, 35.202702457996402 ], [ 129.005654715180185, 35.203018259342016 ], [ 129.005849542052886, 35.203252264928899 ], [ 129.006368362892516, 35.203761126473303 ], [ 129.008132425505778, 35.204166707667568 ], [ 129.008643172673516, 35.204266893188205 ], [ 129.008713829137434, 35.2042109631711 ], [ 129.008994771231556, 35.203832114977622 ], [ 129.009037105397312, 35.203775009577626 ], [ 129.009919030447378, 35.202639432018003 ], [ 129.010710195556925, 35.201760516301277 ], [ 129.011067509634728, 35.201508938841542 ], [ 129.011660213419987, 35.201271110167106 ], [ 129.013066808990459, 35.200839725915685 ], [ 129.013838209839122, 35.200951561540755 ], [ 129.017080407865933, 35.200415582962016 ], [ 129.01832173116037, 35.200011565824916 ] ] ] ] } },
{ "type": "Feature", "properties": { "OBJECTID": 521, "adm_nm": "부산광역시 북구 금곡동", "adm_cd": "2108054", "adm_cd2": "2632053000", "sgg": "26320", "sido": "26", "sidonm": "부산광역시", "sggnm": "북구" }, "geometry": { "type": "MultiPolygon", "coordinates": [ [ [ [ 129.050567891238302, 35.280055989565639 ], [ 129.046879664525818, 35.273768146964635 ], [ 129.046237296463033, 35.272876225143655 ], [ 129.04455645735257, 35.270802760146402 ], [ 129.043499430568914, 35.269924938909028 ], [ 129.043181769837702, 35.269526374281952 ], [ 129.04258112181509, 35.268639110464008 ], [ 129.042402159727146, 35.26791794329926 ], [ 129.042403980596447, 35.266797349915898 ], [ 129.0423447611889, 35.265427092335599 ], [ 129.042131254281259, 35.264008468029921 ], [ 129.041888701635827, 35.26367633599336 ], [ 129.041599936112902, 35.263329962914639 ], [ 129.040005786592644, 35.262803144233352 ], [ 129.039122030928667, 35.262836251536299 ], [ 129.037753216746296, 35.262119655566387 ], [ 129.037002510432728, 35.261189636300593 ], [ 129.036096928146236, 35.259718460588694 ], [ 129.036041710968703, 35.259497143561354 ], [ 129.035983486945611, 35.259263785083405 ], [ 129.035385818908793, 35.258763096756603 ], [ 129.034890816240164, 35.258348445035907 ], [ 129.029874325449441, 35.255556284920367 ], [ 129.029304077148367, 35.255533339721282 ], [ 129.028079289819601, 35.255735781821976 ], [ 129.027234923398794, 35.255572373000099 ], [ 129.021837356803985, 35.251218786160941 ], [ 129.021563601475606, 35.250004714287307 ], [ 129.01977294159866, 35.247639748193613 ], [ 129.0171064688858, 35.245290453053485 ], [ 129.016648535215438, 35.24529031180127 ], [ 129.015996085144337, 35.245290114043513 ], [ 129.014735416631936, 35.245289729478245 ], [ 129.013052464347481, 35.244518603493489 ], [ 129.013956317726581, 35.241543529557347 ], [ 129.014099936313954, 35.240810068025723 ], [ 129.014226294083983, 35.240164719473178 ], [ 129.014202905670828, 35.239869381266338 ], [ 129.013178563499764, 35.239924283490105 ], [ 129.01318668585472, 35.24009836339323 ], [ 129.012667000864923, 35.240290118598722 ], [ 129.00596262756136, 35.242379775255223 ], [ 129.002560371829361, 35.243240353273116 ], [ 129.001954435529342, 35.243057621457872 ], [ 129.001462761569258, 35.242122065958931 ], [ 129.005511670908533, 35.250414075060043 ], [ 129.007490301957858, 35.254245637783058 ], [ 129.009935014805365, 35.258998090546051 ], [ 129.010246238681816, 35.259741900053719 ], [ 129.010979486649319, 35.261622249555032 ], [ 129.011117158748618, 35.262001519825674 ], [ 129.011455376254077, 35.263129492632373 ], [ 129.011654440006026, 35.263885580380702 ], [ 129.011741253253064, 35.26426361081797 ], [ 129.01244482977387, 35.267357901720594 ], [ 129.012522684999965, 35.267739608225128 ], [ 129.012739778840455, 35.268892142422345 ], [ 129.012805661924574, 35.269259128276076 ], [ 129.012868546718266, 35.269627361509954 ], [ 129.012904505720172, 35.269998036685116 ], [ 129.012940456380306, 35.270378528530216 ], [ 129.012964456010593, 35.270761496845168 ], [ 129.012966005062168, 35.271144443004985 ], [ 129.01294960595132, 35.271527407170062 ], [ 129.012883875932744, 35.272185319350996 ], [ 129.012610901970959, 35.273277985278391 ], [ 129.012625177463974, 35.273304750108998 ], [ 129.012813725598079, 35.273450788779627 ], [ 129.014892094845351, 35.274518433393069 ], [ 129.016283689875337, 35.275125840336443 ], [ 129.016669732673705, 35.275276762910877 ], [ 129.016777463940031, 35.275312358545001 ], [ 129.017056498727015, 35.275389754892856 ], [ 129.017215101078023, 35.275432705634316 ], [ 129.018084414292986, 35.275465725690559 ], [ 129.01827292676532, 35.275452206787882 ], [ 129.018696383498963, 35.275495093585725 ], [ 129.019962240693957, 35.275753891312846 ], [ 129.020375235369926, 35.275843426042968 ], [ 129.021133888530443, 35.276115794080582 ], [ 129.021507976753895, 35.27625075875833 ], [ 129.026177609389265, 35.278070258395189 ], [ 129.03009425108138, 35.278520717067515 ], [ 129.03392483051303, 35.276949780034585 ], [ 129.034064979086452, 35.276905701561653 ], [ 129.034231991448053, 35.276859167933161 ], [ 129.03787184977125, 35.276100922416695 ], [ 129.039234042185427, 35.275885224436081 ], [ 129.041548835515897, 35.278478538714772 ], [ 129.042113750271653, 35.279093933210376 ], [ 129.04222570292842, 35.279169014908497 ], [ 129.043950609838049, 35.280247245770397 ], [ 129.04410578115133, 35.280313963455178 ], [ 129.044301631892381, 35.280326420306878 ], [ 129.04858845754319, 35.280388967165045 ], [ 129.04868758066786, 35.280376664271436 ], [ 129.049908609317299, 35.2799925641852 ], [ 129.050567891238302, 35.280055989565639 ] ] ] ] } },
{ "type": "Feature", "properties": { "OBJECTID": 522, "adm_nm": "부산광역시 북구 화명1동", "adm_cd": "2108055", "adm_cd2": "2632054100", "sgg": "26320", "sido": "26", "sidonm": "부산광역시", "sggnm": "북구" }, "geometry": { "type": "MultiPolygon", "coordinates": [ [ [ [ 129.048814772250836, 35.238478559023058 ], [ 129.04915549963502, 35.238029715279232 ], [ 129.046970626030486, 35.2347711582009 ], [ 129.046537909022419, 35.234438871838847 ], [ 129.045743450655294, 35.233342951874818 ], [ 129.046091252022819, 35.23131448893426 ], [ 129.04653107718616, 35.230999704494003 ], [ 129.04912036421635, 35.230865738425344 ], [ 129.048808351946207, 35.228405828334779 ], [ 129.047453610441409, 35.225922579724411 ], [ 129.046425132508887, 35.224931594101392 ], [ 129.045382470188429, 35.224226214332205 ], [ 129.044736685925102, 35.227193175818229 ], [ 129.044069755555029, 35.228487200983579 ], [ 129.040934388311484, 35.228236286943208 ], [ 129.03886310765202, 35.227781405445945 ], [ 129.034316160310027, 35.227547643908004 ], [ 129.033422326738219, 35.227710729014326 ], [ 129.026010009409191, 35.226257871283529 ], [ 129.024691282030915, 35.224357297332851 ], [ 129.024017602767486, 35.223820870462298 ], [ 129.022157245078489, 35.223913370788011 ], [ 129.021479874724378, 35.22388615018658 ], [ 129.021047035834272, 35.224032929630027 ], [ 129.020854166845197, 35.224048356283177 ], [ 129.020381423188127, 35.224005693064825 ], [ 129.019664111003863, 35.223835409789089 ], [ 129.019513623910768, 35.223742583936279 ], [ 129.015494366794599, 35.220828853918896 ], [ 129.01214155972167, 35.218858109421717 ], [ 129.010965488601954, 35.217885788834977 ], [ 129.010700705059321, 35.217823102659224 ], [ 129.010589341785163, 35.217796738401738 ], [ 129.009107785850517, 35.217445988151212 ], [ 129.008405702107609, 35.220256197166783 ], [ 129.00820749017285, 35.221102963332768 ], [ 129.008572724280157, 35.221881530958576 ], [ 129.00863328581832, 35.222011953399523 ], [ 129.008717547281549, 35.222193437634708 ], [ 129.009064145418478, 35.223460203562546 ], [ 129.009070012356943, 35.223572749025777 ], [ 129.008337128017416, 35.223956191587988 ], [ 129.007622746184097, 35.22432994686654 ], [ 129.007498600101144, 35.224401906815046 ], [ 129.007776781065445, 35.224684192780629 ], [ 129.008514056161374, 35.225432325107647 ], [ 129.009275601288749, 35.22620506497487 ], [ 129.01010677881311, 35.22701864820062 ], [ 129.012235540953867, 35.228218756317354 ], [ 129.012389338517664, 35.228428116389765 ], [ 129.01243211776665, 35.228516946082948 ], [ 129.012513064394625, 35.228685050151689 ], [ 129.012541967231527, 35.228790699537115 ], [ 129.012677474495888, 35.229289765786433 ], [ 129.012696269220044, 35.229358985929302 ], [ 129.013258758830233, 35.231743468593955 ], [ 129.013268621406098, 35.231785671949233 ], [ 129.013401765883742, 35.232355638925512 ], [ 129.013479893637907, 35.23269008538653 ], [ 129.013821012889906, 35.234150382182541 ], [ 129.013873221177903, 35.234453167215591 ], [ 129.014122840979383, 35.234599869954884 ], [ 129.014707849515133, 35.234946109867373 ], [ 129.016199528539602, 35.23594812859271 ], [ 129.016576960896032, 35.236285883578759 ], [ 129.016834358112931, 35.2365260540778 ], [ 129.017168919922369, 35.236847730652912 ], [ 129.017676224709646, 35.237335484268137 ], [ 129.023191571254102, 35.235186719527249 ], [ 129.024323209287303, 35.234346450045805 ], [ 129.025879379523815, 35.233810566827422 ], [ 129.026349029385671, 35.23456220475866 ], [ 129.027688434057239, 35.236723502948927 ], [ 129.027640348908221, 35.236770966179208 ], [ 129.023226554437485, 35.23866805926798 ], [ 129.023142292115608, 35.238674643122728 ], [ 129.023023154166395, 35.238503052356577 ], [ 129.022839949405693, 35.238264135522606 ], [ 129.022696924079639, 35.238321684056942 ], [ 129.022912673353062, 35.23864099033451 ], [ 129.02299266928685, 35.238720374818385 ], [ 129.023100770097471, 35.238767985600418 ], [ 129.023193139039876, 35.238799049773014 ], [ 129.023357524391486, 35.238818032844648 ], [ 129.023533390687817, 35.238825688584562 ], [ 129.033428862432288, 35.239150392871281 ], [ 129.0374092558163, 35.239456495636361 ], [ 129.039258123207787, 35.239416997894203 ], [ 129.048814772250836, 35.238478559023058 ] ] ] ] } },
{ "type": "Feature", "properties": { "OBJECTID": 523, "adm_nm": "부산광역시 북구 덕천1동", "adm_cd": "2108056", "adm_cd2": "2632055000", "sgg": "26320", "sido": "26", "sidonm": "부산광역시", "sggnm": "북구" }, "geometry": { "type": "MultiPolygon", "coordinates": [ [ [ [ 129.022157245078489, 35.223913370788011 ], [ 129.023512602438103, 35.222309430590144 ], [ 129.023649378931907, 35.221283112210031 ], [ 129.023597903705706, 35.220498362478239 ], [ 129.023494472693841, 35.219571584192011 ], [ 129.023384556245276, 35.218586695958642 ], [ 129.023081926710915, 35.216441155013662 ], [ 129.02335742209479, 35.213994286006731 ], [ 129.024023392421242, 35.213504387482459 ], [ 129.024048087789964, 35.21348622388156 ], [ 129.025044235942318, 35.213360006926045 ], [ 129.02351005867601, 35.21213984680282 ], [ 129.02316488323126, 35.212136568526667 ], [ 129.022842488791014, 35.212129391743211 ], [ 129.020200290772891, 35.212048960223797 ], [ 129.019333203898782, 35.212017931820064 ], [ 129.017646970852951, 35.21195707112593 ], [ 129.017280980606671, 35.211866623629334 ], [ 129.012478594897118, 35.210665122950459 ], [ 129.012074184129887, 35.210561778669373 ], [ 129.010936478955614, 35.210270810607199 ], [ 129.01056409702457, 35.211285391136698 ], [ 129.010481034502902, 35.211521435948214 ], [ 129.009609655074058, 35.214125887737083 ], [ 129.009498971833295, 35.214788272743114 ], [ 129.010744748700631, 35.215271645347322 ], [ 129.011935869041537, 35.215821842055441 ], [ 129.011739839741836, 35.216332637552341 ], [ 129.011652903641334, 35.21655916083931 ], [ 129.011547886580757, 35.216832784344994 ], [ 129.011142142651948, 35.21765857875382 ], [ 129.010965488601954, 35.217885788834977 ], [ 129.01214155972167, 35.218858109421717 ], [ 129.015494366794599, 35.220828853918896 ], [ 129.019513623910768, 35.223742583936279 ], [ 129.019664111003863, 35.223835409789089 ], [ 129.020381423188127, 35.224005693064825 ], [ 129.020854166845197, 35.224048356283177 ], [ 129.021047035834272, 35.224032929630027 ], [ 129.021479874724378, 35.22388615018658 ], [ 129.022157245078489, 35.223913370788011 ] ] ] ] } },
{ "type": "Feature", "properties": { "OBJECTID": 524, "adm_nm": "부산광역시 북구 덕천2동", "adm_cd": "2108057", "adm_cd2": "2632056000", "sgg": "26320", "sido": "26", "sidonm": "부산광역시", "sggnm": "북구" }, "geometry": { "type": "MultiPolygon", "coordinates": [ [ [ [ 129.00820749017285, 35.221102963332768 ], [ 129.008405702107609, 35.220256197166783 ], [ 129.009107785850517, 35.217445988151212 ], [ 129.010589341785163, 35.217796738401738 ], [ 129.010700705059321, 35.217823102659224 ], [ 129.010965488601954, 35.217885788834977 ], [ 129.011142142651948, 35.21765857875382 ], [ 129.011547886580757, 35.216832784344994 ], [ 129.011652903641334, 35.21655916083931 ], [ 129.011739839741836, 35.216332637552341 ], [ 129.011935869041537, 35.215821842055441 ], [ 129.010744748700631, 35.215271645347322 ], [ 129.009498971833295, 35.214788272743114 ], [ 129.009609655074058, 35.214125887737083 ], [ 129.010481034502902, 35.211521435948214 ], [ 129.01056409702457, 35.211285391136698 ], [ 129.010936478955614, 35.210270810607199 ], [ 129.011315089998135, 35.209239240581461 ], [ 129.011501081828328, 35.208732502636202 ], [ 129.011531214770116, 35.208652677678337 ], [ 129.011818900212802, 35.208716041197064 ], [ 129.012366162688124, 35.208847017687454 ], [ 129.012566918066597, 35.208899514632051 ], [ 129.012740628191438, 35.208944937104818 ], [ 129.013968163989887, 35.209265891123408 ], [ 129.014659590392114, 35.207819015993202 ], [ 129.014302532889616, 35.205623154723021 ], [ 129.01390349163475, 35.205351049314537 ], [ 129.012289720880545, 35.20486539810274 ], [ 129.012098881148859, 35.204865414331749 ], [ 129.011386523556524, 35.205080451740855 ], [ 129.010406825716842, 35.20583221636435 ], [ 129.010469281852522, 35.206058231062883 ], [ 129.010543791485105, 35.206327852128162 ], [ 129.010554668746749, 35.206367222135789 ], [ 129.010411240675381, 35.20650521308599 ], [ 129.009952247692695, 35.206946799523294 ], [ 129.009005187217412, 35.207834104733713 ], [ 129.007331745707432, 35.209376237704255 ], [ 129.0048594323803, 35.209980234220914 ], [ 129.004096099116509, 35.209806271967864 ], [ 129.003538837802438, 35.209855610014138 ], [ 129.002452913471558, 35.210148260594579 ], [ 129.001089358113461, 35.210614696236767 ], [ 128.996160663228181, 35.213058897548734 ], [ 128.996877482406887, 35.22363387573759 ], [ 129.003593596471518, 35.222555927189966 ], [ 129.004630299958222, 35.222461673839454 ], [ 129.004681038327476, 35.222731638481974 ], [ 129.004851229195452, 35.22409505154792 ], [ 129.004317956884762, 35.225126000635605 ], [ 129.00419932691122, 35.225354819465572 ], [ 129.003974379369282, 35.225554811501055 ], [ 129.003640517126058, 35.226200564979713 ], [ 129.004011263037341, 35.226214039987106 ], [ 129.004615784156329, 35.226040395349315 ], [ 129.00536390579947, 35.225730860486713 ], [ 129.005844160000152, 35.22529821391619 ], [ 129.006061915604704, 35.224970536934556 ], [ 129.005917071519889, 35.224629463173024 ], [ 129.005501503021549, 35.221742557573222 ], [ 129.005435947362457, 35.221118112767769 ], [ 129.005405668693356, 35.220501455351076 ], [ 129.006114560756316, 35.220376941315685 ], [ 129.007160429088145, 35.220319452619087 ], [ 129.00820749017285, 35.221102963332768 ] ] ] ] } },
{ "type": "Feature", "properties": { "OBJECTID": 525, "adm_nm": "부산광역시 북구 덕천3동", "adm_cd": "2108058", "adm_cd2": "2632056100", "sgg": "26320", "sido": "26", "sidonm": "부산광역시", "sggnm": "북구" }, "geometry": { "type": "MultiPolygon", "coordinates": [ [ [ [ 129.021784643246889, 35.199397102116833 ], [ 129.01832173116037, 35.200011565824916 ], [ 129.018245325774075, 35.200860141177863 ], [ 129.017562007906633, 35.201718125319076 ], [ 129.017017578507307, 35.202184425693332 ], [ 129.014820015624537, 35.204281339112008 ], [ 129.01390349163475, 35.205351049314537 ], [ 129.014302532889616, 35.205623154723021 ], [ 129.014659590392114, 35.207819015993202 ], [ 129.013968163989887, 35.209265891123408 ], [ 129.012740628191438, 35.208944937104818 ], [ 129.012566918066597, 35.208899514632051 ], [ 129.012366162688124, 35.208847017687454 ], [ 129.011818900212802, 35.208716041197064 ], [ 129.011531214770116, 35.208652677678337 ], [ 129.011501081828328, 35.208732502636202 ], [ 129.011315089998135, 35.209239240581461 ], [ 129.010936478955614, 35.210270810607199 ], [ 129.012074184129887, 35.210561778669373 ], [ 129.012478594897118, 35.210665122950459 ], [ 129.017280980606671, 35.211866623629334 ], [ 129.017646970852951, 35.21195707112593 ], [ 129.019333203898782, 35.212017931820064 ], [ 129.020200290772891, 35.212048960223797 ], [ 129.022842488791014, 35.212129391743211 ], [ 129.02316488323126, 35.212136568526667 ], [ 129.02351005867601, 35.21213984680282 ], [ 129.022940711363589, 35.211293676433648 ], [ 129.022876978442639, 35.211084854175525 ], [ 129.022856406248508, 35.211016309698195 ], [ 129.022762813950465, 35.210513037221389 ], [ 129.022618829556393, 35.209387149389471 ], [ 129.022620419162763, 35.209211072917853 ], [ 129.022620824375565, 35.209166413110381 ], [ 129.022760987859556, 35.208908785239508 ], [ 129.022786753577037, 35.208865286845906 ], [ 129.022817498917362, 35.2088134932456 ], [ 129.022950952492948, 35.208769434395037 ], [ 129.02317095970929, 35.20863487324737 ], [ 129.023546948593889, 35.207368344959129 ], [ 129.023888411599614, 35.206203338049775 ], [ 129.023998213819965, 35.205385468926892 ], [ 129.023985773617625, 35.205143706689562 ], [ 129.023942303595618, 35.204937925049101 ], [ 129.023832607370679, 35.20470386417464 ], [ 129.02369500281111, 35.204474922143547 ], [ 129.023426018423066, 35.20415849873914 ], [ 129.023028804545419, 35.203695462146406 ], [ 129.02259088631692, 35.203273558874564 ], [ 129.02203726114837, 35.202712741217738 ], [ 129.021733921835875, 35.202265140035969 ], [ 129.021662320105918, 35.202005353143221 ], [ 129.02150926249729, 35.201280015749212 ], [ 129.02149702955677, 35.200518704948905 ], [ 129.021784643246889, 35.199397102116833 ] ] ] ] } },
{ "type": "Feature", "properties": { "OBJECTID": 526, "adm_nm": "부산광역시 북구 만덕1동", "adm_cd": "2108059", "adm_cd2": "2632057100", "sgg": "26320", "sido": "26", "sidonm": "부산광역시", "sggnm": "북구" }, "geometry": { "type": "MultiPolygon", "coordinates": [ [ [ [ 129.059710764773229, 35.230023432315313 ], [ 129.060004388951995, 35.229682215057117 ], [ 129.060326418747792, 35.229243712776707 ], [ 129.06057262199613, 35.228470491248522 ], [ 129.060559982877095, 35.228342054899819 ], [ 129.060398931720641, 35.228143600943554 ], [ 129.060299446324819, 35.227890624136542 ], [ 129.059974128066187, 35.226789233938575 ], [ 129.060000958979344, 35.22664132721993 ], [ 129.060146157228729, 35.22630921475934 ], [ 129.060199537936057, 35.226222523215064 ], [ 129.05925702388717, 35.224037427131506 ], [ 129.058698291523172, 35.223727649319542 ], [ 129.058074695268743, 35.223223032713598 ], [ 129.057793662398552, 35.222726187386108 ], [ 129.056885839984261, 35.220801007332071 ], [ 129.056274822747667, 35.21908209225564 ], [ 129.054787758064833, 35.217195850678145 ], [ 129.053337077842343, 35.21565338223121 ], [ 129.051831182554196, 35.213965587188277 ], [ 129.051643351975173, 35.213743742694867 ], [ 129.051340294646451, 35.213239095513515 ], [ 129.051341868735392, 35.212984823934235 ], [ 129.05136555632663, 35.212228498327995 ], [ 129.051408174678073, 35.211671952882071 ], [ 129.051450878775569, 35.211363915459664 ], [ 129.050992857367731, 35.211217336864308 ], [ 129.050559148881803, 35.211220666249091 ], [ 129.048403278691779, 35.211353882432277 ], [ 129.047830146863134, 35.211432392004447 ], [ 129.045435748775674, 35.211870136024423 ], [ 129.044868394571893, 35.212210608440188 ], [ 129.04441019667567, 35.212573013626418 ], [ 129.044168484626141, 35.21264242548925 ], [ 129.043992691374939, 35.212692906331711 ], [ 129.043007693931969, 35.212946025480711 ], [ 129.042326723752041, 35.213079223447814 ], [ 129.041297174223644, 35.213052509891796 ], [ 129.041176082776616, 35.213037036672965 ], [ 129.040096214153152, 35.212899131408903 ], [ 129.039521822524677, 35.212825800637944 ], [ 129.038549038784737, 35.21274239810937 ], [ 129.038303167536412, 35.212738403929592 ], [ 129.03813559937754, 35.212735697136281 ], [ 129.038071984289758, 35.212740866528165 ], [ 129.03778523165613, 35.212764208017624 ], [ 129.03691391832146, 35.213132765059946 ], [ 129.036860239296118, 35.213169854230877 ], [ 129.031200098208927, 35.212936013554049 ], [ 129.027272014811757, 35.213037767828922 ], [ 129.025044235942318, 35.213360006926045 ], [ 129.024048087789964, 35.21348622388156 ], [ 129.024023392421242, 35.213504387482459 ], [ 129.02335742209479, 35.213994286006731 ], [ 129.023081926710915, 35.216441155013662 ], [ 129.023384556245276, 35.218586695958642 ], [ 129.023494472693841, 35.219571584192011 ], [ 129.023597903705706, 35.220498362478239 ], [ 129.023649378931907, 35.221283112210031 ], [ 129.023512602438103, 35.222309430590144 ], [ 129.022157245078489, 35.223913370788011 ], [ 129.024017602767486, 35.223820870462298 ], [ 129.024691282030915, 35.224357297332851 ], [ 129.026010009409191, 35.226257871283529 ], [ 129.033422326738219, 35.227710729014326 ], [ 129.034316160310027, 35.227547643908004 ], [ 129.03886310765202, 35.227781405445945 ], [ 129.040934388311484, 35.228236286943208 ], [ 129.044069755555029, 35.228487200983579 ], [ 129.044736685925102, 35.227193175818229 ], [ 129.045382470188429, 35.224226214332205 ], [ 129.046425132508887, 35.224931594101392 ], [ 129.047453610441409, 35.225922579724411 ], [ 129.048808351946207, 35.228405828334779 ], [ 129.04912036421635, 35.230865738425344 ], [ 129.05158955002841, 35.229648699027926 ], [ 129.052704153196174, 35.229553996487219 ], [ 129.053806129435941, 35.229512481432621 ], [ 129.056153763587503, 35.229669403044461 ], [ 129.05624849071836, 35.22967720273008 ], [ 129.056992102073991, 35.229931436508359 ], [ 129.057980436056113, 35.230155838922272 ], [ 129.058119356743617, 35.230185672134482 ], [ 129.058321447912448, 35.230193460064754 ], [ 129.059710764773229, 35.230023432315313 ] ] ] ] } },
{ "type": "Feature", "properties": { "OBJECTID": 527, "adm_nm": "부산광역시 북구 만덕2동", "adm_cd": "2108060", "adm_cd2": "2632057200", "sgg": "26320", "sido": "26", "sidonm": "부산광역시", "sggnm": "북구" }, "geometry": { "type": "MultiPolygon", "coordinates": [ [ [ [ 129.051450878775569, 35.211363915459664 ], [ 129.050976673193816, 35.208442265063105 ], [ 129.050397089635823, 35.207216282351425 ], [ 129.049999894061244, 35.206656603613979 ], [ 129.047375930540738, 35.204077127031631 ], [ 129.045104161074875, 35.201972446741273 ], [ 129.043580285459655, 35.202162259502074 ], [ 129.043511410907286, 35.201912389132232 ], [ 129.043470952355278, 35.201246102487822 ], [ 129.043531923132292, 35.199290569133915 ], [ 129.043596800778147, 35.19896408628265 ], [ 129.043868382071793, 35.198387767712511 ], [ 129.041538030210944, 35.199113852219035 ], [ 129.041067902921014, 35.199223763531968 ], [ 129.039831802245089, 35.199496817659224 ], [ 129.039552159306567, 35.199500133369256 ], [ 129.035552370333193, 35.198450295072128 ], [ 129.034770266905667, 35.198170339015313 ], [ 129.034365049385343, 35.19797040693139 ], [ 129.033809908697549, 35.197623863181548 ], [ 129.033510145400186, 35.197040814494606 ], [ 129.033109091523443, 35.196374476121669 ], [ 129.031942218260866, 35.195268256437302 ], [ 129.028947782029007, 35.194038463048926 ], [ 129.027529601051583, 35.193505174527601 ], [ 129.026946085590907, 35.193378480426233 ], [ 129.026107261038504, 35.19333832382862 ], [ 129.025499741113066, 35.193408328667076 ], [ 129.027023842156581, 35.1953528445367 ], [ 129.027226928146405, 35.196312246671667 ], [ 129.027301954343102, 35.196505143836397 ], [ 129.027699116676132, 35.197168800352308 ], [ 129.027974321405878, 35.197606092058926 ], [ 129.029681967419947, 35.2000857902663 ], [ 129.030795620368423, 35.200927021943116 ], [ 129.030948908645939, 35.201040211381503 ], [ 129.03129924228935, 35.201426063905338 ], [ 129.031289813160271, 35.201634401679655 ], [ 129.030777602040047, 35.204083862228018 ], [ 129.031156976470839, 35.207037370051921 ], [ 129.031233276248088, 35.207422916458924 ], [ 129.031457112159302, 35.20841188661236 ], [ 129.031517508793172, 35.208594749535237 ], [ 129.031629063716565, 35.20893249366177 ], [ 129.031810425391399, 35.209481571183403 ], [ 129.032456642030468, 35.209456184988376 ], [ 129.032592737795028, 35.209450826734638 ], [ 129.032899054789169, 35.210932346694612 ], [ 129.03253568060569, 35.212560349021551 ], [ 129.031200098208927, 35.212936013554049 ], [ 129.036860239296118, 35.213169854230877 ], [ 129.03691391832146, 35.213132765059946 ], [ 129.03778523165613, 35.212764208017624 ], [ 129.038071984289758, 35.212740866528165 ], [ 129.03813559937754, 35.212735697136281 ], [ 129.038303167536412, 35.212738403929592 ], [ 129.038549038784737, 35.21274239810937 ], [ 129.039521822524677, 35.212825800637944 ], [ 129.040096214153152, 35.212899131408903 ], [ 129.041176082776616, 35.213037036672965 ], [ 129.041297174223644, 35.213052509891796 ], [ 129.042326723752041, 35.213079223447814 ], [ 129.043007693931969, 35.212946025480711 ], [ 129.043992691374939, 35.212692906331711 ], [ 129.044168484626141, 35.21264242548925 ], [ 129.04441019667567, 35.212573013626418 ], [ 129.044868394571893, 35.212210608440188 ], [ 129.045435748775674, 35.211870136024423 ], [ 129.047830146863134, 35.211432392004447 ], [ 129.048403278691779, 35.211353882432277 ], [ 129.050559148881803, 35.211220666249091 ], [ 129.050992857367731, 35.211217336864308 ], [ 129.051450878775569, 35.211363915459664 ] ] ] ] } },
{ "type": "Feature", "properties": { "OBJECTID": 528, "adm_nm": "부산광역시 북구 만덕3동", "adm_cd": "2108061", "adm_cd2": "2632057300", "sgg": "26320", "sido": "26", "sidonm": "부산광역시", "sggnm": "북구" }, "geometry": { "type": "MultiPolygon", "coordinates": [ [ [ [ 129.031200098208927, 35.212936013554049 ], [ 129.03253568060569, 35.212560349021551 ], [ 129.032899054789169, 35.210932346694612 ], [ 129.032592737795028, 35.209450826734638 ], [ 129.032456642030468, 35.209456184988376 ], [ 129.031810425391399, 35.209481571183403 ], [ 129.031629063716565, 35.20893249366177 ], [ 129.031517508793172, 35.208594749535237 ], [ 129.031457112159302, 35.20841188661236 ], [ 129.031233276248088, 35.207422916458924 ], [ 129.031156976470839, 35.207037370051921 ], [ 129.030777602040047, 35.204083862228018 ], [ 129.031289813160271, 35.201634401679655 ], [ 129.03129924228935, 35.201426063905338 ], [ 129.030948908645939, 35.201040211381503 ], [ 129.030795620368423, 35.200927021943116 ], [ 129.029681967419947, 35.2000857902663 ], [ 129.027974321405878, 35.197606092058926 ], [ 129.027699116676132, 35.197168800352308 ], [ 129.027301954343102, 35.196505143836397 ], [ 129.027226928146405, 35.196312246671667 ], [ 129.027023842156581, 35.1953528445367 ], [ 129.025499741113066, 35.193408328667076 ], [ 129.025141051795572, 35.194911262552772 ], [ 129.024487623039619, 35.196319072668018 ], [ 129.023222143076168, 35.1978892987905 ], [ 129.021784643246889, 35.199397102116833 ], [ 129.02149702955677, 35.200518704948905 ], [ 129.02150926249729, 35.201280015749212 ], [ 129.021662320105918, 35.202005353143221 ], [ 129.021733921835875, 35.202265140035969 ], [ 129.02203726114837, 35.202712741217738 ], [ 129.02259088631692, 35.203273558874564 ], [ 129.023028804545419, 35.203695462146406 ], [ 129.023426018423066, 35.20415849873914 ], [ 129.02369500281111, 35.204474922143547 ], [ 129.023832607370679, 35.20470386417464 ], [ 129.023942303595618, 35.204937925049101 ], [ 129.023985773617625, 35.205143706689562 ], [ 129.023998213819965, 35.205385468926892 ], [ 129.023888411599614, 35.206203338049775 ], [ 129.023546948593889, 35.207368344959129 ], [ 129.02317095970929, 35.20863487324737 ], [ 129.022950952492948, 35.208769434395037 ], [ 129.022817498917362, 35.2088134932456 ], [ 129.022786753577037, 35.208865286845906 ], [ 129.022760987859556, 35.208908785239508 ], [ 129.022620824375565, 35.209166413110381 ], [ 129.022620419162763, 35.209211072917853 ], [ 129.022618829556393, 35.209387149389471 ], [ 129.022762813950465, 35.210513037221389 ], [ 129.022856406248508, 35.211016309698195 ], [ 129.022876978442639, 35.211084854175525 ], [ 129.022940711363589, 35.211293676433648 ], [ 129.02351005867601, 35.21213984680282 ], [ 129.025044235942318, 35.213360006926045 ], [ 129.027272014811757, 35.213037767828922 ], [ 129.031200098208927, 35.212936013554049 ] ] ] ] } },
{ "type": "Feature", "properties": { "OBJECTID": 529, "adm_nm": "부산광역시 북구 화명2동", "adm_cd": "2108062", "adm_cd2": "2632054200", "sgg": "26320", "sido": "26", "sidonm": "부산광역시", "sggnm": "북구" }, "geometry": { "type": "MultiPolygon", "coordinates": [ [ [ [ 129.048814772250836, 35.238478559023058 ], [ 129.039258123207787, 35.239416997894203 ], [ 129.0374092558163, 35.239456495636361 ], [ 129.033428862432288, 35.239150392871281 ], [ 129.023533390687817, 35.238825688584562 ], [ 129.023357524391486, 35.238818032844648 ], [ 129.023193139039876, 35.238799049773014 ], [ 129.023100770097471, 35.238767985600418 ], [ 129.02299266928685, 35.238720374818385 ], [ 129.022912673353062, 35.23864099033451 ], [ 129.022696924079639, 35.238321684056942 ], [ 129.022839949405693, 35.238264135522606 ], [ 129.023023154166395, 35.238503052356577 ], [ 129.023142292115608, 35.238674643122728 ], [ 129.023226554437485, 35.23866805926798 ], [ 129.027640348908221, 35.236770966179208 ], [ 129.027688434057239, 35.236723502948927 ], [ 129.026349029385671, 35.23456220475866 ], [ 129.025879379523815, 35.233810566827422 ], [ 129.024323209287303, 35.234346450045805 ], [ 129.023191571254102, 35.235186719527249 ], [ 129.017676224709646, 35.237335484268137 ], [ 129.017168919922369, 35.236847730652912 ], [ 129.016834358112931, 35.2365260540778 ], [ 129.016576960896032, 35.236285883578759 ], [ 129.016199528539602, 35.23594812859271 ], [ 129.014707849515133, 35.234946109867373 ], [ 129.014122840979383, 35.234599869954884 ], [ 129.013873221177903, 35.234453167215591 ], [ 129.013653938856379, 35.234628473423108 ], [ 129.013671636910743, 35.236328157752169 ], [ 129.013703890946204, 35.236902957062476 ], [ 129.013974628246643, 35.236895276736007 ], [ 129.014202905670828, 35.239869381266338 ], [ 129.014226294083983, 35.240164719473178 ], [ 129.014099936313954, 35.240810068025723 ], [ 129.013956317726581, 35.241543529557347 ], [ 129.013052464347481, 35.244518603493489 ], [ 129.014735416631936, 35.245289729478245 ], [ 129.015996085144337, 35.245290114043513 ], [ 129.016648535215438, 35.24529031180127 ], [ 129.0171064688858, 35.245290453053485 ], [ 129.01977294159866, 35.247639748193613 ], [ 129.021563601475606, 35.250004714287307 ], [ 129.021837356803985, 35.251218786160941 ], [ 129.027234923398794, 35.255572373000099 ], [ 129.028079289819601, 35.255735781821976 ], [ 129.029304077148367, 35.255533339721282 ], [ 129.029874325449441, 35.255556284920367 ], [ 129.034890816240164, 35.258348445035907 ], [ 129.035385818908793, 35.258763096756603 ], [ 129.035983486945611, 35.259263785083405 ], [ 129.036041710968703, 35.259497143561354 ], [ 129.036096928146236, 35.259718460588694 ], [ 129.03765103622203, 35.259718685933088 ], [ 129.040645851870408, 35.258897156509995 ], [ 129.046734677403379, 35.257026622284506 ], [ 129.047792044961795, 35.256461275156163 ], [ 129.048551432008594, 35.255068160526143 ], [ 129.047735422174355, 35.25464259451703 ], [ 129.047004575657382, 35.254228686995944 ], [ 129.045415296070303, 35.252135943974984 ], [ 129.045374791251675, 35.250944780090904 ], [ 129.045437041138257, 35.247659201799813 ], [ 129.045522249430206, 35.247018017539546 ], [ 129.046097036774313, 35.246271916540394 ], [ 129.047615423688114, 35.246207883153545 ], [ 129.048282384040505, 35.246027215863954 ], [ 129.048715200218766, 35.245869842464622 ], [ 129.049609236374891, 35.245129579469221 ], [ 129.051070947825991, 35.241020086744079 ], [ 129.050638203458931, 35.239883406956388 ], [ 129.049921676109648, 35.23897988548466 ], [ 129.048814772250836, 35.238478559023058 ] ] ] ] } },
{ "type": "Feature", "properties": { "OBJECTID": 530, "adm_nm": "부산광역시 북구 화명3동", "adm_cd": "2108063", "adm_cd2": "2632054300", "sgg": "26320", "sido": "26", "sidonm": "부산광역시", "sggnm": "북구" }, "geometry": { "type": "MultiPolygon", "coordinates": [ [ [ [ 129.014202905670828, 35.239869381266338 ], [ 129.013974628246643, 35.236895276736007 ], [ 129.013703890946204, 35.236902957062476 ], [ 129.013671636910743, 35.236328157752169 ], [ 129.013653938856379, 35.234628473423108 ], [ 129.013873221177903, 35.234453167215591 ], [ 129.013821012889906, 35.234150382182541 ], [ 129.013479893637907, 35.23269008538653 ], [ 129.013401765883742, 35.232355638925512 ], [ 129.013268621406098, 35.231785671949233 ], [ 129.013258758830233, 35.231743468593955 ], [ 129.012696269220044, 35.229358985929302 ], [ 129.012677474495888, 35.229289765786433 ], [ 129.012541967231527, 35.228790699537115 ], [ 129.012513064394625, 35.228685050151689 ], [ 129.01243211776665, 35.228516946082948 ], [ 129.012389338517664, 35.228428116389765 ], [ 129.012235540953867, 35.228218756317354 ], [ 129.01010677881311, 35.22701864820062 ], [ 129.009275601288749, 35.22620506497487 ], [ 129.008514056161374, 35.225432325107647 ], [ 129.007776781065445, 35.224684192780629 ], [ 129.007498600101144, 35.224401906815046 ], [ 129.007622746184097, 35.22432994686654 ], [ 129.008337128017416, 35.223956191587988 ], [ 129.009070012356943, 35.223572749025777 ], [ 129.009064145418478, 35.223460203562546 ], [ 129.008717547281549, 35.222193437634708 ], [ 129.00863328581832, 35.222011953399523 ], [ 129.008572724280157, 35.221881530958576 ], [ 129.00820749017285, 35.221102963332768 ], [ 129.007160429088145, 35.220319452619087 ], [ 129.006114560756316, 35.220376941315685 ], [ 129.005405668693356, 35.220501455351076 ], [ 129.005435947362457, 35.221118112767769 ], [ 129.005501503021549, 35.221742557573222 ], [ 129.005917071519889, 35.224629463173024 ], [ 129.006061915604704, 35.224970536934556 ], [ 129.005844160000152, 35.22529821391619 ], [ 129.00536390579947, 35.225730860486713 ], [ 129.004615784156329, 35.226040395349315 ], [ 129.004011263037341, 35.226214039987106 ], [ 129.003640517126058, 35.226200564979713 ], [ 129.003974379369282, 35.225554811501055 ], [ 129.00419932691122, 35.225354819465572 ], [ 129.004317956884762, 35.225126000635605 ], [ 129.004851229195452, 35.22409505154792 ], [ 129.004681038327476, 35.222731638481974 ], [ 129.004630299958222, 35.222461673839454 ], [ 129.003593596471518, 35.222555927189966 ], [ 128.996877482406887, 35.22363387573759 ], [ 128.997566893687122, 35.233801204535652 ], [ 128.99760664208236, 35.234387294422277 ], [ 128.997743705532969, 35.235247397559704 ], [ 128.998601955223933, 35.237003140024441 ], [ 129.001462761569258, 35.242122065958931 ], [ 129.001954435529342, 35.243057621457872 ], [ 129.002560371829361, 35.243240353273116 ], [ 129.00596262756136, 35.242379775255223 ], [ 129.012667000864923, 35.240290118598722 ], [ 129.01318668585472, 35.24009836339323 ], [ 129.013178563499764, 35.239924283490105 ], [ 129.014202905670828, 35.239869381266338 ] ] ] ] } }
]
}
