{
"type": "FeatureCollection",
"name": "donggu",
"crs": { "type": "name", "properties": { "name": "urn:ogc:def:crs:OGC:1.3:CRS84" } },
"features": [
{ "type": "Feature", "properties": { "OBJECTID": 447, "adm_nm": "부산광역시 동구 초량1동", "adm_cd": "2103051", "adm_cd2": "2617051000", "sgg": "26170", "sido": "26", "sidonm": "부산광역시", "sggnm": "동구" }, "geometry": { "type": "MultiPolygon", "coordinates": [ [ [ [ 129.039634023017385, 35.115134364127307 ], [ 129.041076432671048, 35.114205052923452 ], [ 129.040651358225574, 35.112863541250604 ], [ 129.040393597707435, 35.112255085473286 ], [ 129.040195527792406, 35.111819408206088 ], [ 129.040016075943669, 35.111424681629003 ], [ 129.038203110180007, 35.112004408792259 ], [ 129.034737022786118, 35.114415522560634 ], [ 129.033185753126133, 35.115499095736226 ], [ 129.032649785003997, 35.115987180639884 ], [ 129.036447896020292, 35.118499297607976 ], [ 129.037364194571978, 35.117694217227893 ], [ 129.037512878857996, 35.115462504597772 ], [ 129.039305813464011, 35.114801462309529 ], [ 129.039634023017385, 35.115134364127307 ] ] ] ] } },
{ "type": "Feature", "properties": { "OBJECTID": 448, "adm_nm": "부산광역시 동구 초량2동", "adm_cd": "2103052", "adm_cd2": "2617052000", "sgg": "26170", "sido": "26", "sidonm": "부산광역시", "sggnm": "동구" }, "geometry": { "type": "MultiPolygon", "coordinates": [ [ [ [ 129.039634023017385, 35.115134364127307 ], [ 129.039305813464011, 35.114801462309529 ], [ 129.037512878857996, 35.115462504597772 ], [ 129.037364194571978, 35.117694217227893 ], [ 129.036447896020292, 35.118499297607976 ], [ 129.032649785003997, 35.115987180639884 ], [ 129.028223563290993, 35.117335201052647 ], [ 129.02820816551224, 35.117394047228835 ], [ 129.028213618866744, 35.117446201938179 ], [ 129.028413129934904, 35.117831815904793 ], [ 129.029448547458969, 35.118705841317457 ], [ 129.029617187628503, 35.11877539502597 ], [ 129.02998660690568, 35.118899985672407 ], [ 129.032455749983058, 35.119232905435545 ], [ 129.036064678226808, 35.119760816092381 ], [ 129.038290489746373, 35.120635273015836 ], [ 129.039599576398217, 35.119846290751759 ], [ 129.041267873722205, 35.117928067959994 ], [ 129.041167786179074, 35.117734923702628 ], [ 129.040993474564118, 35.117398545853739 ], [ 129.039634023017385, 35.115134364127307 ] ] ] ] } },
{ "type": "Feature", "properties": { "OBJECTID": 449, "adm_nm": "부산광역시 동구 초량3동", "adm_cd": "2103053", "adm_cd2": "2617053000", "sgg": "26170", "sido": "26", "sidonm": "부산광역시", "sggnm": "동구" }, "geometry": { "type": "MultiPolygon", "coordinates": [ [ [ [ 129.050003198296707, 35.123531270896187 ], [ 129.049988559378619, 35.123486051091746 ], [ 129.04857338338374, 35.120489625679816 ], [ 129.050235528741752, 35.119258246275081 ], [ 129.052818070016428, 35.117614236868782 ], [ 129.052801159817989, 35.11589958853915 ], [ 129.047859908336022, 35.119026027188504 ], [ 129.046713782619804, 35.116624957597885 ], [ 129.050871848596302, 35.114040674702423 ], [ 129.049830242026161, 35.11297791851284 ], [ 129.045893669478488, 35.115410933035953 ], [ 129.045098425990346, 35.115681580714799 ], [ 129.042729811150906, 35.110722158835344 ], [ 129.040016075943669, 35.111424681629003 ], [ 129.040195527792406, 35.111819408206088 ], [ 129.040393597707435, 35.112255085473286 ], [ 129.040651358225574, 35.112863541250604 ], [ 129.041076432671048, 35.114205052923452 ], [ 129.039634023017385, 35.115134364127307 ], [ 129.040993474564118, 35.117398545853739 ], [ 129.041167786179074, 35.117734923702628 ], [ 129.041267873722205, 35.117928067959994 ], [ 129.039599576398217, 35.119846290751759 ], [ 129.038290489746373, 35.120635273015836 ], [ 129.037541567918737, 35.124294005594457 ], [ 129.038286624746291, 35.124685927171178 ], [ 129.038458778065376, 35.124632385683192 ], [ 129.040428859023478, 35.123758310093038 ], [ 129.040465309662068, 35.123736443298384 ], [ 129.04053492707655, 35.123686161522421 ], [ 129.041196012431925, 35.12319926138332 ], [ 129.041238024408045, 35.123154868016051 ], [ 129.041246980266322, 35.123063665787512 ], [ 129.041246959025358, 35.122999577485885 ], [ 129.041250384333864, 35.122932967711222 ], [ 129.041359807641385, 35.122768110509007 ], [ 129.041440195738858, 35.12265162450938 ], [ 129.041506974062997, 35.122567812087354 ], [ 129.041605182316118, 35.122494433600302 ], [ 129.041658600074072, 35.12245669226413 ], [ 129.041787142309857, 35.12240972641461 ], [ 129.041839902383458, 35.12239223461625 ], [ 129.041997317977177, 35.122367424410569 ], [ 129.042739901449295, 35.122354562186061 ], [ 129.042926888179693, 35.122690622374463 ], [ 129.044125263006663, 35.125021199480209 ], [ 129.044400442410648, 35.12556540143477 ], [ 129.044581271303883, 35.125977268246906 ], [ 129.047326923129788, 35.126991098792729 ], [ 129.047773282015356, 35.126913107784901 ], [ 129.051318658014509, 35.130055818851133 ], [ 129.050853951491973, 35.126903510022203 ], [ 129.050003198296707, 35.123531270896187 ] ] ] ] } },
{ "type": "Feature", "properties": { "OBJECTID": 450, "adm_nm": "부산광역시 동구 초량6동", "adm_cd": "2103055", "adm_cd2": "2617055000", "sgg": "26170", "sido": "26", "sidonm": "부산광역시", "sggnm": "동구" }, "geometry": { "type": "MultiPolygon", "coordinates": [ [ [ [ 129.035357611575733, 35.126049032407721 ], [ 129.037541567918737, 35.124294005594457 ], [ 129.038290489746373, 35.120635273015836 ], [ 129.036064678226808, 35.119760816092381 ], [ 129.032455749983058, 35.119232905435545 ], [ 129.02998660690568, 35.118899985672407 ], [ 129.029617187628503, 35.11877539502597 ], [ 129.029448547458969, 35.118705841317457 ], [ 129.028413129934904, 35.117831815904793 ], [ 129.028213618866744, 35.117446201938179 ], [ 129.02820816551224, 35.117394047228835 ], [ 129.028223563290993, 35.117335201052647 ], [ 129.027818252641794, 35.117345089085219 ], [ 129.026133128232118, 35.116777714805856 ], [ 129.025330071058619, 35.117604178457299 ], [ 129.025067011253043, 35.117914806422213 ], [ 129.024646491702754, 35.118580203462258 ], [ 129.024592857996936, 35.118706995581093 ], [ 129.0245963451828, 35.118765404482929 ], [ 129.024719416962739, 35.119264012237366 ], [ 129.024748881507463, 35.119343797125055 ], [ 129.025376441597302, 35.121960722952025 ], [ 129.025982457292002, 35.128262237984224 ], [ 129.02602801068727, 35.129123088104386 ], [ 129.025937623418173, 35.129778676957194 ], [ 129.02566114046175, 35.130769887667306 ], [ 129.02511501707022, 35.13215959431826 ], [ 129.026178428766968, 35.13132278258005 ], [ 129.031278283564262, 35.129452061528916 ], [ 129.031808877344474, 35.129301165197646 ], [ 129.032475083985872, 35.129124797574775 ], [ 129.03390507200524, 35.128748522952527 ], [ 129.035357611575733, 35.126049032407721 ] ] ] ] } },
{ "type": "Feature", "properties": { "OBJECTID": 451, "adm_nm": "부산광역시 동구 수정1동", "adm_cd": "2103056", "adm_cd2": "2617056000", "sgg": "26170", "sido": "26", "sidonm": "부산광역시", "sggnm": "동구" }, "geometry": { "type": "MultiPolygon", "coordinates": [ [ [ [ 129.044581271303883, 35.125977268246906 ], [ 129.044400442410648, 35.12556540143477 ], [ 129.044125263006663, 35.125021199480209 ], [ 129.042926888179693, 35.122690622374463 ], [ 129.042739901449295, 35.122354562186061 ], [ 129.041997317977177, 35.122367424410569 ], [ 129.041839902383458, 35.12239223461625 ], [ 129.041787142309857, 35.12240972641461 ], [ 129.041658600074072, 35.12245669226413 ], [ 129.041605182316118, 35.122494433600302 ], [ 129.041506974062997, 35.122567812087354 ], [ 129.041440195738858, 35.12265162450938 ], [ 129.041359807641385, 35.122768110509007 ], [ 129.041250384333864, 35.122932967711222 ], [ 129.041246959025358, 35.122999577485885 ], [ 129.041246980266322, 35.123063665787512 ], [ 129.041238024408045, 35.123154868016051 ], [ 129.041196012431925, 35.12319926138332 ], [ 129.04053492707655, 35.123686161522421 ], [ 129.040465309662068, 35.123736443298384 ], [ 129.040428859023478, 35.123758310093038 ], [ 129.038458778065376, 35.124632385683192 ], [ 129.038286624746291, 35.124685927171178 ], [ 129.037541567918737, 35.124294005594457 ], [ 129.035357611575733, 35.126049032407721 ], [ 129.03559622264234, 35.126014470369824 ], [ 129.035821802252116, 35.125986662933201 ], [ 129.03624412706003, 35.125969244127276 ], [ 129.036485654004963, 35.125974969006379 ], [ 129.036954709876625, 35.125986100779393 ], [ 129.04079366942392, 35.126601875612572 ], [ 129.041722261736595, 35.126420517888874 ], [ 129.042905576024737, 35.126132931297086 ], [ 129.044581271303883, 35.125977268246906 ] ] ] ] } },
{ "type": "Feature", "properties": { "OBJECTID": 452, "adm_nm": "부산광역시 동구 수정2동", "adm_cd": "2103057", "adm_cd2": "2617057000", "sgg": "26170", "sido": "26", "sidonm": "부산광역시", "sggnm": "동구" }, "geometry": { "type": "MultiPolygon", "coordinates": [ [ [ [ 129.034692107876907, 35.137276788004414 ], [ 129.037466135755864, 35.135294030785509 ], [ 129.038689585069307, 35.134285437651656 ], [ 129.039137484522286, 35.133952501033626 ], [ 129.040288958081248, 35.133097091537039 ], [ 129.044609939015572, 35.130742978316285 ], [ 129.044727397340552, 35.130796729995339 ], [ 129.046190331902153, 35.132149426566023 ], [ 129.046983134305066, 35.1314482589463 ], [ 129.049554637603279, 35.130764577080555 ], [ 129.051318658014509, 35.130055818851133 ], [ 129.047773282015356, 35.126913107784901 ], [ 129.047326923129788, 35.126991098792729 ], [ 129.044581271303883, 35.125977268246906 ], [ 129.044648274952863, 35.126104451424872 ], [ 129.04514167361009, 35.127163237108462 ], [ 129.045380232285794, 35.127675183887604 ], [ 129.045127291448921, 35.127836896904618 ], [ 129.038785062765214, 35.129280856468526 ], [ 129.038702821407441, 35.129295230308045 ], [ 129.033987749272455, 35.132317120179131 ], [ 129.033321336686129, 35.132906519500033 ], [ 129.033198087670087, 35.133015025014565 ], [ 129.033035756229225, 35.133130933068138 ], [ 129.032828303330632, 35.133244393129033 ], [ 129.031231888562843, 35.134112534277364 ], [ 129.027022626304387, 35.135353856036318 ], [ 129.027852026212969, 35.136351192751505 ], [ 129.028018146576471, 35.136510464332936 ], [ 129.028284924299442, 35.136632451958548 ], [ 129.028629705450896, 35.13672547957637 ], [ 129.031684020134719, 35.137486547610365 ], [ 129.031782165568785, 35.137507235880427 ], [ 129.031905459645827, 35.137498918546243 ], [ 129.032232557439784, 35.137395390246994 ], [ 129.033126597184037, 35.137060487724924 ], [ 129.034692107876907, 35.137276788004414 ] ] ] ] } },
{ "type": "Feature", "properties": { "OBJECTID": 453, "adm_nm": "부산광역시 동구 수정4동", "adm_cd": "2103059", "adm_cd2": "2617059000", "sgg": "26170", "sido": "26", "sidonm": "부산광역시", "sggnm": "동구" }, "geometry": { "type": "MultiPolygon", "coordinates": [ [ [ [ 129.044581271303883, 35.125977268246906 ], [ 129.042905576024737, 35.126132931297086 ], [ 129.041722261736595, 35.126420517888874 ], [ 129.04079366942392, 35.126601875612572 ], [ 129.036954709876625, 35.125986100779393 ], [ 129.036485654004963, 35.125974969006379 ], [ 129.03624412706003, 35.125969244127276 ], [ 129.035821802252116, 35.125986662933201 ], [ 129.03559622264234, 35.126014470369824 ], [ 129.035357611575733, 35.126049032407721 ], [ 129.03390507200524, 35.128748522952527 ], [ 129.032475083985872, 35.129124797574775 ], [ 129.031808877344474, 35.129301165197646 ], [ 129.031278283564262, 35.129452061528916 ], [ 129.026178428766968, 35.13132278258005 ], [ 129.02511501707022, 35.13215959431826 ], [ 129.024120304108408, 35.134022814697929 ], [ 129.026268011954556, 35.135120176022681 ], [ 129.027022626304387, 35.135353856036318 ], [ 129.031231888562843, 35.134112534277364 ], [ 129.032828303330632, 35.133244393129033 ], [ 129.033035756229225, 35.133130933068138 ], [ 129.033198087670087, 35.133015025014565 ], [ 129.033321336686129, 35.132906519500033 ], [ 129.033987749272455, 35.132317120179131 ], [ 129.038702821407441, 35.129295230308045 ], [ 129.038785062765214, 35.129280856468526 ], [ 129.045127291448921, 35.127836896904618 ], [ 129.045380232285794, 35.127675183887604 ], [ 129.04514167361009, 35.127163237108462 ], [ 129.044648274952863, 35.126104451424872 ], [ 129.044581271303883, 35.125977268246906 ] ] ] ] } },
{ "type": "Feature", "properties": { "OBJECTID": 454, "adm_nm": "부산광역시 동구 수정5동", "adm_cd": "2103060", "adm_cd2": "2617060000", "sgg": "26170", "sido": "26", "sidonm": "부산광역시", "sggnm": "동구" }, "geometry": { "type": "MultiPolygon", "coordinates": [ [ [ [ 129.046987947392154, 35.138720880551922 ], [ 129.047493575364541, 35.137574091129594 ], [ 129.047536165456734, 35.137355591520169 ], [ 129.047520212090717, 35.137252077477669 ], [ 129.047477754342509, 35.137123031106341 ], [ 129.047442377464222, 35.13705344123148 ], [ 129.047382794405564, 35.136966891022688 ], [ 129.046681057059487, 35.13614375350204 ], [ 129.046181938794092, 35.135681627382176 ], [ 129.045721364377755, 35.135016713527001 ], [ 129.04560927161333, 35.134828196306103 ], [ 129.045486487482918, 35.134594867258471 ], [ 129.045318157657334, 35.134107237620668 ], [ 129.045247521090232, 35.13339407395523 ], [ 129.045247377673917, 35.133334331324683 ], [ 129.04534324136182, 35.133031526495856 ], [ 129.045377433261535, 35.132993776265891 ], [ 129.046190331902153, 35.132149426566023 ], [ 129.044727397340552, 35.130796729995339 ], [ 129.044609939015572, 35.130742978316285 ], [ 129.040288958081248, 35.133097091537039 ], [ 129.039137484522286, 35.133952501033626 ], [ 129.038689585069307, 35.134285437651656 ], [ 129.037466135755864, 35.135294030785509 ], [ 129.034692107876907, 35.137276788004414 ], [ 129.037390929988675, 35.139408562001428 ], [ 129.043829092668801, 35.140143978161767 ], [ 129.046987947392154, 35.138720880551922 ] ] ] ] } },
{ "type": "Feature", "properties": { "OBJECTID": 455, "adm_nm": "부산광역시 동구 범일2동", "adm_cd": "2103066", "adm_cd2": "2617066000", "sgg": "26170", "sido": "26", "sidonm": "부산광역시", "sggnm": "동구" }, "geometry": { "type": "MultiPolygon", "coordinates": [ [ [ [ 129.064483129333155, 35.141392386501934 ], [ 129.066094709185819, 35.136977523857595 ], [ 129.065332812723312, 35.129913610489012 ], [ 129.062897759131204, 35.129740664513555 ], [ 129.060080732343465, 35.129586529595144 ], [ 129.060030833616025, 35.129825272173719 ], [ 129.05949043743027, 35.134243526734799 ], [ 129.056408165796654, 35.134256208514884 ], [ 129.057033461382758, 35.135997509426801 ], [ 129.057115400069875, 35.138084943140427 ], [ 129.057266918525841, 35.142027059676472 ], [ 129.0589289667993, 35.141491264881132 ], [ 129.064483129333155, 35.141392386501934 ] ] ] ] } },
{ "type": "Feature", "properties": { "OBJECTID": 456, "adm_nm": "부산광역시 동구 범일1동", "adm_cd": "2103071", "adm_cd2": "2617065000", "sgg": "26170", "sido": "26", "sidonm": "부산광역시", "sggnm": "동구" }, "geometry": { "type": "MultiPolygon", "coordinates": [ [ [ [ 129.057266918525841, 35.142027059676472 ], [ 129.057115400069875, 35.138084943140427 ], [ 129.057033461382758, 35.135997509426801 ], [ 129.051781742279388, 35.137080426071627 ], [ 129.050926257098837, 35.136618041204109 ], [ 129.049795879247426, 35.136490686535858 ], [ 129.048709311948187, 35.138270388362933 ], [ 129.047675104785156, 35.138624526609043 ], [ 129.046987947392154, 35.138720880551922 ], [ 129.043829092668801, 35.140143978161767 ], [ 129.037390929988675, 35.139408562001428 ], [ 129.037740333587948, 35.139624399032584 ], [ 129.03803091176087, 35.139845081442409 ], [ 129.038364587050609, 35.140171749563677 ], [ 129.038677782052787, 35.14055082248413 ], [ 129.038807793586784, 35.140717180437591 ], [ 129.038841219631905, 35.140780343006291 ], [ 129.038927440279338, 35.140943271893619 ], [ 129.038982143677401, 35.141088103589318 ], [ 129.039209352012563, 35.141700960768731 ], [ 129.039368631263528, 35.142582764130061 ], [ 129.039319620079851, 35.142824175024224 ], [ 129.039236279049788, 35.143225211606584 ], [ 129.039210833265429, 35.14329848253174 ], [ 129.03914671729234, 35.14342038091123 ], [ 129.039061701369292, 35.143542550176967 ], [ 129.039066902208617, 35.143622656357039 ], [ 129.03913024216439, 35.143973620137743 ], [ 129.039401531484856, 35.144480031225214 ], [ 129.040436305621142, 35.145617471788007 ], [ 129.040893577336647, 35.146063501828323 ], [ 129.041010330450376, 35.146086589272194 ], [ 129.041220796028171, 35.14612820717722 ], [ 129.041623265836165, 35.146192593302636 ], [ 129.041717891524485, 35.146192550395249 ], [ 129.041755347631891, 35.146192528129909 ], [ 129.042147755272396, 35.146103953267755 ], [ 129.044469062700017, 35.14608253660149 ], [ 129.044625076175578, 35.146070279062279 ], [ 129.045223780376404, 35.145999578147737 ], [ 129.045301790825988, 35.145982273855161 ], [ 129.04631209110994, 35.145606385039947 ], [ 129.04670329378115, 35.145427354982857 ], [ 129.050644557400886, 35.14345943346035 ], [ 129.050846734576567, 35.143350692631422 ], [ 129.050894178323915, 35.143316731114304 ], [ 129.051568580541044, 35.142596663988606 ], [ 129.051624204893727, 35.142433668931623 ], [ 129.051637728847965, 35.142406430280452 ], [ 129.051661298488909, 35.142358958856455 ], [ 129.051706017983975, 35.142325280763735 ], [ 129.051733495521802, 35.142304600216939 ], [ 129.052063606262209, 35.142189016432091 ], [ 129.052532006798259, 35.142085269489499 ], [ 129.054852346879301, 35.141914724363602 ], [ 129.056554577268173, 35.14207158679492 ], [ 129.056718466824947, 35.142058487700744 ], [ 129.057266918525841, 35.142027059676472 ] ] ] ] } },
{ "type": "Feature", "properties": { "OBJECTID": 457, "adm_nm": "부산광역시 동구 범일5동", "adm_cd": "2103068", "adm_cd2": "2617068000", "sgg": "26170", "sido": "26", "sidonm": "부산광역시", "sggnm": "동구" }, "geometry": { "type": "MultiPolygon", "coordinates": [ [ [ [ 129.065332812723312, 35.129913610489012 ], [ 129.065298938803352, 35.129623107486509 ], [ 129.064653317864071, 35.128935105305914 ], [ 129.064867319328783, 35.127265456876721 ], [ 129.05778517156773, 35.119805640363793 ], [ 129.056037719665142, 35.117986421488503 ], [ 129.05273947627137, 35.120125422565714 ], [ 129.052530253410254, 35.12069349408506 ], [ 129.055250908536578, 35.122933773946599 ], [ 129.05532795386921, 35.125317629374983 ], [ 129.054879291594546, 35.12560183395999 ], [ 129.054545868083864, 35.125810397365363 ], [ 129.052706692906725, 35.12567252791694 ], [ 129.050003198296707, 35.123531270896187 ], [ 129.050853951491973, 35.126903510022203 ], [ 129.051318658014509, 35.130055818851133 ], [ 129.056408165796654, 35.134256208514884 ], [ 129.05949043743027, 35.134243526734799 ], [ 129.060030833616025, 35.129825272173719 ], [ 129.060080732343465, 35.129586529595144 ], [ 129.062897759131204, 35.129740664513555 ], [ 129.065332812723312, 35.129913610489012 ] ] ] ] } },
{ "type": "Feature", "properties": { "OBJECTID": 458, "adm_nm": "부산광역시 동구 좌천동", "adm_cd": "2103070", "adm_cd2": "2617064500", "sgg": "26170", "sido": "26", "sidonm": "부산광역시", "sggnm": "동구" }, "geometry": { "type": "MultiPolygon", "coordinates": [ [ [ [ 129.057033461382758, 35.135997509426801 ], [ 129.056408165796654, 35.134256208514884 ], [ 129.051318658014509, 35.130055818851133 ], [ 129.049554637603279, 35.130764577080555 ], [ 129.046983134305066, 35.1314482589463 ], [ 129.046190331902153, 35.132149426566023 ], [ 129.045377433261535, 35.132993776265891 ], [ 129.04534324136182, 35.133031526495856 ], [ 129.045247377673917, 35.133334331324683 ], [ 129.045247521090232, 35.13339407395523 ], [ 129.045318157657334, 35.134107237620668 ], [ 129.045486487482918, 35.134594867258471 ], [ 129.04560927161333, 35.134828196306103 ], [ 129.045721364377755, 35.135016713527001 ], [ 129.046181938794092, 35.135681627382176 ], [ 129.046681057059487, 35.13614375350204 ], [ 129.047382794405564, 35.136966891022688 ], [ 129.047442377464222, 35.13705344123148 ], [ 129.047477754342509, 35.137123031106341 ], [ 129.047520212090717, 35.137252077477669 ], [ 129.047536165456734, 35.137355591520169 ], [ 129.047493575364541, 35.137574091129594 ], [ 129.046987947392154, 35.138720880551922 ], [ 129.047675104785156, 35.138624526609043 ], [ 129.048709311948187, 35.138270388362933 ], [ 129.049795879247426, 35.136490686535858 ], [ 129.050926257098837, 35.136618041204109 ], [ 129.051781742279388, 35.137080426071627 ], [ 129.057033461382758, 35.135997509426801 ] ] ] ] } }
]
}
