{
"type": "FeatureCollection",
"name": "dongnaegu",
"crs": { "type": "name", "properties": { "name": "urn:ogc:def:crs:OGC:1.3:CRS84" } },
"features": [
{ "type": "Feature", "properties": { "OBJECTID": 488, "adm_nm": "부산광역시 동래구 수민동", "adm_cd": "2106051", "adm_cd2": "2626051000", "sgg": "26260", "sido": "26", "sidonm": "부산광역시", "sggnm": "동래구" }, "geometry": { "type": "MultiPolygon", "coordinates": [ [ [ [ 129.092406346344546, 35.199665023560492 ], [ 129.092513261792988, 35.199636514311393 ], [ 129.09278727073999, 35.199534393043926 ], [ 129.093959882458108, 35.19909732824393 ], [ 129.094354632647082, 35.19895017839692 ], [ 129.09452470620181, 35.198886776910761 ], [ 129.095501385254778, 35.198181101066417 ], [ 129.097503508814697, 35.196115500247274 ], [ 129.097851234474319, 35.195525470760124 ], [ 129.097975975354416, 35.195265328604343 ], [ 129.098177578090628, 35.194820213617064 ], [ 129.098483423656376, 35.194144887848104 ], [ 129.098494602014028, 35.194119361223734 ], [ 129.098972039475228, 35.193023854287894 ], [ 129.099057746565592, 35.192776351184214 ], [ 129.099414412504132, 35.191746146091532 ], [ 129.095426945188336, 35.192384307384678 ], [ 129.094987433491639, 35.192418452465127 ], [ 129.090732622970961, 35.19346109780124 ], [ 129.090390278736123, 35.193508291308625 ], [ 129.089548599770296, 35.193624343687389 ], [ 129.087106871737461, 35.194159686120315 ], [ 129.086510753572867, 35.19434103774681 ], [ 129.086372089257225, 35.194383233683894 ], [ 129.085876055638721, 35.194602777027583 ], [ 129.085613977620454, 35.194718801209802 ], [ 129.084718134110801, 35.195209399876113 ], [ 129.084056016609026, 35.195627830307352 ], [ 129.083102768034877, 35.196421917808934 ], [ 129.080326782607017, 35.199266905303531 ], [ 129.078445827382723, 35.201954168101302 ], [ 129.079174352288959, 35.20196464649387 ], [ 129.083198063478449, 35.202041396868083 ], [ 129.083653035640651, 35.202335623891841 ], [ 129.083788113175956, 35.202632490221013 ], [ 129.084086831357439, 35.204380597220997 ], [ 129.085522698208337, 35.203290346323023 ], [ 129.085563227688709, 35.203583975067779 ], [ 129.086393422912153, 35.20395333188587 ], [ 129.08703134989085, 35.203973773834946 ], [ 129.087168619420368, 35.203958663918009 ], [ 129.088402316937277, 35.202581640705411 ], [ 129.088983820839388, 35.201391359754297 ], [ 129.088991284791774, 35.200779565254443 ], [ 129.092406346344546, 35.199665023560492 ] ] ] ] } },
{ "type": "Feature", "properties": { "OBJECTID": 489, "adm_nm": "부산광역시 동래구 복산동", "adm_cd": "2106052", "adm_cd2": "2626052000", "sgg": "26260", "sido": "26", "sidonm": "부산광역시", "sggnm": "동래구" }, "geometry": { "type": "MultiPolygon", "coordinates": [ [ [ [ 129.092393335633602, 35.210041146863922 ], [ 129.092597307460608, 35.210026300919296 ], [ 129.092780920315448, 35.209946410069406 ], [ 129.093148504030921, 35.209755024630006 ], [ 129.093783539096393, 35.209419222044133 ], [ 129.093883362618755, 35.209299511126197 ], [ 129.095496469891316, 35.206988998812989 ], [ 129.095809982545973, 35.20650505356349 ], [ 129.095901619976274, 35.20624466394279 ], [ 129.095942291448608, 35.205919331688264 ], [ 129.095902030488872, 35.205709214662065 ], [ 129.095886167903359, 35.205645928937173 ], [ 129.095611076147577, 35.204804976746949 ], [ 129.095448741200812, 35.204696685321764 ], [ 129.092406346344546, 35.199665023560492 ], [ 129.088991284791774, 35.200779565254443 ], [ 129.088983820839388, 35.201391359754297 ], [ 129.088402316937277, 35.202581640705411 ], [ 129.087168619420368, 35.203958663918009 ], [ 129.08703134989085, 35.203973773834946 ], [ 129.086393422912153, 35.20395333188587 ], [ 129.085563227688709, 35.203583975067779 ], [ 129.085522698208337, 35.203290346323023 ], [ 129.084086831357439, 35.204380597220997 ], [ 129.083953426105751, 35.204401934522878 ], [ 129.083846011578771, 35.204431866460588 ], [ 129.08359342281986, 35.204611678426822 ], [ 129.08342550510352, 35.204839618626607 ], [ 129.083241914505692, 35.205315893941609 ], [ 129.083260778975557, 35.205401174528276 ], [ 129.085944559222611, 35.208530813922764 ], [ 129.085996702434045, 35.208567675032072 ], [ 129.087744713477235, 35.209539049186866 ], [ 129.088132584393321, 35.209706887132917 ], [ 129.090598397879063, 35.210471485439562 ], [ 129.090700258987226, 35.210483050548198 ], [ 129.090799689633172, 35.210469421775585 ], [ 129.090891512704331, 35.21044497819274 ], [ 129.091112950509654, 35.21036505343379 ], [ 129.091840208417665, 35.21007798801466 ], [ 129.092393335633602, 35.210041146863922 ] ] ] ] } },
{ "type": "Feature", "properties": { "OBJECTID": 490, "adm_nm": "부산광역시 동래구 온천1동", "adm_cd": "2106055", "adm_cd2": "2626055000", "sgg": "26260", "sido": "26", "sidonm": "부산광역시", "sggnm": "동래구" }, "geometry": { "type": "MultiPolygon", "coordinates": [ [ [ [ 129.081916356336649, 35.224509541520462 ], [ 129.082497774215568, 35.223898144406128 ], [ 129.085086091820216, 35.221930569518783 ], [ 129.08726030886325, 35.221656807349376 ], [ 129.084944179483301, 35.217922288951101 ], [ 129.083269224421485, 35.216229641688088 ], [ 129.08081947172667, 35.213617799723679 ], [ 129.080484989110545, 35.213690010910476 ], [ 129.080026091974901, 35.213789075551624 ], [ 129.078995157802183, 35.212222537800507 ], [ 129.078756595400336, 35.211831172030529 ], [ 129.077929880073839, 35.212851771890385 ], [ 129.077247107792999, 35.213567098797405 ], [ 129.077114492883709, 35.213706034473532 ], [ 129.077027574619848, 35.213797088598447 ], [ 129.073091242953581, 35.214857518020658 ], [ 129.072670000649595, 35.214836623742457 ], [ 129.072597977480967, 35.214799467010778 ], [ 129.070789800041581, 35.216659893853759 ], [ 129.063127522709465, 35.221786769698141 ], [ 129.062256351241871, 35.221716555659285 ], [ 129.061891021430341, 35.221687116370354 ], [ 129.06150714084049, 35.22263406736397 ], [ 129.05925702388717, 35.224037427131506 ], [ 129.060199537936057, 35.226222523215064 ], [ 129.060645281708929, 35.2265024761262 ], [ 129.062224760596109, 35.226827139361568 ], [ 129.062685984327146, 35.226846746935955 ], [ 129.063659162271534, 35.226887940335871 ], [ 129.065354351562746, 35.226938693170951 ], [ 129.066112543993427, 35.226872803047222 ], [ 129.066488935882546, 35.226481701282069 ], [ 129.066531478119316, 35.225297039414997 ], [ 129.066874295032278, 35.225183757238945 ], [ 129.068593485607522, 35.225093544090257 ], [ 129.068820475283786, 35.225083507267129 ], [ 129.069168181940285, 35.225101186077588 ], [ 129.070473707431233, 35.225741350976826 ], [ 129.071553600256692, 35.226270844018217 ], [ 129.076754570834197, 35.226395985633971 ], [ 129.077497124876629, 35.226350843030232 ], [ 129.077705231512482, 35.226266997544045 ], [ 129.080695407033289, 35.223831458925645 ], [ 129.081916356336649, 35.224509541520462 ] ] ] ] } },
{ "type": "Feature", "properties": { "OBJECTID": 491, "adm_nm": "부산광역시 동래구 온천2동", "adm_cd": "2106056", "adm_cd2": "2626056000", "sgg": "26260", "sido": "26", "sidonm": "부산광역시", "sggnm": "동래구" }, "geometry": { "type": "MultiPolygon", "coordinates": [ [ [ [ 129.078756595400336, 35.211831172030529 ], [ 129.078849478003008, 35.204071816419223 ], [ 129.073148026572426, 35.206474361036761 ], [ 129.068497938657572, 35.208285357860255 ], [ 129.066311052315456, 35.208967853742159 ], [ 129.065882871110745, 35.209101497059372 ], [ 129.06528257532284, 35.209354510271979 ], [ 129.06518195922726, 35.209410139847428 ], [ 129.064464628116667, 35.209902482518316 ], [ 129.064417669191016, 35.210138349119958 ], [ 129.062961372470625, 35.211091762799299 ], [ 129.06271813655755, 35.211232582829979 ], [ 129.062395881417189, 35.211414523666669 ], [ 129.061665124043145, 35.21171781007321 ], [ 129.061545719923771, 35.211744970333889 ], [ 129.060827933417869, 35.211835050876452 ], [ 129.05988071944418, 35.211266879562807 ], [ 129.059674572146179, 35.211143205543287 ], [ 129.05776027974656, 35.211012661390512 ], [ 129.054011945695351, 35.210871448336803 ], [ 129.052569383381041, 35.211100190919396 ], [ 129.051450878775569, 35.211363915459664 ], [ 129.051408174678073, 35.211671952882071 ], [ 129.05136555632663, 35.212228498327995 ], [ 129.051341868735392, 35.212984823934235 ], [ 129.051340294646451, 35.213239095513515 ], [ 129.051643351975173, 35.213743742694867 ], [ 129.051831182554196, 35.213965587188277 ], [ 129.053337077842343, 35.21565338223121 ], [ 129.054787758064833, 35.217195850678145 ], [ 129.056274822747667, 35.21908209225564 ], [ 129.056885839984261, 35.220801007332071 ], [ 129.057793662398552, 35.222726187386108 ], [ 129.058074695268743, 35.223223032713598 ], [ 129.058698291523172, 35.223727649319542 ], [ 129.05925702388717, 35.224037427131506 ], [ 129.06150714084049, 35.22263406736397 ], [ 129.061891021430341, 35.221687116370354 ], [ 129.062256351241871, 35.221716555659285 ], [ 129.063127522709465, 35.221786769698141 ], [ 129.070789800041581, 35.216659893853759 ], [ 129.072597977480967, 35.214799467010778 ], [ 129.072670000649595, 35.214836623742457 ], [ 129.073091242953581, 35.214857518020658 ], [ 129.077027574619848, 35.213797088598447 ], [ 129.077114492883709, 35.213706034473532 ], [ 129.077247107792999, 35.213567098797405 ], [ 129.077929880073839, 35.212851771890385 ], [ 129.078756595400336, 35.211831172030529 ] ] ] ] } },
{ "type": "Feature", "properties": { "OBJECTID": 492, "adm_nm": "부산광역시 동래구 온천3동", "adm_cd": "2106057", "adm_cd2": "2626057000", "sgg": "26260", "sido": "26", "sidonm": "부산광역시", "sggnm": "동래구" }, "geometry": { "type": "MultiPolygon", "coordinates": [ [ [ [ 129.078849478003008, 35.204071816419223 ], [ 129.078300384631973, 35.202528549537782 ], [ 129.076407249670439, 35.202623254143603 ], [ 129.073819694864738, 35.202024963099163 ], [ 129.071830682416959, 35.201264773826658 ], [ 129.068644603376271, 35.200447040045304 ], [ 129.068150127595231, 35.200613909225133 ], [ 129.067531260690799, 35.200822760744948 ], [ 129.067398860992029, 35.200867445252591 ], [ 129.067171278317829, 35.200944256037239 ], [ 129.065400150578142, 35.20174543731833 ], [ 129.064488155732107, 35.20216447760199 ], [ 129.06444260518694, 35.202186217792892 ], [ 129.063763090463908, 35.20251040846852 ], [ 129.063693250597566, 35.202543716806417 ], [ 129.063575146583929, 35.202594472340564 ], [ 129.062990929992822, 35.202845529740188 ], [ 129.062508578421699, 35.203052795236182 ], [ 129.062479684064755, 35.203065203634672 ], [ 129.059652704631247, 35.201951393159341 ], [ 129.05968043096243, 35.202082851832159 ], [ 129.059496447960782, 35.20238061897831 ], [ 129.059420676002105, 35.202473967674678 ], [ 129.058840207748915, 35.203182528455045 ], [ 129.058197848110723, 35.203659133041569 ], [ 129.057145640029262, 35.204079580669891 ], [ 129.055411098924935, 35.205500298869907 ], [ 129.050976673193816, 35.208442265063105 ], [ 129.051450878775569, 35.211363915459664 ], [ 129.052569383381041, 35.211100190919396 ], [ 129.054011945695351, 35.210871448336803 ], [ 129.05776027974656, 35.211012661390512 ], [ 129.059674572146179, 35.211143205543287 ], [ 129.05988071944418, 35.211266879562807 ], [ 129.060827933417869, 35.211835050876452 ], [ 129.061545719923771, 35.211744970333889 ], [ 129.061665124043145, 35.21171781007321 ], [ 129.062395881417189, 35.211414523666669 ], [ 129.06271813655755, 35.211232582829979 ], [ 129.062961372470625, 35.211091762799299 ], [ 129.064417669191016, 35.210138349119958 ], [ 129.064464628116667, 35.209902482518316 ], [ 129.06518195922726, 35.209410139847428 ], [ 129.06528257532284, 35.209354510271979 ], [ 129.065882871110745, 35.209101497059372 ], [ 129.066311052315456, 35.208967853742159 ], [ 129.068497938657572, 35.208285357860255 ], [ 129.073148026572426, 35.206474361036761 ], [ 129.078849478003008, 35.204071816419223 ] ] ] ] } },
{ "type": "Feature", "properties": { "OBJECTID": 493, "adm_nm": "부산광역시 동래구 사직1동", "adm_cd": "2106058", "adm_cd2": "2626058000", "sgg": "26260", "sido": "26", "sidonm": "부산광역시", "sggnm": "동래구" }, "geometry": { "type": "MultiPolygon", "coordinates": [ [ [ [ 129.065400150578142, 35.20174543731833 ], [ 129.064541706209383, 35.200572687972979 ], [ 129.065642113606287, 35.196796047368188 ], [ 129.065686591768952, 35.196655137994256 ], [ 129.066475261594974, 35.194156644633665 ], [ 129.064203080589635, 35.19370123928072 ], [ 129.063549678491825, 35.195864561666092 ], [ 129.063450102455818, 35.196194206285952 ], [ 129.061869219403889, 35.195886686637671 ], [ 129.061015727487955, 35.195720651966205 ], [ 129.059046227707285, 35.199657785553249 ], [ 129.05869546800011, 35.200828675882313 ], [ 129.059652704631247, 35.201951393159341 ], [ 129.062479684064755, 35.203065203634672 ], [ 129.062508578421699, 35.203052795236182 ], [ 129.062990929992822, 35.202845529740188 ], [ 129.063575146583929, 35.202594472340564 ], [ 129.063693250597566, 35.202543716806417 ], [ 129.063763090463908, 35.20251040846852 ], [ 129.06444260518694, 35.202186217792892 ], [ 129.064488155732107, 35.20216447760199 ], [ 129.065400150578142, 35.20174543731833 ] ] ] ] } },
{ "type": "Feature", "properties": { "OBJECTID": 494, "adm_nm": "부산광역시 동래구 사직2동", "adm_cd": "2106059", "adm_cd2": "2626059000", "sgg": "26260", "sido": "26", "sidonm": "부산광역시", "sggnm": "동래구" }, "geometry": { "type": "MultiPolygon", "coordinates": [ [ [ [ 129.059652704631247, 35.201951393159341 ], [ 129.05869546800011, 35.200828675882313 ], [ 129.059046227707285, 35.199657785553249 ], [ 129.061015727487955, 35.195720651966205 ], [ 129.061869219403889, 35.195886686637671 ], [ 129.063450102455818, 35.196194206285952 ], [ 129.063549678491825, 35.195864561666092 ], [ 129.064203080589635, 35.19370123928072 ], [ 129.064619650611377, 35.192245595399072 ], [ 129.062745248208557, 35.191869236663472 ], [ 129.059884474041041, 35.19130314259165 ], [ 129.055767644182851, 35.192374893729742 ], [ 129.053223787581288, 35.192078177859926 ], [ 129.05305967262251, 35.192079885480041 ], [ 129.052792875403355, 35.192170964005086 ], [ 129.047687099344984, 35.194205354841635 ], [ 129.046062871075179, 35.195990603175893 ], [ 129.044096178426713, 35.197939015005375 ], [ 129.043868382071793, 35.198387767712511 ], [ 129.043596800778147, 35.19896408628265 ], [ 129.043531923132292, 35.199290569133915 ], [ 129.043470952355278, 35.201246102487822 ], [ 129.043511410907286, 35.201912389132232 ], [ 129.043580285459655, 35.202162259502074 ], [ 129.045104161074875, 35.201972446741273 ], [ 129.047375930540738, 35.204077127031631 ], [ 129.049999894061244, 35.206656603613979 ], [ 129.050397089635823, 35.207216282351425 ], [ 129.050976673193816, 35.208442265063105 ], [ 129.055411098924935, 35.205500298869907 ], [ 129.057145640029262, 35.204079580669891 ], [ 129.058197848110723, 35.203659133041569 ], [ 129.058840207748915, 35.203182528455045 ], [ 129.059420676002105, 35.202473967674678 ], [ 129.059496447960782, 35.20238061897831 ], [ 129.05968043096243, 35.202082851832159 ], [ 129.059652704631247, 35.201951393159341 ] ] ] ] } },
{ "type": "Feature", "properties": { "OBJECTID": 495, "adm_nm": "부산광역시 동래구 사직3동", "adm_cd": "2106060", "adm_cd2": "2626060000", "sgg": "26260", "sido": "26", "sidonm": "부산광역시", "sggnm": "동래구" }, "geometry": { "type": "MultiPolygon", "coordinates": [ [ [ [ 129.078300384631973, 35.202528549537782 ], [ 129.078445827382723, 35.201954168101302 ], [ 129.080326782607017, 35.199266905303531 ], [ 129.078155778162198, 35.199376257252034 ], [ 129.078090198681338, 35.199383779427002 ], [ 129.077914977873178, 35.199403849158422 ], [ 129.076399889092073, 35.198848449580865 ], [ 129.076262361473198, 35.198797752762744 ], [ 129.074865851474414, 35.198282860121537 ], [ 129.074262136958509, 35.198057395987036 ], [ 129.073414824133408, 35.197162963142056 ], [ 129.072956924204362, 35.196679590617826 ], [ 129.071228554105289, 35.19512139594783 ], [ 129.066475261594974, 35.194156644633665 ], [ 129.065686591768952, 35.196655137994256 ], [ 129.065642113606287, 35.196796047368188 ], [ 129.064541706209383, 35.200572687972979 ], [ 129.065400150578142, 35.20174543731833 ], [ 129.067171278317829, 35.200944256037239 ], [ 129.067398860992029, 35.200867445252591 ], [ 129.067531260690799, 35.200822760744948 ], [ 129.068150127595231, 35.200613909225133 ], [ 129.068644603376271, 35.200447040045304 ], [ 129.071830682416959, 35.201264773826658 ], [ 129.073819694864738, 35.202024963099163 ], [ 129.076407249670439, 35.202623254143603 ], [ 129.078300384631973, 35.202528549537782 ] ] ] ] } },
{ "type": "Feature", "properties": { "OBJECTID": 496, "adm_nm": "부산광역시 동래구 안락1동", "adm_cd": "2106061", "adm_cd2": "2626074000", "sgg": "26260", "sido": "26", "sidonm": "부산광역시", "sggnm": "동래구" }, "geometry": { "type": "MultiPolygon", "coordinates": [ [ [ [ 129.099534788678056, 35.202657858199139 ], [ 129.09963821735181, 35.20242798769263 ], [ 129.100061290034091, 35.201501873381545 ], [ 129.100096578677011, 35.201495466355119 ], [ 129.100827270707043, 35.201362927072189 ], [ 129.101045850900249, 35.201323279388696 ], [ 129.103777976393303, 35.200827674011187 ], [ 129.104454077436742, 35.20070504233837 ], [ 129.104578582285797, 35.200723783554018 ], [ 129.104357509233068, 35.198166709765204 ], [ 129.104220705706155, 35.196585814689264 ], [ 129.103255125935334, 35.196741146667428 ], [ 129.10323867313295, 35.196710609322857 ], [ 129.103193972524679, 35.196627582796403 ], [ 129.103054807369574, 35.196369088969632 ], [ 129.102518776149537, 35.195303746356359 ], [ 129.102472845795177, 35.195212441122131 ], [ 129.10098261629966, 35.19224184702778 ], [ 129.100834212446443, 35.191935800532328 ], [ 129.100620101094279, 35.191437835021695 ], [ 129.099414412504132, 35.191746146091532 ], [ 129.099057746565592, 35.192776351184214 ], [ 129.098972039475228, 35.193023854287894 ], [ 129.098494602014028, 35.194119361223734 ], [ 129.098483423656376, 35.194144887848104 ], [ 129.098177578090628, 35.194820213617064 ], [ 129.097975975354416, 35.195265328604343 ], [ 129.097851234474319, 35.195525470760124 ], [ 129.097503508814697, 35.196115500247274 ], [ 129.095501385254778, 35.198181101066417 ], [ 129.09452470620181, 35.198886776910761 ], [ 129.094354632647082, 35.19895017839692 ], [ 129.093959882458108, 35.19909732824393 ], [ 129.09278727073999, 35.199534393043926 ], [ 129.092513261792988, 35.199636514311393 ], [ 129.092406346344546, 35.199665023560492 ], [ 129.095448741200812, 35.204696685321764 ], [ 129.097792978764829, 35.204025953554186 ], [ 129.099534788678056, 35.202657858199139 ] ] ] ] } },
{ "type": "Feature", "properties": { "OBJECTID": 497, "adm_nm": "부산광역시 동래구 안락2동", "adm_cd": "2106062", "adm_cd2": "2626075000", "sgg": "26260", "sido": "26", "sidonm": "부산광역시", "sggnm": "동래구" }, "geometry": { "type": "MultiPolygon", "coordinates": [ [ [ [ 129.116378112260293, 35.2010936506585 ], [ 129.115873364839729, 35.200420865503148 ], [ 129.11583477346602, 35.200335705819306 ], [ 129.115803831958374, 35.200267426425327 ], [ 129.115571026075571, 35.199753642909528 ], [ 129.115208168916354, 35.198913409596756 ], [ 129.11517103162592, 35.198785232375499 ], [ 129.114549964831497, 35.196641035111398 ], [ 129.114364210757657, 35.195560859395648 ], [ 129.114335777425794, 35.195322387370126 ], [ 129.114253133155842, 35.194392982101569 ], [ 129.114235042101768, 35.194189182653027 ], [ 129.114233552963469, 35.194151112861832 ], [ 129.114209201450251, 35.193515654081317 ], [ 129.114208284744052, 35.193478647747462 ], [ 129.11419861514014, 35.193087787710915 ], [ 129.115291224028965, 35.18966379790281 ], [ 129.115516435100972, 35.187830487508059 ], [ 129.115156127362354, 35.18318347003634 ], [ 129.114980229980432, 35.183312376725219 ], [ 129.114594898608175, 35.18362249270524 ], [ 129.114478526605637, 35.183735696159339 ], [ 129.114164681093342, 35.184041032169119 ], [ 129.113910152716159, 35.184339069063313 ], [ 129.112405730548033, 35.186265727541098 ], [ 129.112202873893381, 35.187002548294714 ], [ 129.112161863853515, 35.187151530294457 ], [ 129.110516221682246, 35.189644377923358 ], [ 129.108380873549379, 35.190413391552717 ], [ 129.108175062979342, 35.190437773566565 ], [ 129.105634349379613, 35.190738712814948 ], [ 129.105262008626823, 35.190763507619955 ], [ 129.103775412239628, 35.190862536883145 ], [ 129.102370551454811, 35.190985270951636 ], [ 129.100620101094279, 35.191437835021695 ], [ 129.100834212446443, 35.191935800532328 ], [ 129.10098261629966, 35.19224184702778 ], [ 129.102472845795177, 35.195212441122131 ], [ 129.102518776149537, 35.195303746356359 ], [ 129.103054807369574, 35.196369088969632 ], [ 129.103193972524679, 35.196627582796403 ], [ 129.10323867313295, 35.196710609322857 ], [ 129.103255125935334, 35.196741146667428 ], [ 129.104220705706155, 35.196585814689264 ], [ 129.104357509233068, 35.198166709765204 ], [ 129.104578582285797, 35.200723783554018 ], [ 129.108089956992359, 35.200558218620607 ], [ 129.112924825512323, 35.200307750163105 ], [ 129.113031270580876, 35.200305893760245 ], [ 129.11308788504752, 35.200329017215452 ], [ 129.113155380767552, 35.200386705193921 ], [ 129.113483342050444, 35.200843170552673 ], [ 129.113734373302606, 35.201525788257463 ], [ 129.113781653003457, 35.20172482121918 ], [ 129.11377643849471, 35.20176638745594 ], [ 129.11505869894745, 35.201767396100628 ], [ 129.116378112260293, 35.2010936506585 ] ] ] ] } },
{ "type": "Feature", "properties": { "OBJECTID": 498, "adm_nm": "부산광역시 동래구 명장1동", "adm_cd": "2106063", "adm_cd2": "2626076100", "sgg": "26260", "sido": "26", "sidonm": "부산광역시", "sggnm": "동래구" }, "geometry": { "type": "MultiPolygon", "coordinates": [ [ [ [ 129.110040413440146, 35.210114243992706 ], [ 129.109918214409248, 35.209933610547978 ], [ 129.109874518684677, 35.209673543069371 ], [ 129.110121873067385, 35.207389308258172 ], [ 129.110162515025422, 35.207058554755399 ], [ 129.110228324865375, 35.206855611659662 ], [ 129.11138457166993, 35.203867309514912 ], [ 129.112109720101898, 35.203213472021858 ], [ 129.11377643849471, 35.20176638745594 ], [ 129.113781653003457, 35.20172482121918 ], [ 129.113734373302606, 35.201525788257463 ], [ 129.113483342050444, 35.200843170552673 ], [ 129.113155380767552, 35.200386705193921 ], [ 129.11308788504752, 35.200329017215452 ], [ 129.113031270580876, 35.200305893760245 ], [ 129.112924825512323, 35.200307750163105 ], [ 129.108089956992359, 35.200558218620607 ], [ 129.104578582285797, 35.200723783554018 ], [ 129.104454077436742, 35.20070504233837 ], [ 129.103777976393303, 35.200827674011187 ], [ 129.101045850900249, 35.201323279388696 ], [ 129.100827270707043, 35.201362927072189 ], [ 129.100096578677011, 35.201495466355119 ], [ 129.100061290034091, 35.201501873381545 ], [ 129.09963821735181, 35.20242798769263 ], [ 129.099534788678056, 35.202657858199139 ], [ 129.100149450320458, 35.203142770627927 ], [ 129.100869638315885, 35.203767378534359 ], [ 129.103374971369675, 35.207118982250499 ], [ 129.103439301657119, 35.207501707874933 ], [ 129.103462922466861, 35.207642242888454 ], [ 129.103511807113847, 35.207933113087797 ], [ 129.103517660397898, 35.208085300318203 ], [ 129.103520944334321, 35.208170959616794 ], [ 129.103528951164918, 35.208379977322835 ], [ 129.103539524380921, 35.208655700597092 ], [ 129.103556146271529, 35.209088837716074 ], [ 129.103567889924363, 35.20939484710987 ], [ 129.103800932042617, 35.209736293764294 ], [ 129.104194540380178, 35.209930415004251 ], [ 129.105071429127804, 35.210355267445742 ], [ 129.106266705849606, 35.209646382951561 ], [ 129.106359310526301, 35.209591202752136 ], [ 129.10863660538115, 35.210185275871837 ], [ 129.110040413440146, 35.210114243992706 ] ] ] ] } },
{ "type": "Feature", "properties": { "OBJECTID": 499, "adm_nm": "부산광역시 동래구 명장2동", "adm_cd": "2106064", "adm_cd2": "2626076200", "sgg": "26260", "sido": "26", "sidonm": "부산광역시", "sggnm": "동래구" }, "geometry": { "type": "MultiPolygon", "coordinates": [ [ [ [ 129.097541885591909, 35.214076284415107 ], [ 129.101364771153925, 35.212742300028616 ], [ 129.101769212830476, 35.2125867739353 ], [ 129.101871039190712, 35.212546378420107 ], [ 129.102025865820025, 35.212465881739419 ], [ 129.102306330766766, 35.21231749256512 ], [ 129.102524355096193, 35.212202122619495 ], [ 129.102492313832698, 35.212029398508776 ], [ 129.102474001268916, 35.211930776719406 ], [ 129.102434757879251, 35.211789288065226 ], [ 129.102409324127166, 35.211697574776245 ], [ 129.102329160608718, 35.211345122957013 ], [ 129.102452744449579, 35.211290874481335 ], [ 129.104367511330707, 35.210489791800399 ], [ 129.104444082219771, 35.21046573307661 ], [ 129.104971098114817, 35.210341823371287 ], [ 129.105071429127804, 35.210355267445742 ], [ 129.104194540380178, 35.209930415004251 ], [ 129.103800932042617, 35.209736293764294 ], [ 129.103567889924363, 35.20939484710987 ], [ 129.103556146271529, 35.209088837716074 ], [ 129.103539524380921, 35.208655700597092 ], [ 129.103528951164918, 35.208379977322835 ], [ 129.103520944334321, 35.208170959616794 ], [ 129.103517660397898, 35.208085300318203 ], [ 129.103511807113847, 35.207933113087797 ], [ 129.103462922466861, 35.207642242888454 ], [ 129.103439301657119, 35.207501707874933 ], [ 129.103374971369675, 35.207118982250499 ], [ 129.100869638315885, 35.203767378534359 ], [ 129.100149450320458, 35.203142770627927 ], [ 129.099534788678056, 35.202657858199139 ], [ 129.097792978764829, 35.204025953554186 ], [ 129.095448741200812, 35.204696685321764 ], [ 129.095611076147577, 35.204804976746949 ], [ 129.095886167903359, 35.205645928937173 ], [ 129.095902030488872, 35.205709214662065 ], [ 129.095942291448608, 35.205919331688264 ], [ 129.095901619976274, 35.20624466394279 ], [ 129.095809982545973, 35.20650505356349 ], [ 129.095496469891316, 35.206988998812989 ], [ 129.093883362618755, 35.209299511126197 ], [ 129.093783539096393, 35.209419222044133 ], [ 129.093148504030921, 35.209755024630006 ], [ 129.092780920315448, 35.209946410069406 ], [ 129.092597307460608, 35.210026300919296 ], [ 129.092393335633602, 35.210041146863922 ], [ 129.092730449000953, 35.210522333311246 ], [ 129.0928841949667, 35.210746117416662 ], [ 129.093011552475474, 35.212136241559918 ], [ 129.092991719277421, 35.212238815548375 ], [ 129.092945556045976, 35.212343557259103 ], [ 129.092735504080537, 35.21270590439574 ], [ 129.092619640112929, 35.212865830093577 ], [ 129.092520545062314, 35.213130056037755 ], [ 129.093198503250449, 35.21415853266204 ], [ 129.093270751216409, 35.214253352657892 ], [ 129.0935913941953, 35.214674150426113 ], [ 129.093721999038394, 35.214768025999085 ], [ 129.093994801011462, 35.214961450148934 ], [ 129.094358890175187, 35.215432372035131 ], [ 129.095634659396069, 35.214539328526961 ], [ 129.097541885591909, 35.214076284415107 ] ] ] ] } },
{ "type": "Feature", "properties": { "OBJECTID": 500, "adm_nm": "부산광역시 동래구 명륜동", "adm_cd": "2106065", "adm_cd2": "2626054500", "sgg": "26260", "sido": "26", "sidonm": "부산광역시", "sggnm": "동래구" }, "geometry": { "type": "MultiPolygon", "coordinates": [ [ [ [ 129.093994801011462, 35.214961450148934 ], [ 129.093721999038394, 35.214768025999085 ], [ 129.0935913941953, 35.214674150426113 ], [ 129.093270751216409, 35.214253352657892 ], [ 129.093198503250449, 35.21415853266204 ], [ 129.092520545062314, 35.213130056037755 ], [ 129.092619640112929, 35.212865830093577 ], [ 129.092735504080537, 35.21270590439574 ], [ 129.092945556045976, 35.212343557259103 ], [ 129.092991719277421, 35.212238815548375 ], [ 129.093011552475474, 35.212136241559918 ], [ 129.0928841949667, 35.210746117416662 ], [ 129.092730449000953, 35.210522333311246 ], [ 129.092393335633602, 35.210041146863922 ], [ 129.091840208417665, 35.21007798801466 ], [ 129.091112950509654, 35.21036505343379 ], [ 129.090891512704331, 35.21044497819274 ], [ 129.090799689633172, 35.210469421775585 ], [ 129.090700258987226, 35.210483050548198 ], [ 129.090598397879063, 35.210471485439562 ], [ 129.088132584393321, 35.209706887132917 ], [ 129.087744713477235, 35.209539049186866 ], [ 129.085996702434045, 35.208567675032072 ], [ 129.085944559222611, 35.208530813922764 ], [ 129.083260778975557, 35.205401174528276 ], [ 129.083241914505692, 35.205315893941609 ], [ 129.08342550510352, 35.204839618626607 ], [ 129.08359342281986, 35.204611678426822 ], [ 129.083846011578771, 35.204431866460588 ], [ 129.083953426105751, 35.204401934522878 ], [ 129.084086831357439, 35.204380597220997 ], [ 129.083788113175956, 35.202632490221013 ], [ 129.083653035640651, 35.202335623891841 ], [ 129.083198063478449, 35.202041396868083 ], [ 129.079174352288959, 35.20196464649387 ], [ 129.078445827382723, 35.201954168101302 ], [ 129.078300384631973, 35.202528549537782 ], [ 129.078849478003008, 35.204071816419223 ], [ 129.078756595400336, 35.211831172030529 ], [ 129.078995157802183, 35.212222537800507 ], [ 129.080026091974901, 35.213789075551624 ], [ 129.080484989110545, 35.213690010910476 ], [ 129.08081947172667, 35.213617799723679 ], [ 129.083269224421485, 35.216229641688088 ], [ 129.084944179483301, 35.217922288951101 ], [ 129.086557804091115, 35.217052780687233 ], [ 129.087892086874689, 35.217643419283213 ], [ 129.088328847916614, 35.217681819864815 ], [ 129.092387843947449, 35.216501631245023 ], [ 129.093334000504655, 35.215848090524553 ], [ 129.093691060039674, 35.215526837331879 ], [ 129.093994801011462, 35.214961450148934 ] ] ] ] } }
]
}
