{
"type": "FeatureCollection",
"name": "gangseogu",
"crs": { "type": "name", "properties": { "name": "urn:ogc:def:crs:OGC:1.3:CRS84" } },
"features": [
{ "type": "Feature", "properties": { "OBJECTID": 579, "adm_nm": "부산광역시 강서구 대저1동", "adm_cd": "2112051", "adm_cd2": "2644051000", "sgg": "26440", "sido": "26", "sidonm": "부산광역시", "sggnm": "강서구" }, "geometry": { "type": "MultiPolygon", "coordinates": [ [ [ [ 128.996877482406887, 35.22363387573759 ], [ 128.996160663228181, 35.213058897548734 ], [ 128.995930532781898, 35.209662907388861 ], [ 128.995813516780913, 35.207936038012726 ], [ 128.995052033291728, 35.207302846170322 ], [ 128.994341171482517, 35.206711744525244 ], [ 128.994204703344792, 35.206598269124193 ], [ 128.993514803899018, 35.206024583335406 ], [ 128.992874610938884, 35.205492219772502 ], [ 128.989281729824683, 35.20250427236374 ], [ 128.99178006158067, 35.200961716437568 ], [ 128.989865829154667, 35.19890837213844 ], [ 128.988185047174653, 35.1972385175836 ], [ 128.986682700398092, 35.196032872243855 ], [ 128.984853904764719, 35.19621759400443 ], [ 128.983153914507966, 35.196389555658712 ], [ 128.982066004941771, 35.196499594674769 ], [ 128.981318024705388, 35.196047747484528 ], [ 128.978400160972257, 35.194276508283671 ], [ 128.97247674429147, 35.190680333131283 ], [ 128.971068359537298, 35.192139900191911 ], [ 128.969743507858823, 35.193597340821931 ], [ 128.969058521974176, 35.194747623035568 ], [ 128.968389037528254, 35.195366820980546 ], [ 128.967726919203642, 35.195927259717607 ], [ 128.966185427663305, 35.197133971304702 ], [ 128.965370195988584, 35.196455768990688 ], [ 128.963582656409613, 35.194771697445013 ], [ 128.963587661479096, 35.196478763731498 ], [ 128.963592292522208, 35.198150267174078 ], [ 128.963530358731362, 35.200553202936895 ], [ 128.96347775845706, 35.201811449712153 ], [ 128.963404947497139, 35.203221947326952 ], [ 128.962214621536504, 35.202866007181242 ], [ 128.959135441371757, 35.201558849417175 ], [ 128.957048591492878, 35.200642640425954 ], [ 128.952235124547855, 35.198505287730903 ], [ 128.952612766561373, 35.197996931314883 ], [ 128.953173085409759, 35.197349062378933 ], [ 128.954062213672529, 35.196362308078058 ], [ 128.956705221287194, 35.193232459692446 ], [ 128.957189006227054, 35.192638489363176 ], [ 128.949998556767042, 35.187611378941753 ], [ 128.94716445609177, 35.190287371451213 ], [ 128.945702960354396, 35.191712529828699 ], [ 128.939543201404291, 35.193055676856908 ], [ 128.933999856815518, 35.193213252767379 ], [ 128.932735872183287, 35.190664527885275 ], [ 128.92899405544253, 35.189747217550412 ], [ 128.927093493965828, 35.190377119377082 ], [ 128.929278824790146, 35.191490420300966 ], [ 128.930032301144024, 35.192377761554447 ], [ 128.930457717604384, 35.193359750937901 ], [ 128.930577322301559, 35.193635838499929 ], [ 128.9311695285258, 35.196674454190379 ], [ 128.931164746807781, 35.197348685053356 ], [ 128.931163345670626, 35.197546494403745 ], [ 128.931560382511805, 35.19816383858128 ], [ 128.93281692846486, 35.199957772199724 ], [ 128.933854433016279, 35.201233094558475 ], [ 128.934056670743757, 35.20141614411645 ], [ 128.934564713393684, 35.201875968054729 ], [ 128.934712820872988, 35.201949472873913 ], [ 128.936109720014684, 35.202642705995572 ], [ 128.936728567736537, 35.203080400331849 ], [ 128.936759933327863, 35.203102584777277 ], [ 128.937749275911727, 35.203875581497144 ], [ 128.9380177226017, 35.204086716671362 ], [ 128.938727709644496, 35.204903265746509 ], [ 128.944061353177318, 35.212030961434621 ], [ 128.944808874402725, 35.213076528011769 ], [ 128.945239632508333, 35.213693514923435 ], [ 128.945709889746126, 35.214370918102219 ], [ 128.945961219389972, 35.214826030401731 ], [ 128.946134991249949, 35.215258219198112 ], [ 128.94615811111953, 35.215986615605843 ], [ 128.946150546187113, 35.216389626876428 ], [ 128.946146945270073, 35.216580960117732 ], [ 128.946069321508276, 35.21703410864189 ], [ 128.945886220203676, 35.217522547645011 ], [ 128.945819985317996, 35.217668516830415 ], [ 128.945635086636003, 35.218075960515769 ], [ 128.945438087891688, 35.218345009901313 ], [ 128.945103908898034, 35.218763001747583 ], [ 128.94498012305354, 35.218917867664736 ], [ 128.944861032380317, 35.219095472033615 ], [ 128.94479074379953, 35.219245605819225 ], [ 128.9439380130313, 35.221537324441542 ], [ 128.943892743460253, 35.22167904108445 ], [ 128.943885707316838, 35.22176066522924 ], [ 128.943883432610335, 35.221787128602209 ], [ 128.94387517730226, 35.221883228283012 ], [ 128.943886530535536, 35.222477631801624 ], [ 128.943951515388505, 35.224073111347195 ], [ 128.944127461892748, 35.224843000225185 ], [ 128.947118521561634, 35.226684411225527 ], [ 128.950253576845398, 35.224854479596139 ], [ 128.952463635164435, 35.224317891834652 ], [ 128.958484345589511, 35.224970284906426 ], [ 128.959479313573041, 35.225078072812025 ], [ 128.966809171294642, 35.226521567478869 ], [ 128.970568326686532, 35.227261682379435 ], [ 128.970829714983239, 35.227285072883795 ], [ 128.971673215353746, 35.227360517008279 ], [ 128.976765352506277, 35.227815818194429 ], [ 128.977481401484823, 35.227931350308467 ], [ 128.979325846599409, 35.228228930120011 ], [ 128.980024910086144, 35.228341710942885 ], [ 128.980737839825508, 35.228527210390681 ], [ 128.987750771589504, 35.230892653001895 ], [ 128.993108318712757, 35.232917256836494 ], [ 128.995543127749869, 35.233249687955478 ], [ 128.99760664208236, 35.234387294422277 ], [ 128.997566893687122, 35.233801204535652 ], [ 128.996877482406887, 35.22363387573759 ] ] ] ] } },
{ "type": "Feature", "properties": { "OBJECTID": 580, "adm_nm": "부산광역시 강서구 대저2동", "adm_cd": "2112052", "adm_cd2": "2644052000", "sgg": "26440", "sido": "26", "sidonm": "부산광역시", "sggnm": "강서구" }, "geometry": { "type": "MultiPolygon", "coordinates": [ [ [ [ 128.97247674429147, 35.190680333131283 ], [ 128.966022567801076, 35.186761240011329 ], [ 128.965523978697206, 35.186458450186386 ], [ 128.962014750969956, 35.18198125339427 ], [ 128.962162799299591, 35.179855529602939 ], [ 128.962489905476531, 35.175158589704516 ], [ 128.962563816338246, 35.174097382936502 ], [ 128.962646993615323, 35.172902798501966 ], [ 128.962420924212722, 35.163489487752763 ], [ 128.960590728458442, 35.15447071699932 ], [ 128.959528736341298, 35.149236373254162 ], [ 128.960042517471152, 35.146573677504492 ], [ 128.960820167853313, 35.142543253130384 ], [ 128.961211497786365, 35.140514913547683 ], [ 128.961418866820793, 35.139439998880832 ], [ 128.960573562572165, 35.137181036501275 ], [ 128.95687902012088, 35.127306089733921 ], [ 128.939037681065116, 35.112901215638175 ], [ 128.935684426623538, 35.113220666529614 ], [ 128.9346947232346, 35.113330537702446 ], [ 128.933993736626945, 35.113545567652814 ], [ 128.933695628164145, 35.113669411666741 ], [ 128.933483497858646, 35.113757546020068 ], [ 128.933163657342448, 35.113950807180998 ], [ 128.932669722395474, 35.114898931521616 ], [ 128.932582771303146, 35.116854674995942 ], [ 128.932025993154696, 35.117840844380517 ], [ 128.927911190497866, 35.123124171675826 ], [ 128.927480283647952, 35.123668825361214 ], [ 128.926254040352859, 35.12492529021528 ], [ 128.924506891872767, 35.126761371001884 ], [ 128.923658987920987, 35.128041382777255 ], [ 128.923057232966414, 35.12912304372842 ], [ 128.922488796250633, 35.130132172952905 ], [ 128.922062177993269, 35.130889462662019 ], [ 128.921721122469535, 35.131379670559767 ], [ 128.921403960696807, 35.131597434789221 ], [ 128.921143664323296, 35.131706270752233 ], [ 128.920755689098854, 35.13175272639387 ], [ 128.919104578022626, 35.131810058508371 ], [ 128.918974272227274, 35.131846453265183 ], [ 128.918882158351238, 35.131872188808643 ], [ 128.918598185717372, 35.132004335946768 ], [ 128.9183898890482, 35.132163781580395 ], [ 128.918096107460286, 35.132642334259494 ], [ 128.918029357196389, 35.133194962784565 ], [ 128.918208197527832, 35.134160336040338 ], [ 128.918791094358284, 35.135007947222078 ], [ 128.921992965878758, 35.13862777105772 ], [ 128.922064545839049, 35.138737153289021 ], [ 128.923242914275363, 35.140538054021683 ], [ 128.924547171491469, 35.14262277232551 ], [ 128.925454678676857, 35.144157192877707 ], [ 128.925997934427244, 35.145297864027349 ], [ 128.92619840547917, 35.146330985475501 ], [ 128.926115793158516, 35.147453408310049 ], [ 128.92588615914633, 35.148651754534725 ], [ 128.925400826424919, 35.149715786735761 ], [ 128.924375939047593, 35.151566566223771 ], [ 128.924204113759686, 35.151810821990807 ], [ 128.923789980701201, 35.152399510575194 ], [ 128.921996258705263, 35.156909271212697 ], [ 128.920457201329526, 35.161373096413364 ], [ 128.920311256673301, 35.161885279601741 ], [ 128.919694706114598, 35.163646301655064 ], [ 128.919246829724017, 35.164925500709515 ], [ 128.918303347296444, 35.166691286251307 ], [ 128.916945581903065, 35.168957664286943 ], [ 128.916438718306722, 35.169529723669612 ], [ 128.916073139601679, 35.17035228850731 ], [ 128.916252294916575, 35.17084432220291 ], [ 128.916435790183641, 35.171319856465765 ], [ 128.916512932715563, 35.171519760587238 ], [ 128.917724022885238, 35.174512283825472 ], [ 128.918309772780049, 35.175907872392322 ], [ 128.91957422070891, 35.181042505590057 ], [ 128.91982905770999, 35.182151713568352 ], [ 128.920219764453833, 35.183529312895146 ], [ 128.921256750178003, 35.186673751491412 ], [ 128.922621802505716, 35.188481271408463 ], [ 128.922959068288094, 35.18883923482273 ], [ 128.923764597613484, 35.189255627049242 ], [ 128.924967616604192, 35.189694620618354 ], [ 128.927093493965828, 35.190377119377082 ], [ 128.92899405544253, 35.189747217550412 ], [ 128.932735872183287, 35.190664527885275 ], [ 128.933999856815518, 35.193213252767379 ], [ 128.939543201404291, 35.193055676856908 ], [ 128.945702960354396, 35.191712529828699 ], [ 128.94716445609177, 35.190287371451213 ], [ 128.949998556767042, 35.187611378941753 ], [ 128.957189006227054, 35.192638489363176 ], [ 128.956705221287194, 35.193232459692446 ], [ 128.954062213672529, 35.196362308078058 ], [ 128.953173085409759, 35.197349062378933 ], [ 128.952612766561373, 35.197996931314883 ], [ 128.952235124547855, 35.198505287730903 ], [ 128.957048591492878, 35.200642640425954 ], [ 128.959135441371757, 35.201558849417175 ], [ 128.962214621536504, 35.202866007181242 ], [ 128.963404947497139, 35.203221947326952 ], [ 128.96347775845706, 35.201811449712153 ], [ 128.963530358731362, 35.200553202936895 ], [ 128.963592292522208, 35.198150267174078 ], [ 128.963587661479096, 35.196478763731498 ], [ 128.963582656409613, 35.194771697445013 ], [ 128.965370195988584, 35.196455768990688 ], [ 128.966185427663305, 35.197133971304702 ], [ 128.967726919203642, 35.195927259717607 ], [ 128.968389037528254, 35.195366820980546 ], [ 128.969058521974176, 35.194747623035568 ], [ 128.969743507858823, 35.193597340821931 ], [ 128.971068359537298, 35.192139900191911 ], [ 128.97247674429147, 35.190680333131283 ] ] ] ] } },
{ "type": "Feature", "properties": { "OBJECTID": 581, "adm_nm": "부산광역시 강서구 강동동", "adm_cd": "2112053", "adm_cd2": "2644053000", "sgg": "26440", "sido": "26", "sidonm": "부산광역시", "sggnm": "강서구" }, "geometry": { "type": "MultiPolygon", "coordinates": [ [ [ [ 128.947118521561634, 35.226684411225527 ], [ 128.944127461892748, 35.224843000225185 ], [ 128.943951515388505, 35.224073111347195 ], [ 128.943886530535536, 35.222477631801624 ], [ 128.94387517730226, 35.221883228283012 ], [ 128.943883432610335, 35.221787128602209 ], [ 128.943885707316838, 35.22176066522924 ], [ 128.943892743460253, 35.22167904108445 ], [ 128.9439380130313, 35.221537324441542 ], [ 128.94479074379953, 35.219245605819225 ], [ 128.944861032380317, 35.219095472033615 ], [ 128.94498012305354, 35.218917867664736 ], [ 128.945103908898034, 35.218763001747583 ], [ 128.945438087891688, 35.218345009901313 ], [ 128.945635086636003, 35.218075960515769 ], [ 128.945819985317996, 35.217668516830415 ], [ 128.945886220203676, 35.217522547645011 ], [ 128.946069321508276, 35.21703410864189 ], [ 128.946146945270073, 35.216580960117732 ], [ 128.946150546187113, 35.216389626876428 ], [ 128.94615811111953, 35.215986615605843 ], [ 128.946134991249949, 35.215258219198112 ], [ 128.945961219389972, 35.214826030401731 ], [ 128.945709889746126, 35.214370918102219 ], [ 128.945239632508333, 35.213693514923435 ], [ 128.944808874402725, 35.213076528011769 ], [ 128.944061353177318, 35.212030961434621 ], [ 128.938727709644496, 35.204903265746509 ], [ 128.9380177226017, 35.204086716671362 ], [ 128.937749275911727, 35.203875581497144 ], [ 128.936759933327863, 35.203102584777277 ], [ 128.936728567736537, 35.203080400331849 ], [ 128.936109720014684, 35.202642705995572 ], [ 128.934712820872988, 35.201949472873913 ], [ 128.934564713393684, 35.201875968054729 ], [ 128.934056670743757, 35.20141614411645 ], [ 128.933854433016279, 35.201233094558475 ], [ 128.93281692846486, 35.199957772199724 ], [ 128.931560382511805, 35.19816383858128 ], [ 128.931163345670626, 35.197546494403745 ], [ 128.931164746807781, 35.197348685053356 ], [ 128.9311695285258, 35.196674454190379 ], [ 128.930577322301559, 35.193635838499929 ], [ 128.930457717604384, 35.193359750937901 ], [ 128.930032301144024, 35.192377761554447 ], [ 128.929278824790146, 35.191490420300966 ], [ 128.927093493965828, 35.190377119377082 ], [ 128.924967616604192, 35.189694620618354 ], [ 128.923764597613484, 35.189255627049242 ], [ 128.922959068288094, 35.18883923482273 ], [ 128.922621802505716, 35.188481271408463 ], [ 128.921256750178003, 35.186673751491412 ], [ 128.920219764453833, 35.183529312895146 ], [ 128.91982905770999, 35.182151713568352 ], [ 128.91957422070891, 35.181042505590057 ], [ 128.918309772780049, 35.175907872392322 ], [ 128.917724022885238, 35.174512283825472 ], [ 128.916512932715563, 35.171519760587238 ], [ 128.916435790183641, 35.171319856465765 ], [ 128.916252294916575, 35.17084432220291 ], [ 128.916073139601679, 35.17035228850731 ], [ 128.916438718306722, 35.169529723669612 ], [ 128.916945581903065, 35.168957664286943 ], [ 128.918303347296444, 35.166691286251307 ], [ 128.919246829724017, 35.164925500709515 ], [ 128.919694706114598, 35.163646301655064 ], [ 128.920311256673301, 35.161885279601741 ], [ 128.920457201329526, 35.161373096413364 ], [ 128.921996258705263, 35.156909271212697 ], [ 128.923789980701201, 35.152399510575194 ], [ 128.924204113759686, 35.151810821990807 ], [ 128.924375939047593, 35.151566566223771 ], [ 128.925400826424919, 35.149715786735761 ], [ 128.92588615914633, 35.148651754534725 ], [ 128.926115793158516, 35.147453408310049 ], [ 128.92619840547917, 35.146330985475501 ], [ 128.925997934427244, 35.145297864027349 ], [ 128.925454678676857, 35.144157192877707 ], [ 128.924547171491469, 35.14262277232551 ], [ 128.923242914275363, 35.140538054021683 ], [ 128.922064545839049, 35.138737153289021 ], [ 128.921992965878758, 35.13862777105772 ], [ 128.918791094358284, 35.135007947222078 ], [ 128.918208197527832, 35.134160336040338 ], [ 128.916769413349385, 35.134751009346303 ], [ 128.916108437914431, 35.13467576897591 ], [ 128.915496921462477, 35.134606154931866 ], [ 128.91136275011192, 35.13398052020144 ], [ 128.908999887222166, 35.133166021123706 ], [ 128.906241846336115, 35.131470344801912 ], [ 128.906092478860387, 35.13142886112778 ], [ 128.904164519079359, 35.130893435607504 ], [ 128.903782606080711, 35.13078738539631 ], [ 128.903715039488162, 35.132417047289408 ], [ 128.903481444259256, 35.133192023722422 ], [ 128.903201593986154, 35.13412043410483 ], [ 128.9029587823307, 35.137067249828505 ], [ 128.902955542350185, 35.14123800444311 ], [ 128.902948433837651, 35.150452945189052 ], [ 128.902947630018161, 35.151498097589474 ], [ 128.902958850126112, 35.160073806545313 ], [ 128.902962014399577, 35.162481818107629 ], [ 128.902962067570286, 35.162521351181724 ], [ 128.903305688791932, 35.164071679057265 ], [ 128.903323909729323, 35.164153883955578 ], [ 128.904770882010212, 35.170681333256553 ], [ 128.90497752744929, 35.171613429935057 ], [ 128.905431694882282, 35.175905695320658 ], [ 128.906085451243825, 35.187633444724469 ], [ 128.906056060693487, 35.188162346058512 ], [ 128.90604096324148, 35.188433866054012 ], [ 128.905901387328925, 35.189296293354367 ], [ 128.905585776325722, 35.191246330855719 ], [ 128.905403335980878, 35.191726536373864 ], [ 128.905237650130601, 35.192162631774671 ], [ 128.904856749923283, 35.193165136574891 ], [ 128.904269388363133, 35.194711008944516 ], [ 128.90440027095508, 35.195686884906273 ], [ 128.904555523765026, 35.196844325304014 ], [ 128.905641551754513, 35.199559604976422 ], [ 128.905686135875357, 35.199586814041737 ], [ 128.907709614566045, 35.200822247812987 ], [ 128.914762117339365, 35.205660869231856 ], [ 128.916768299345961, 35.207037100072057 ], [ 128.918023599961316, 35.208927147548714 ], [ 128.918847960344777, 35.210168327650614 ], [ 128.919863748167899, 35.212376171400784 ], [ 128.920653977152142, 35.214093659328675 ], [ 128.923488714319177, 35.216053969890453 ], [ 128.923836045498348, 35.216304203259625 ], [ 128.926026904111154, 35.217882483979274 ], [ 128.927236248430688, 35.218704805832914 ], [ 128.931681065376978, 35.221702220554661 ], [ 128.932858345731063, 35.222140906004157 ], [ 128.936855252391808, 35.22492818898322 ], [ 128.941018456035152, 35.226865418118642 ], [ 128.944832086659204, 35.227921794406058 ], [ 128.946040051140926, 35.227268075059627 ], [ 128.947118521561634, 35.226684411225527 ] ] ] ] } },
{ "type": "Feature", "properties": { "OBJECTID": 582, "adm_nm": "부산광역시 강서구 명지1동", "adm_cd": "2112059", "adm_cd2": "2644053500", "sgg": "26440", "sido": "26", "sidonm": "부산광역시", "sggnm": "강서구" }, "geometry": { "type": "MultiPolygon", "coordinates": [ [ [ [ 128.918208197527832, 35.134160336040338 ], [ 128.918029357196389, 35.133194962784565 ], [ 128.918096107460286, 35.132642334259494 ], [ 128.9183898890482, 35.132163781580395 ], [ 128.918598185717372, 35.132004335946768 ], [ 128.918882158351238, 35.131872188808643 ], [ 128.918974272227274, 35.131846453265183 ], [ 128.919104578022626, 35.131810058508371 ], [ 128.920755689098854, 35.13175272639387 ], [ 128.921143664323296, 35.131706270752233 ], [ 128.921403960696807, 35.131597434789221 ], [ 128.921721122469535, 35.131379670559767 ], [ 128.922062177993269, 35.130889462662019 ], [ 128.922488796250633, 35.130132172952905 ], [ 128.923057232966414, 35.12912304372842 ], [ 128.923658987920987, 35.128041382777255 ], [ 128.924506891872767, 35.126761371001884 ], [ 128.926254040352859, 35.12492529021528 ], [ 128.927480283647952, 35.123668825361214 ], [ 128.927911190497866, 35.123124171675826 ], [ 128.932025993154696, 35.117840844380517 ], [ 128.932582771303146, 35.116854674995942 ], [ 128.932669722395474, 35.114898931521616 ], [ 128.933163657342448, 35.113950807180998 ], [ 128.933483497858646, 35.113757546020068 ], [ 128.933695628164145, 35.113669411666741 ], [ 128.933993736626945, 35.113545567652814 ], [ 128.9346947232346, 35.113330537702446 ], [ 128.935684426623538, 35.113220666529614 ], [ 128.939037681065116, 35.112901215638175 ], [ 128.936856403381228, 35.109884367743234 ], [ 128.932904654914267, 35.11028433141648 ], [ 128.932474831050712, 35.108879309830357 ], [ 128.93178371472473, 35.106663695172465 ], [ 128.930350361719377, 35.103118485073161 ], [ 128.929038926842566, 35.099995431808267 ], [ 128.928656160011087, 35.099126289511766 ], [ 128.926782992328782, 35.095357290881438 ], [ 128.925354447408779, 35.093411534530844 ], [ 128.921900025603293, 35.092686270455275 ], [ 128.914446681549435, 35.090048911341384 ], [ 128.912172906966191, 35.089365281474244 ], [ 128.896272598364419, 35.08899668198007 ], [ 128.896855221341497, 35.090406146376097 ], [ 128.897762887651169, 35.093084267155312 ], [ 128.899394789938242, 35.099291602252983 ], [ 128.900837244840176, 35.106943854782116 ], [ 128.900959523366993, 35.107972423772857 ], [ 128.900559789880333, 35.109120397180412 ], [ 128.900405905974111, 35.110477611667214 ], [ 128.900551175528193, 35.111145139782607 ], [ 128.900854824174644, 35.111945106951254 ], [ 128.900867094948808, 35.111977424004003 ], [ 128.90159676450773, 35.113062022723184 ], [ 128.902093434439905, 35.113693582668034 ], [ 128.903528578251638, 35.114672052074212 ], [ 128.90455409322351, 35.115644123843943 ], [ 128.905462760930789, 35.118059130189152 ], [ 128.903103981272949, 35.118647090754578 ], [ 128.900644162087332, 35.119256386360945 ], [ 128.900006203334726, 35.12141439216478 ], [ 128.900236047249194, 35.123274938432189 ], [ 128.900526388904638, 35.125241611799211 ], [ 128.901176178077833, 35.128048303809088 ], [ 128.901793212308348, 35.13061383110383 ], [ 128.903782606080711, 35.13078738539631 ], [ 128.904164519079359, 35.130893435607504 ], [ 128.906092478860387, 35.13142886112778 ], [ 128.906241846336115, 35.131470344801912 ], [ 128.908999887222166, 35.133166021123706 ], [ 128.91136275011192, 35.13398052020144 ], [ 128.915496921462477, 35.134606154931866 ], [ 128.916108437914431, 35.13467576897591 ], [ 128.916769413349385, 35.134751009346303 ], [ 128.918208197527832, 35.134160336040338 ] ] ] ] } },
{ "type": "Feature", "properties": { "OBJECTID": 583, "adm_nm": "부산광역시 강서구 가락동", "adm_cd": "2112055", "adm_cd2": "2644055000", "sgg": "26440", "sido": "26", "sidonm": "부산광역시", "sggnm": "강서구" }, "geometry": { "type": "MultiPolygon", "coordinates": [ [ [ [ 128.912388160852572, 35.222562999014727 ], [ 128.91256781219667, 35.222432181140626 ], [ 128.912815891795844, 35.222194337398385 ], [ 128.915462904233891, 35.218565975996164 ], [ 128.916464556465513, 35.217169782587625 ], [ 128.916633239941149, 35.216963965159437 ], [ 128.91976070355571, 35.216422295679436 ], [ 128.923488714319177, 35.216053969890453 ], [ 128.920653977152142, 35.214093659328675 ], [ 128.919863748167899, 35.212376171400784 ], [ 128.918847960344777, 35.210168327650614 ], [ 128.918023599961316, 35.208927147548714 ], [ 128.916768299345961, 35.207037100072057 ], [ 128.914762117339365, 35.205660869231856 ], [ 128.907709614566045, 35.200822247812987 ], [ 128.905686135875357, 35.199586814041737 ], [ 128.905641551754513, 35.199559604976422 ], [ 128.904555523765026, 35.196844325304014 ], [ 128.90440027095508, 35.195686884906273 ], [ 128.904269388363133, 35.194711008944516 ], [ 128.904856749923283, 35.193165136574891 ], [ 128.905237650130601, 35.192162631774671 ], [ 128.905403335980878, 35.191726536373864 ], [ 128.905585776325722, 35.191246330855719 ], [ 128.905901387328925, 35.189296293354367 ], [ 128.90604096324148, 35.188433866054012 ], [ 128.906056060693487, 35.188162346058512 ], [ 128.906085451243825, 35.187633444724469 ], [ 128.905431694882282, 35.175905695320658 ], [ 128.90497752744929, 35.171613429935057 ], [ 128.904770882010212, 35.170681333256553 ], [ 128.903323909729323, 35.164153883955578 ], [ 128.903305688791932, 35.164071679057265 ], [ 128.902962067570286, 35.162521351181724 ], [ 128.902962014399577, 35.162481818107629 ], [ 128.902958850126112, 35.160073806545313 ], [ 128.902947630018161, 35.151498097589474 ], [ 128.902948433837651, 35.150452945189052 ], [ 128.902955542350185, 35.14123800444311 ], [ 128.9029587823307, 35.137067249828505 ], [ 128.903201593986154, 35.13412043410483 ], [ 128.903481444259256, 35.133192023722422 ], [ 128.903715039488162, 35.132417047289408 ], [ 128.903782606080711, 35.13078738539631 ], [ 128.901604331236996, 35.132828375492203 ], [ 128.900506355430593, 35.133514833970274 ], [ 128.898041129468112, 35.134946879591737 ], [ 128.896353015233984, 35.135675229847479 ], [ 128.895420630486512, 35.136310865048245 ], [ 128.89458131118829, 35.137005944156463 ], [ 128.892435813999356, 35.13919332935388 ], [ 128.890601083210754, 35.141126386480046 ], [ 128.889356061514491, 35.143263580432183 ], [ 128.888961710246804, 35.144001466563026 ], [ 128.888349250591119, 35.145265221628833 ], [ 128.888152009657375, 35.145680831552909 ], [ 128.887943666381148, 35.146647959822239 ], [ 128.887662352804938, 35.147988381437109 ], [ 128.887483824217526, 35.149880435487376 ], [ 128.887409997961583, 35.150881636164137 ], [ 128.887103360652588, 35.155633111189609 ], [ 128.887081666979981, 35.156354336313036 ], [ 128.887308528070321, 35.157041859403627 ], [ 128.887628414592911, 35.157839775051094 ], [ 128.887948530435978, 35.158476452047545 ], [ 128.888310155058065, 35.15904529693664 ], [ 128.889106099446565, 35.160038776767458 ], [ 128.8896230764623, 35.160590793855398 ], [ 128.890026263041307, 35.161066320029988 ], [ 128.890398057209353, 35.161796388117459 ], [ 128.89060425943515, 35.162466907331492 ], [ 128.890618838552399, 35.162605996671047 ], [ 128.890686080031941, 35.163247627719379 ], [ 128.890643690960928, 35.163985804298775 ], [ 128.890344124934387, 35.164349229701969 ], [ 128.880892559745007, 35.171505658442996 ], [ 128.880199306697165, 35.172030492992512 ], [ 128.880217810837536, 35.17480743826588 ], [ 128.880224536095966, 35.175817044893641 ], [ 128.880090146577913, 35.177786510001411 ], [ 128.880016198000106, 35.17887018106326 ], [ 128.880098553026443, 35.179758462212938 ], [ 128.88065328767982, 35.180995225152515 ], [ 128.881136973977874, 35.181463649732542 ], [ 128.881634834284654, 35.181945795641333 ], [ 128.881564818179896, 35.182938098683628 ], [ 128.878893565532593, 35.185241547982436 ], [ 128.876497778826092, 35.187413604779159 ], [ 128.876020116909615, 35.188183468247566 ], [ 128.875817485503774, 35.188796598465288 ], [ 128.87589629638569, 35.190879460455022 ], [ 128.876190597576141, 35.192908179641819 ], [ 128.872784660544397, 35.198298178288056 ], [ 128.870388977761365, 35.20171224662657 ], [ 128.870977282178103, 35.202249293203302 ], [ 128.872033136761928, 35.203079225836255 ], [ 128.872522284309696, 35.203463698825253 ], [ 128.875433011647459, 35.20588594987278 ], [ 128.877407100161491, 35.208097561456377 ], [ 128.877705258014174, 35.208431580176033 ], [ 128.879056626430582, 35.209762984505119 ], [ 128.87964428595015, 35.210156479107702 ], [ 128.880476071698297, 35.210226155611714 ], [ 128.881611359436818, 35.210465579321401 ], [ 128.881752695208206, 35.210495385966382 ], [ 128.883814262378252, 35.212073772968346 ], [ 128.884138867467897, 35.212512627373911 ], [ 128.883952691777779, 35.213165890506289 ], [ 128.884142477781609, 35.21367929321098 ], [ 128.886032996959585, 35.214527942357179 ], [ 128.886269349939113, 35.21459603399169 ], [ 128.886421996057521, 35.214633001464875 ], [ 128.887127089183764, 35.214255261011175 ], [ 128.887515588923549, 35.214187989733439 ], [ 128.887946991136261, 35.214349389884184 ], [ 128.888612482280649, 35.214726463751624 ], [ 128.88870243833037, 35.214736750758163 ], [ 128.888790349134865, 35.214746803298503 ], [ 128.88912017823364, 35.214784515007068 ], [ 128.893702058717054, 35.213760323986222 ], [ 128.896597715057993, 35.213106035902783 ], [ 128.896682745980371, 35.213128109319854 ], [ 128.897203745602638, 35.213263401791991 ], [ 128.904942838646861, 35.215344626997826 ], [ 128.908876419050387, 35.214790177679056 ], [ 128.910229095360535, 35.215018837454792 ], [ 128.90504598342622, 35.22007429742726 ], [ 128.909108808040514, 35.222809774317248 ], [ 128.909531041419967, 35.223085364157392 ], [ 128.91021326169701, 35.222941880645514 ], [ 128.909848356261051, 35.222744753319326 ], [ 128.90877152055171, 35.221878135599752 ], [ 128.908672622978997, 35.221589291674185 ], [ 128.908714226479304, 35.220700830687939 ], [ 128.908892500403226, 35.220558731545417 ], [ 128.909192210171142, 35.220764131507508 ], [ 128.909954359871477, 35.221732353864361 ], [ 128.910129847628923, 35.22209158368274 ], [ 128.909895054673711, 35.222335752585053 ], [ 128.909899514898768, 35.222380175685288 ], [ 128.910021065014405, 35.222576477540692 ], [ 128.910295337527856, 35.222933720402139 ], [ 128.912388160852572, 35.222562999014727 ] ] ] ] } },
{ "type": "Feature", "properties": { "OBJECTID": 584, "adm_nm": "부산광역시 강서구 녹산동", "adm_cd": "2112056", "adm_cd2": "2644056000", "sgg": "26440", "sido": "26", "sidonm": "부산광역시", "sggnm": "강서구" }, "geometry": { "type": "MultiPolygon", "coordinates": [ [ [ [ 128.880199306697165, 35.172030492992512 ], [ 128.880892559745007, 35.171505658442996 ], [ 128.890344124934387, 35.164349229701969 ], [ 128.890643690960928, 35.163985804298775 ], [ 128.890686080031941, 35.163247627719379 ], [ 128.890618838552399, 35.162605996671047 ], [ 128.89060425943515, 35.162466907331492 ], [ 128.890398057209353, 35.161796388117459 ], [ 128.890026263041307, 35.161066320029988 ], [ 128.8896230764623, 35.160590793855398 ], [ 128.889106099446565, 35.160038776767458 ], [ 128.888310155058065, 35.15904529693664 ], [ 128.887948530435978, 35.158476452047545 ], [ 128.887628414592911, 35.157839775051094 ], [ 128.887308528070321, 35.157041859403627 ], [ 128.887081666979981, 35.156354336313036 ], [ 128.887103360652588, 35.155633111189609 ], [ 128.887409997961583, 35.150881636164137 ], [ 128.887483824217526, 35.149880435487376 ], [ 128.887662352804938, 35.147988381437109 ], [ 128.887943666381148, 35.146647959822239 ], [ 128.888152009657375, 35.145680831552909 ], [ 128.888349250591119, 35.145265221628833 ], [ 128.888961710246804, 35.144001466563026 ], [ 128.889356061514491, 35.143263580432183 ], [ 128.890601083210754, 35.141126386480046 ], [ 128.892435813999356, 35.13919332935388 ], [ 128.89458131118829, 35.137005944156463 ], [ 128.895420630486512, 35.136310865048245 ], [ 128.896353015233984, 35.135675229847479 ], [ 128.898041129468112, 35.134946879591737 ], [ 128.900506355430593, 35.133514833970274 ], [ 128.901604331236996, 35.132828375492203 ], [ 128.903782606080711, 35.13078738539631 ], [ 128.901793212308348, 35.13061383110383 ], [ 128.901176178077833, 35.128048303809088 ], [ 128.900526388904638, 35.125241611799211 ], [ 128.900236047249194, 35.123274938432189 ], [ 128.900006203334726, 35.12141439216478 ], [ 128.900644162087332, 35.119256386360945 ], [ 128.900880331844519, 35.118229893876368 ], [ 128.899588751273768, 35.11448734700889 ], [ 128.898248746079929, 35.110544672416026 ], [ 128.896121478379882, 35.10428473654494 ], [ 128.892751166208171, 35.09436470172794 ], [ 128.891318184815731, 35.090642960623271 ], [ 128.890694435294392, 35.089022845631305 ], [ 128.889267692038118, 35.085316774011332 ], [ 128.886878409587382, 35.079109576392284 ], [ 128.884823940330051, 35.063535097407943 ], [ 128.881965594201944, 35.060055090046241 ], [ 128.873308676082729, 35.061554231475547 ], [ 128.860298464291361, 35.068370386998588 ], [ 128.858796020611976, 35.069758619643203 ], [ 128.859981770945694, 35.071315693974036 ], [ 128.861131837816941, 35.071298060558419 ], [ 128.863142986971155, 35.069796966642947 ], [ 128.873493270601045, 35.069637610930762 ], [ 128.874547716937343, 35.069733064750224 ], [ 128.874808860383894, 35.07052768679258 ], [ 128.875011304438317, 35.074068591803375 ], [ 128.875192983937069, 35.0793568770017 ], [ 128.871951153095495, 35.080478063941342 ], [ 128.857107299728455, 35.080390315996134 ], [ 128.85268938543328, 35.080358785457463 ], [ 128.834762464764822, 35.080245039372137 ], [ 128.834517455408502, 35.080243466910581 ], [ 128.835819013166628, 35.081764707598786 ], [ 128.835221996728706, 35.082273501505753 ], [ 128.834160434055292, 35.082414497768553 ], [ 128.833157004365233, 35.082887773831381 ], [ 128.833191402759155, 35.084763603693773 ], [ 128.832934292382276, 35.085946337902783 ], [ 128.832473055455949, 35.086313150727612 ], [ 128.833257549668303, 35.087384120759161 ], [ 128.832979283553357, 35.088674879265533 ], [ 128.832220387868517, 35.088472949180606 ], [ 128.828183927768691, 35.09173435955632 ], [ 128.82595125868869, 35.093538163799096 ], [ 128.824632256775004, 35.094603751786842 ], [ 128.822884565137912, 35.096916957227243 ], [ 128.822763195310586, 35.098816113386093 ], [ 128.823936088820432, 35.101767712017043 ], [ 128.824814573619818, 35.10199377404097 ], [ 128.825709160614934, 35.102033729514901 ], [ 128.827742283518717, 35.102123302299191 ], [ 128.830490419510198, 35.102215395612625 ], [ 128.83114887702564, 35.102232165781331 ], [ 128.831807343468313, 35.102248932270193 ], [ 128.832098521804681, 35.102191118333479 ], [ 128.832484189242166, 35.101998345455172 ], [ 128.833052691302015, 35.101710010631834 ], [ 128.833716966852393, 35.101408250698846 ], [ 128.834502456308968, 35.101238901098625 ], [ 128.834586093550058, 35.101220884218812 ], [ 128.83484020892422, 35.101223982118654 ], [ 128.834885517985441, 35.101225268441247 ], [ 128.835616277281133, 35.101395720549675 ], [ 128.836655820798114, 35.101987753302133 ], [ 128.840588788645817, 35.10527184773845 ], [ 128.84132780983964, 35.106045978235997 ], [ 128.842081094285874, 35.107032098321795 ], [ 128.84303447170123, 35.108985557996583 ], [ 128.843095477595767, 35.109127057648173 ], [ 128.843139391678449, 35.109351904324313 ], [ 128.843205131803927, 35.10968851663921 ], [ 128.843249806051517, 35.110153590441712 ], [ 128.843273116596691, 35.110572613301187 ], [ 128.842940390509909, 35.112969748578259 ], [ 128.842899631249395, 35.113165419382369 ], [ 128.842791818258036, 35.113375153941838 ], [ 128.842665335913551, 35.113546792537115 ], [ 128.842155063110113, 35.114062705523452 ], [ 128.841695897345005, 35.114479639944477 ], [ 128.841579797186711, 35.114571373417412 ], [ 128.841379836731392, 35.114690558555651 ], [ 128.840513948267414, 35.115041007437569 ], [ 128.840194238057876, 35.115152418384405 ], [ 128.84007788047262, 35.115159711725219 ], [ 128.839938983037314, 35.115150585476755 ], [ 128.838511984434689, 35.115054575851829 ], [ 128.838240102368786, 35.115278670976252 ], [ 128.837660459765829, 35.115846108203002 ], [ 128.83756028429039, 35.115966591334889 ], [ 128.837490505433237, 35.116102047041394 ], [ 128.836254238939006, 35.118644160298665 ], [ 128.836326258824755, 35.11973598053175 ], [ 128.836286998152133, 35.122086219216982 ], [ 128.836243333279981, 35.122687847262583 ], [ 128.836153719106733, 35.122953936194989 ], [ 128.835999923541692, 35.123229126011459 ], [ 128.835646313518907, 35.123623381676204 ], [ 128.835506956172708, 35.123809846130762 ], [ 128.835393799136767, 35.124063595295318 ], [ 128.834836427411091, 35.12531348816367 ], [ 128.834395831104644, 35.126301489216573 ], [ 128.834202352809513, 35.12808586083942 ], [ 128.834177305196647, 35.128265580457558 ], [ 128.834137460852531, 35.128430882524533 ], [ 128.834058008737685, 35.128651270930192 ], [ 128.833879795964236, 35.128858796228215 ], [ 128.833568021596562, 35.129189100761842 ], [ 128.833177248165271, 35.129506575919898 ], [ 128.832979434370259, 35.129641985858377 ], [ 128.832875710125251, 35.129654560517075 ], [ 128.832031526704782, 35.129530426169715 ], [ 128.831750342422652, 35.129385858426062 ], [ 128.831476604267834, 35.129220104367576 ], [ 128.83115608508723, 35.128999173653519 ], [ 128.830889920385658, 35.128757098491462 ], [ 128.830717562549864, 35.128532134570342 ], [ 128.830594304227333, 35.128434422820064 ], [ 128.830466113114909, 35.128340968553928 ], [ 128.830258832964034, 35.128281310349934 ], [ 128.829967529383737, 35.128259700005977 ], [ 128.827472748673415, 35.1281458990739 ], [ 128.827294906844173, 35.128175316557474 ], [ 128.827097188719392, 35.12826407757494 ], [ 128.826884529885405, 35.128416418004811 ], [ 128.826726141149607, 35.128585809054591 ], [ 128.826508201039303, 35.128895022146509 ], [ 128.826483330434542, 35.128973433448884 ], [ 128.82650768133513, 35.129134598786621 ], [ 128.826487419120383, 35.129380493848444 ], [ 128.826457525069912, 35.129499167077228 ], [ 128.826363559010559, 35.129562639779529 ], [ 128.824156718447938, 35.130441399548879 ], [ 128.820289613500591, 35.131817676429336 ], [ 128.818052266140654, 35.132374848492972 ], [ 128.817861106822534, 35.132411670659167 ], [ 128.817699562025894, 35.13242899253725 ], [ 128.817599469810432, 35.132430789630881 ], [ 128.817133154613146, 35.132422280501153 ], [ 128.81631422830182, 35.132424938966828 ], [ 128.815690763528323, 35.132507971045378 ], [ 128.815547419863435, 35.132527280722179 ], [ 128.815447240231521, 35.132562274599422 ], [ 128.808414917856993, 35.137779643822654 ], [ 128.808289561405502, 35.137875136222746 ], [ 128.807147186891939, 35.138986565595957 ], [ 128.807060460324323, 35.139103602224743 ], [ 128.806953158573521, 35.139257732542518 ], [ 128.806905112766742, 35.139372881239872 ], [ 128.80687758126183, 35.139470491685714 ], [ 128.806635194831387, 35.1409446646256 ], [ 128.804565033769478, 35.141839709749853 ], [ 128.802334546543335, 35.143152428306315 ], [ 128.80132924347231, 35.146742443583967 ], [ 128.799383227765418, 35.148883671755847 ], [ 128.79617207688645, 35.152553392874857 ], [ 128.79442277056819, 35.155541248588428 ], [ 128.793618021850847, 35.15705431613538 ], [ 128.794022737256654, 35.157938640752427 ], [ 128.795671069364317, 35.158387018201935 ], [ 128.797050879378133, 35.158706011842391 ], [ 128.79737258154293, 35.158567884038156 ], [ 128.798051481280538, 35.157891074282553 ], [ 128.79853844229865, 35.157883849980237 ], [ 128.800739529909208, 35.157960289468811 ], [ 128.801799780897312, 35.158514285210281 ], [ 128.802157871750467, 35.159357550129137 ], [ 128.803723617696704, 35.160073731201258 ], [ 128.805958652654397, 35.16049741031874 ], [ 128.806046434176977, 35.160415853609933 ], [ 128.806670671332455, 35.159835891739782 ], [ 128.807414144452906, 35.159412635229664 ], [ 128.808630089684897, 35.158994462218118 ], [ 128.809731987804014, 35.159426556206938 ], [ 128.811441596995252, 35.159970776641444 ], [ 128.81586430881589, 35.160377378847848 ], [ 128.821155444792026, 35.158018972292886 ], [ 128.822469454226706, 35.157368847778038 ], [ 128.822775177459704, 35.156515675205505 ], [ 128.825843719993173, 35.155778508233361 ], [ 128.828013080532656, 35.155757937371526 ], [ 128.828384558882391, 35.156528177153632 ], [ 128.829511919643039, 35.156970050273131 ], [ 128.829992829535399, 35.157158529654509 ], [ 128.830201042334267, 35.15722812024589 ], [ 128.830604104410156, 35.157171596002691 ], [ 128.832525956952026, 35.156902058467857 ], [ 128.834056415635757, 35.157351679411263 ], [ 128.835061927051527, 35.15808805828685 ], [ 128.835312281047095, 35.158462744063726 ], [ 128.835382681736718, 35.158568106034735 ], [ 128.836161438123042, 35.159065462354 ], [ 128.83743510323481, 35.159252245285408 ], [ 128.840937798605722, 35.158786930942036 ], [ 128.841696385086806, 35.158387497653337 ], [ 128.843355351111342, 35.157986475901104 ], [ 128.843638824365541, 35.158404168899359 ], [ 128.843843936258679, 35.158706395108474 ], [ 128.844555791000744, 35.160162388527006 ], [ 128.844411812230675, 35.162286009086792 ], [ 128.844540797305314, 35.162768957713219 ], [ 128.845490740696562, 35.16430616486268 ], [ 128.846664248327983, 35.165282339867581 ], [ 128.851395404517604, 35.166252701828043 ], [ 128.860544956575893, 35.167409693091756 ], [ 128.863689967898722, 35.167434108019961 ], [ 128.866112228412817, 35.166839208880411 ], [ 128.865911781650567, 35.16121369353003 ], [ 128.865494689054685, 35.160418433771547 ], [ 128.865452944766901, 35.157920889141842 ], [ 128.870454587238925, 35.152096449059478 ], [ 128.871831475125504, 35.15195106123273 ], [ 128.873284669749239, 35.151835514168511 ], [ 128.87479492546953, 35.151734583947565 ], [ 128.87579125486937, 35.152308810722133 ], [ 128.874761392208057, 35.153570741076209 ], [ 128.873914030175712, 35.157160013797238 ], [ 128.873938370927021, 35.157330404161726 ], [ 128.874038070600164, 35.158028240524956 ], [ 128.874483556632782, 35.159800008136614 ], [ 128.876519172235618, 35.160408249740954 ], [ 128.877919962454172, 35.160408960047327 ], [ 128.879257557313139, 35.161993230069612 ], [ 128.878858136404119, 35.162381918459815 ], [ 128.876022403844701, 35.16565285489807 ], [ 128.876010591988717, 35.165734659743066 ], [ 128.875967412499762, 35.166034838054479 ], [ 128.875907150278977, 35.166457357068907 ], [ 128.876151312301886, 35.16699414987626 ], [ 128.876386957601795, 35.167503476937014 ], [ 128.875771724304883, 35.170508609094654 ], [ 128.874782570011519, 35.170791459987598 ], [ 128.874729540544962, 35.170811991560448 ], [ 128.872353657935207, 35.172274289032615 ], [ 128.872701659396711, 35.172852291046716 ], [ 128.873286696284509, 35.173821036272606 ], [ 128.873478831763492, 35.174137856097332 ], [ 128.873616894998548, 35.174363943814747 ], [ 128.880199306697165, 35.172030492992512 ] ] ] ] } },
{ "type": "Feature", "properties": { "OBJECTID": 585, "adm_nm": "부산광역시 강서구 가덕도동", "adm_cd": "2112058", "adm_cd2": "2644058000", "sgg": "26440", "sido": "26", "sidonm": "부산광역시", "sggnm": "강서구" }, "geometry": { "type": "MultiPolygon", "coordinates": [ [ [ [ 128.832473055455949, 35.086313150727612 ], [ 128.832934292382276, 35.085946337902783 ], [ 128.833191402759155, 35.084763603693773 ], [ 128.833157004365233, 35.082887773831381 ], [ 128.834160434055292, 35.082414497768553 ], [ 128.835221996728706, 35.082273501505753 ], [ 128.835819013166628, 35.081764707598786 ], [ 128.834517455408502, 35.080243466910581 ], [ 128.834762464764822, 35.080245039372137 ], [ 128.834497557212359, 35.071505035274022 ], [ 128.834333627288885, 35.067995057607554 ], [ 128.833807803152411, 35.066840102427918 ], [ 128.833569554826681, 35.066267428925144 ], [ 128.83384042034055, 35.066057523990438 ], [ 128.834214216349693, 35.065969546073475 ], [ 128.835067025288396, 35.066018401091185 ], [ 128.836775248013225, 35.067350922894533 ], [ 128.83677721610033, 35.069676590704027 ], [ 128.836853229752876, 35.073866425282397 ], [ 128.837352588503904, 35.074908509843667 ], [ 128.837424333700454, 35.075054284291063 ], [ 128.840280406534475, 35.074432688636747 ], [ 128.841521660894557, 35.071833717221899 ], [ 128.841397425618311, 35.071123834850603 ], [ 128.842390947438076, 35.069551762908816 ], [ 128.846973892856994, 35.068681357374707 ], [ 128.849352547475291, 35.068511685076516 ], [ 128.850281748770357, 35.068897880057833 ], [ 128.853211720599433, 35.069164573107329 ], [ 128.854940824817049, 35.069004694725656 ], [ 128.85520644104659, 35.068778214600414 ], [ 128.855240456302994, 35.067887986782431 ], [ 128.856395028117362, 35.06626886101418 ], [ 128.857513564702089, 35.065451007309051 ], [ 128.858839504934934, 35.064229608185407 ], [ 128.858596891285373, 35.064037554176871 ], [ 128.85806766152416, 35.063618633375214 ], [ 128.854095431544778, 35.062745187747673 ], [ 128.85285056847539, 35.062764200036654 ], [ 128.849967936902488, 35.062185389131493 ], [ 128.847616561376611, 35.061153550465065 ], [ 128.845795477618424, 35.059624277482037 ], [ 128.846090075340157, 35.058285775391845 ], [ 128.846139316539251, 35.05806205063255 ], [ 128.846643495576075, 35.056408424723344 ], [ 128.848610112026194, 35.05434903272586 ], [ 128.850230663307741, 35.051788676727391 ], [ 128.851161542244995, 35.042654965618652 ], [ 128.851245700691919, 35.041586029842506 ], [ 128.850539658130629, 35.03907900149941 ], [ 128.849550665712712, 35.038426794321389 ], [ 128.849151920590401, 35.03514093710811 ], [ 128.849726061134419, 35.034197996818449 ], [ 128.849548719549489, 35.033533409949413 ], [ 128.845733364172247, 35.032345886963334 ], [ 128.845253867494137, 35.032039421679357 ], [ 128.844305678966151, 35.031433380406185 ], [ 128.843420052150606, 35.030557125288325 ], [ 128.843291890875548, 35.029669348021706 ], [ 128.843634015244476, 35.02894403684067 ], [ 128.843756863356163, 35.028683606632477 ], [ 128.842493953569829, 35.025335745666432 ], [ 128.840926952221395, 35.02320249584983 ], [ 128.840545650035097, 35.022683386220763 ], [ 128.838893402865807, 35.017909207885438 ], [ 128.835733496747565, 35.016350863902431 ], [ 128.835824705366548, 35.012882956792801 ], [ 128.835999254024273, 35.012696676041408 ], [ 128.840436973079477, 35.007960018609253 ], [ 128.84140492552379, 35.006612339149534 ], [ 128.841058546877889, 35.004925932231153 ], [ 128.839792314190277, 35.003507202351422 ], [ 128.838587388001457, 35.000226689369093 ], [ 128.84109005336478, 34.997143781624629 ], [ 128.840758847288981, 34.996133797725555 ], [ 128.839932463576645, 34.995977158369662 ], [ 128.838707979398492, 34.996418605246845 ], [ 128.835063744141735, 34.994443714266787 ], [ 128.830435941578713, 34.989861443555725 ], [ 128.829889877780488, 34.988431737075935 ], [ 128.827310028107945, 34.988047656887005 ], [ 128.826923172097281, 34.989153061133436 ], [ 128.827901148263265, 34.991506694244634 ], [ 128.829159448534909, 34.992587344276615 ], [ 128.829613989693911, 34.994525924295296 ], [ 128.82797254821034, 34.994719804739205 ], [ 128.823534146507512, 34.994025268534259 ], [ 128.821275731425345, 34.994228307920579 ], [ 128.821548797389568, 34.997269229040455 ], [ 128.821993834864884, 34.998785074802122 ], [ 128.821730282731465, 35.000819022157664 ], [ 128.818142311367609, 35.001380287278742 ], [ 128.818321805090136, 35.004845536914551 ], [ 128.819449290726595, 35.004659483222248 ], [ 128.822437238214945, 35.004868431370021 ], [ 128.823587218086061, 35.005697007715455 ], [ 128.82341154594323, 35.00705298815825 ], [ 128.819339034517895, 35.008974908455812 ], [ 128.819870098778551, 35.009728200356065 ], [ 128.824933909141521, 35.01075179688678 ], [ 128.826029985291854, 35.013780326507273 ], [ 128.824519147093525, 35.015240964523308 ], [ 128.818200298140511, 35.017957817028837 ], [ 128.814201989110188, 35.018609697803505 ], [ 128.811118148800205, 35.018740321763289 ], [ 128.810727218316373, 35.019676568494248 ], [ 128.81056621151518, 35.021708982612282 ], [ 128.805808598475522, 35.020595660852464 ], [ 128.804235244502451, 35.023917801189839 ], [ 128.806831009118838, 35.024978793408174 ], [ 128.809090320403527, 35.024775989858213 ], [ 128.811445016147559, 35.024233390718422 ], [ 128.813296561201867, 35.024205754791652 ], [ 128.814658075919681, 35.025284984505753 ], [ 128.815226570015597, 35.027729410575525 ], [ 128.815122691582786, 35.02830622282157 ], [ 128.815003088398981, 35.028970275794762 ], [ 128.81495200670355, 35.029031614699278 ], [ 128.814264847965461, 35.029856741335706 ], [ 128.813210537783419, 35.030343881116863 ], [ 128.812615272906498, 35.030285440106226 ], [ 128.81232750691899, 35.030239216059513 ], [ 128.811115023459593, 35.030055299526531 ], [ 128.809417438508689, 35.030164772702847 ], [ 128.809013851054175, 35.030440149124239 ], [ 128.808297497828448, 35.031393590372261 ], [ 128.807460749808996, 35.033392616821722 ], [ 128.807591004414519, 35.033727372957728 ], [ 128.807964400518784, 35.033940679261242 ], [ 128.80871941067943, 35.033811590680735 ], [ 128.809450631464955, 35.03353133060947 ], [ 128.80993191422894, 35.03347670177277 ], [ 128.810741747779247, 35.033389029610198 ], [ 128.810919160799926, 35.03345540796667 ], [ 128.81106654691996, 35.033552011325668 ], [ 128.811154493442189, 35.033609663275925 ], [ 128.811799672312276, 35.034649524644855 ], [ 128.812439715225139, 35.036602490397293 ], [ 128.812386932583593, 35.03807516480552 ], [ 128.812006539902796, 35.040160184782671 ], [ 128.810815764288748, 35.041593719600208 ], [ 128.808941543423316, 35.042976743659835 ], [ 128.807471460744267, 35.043349092403389 ], [ 128.806913864909234, 35.043848013371395 ], [ 128.806142265948381, 35.044957576998243 ], [ 128.805988179630049, 35.045707503966888 ], [ 128.80614158813097, 35.046219210593172 ], [ 128.805845910457066, 35.046994604356158 ], [ 128.804807188665677, 35.047594130037247 ], [ 128.803898734642729, 35.047654367843414 ], [ 128.801678309954525, 35.04752379368 ], [ 128.799545712050985, 35.04750869507302 ], [ 128.797468287234523, 35.048714629237296 ], [ 128.796923370154474, 35.049797422454958 ], [ 128.796852423498109, 35.050452639097053 ], [ 128.796817778348043, 35.054065097468708 ], [ 128.795989866901664, 35.058902842242013 ], [ 128.797974498926493, 35.059404055153657 ], [ 128.798873067686202, 35.057449811490784 ], [ 128.805615314277816, 35.05977537877952 ], [ 128.803223990611713, 35.065645071548985 ], [ 128.810576246523709, 35.067493210512879 ], [ 128.821779925105602, 35.070308452819738 ], [ 128.830779809820484, 35.072892155652454 ], [ 128.830731941044178, 35.077627570677386 ], [ 128.830703445610027, 35.080446487298495 ], [ 128.823690975796779, 35.08095027608551 ], [ 128.809420176232237, 35.081974247467265 ], [ 128.809492561618384, 35.08278081783569 ], [ 128.811502912116936, 35.08298883099831 ], [ 128.8180938162281, 35.083000685809182 ], [ 128.818527492903172, 35.083001430939845 ], [ 128.821544941911185, 35.084446326015296 ], [ 128.821542448398645, 35.084932426119416 ], [ 128.821537701526097, 35.085846405005178 ], [ 128.82306204083136, 35.085848655593615 ], [ 128.824556333951506, 35.085850752708787 ], [ 128.826432229319522, 35.086214021486953 ], [ 128.826428696115727, 35.087869393098693 ], [ 128.827100387327675, 35.088429908883569 ], [ 128.827916220634705, 35.0891080318749 ], [ 128.828376426094309, 35.089477879444885 ], [ 128.832473055455949, 35.086313150727612 ] ] ] ] } },
{ "type": "Feature", "properties": { "OBJECTID": 3451, "adm_nm": "부산광역시 강서구 명지2동", "adm_cd": "2112060", "adm_cd2": "2644054500", "sgg": "26440", "sido": "26", "sidonm": "부산광역시", "sggnm": "강서구" }, "geometry": { "type": "MultiPolygon", "coordinates": [ [ [ [ 128.896272598364419, 35.08899668198007 ], [ 128.912172906966191, 35.089365281474244 ], [ 128.912300938504274, 35.084087858891586 ], [ 128.912243537807115, 35.081974494593595 ], [ 128.91217533550352, 35.079463032252129 ], [ 128.895321404404456, 35.079141574476942 ], [ 128.895338900966209, 35.081955362033128 ], [ 128.895353566946255, 35.084312835625006 ], [ 128.895372825966547, 35.086819852845771 ], [ 128.896272598364419, 35.08899668198007 ] ] ] ] } }
]
}
