{
"type": "FeatureCollection",
"name": "geumjeonggu",
"crs": { "type": "name", "properties": { "name": "urn:ogc:def:crs:OGC:1.3:CRS84" } },
"features": [
{ "type": "Feature", "properties": { "OBJECTID": 564, "adm_nm": "부산광역시 금정구 서1동", "adm_cd": "2111051", "adm_cd2": "2641051000", "sgg": "26410", "sido": "26", "sidonm": "부산광역시", "sggnm": "금정구" }, "geometry": { "type": "MultiPolygon", "coordinates": [ [ [ [ 129.099661257202342, 35.216158742803088 ], [ 129.097541885591909, 35.214076284415107 ], [ 129.095634659396069, 35.214539328526961 ], [ 129.094358890175187, 35.215432372035131 ], [ 129.094072240299511, 35.21646737730061 ], [ 129.095117187558344, 35.217614274967161 ], [ 129.095363810055602, 35.217530021752282 ], [ 129.095461842178736, 35.21749405518019 ], [ 129.095980684405873, 35.218214235603057 ], [ 129.096414772303206, 35.219019858439331 ], [ 129.096415768778456, 35.219058619218906 ], [ 129.096435173112894, 35.219813454859228 ], [ 129.096165625348846, 35.220180566552173 ], [ 129.099448845167217, 35.222202930705365 ], [ 129.100525996961579, 35.219206648587843 ], [ 129.101451761366661, 35.219616822526838 ], [ 129.101872221365483, 35.2192383183801 ], [ 129.100240678349053, 35.217152861850707 ], [ 129.099661257202342, 35.216158742803088 ] ] ] ] } },
{ "type": "Feature", "properties": { "OBJECTID": 565, "adm_nm": "부산광역시 금정구 서2동", "adm_cd": "2111052", "adm_cd2": "2641052000", "sgg": "26410", "sido": "26", "sidonm": "부산광역시", "sggnm": "금정구" }, "geometry": { "type": "MultiPolygon", "coordinates": [ [ [ [ 129.108420119944128, 35.214108834876448 ], [ 129.110324009732579, 35.210977461790804 ], [ 129.110040413440146, 35.210114243992706 ], [ 129.10863660538115, 35.210185275871837 ], [ 129.106359310526301, 35.209591202752136 ], [ 129.106266705849606, 35.209646382951561 ], [ 129.105071429127804, 35.210355267445742 ], [ 129.104971098114817, 35.210341823371287 ], [ 129.104444082219771, 35.21046573307661 ], [ 129.104367511330707, 35.210489791800399 ], [ 129.102452744449579, 35.211290874481335 ], [ 129.102329160608718, 35.211345122957013 ], [ 129.102409324127166, 35.211697574776245 ], [ 129.102434757879251, 35.211789288065226 ], [ 129.102474001268916, 35.211930776719406 ], [ 129.102492313832698, 35.212029398508776 ], [ 129.102524355096193, 35.212202122619495 ], [ 129.102306330766766, 35.21231749256512 ], [ 129.102025865820025, 35.212465881739419 ], [ 129.101871039190712, 35.212546378420107 ], [ 129.101769212830476, 35.2125867739353 ], [ 129.101364771153925, 35.212742300028616 ], [ 129.097541885591909, 35.214076284415107 ], [ 129.099661257202342, 35.216158742803088 ], [ 129.101970056740271, 35.21524779832982 ], [ 129.108420119944128, 35.214108834876448 ] ] ] ] } },
{ "type": "Feature", "properties": { "OBJECTID": 566, "adm_nm": "부산광역시 금정구 금사회동동", "adm_cd": "2111073", "adm_cd2": "2641055500", "sgg": "26410", "sido": "26", "sidonm": "부산광역시", "sggnm": "금정구" }, "geometry": { "type": "MultiPolygon", "coordinates": [ [ [ [ 129.144287019155428, 35.250727211857622 ], [ 129.144320283239836, 35.249912557428303 ], [ 129.143614046574243, 35.248689085159519 ], [ 129.143761943220028, 35.246857941269518 ], [ 129.14239643410221, 35.245581554427744 ], [ 129.142139468953246, 35.244893839244263 ], [ 129.141294019853717, 35.244155785035737 ], [ 129.141199819398281, 35.24380460780295 ], [ 129.14160130014352, 35.242594194523932 ], [ 129.141253318489987, 35.241888269068873 ], [ 129.140538193201877, 35.241581818646104 ], [ 129.139927953775327, 35.240596647421647 ], [ 129.138969315505705, 35.239845109019768 ], [ 129.137900696290245, 35.23891664772794 ], [ 129.137281580910638, 35.238466984575837 ], [ 129.136948746431841, 35.2376665510508 ], [ 129.13608639483158, 35.237172484172639 ], [ 129.135852791815722, 35.236540562352793 ], [ 129.134456723045503, 35.236829424078394 ], [ 129.133508679043302, 35.236424367065069 ], [ 129.132223610523397, 35.235546902871306 ], [ 129.130990764405396, 35.235240029562227 ], [ 129.130601457187623, 35.233841598525139 ], [ 129.130227870494963, 35.23327010358183 ], [ 129.130128742649902, 35.232280612622326 ], [ 129.130561865226326, 35.23126390063014 ], [ 129.129661507164968, 35.230500538814468 ], [ 129.127182459393111, 35.227681267802915 ], [ 129.125844070530491, 35.22694133230776 ], [ 129.12367577362005, 35.227106637251119 ], [ 129.120848947024598, 35.225820164852792 ], [ 129.119483301749995, 35.225107732541957 ], [ 129.118961142246945, 35.224835321579278 ], [ 129.118083247406105, 35.223896403670061 ], [ 129.117386433434831, 35.22252318961889 ], [ 129.117347277804953, 35.222446015674336 ], [ 129.117296096533693, 35.220474732293553 ], [ 129.11733153574761, 35.220127871441264 ], [ 129.117419828377592, 35.219263791395413 ], [ 129.117453739277636, 35.219181057303466 ], [ 129.118076492776055, 35.217661848592279 ], [ 129.119082877230426, 35.214590526895776 ], [ 129.118910049393349, 35.213636585387547 ], [ 129.118353878663697, 35.213591059726681 ], [ 129.116538080088986, 35.213920841323549 ], [ 129.113449506903095, 35.21294038318517 ], [ 129.111936592910496, 35.212205877994364 ], [ 129.111161669472949, 35.211689424583234 ], [ 129.111041599419224, 35.211587374769145 ], [ 129.110324009732579, 35.210977461790804 ], [ 129.108420119944128, 35.214108834876448 ], [ 129.109650433904932, 35.217257247646536 ], [ 129.110670022076846, 35.219024684829506 ], [ 129.109011776047112, 35.221700552060447 ], [ 129.108728861678031, 35.222063291293928 ], [ 129.10870602263833, 35.222092552171105 ], [ 129.10829365151514, 35.222414644389339 ], [ 129.107434012448806, 35.222846503648654 ], [ 129.106669985872287, 35.223076963251089 ], [ 129.105605854114373, 35.223968590423894 ], [ 129.105403845735736, 35.224279545001714 ], [ 129.105475936152743, 35.224430481591241 ], [ 129.105747924359264, 35.224703818595572 ], [ 129.106731802907177, 35.225613425439292 ], [ 129.107766432730784, 35.226634591367088 ], [ 129.107623290521929, 35.227166521775054 ], [ 129.107301525565845, 35.227547587407557 ], [ 129.107006184051386, 35.227771079271015 ], [ 129.106716609108702, 35.22789709143202 ], [ 129.108861827680414, 35.229484410850652 ], [ 129.109773899686815, 35.229918084871372 ], [ 129.11179054022665, 35.231474970356778 ], [ 129.112153689637182, 35.231842853680426 ], [ 129.114174157401294, 35.234758666239948 ], [ 129.116369490925507, 35.237688352717029 ], [ 129.116660517119215, 35.238040673211977 ], [ 129.116776475565899, 35.238131067840087 ], [ 129.116905691906737, 35.238193355815447 ], [ 129.121496180056084, 35.240017596523842 ], [ 129.125634919073661, 35.240572079437882 ], [ 129.127993736158828, 35.240741316967181 ], [ 129.128307510227188, 35.24102338441331 ], [ 129.131307506255752, 35.24438884835034 ], [ 129.131920121778279, 35.245087198733756 ], [ 129.13244244541545, 35.24634263580397 ], [ 129.132937389770063, 35.248286175094272 ], [ 129.134382901228008, 35.25090691363571 ], [ 129.134575902961842, 35.251081756760165 ], [ 129.136001794481615, 35.252363535627318 ], [ 129.137378147371265, 35.253134813291631 ], [ 129.139235165518159, 35.254155431124168 ], [ 129.144287019155428, 35.250727211857622 ] ] ] ] } },
{ "type": "Feature", "properties": { "OBJECTID": 567, "adm_nm": "부산광역시 금정구 부곡1동", "adm_cd": "2111057", "adm_cd2": "2641057000", "sgg": "26410", "sido": "26", "sidonm": "부산광역시", "sggnm": "금정구" }, "geometry": { "type": "MultiPolygon", "coordinates": [ [ [ [ 129.103583876228925, 35.229775910345708 ], [ 129.102554931975448, 35.226382940185431 ], [ 129.100758634760297, 35.223076425284781 ], [ 129.099448845167217, 35.222202930705365 ], [ 129.096165625348846, 35.220180566552173 ], [ 129.092449446150624, 35.221960667833265 ], [ 129.091683391578243, 35.221990909750431 ], [ 129.088842693149502, 35.221605010198047 ], [ 129.087799096028107, 35.222220040048967 ], [ 129.08915943179457, 35.226512918250798 ], [ 129.091765918643347, 35.225770758905185 ], [ 129.091802494473569, 35.225767915666474 ], [ 129.09212795298626, 35.22574333070061 ], [ 129.092735559107609, 35.22569744103793 ], [ 129.09579475252329, 35.225468103489497 ], [ 129.096074555377697, 35.225466405404255 ], [ 129.096225374463756, 35.225472256563513 ], [ 129.096910516873521, 35.225600128550312 ], [ 129.097006841160919, 35.225626931306351 ], [ 129.098588610853426, 35.226327412235833 ], [ 129.09973918181808, 35.226865569999553 ], [ 129.100135547894354, 35.227075782459586 ], [ 129.100681335318029, 35.22766362258217 ], [ 129.101134629541235, 35.228384436976569 ], [ 129.101714980262187, 35.230489229557399 ], [ 129.103583876228925, 35.229775910345708 ] ] ] ] } },
{ "type": "Feature", "properties": { "OBJECTID": 568, "adm_nm": "부산광역시 금정구 부곡2동", "adm_cd": "2111058", "adm_cd2": "2641058000", "sgg": "26410", "sido": "26", "sidonm": "부산광역시", "sggnm": "금정구" }, "geometry": { "type": "MultiPolygon", "coordinates": [ [ [ [ 129.101714980262187, 35.230489229557399 ], [ 129.101134629541235, 35.228384436976569 ], [ 129.100681335318029, 35.22766362258217 ], [ 129.100135547894354, 35.227075782459586 ], [ 129.09973918181808, 35.226865569999553 ], [ 129.098588610853426, 35.226327412235833 ], [ 129.097006841160919, 35.225626931306351 ], [ 129.096910516873521, 35.225600128550312 ], [ 129.096225374463756, 35.225472256563513 ], [ 129.096074555377697, 35.225466405404255 ], [ 129.09579475252329, 35.225468103489497 ], [ 129.092735559107609, 35.22569744103793 ], [ 129.09212795298626, 35.22574333070061 ], [ 129.091802494473569, 35.225767915666474 ], [ 129.091765918643347, 35.225770758905185 ], [ 129.08915943179457, 35.226512918250798 ], [ 129.089407023338453, 35.231086917616047 ], [ 129.089642703401836, 35.234949251607311 ], [ 129.091839321486134, 35.234926575556273 ], [ 129.0958784134545, 35.234610192526155 ], [ 129.09784048139943, 35.234326880775235 ], [ 129.098561926988452, 35.234475435810694 ], [ 129.099020341346517, 35.234572377033942 ], [ 129.099152680956649, 35.234643034108991 ], [ 129.09948679945569, 35.234972593652948 ], [ 129.099901106817612, 35.235482795913533 ], [ 129.10091075942637, 35.236127720136196 ], [ 129.101244682497025, 35.236280352696149 ], [ 129.102489650913583, 35.235632351715005 ], [ 129.102755395838045, 35.235374344020329 ], [ 129.102927268564486, 35.235059545682567 ], [ 129.103153936121288, 35.234288542331761 ], [ 129.10350893136328, 35.234068347087025 ], [ 129.103711536191838, 35.233738380486507 ], [ 129.102625697726353, 35.231146205982036 ], [ 129.102534776730636, 35.230984545759561 ], [ 129.102311547334835, 35.230791384873115 ], [ 129.101714980262187, 35.230489229557399 ] ] ] ] } },
{ "type": "Feature", "properties": { "OBJECTID": 569, "adm_nm": "부산광역시 금정구 부곡3동", "adm_cd": "2111059", "adm_cd2": "2641059000", "sgg": "26410", "sido": "26", "sidonm": "부산광역시", "sggnm": "금정구" }, "geometry": { "type": "MultiPolygon", "coordinates": [ [ [ [ 129.139235165518159, 35.254155431124168 ], [ 129.137378147371265, 35.253134813291631 ], [ 129.136001794481615, 35.252363535627318 ], [ 129.134575902961842, 35.251081756760165 ], [ 129.134382901228008, 35.25090691363571 ], [ 129.132937389770063, 35.248286175094272 ], [ 129.13244244541545, 35.24634263580397 ], [ 129.131920121778279, 35.245087198733756 ], [ 129.131307506255752, 35.24438884835034 ], [ 129.128307510227188, 35.24102338441331 ], [ 129.127993736158828, 35.240741316967181 ], [ 129.125634919073661, 35.240572079437882 ], [ 129.121496180056084, 35.240017596523842 ], [ 129.116905691906737, 35.238193355815447 ], [ 129.116776475565899, 35.238131067840087 ], [ 129.116660517119215, 35.238040673211977 ], [ 129.116369490925507, 35.237688352717029 ], [ 129.114174157401294, 35.234758666239948 ], [ 129.112153689637182, 35.231842853680426 ], [ 129.11179054022665, 35.231474970356778 ], [ 129.109773899686815, 35.229918084871372 ], [ 129.108861827680414, 35.229484410850652 ], [ 129.106716609108702, 35.22789709143202 ], [ 129.103583876228925, 35.229775910345708 ], [ 129.101714980262187, 35.230489229557399 ], [ 129.102311547334835, 35.230791384873115 ], [ 129.102534776730636, 35.230984545759561 ], [ 129.102625697726353, 35.231146205982036 ], [ 129.103711536191838, 35.233738380486507 ], [ 129.10350893136328, 35.234068347087025 ], [ 129.103153936121288, 35.234288542331761 ], [ 129.102927268564486, 35.235059545682567 ], [ 129.102755395838045, 35.235374344020329 ], [ 129.102489650913583, 35.235632351715005 ], [ 129.101244682497025, 35.236280352696149 ], [ 129.10091075942637, 35.236127720136196 ], [ 129.099901106817612, 35.235482795913533 ], [ 129.09948679945569, 35.234972593652948 ], [ 129.099152680956649, 35.234643034108991 ], [ 129.099020341346517, 35.234572377033942 ], [ 129.098561926988452, 35.234475435810694 ], [ 129.09784048139943, 35.234326880775235 ], [ 129.0958784134545, 35.234610192526155 ], [ 129.091839321486134, 35.234926575556273 ], [ 129.089642703401836, 35.234949251607311 ], [ 129.088854119489753, 35.236835114484123 ], [ 129.088585852423904, 35.237503019695204 ], [ 129.088530016880412, 35.237699571246594 ], [ 129.088508882229121, 35.238364229945667 ], [ 129.088501998934333, 35.24019661792731 ], [ 129.088505680844321, 35.240385393521301 ], [ 129.088529662826943, 35.240492817075356 ], [ 129.0885786800917, 35.240583728383115 ], [ 129.088649273120723, 35.240714632296871 ], [ 129.088808482905108, 35.240950700009869 ], [ 129.088873701917862, 35.241013515831369 ], [ 129.089349600123256, 35.241471844194891 ], [ 129.089808962965748, 35.241944632978303 ], [ 129.090993410532036, 35.243150577257047 ], [ 129.092580449041719, 35.244282271755331 ], [ 129.094682063433083, 35.2455994630132 ], [ 129.094718408497044, 35.245618396123504 ], [ 129.094651587162133, 35.24504750197395 ], [ 129.094648368634267, 35.245020083763414 ], [ 129.094642849348389, 35.244962221230637 ], [ 129.094664268005431, 35.244920243112652 ], [ 129.095818299393414, 35.244717647993625 ], [ 129.095907466693802, 35.244714858091925 ], [ 129.096003259833992, 35.244731016894939 ], [ 129.097165595559204, 35.245005140315449 ], [ 129.09730509751941, 35.245038300302475 ], [ 129.097521155330867, 35.245137931554346 ], [ 129.100078283328173, 35.246627331312638 ], [ 129.100307317325473, 35.246815090180775 ], [ 129.100812648235689, 35.247534501762125 ], [ 129.100765067274807, 35.248019735225924 ], [ 129.100698095510694, 35.249132498237685 ], [ 129.100836106498605, 35.250341711124634 ], [ 129.101482823722989, 35.25179364234684 ], [ 129.102398014985425, 35.252469261209121 ], [ 129.103798010092305, 35.253835651058715 ], [ 129.103913672361927, 35.253948537294868 ], [ 129.104529230196505, 35.254674258065464 ], [ 129.104913288676812, 35.255356524848473 ], [ 129.104921055274929, 35.255499904890677 ], [ 129.104978390617475, 35.25584893027991 ], [ 129.105088646668975, 35.256026492937053 ], [ 129.105320137441481, 35.256060594754992 ], [ 129.106143521394728, 35.256072366323316 ], [ 129.106477332446218, 35.256003545507753 ], [ 129.106989247639859, 35.255747507606884 ], [ 129.110541816235099, 35.256589130998485 ], [ 129.111426946701442, 35.25700063261479 ], [ 129.116009144109483, 35.259130701524036 ], [ 129.118278996663292, 35.259670938418559 ], [ 129.120082732438163, 35.260311550407152 ], [ 129.120993757274533, 35.260853557266977 ], [ 129.121359061702549, 35.261056525482168 ], [ 129.12156227007145, 35.261164267398136 ], [ 129.122067009588307, 35.261384852912684 ], [ 129.122247356693975, 35.261454927286529 ], [ 129.12246377214629, 35.261532337076112 ], [ 129.122636408046333, 35.261574919513215 ], [ 129.122732604318372, 35.261598636371467 ], [ 129.124670502876228, 35.261812440167709 ], [ 129.125636946452147, 35.261894840522309 ], [ 129.126005710186888, 35.261904893938301 ], [ 129.126279187199685, 35.261895885752971 ], [ 129.126380724164022, 35.261868026764418 ], [ 129.129042776635487, 35.260760229338281 ], [ 129.129417558818346, 35.260572183972045 ], [ 129.129627172814565, 35.260462496722553 ], [ 129.13020504703502, 35.260050108398318 ], [ 129.131737006371395, 35.25995466079921 ], [ 129.135404354238261, 35.259460686298141 ], [ 129.135931981844067, 35.25943924869371 ], [ 129.136243463468986, 35.259428475286349 ], [ 129.136427821635834, 35.259428267088225 ], [ 129.136624934955563, 35.259443693480549 ], [ 129.137432591704055, 35.259620006412689 ], [ 129.137744244643329, 35.259703046292216 ], [ 129.138075047031265, 35.259838218763569 ], [ 129.138154031659752, 35.25988125458192 ], [ 129.138304118353943, 35.259963047519591 ], [ 129.138501370425985, 35.260067072763022 ], [ 129.138685886777807, 35.260160687432695 ], [ 129.138889448839336, 35.260233413806077 ], [ 129.139404596894053, 35.260352723536947 ], [ 129.139514932253434, 35.260356363632006 ], [ 129.139557181075617, 35.26035775647842 ], [ 129.139932218643509, 35.2603312693902 ], [ 129.140383488776791, 35.260278620383062 ], [ 129.140669476683968, 35.260220960921849 ], [ 129.140806885625551, 35.260190752441837 ], [ 129.140860069258196, 35.260179057929257 ], [ 129.140884609538347, 35.260162559715269 ], [ 129.140929979879274, 35.260132053278348 ], [ 129.140984621989929, 35.260052537330694 ], [ 129.14101241857486, 35.260012078679743 ], [ 129.141063074472271, 35.25989733159431 ], [ 129.141073305088099, 35.259870854021067 ], [ 129.141107381817449, 35.259782613812327 ], [ 129.141145305236023, 35.259652269865342 ], [ 129.141145118196874, 35.259542806036642 ], [ 129.141125847547954, 35.259433376603134 ], [ 129.141042839661083, 35.259219758664692 ], [ 129.140200632219802, 35.257427686014857 ], [ 129.140009451998424, 35.25715684534395 ], [ 129.139625714279276, 35.255791641737673 ], [ 129.139235165518159, 35.254155431124168 ] ] ] ] } },
{ "type": "Feature", "properties": { "OBJECTID": 570, "adm_nm": "부산광역시 금정구 부곡4동", "adm_cd": "2111060", "adm_cd2": "2641059100", "sgg": "26410", "sido": "26", "sidonm": "부산광역시", "sggnm": "금정구" }, "geometry": { "type": "MultiPolygon", "coordinates": [ [ [ [ 129.096165625348846, 35.220180566552173 ], [ 129.096435173112894, 35.219813454859228 ], [ 129.096415768778456, 35.219058619218906 ], [ 129.096414772303206, 35.219019858439331 ], [ 129.095980684405873, 35.218214235603057 ], [ 129.095461842178736, 35.21749405518019 ], [ 129.095363810055602, 35.217530021752282 ], [ 129.095117187558344, 35.217614274967161 ], [ 129.094072240299511, 35.21646737730061 ], [ 129.094358890175187, 35.215432372035131 ], [ 129.093994801011462, 35.214961450148934 ], [ 129.093691060039674, 35.215526837331879 ], [ 129.093334000504655, 35.215848090524553 ], [ 129.092387843947449, 35.216501631245023 ], [ 129.088328847916614, 35.217681819864815 ], [ 129.087892086874689, 35.217643419283213 ], [ 129.086557804091115, 35.217052780687233 ], [ 129.084944179483301, 35.217922288951101 ], [ 129.08726030886325, 35.221656807349376 ], [ 129.087799096028107, 35.222220040048967 ], [ 129.088842693149502, 35.221605010198047 ], [ 129.091683391578243, 35.221990909750431 ], [ 129.092449446150624, 35.221960667833265 ], [ 129.096165625348846, 35.220180566552173 ] ] ] ] } },
{ "type": "Feature", "properties": { "OBJECTID": 571, "adm_nm": "부산광역시 금정구 장전1동", "adm_cd": "2111061", "adm_cd2": "2641060000", "sgg": "26410", "sido": "26", "sidonm": "부산광역시", "sggnm": "금정구" }, "geometry": { "type": "MultiPolygon", "coordinates": [ [ [ [ 129.077420705960748, 35.245678817284798 ], [ 129.078374400017708, 35.245017721503842 ], [ 129.078695470257429, 35.244942679356356 ], [ 129.078932279583682, 35.244890140645907 ], [ 129.081097859285563, 35.244501457650024 ], [ 129.081407578292016, 35.244473196038605 ], [ 129.082956243802784, 35.244419817367117 ], [ 129.083061044636821, 35.244449695431776 ], [ 129.083386531152257, 35.244680803351201 ], [ 129.084388871620263, 35.244486246134883 ], [ 129.085838607725179, 35.243426206197086 ], [ 129.088358243768738, 35.24191071651245 ], [ 129.088820916851091, 35.241653623855392 ], [ 129.089009247538172, 35.241579066786109 ], [ 129.089349600123256, 35.241471844194891 ], [ 129.088873701917862, 35.241013515831369 ], [ 129.088808482905108, 35.240950700009869 ], [ 129.088649273120723, 35.240714632296871 ], [ 129.0885786800917, 35.240583728383115 ], [ 129.088529662826943, 35.240492817075356 ], [ 129.088505680844321, 35.240385393521301 ], [ 129.088501998934333, 35.24019661792731 ], [ 129.088508882229121, 35.238364229945667 ], [ 129.088530016880412, 35.237699571246594 ], [ 129.088585852423904, 35.237503019695204 ], [ 129.088854119489753, 35.236835114484123 ], [ 129.089642703401836, 35.234949251607311 ], [ 129.089407023338453, 35.231086917616047 ], [ 129.085556519091966, 35.233044489375658 ], [ 129.084138782690047, 35.233525062657378 ], [ 129.082931816499325, 35.234285015372464 ], [ 129.081710723468575, 35.236973407938947 ], [ 129.077848877884747, 35.238314796576176 ], [ 129.077653094291634, 35.238372836070461 ], [ 129.077211143064005, 35.238429806009776 ], [ 129.076800570104922, 35.238344867570753 ], [ 129.075595423052903, 35.236664183269944 ], [ 129.068691408757388, 35.238688770589761 ], [ 129.06631166275875, 35.239363543636344 ], [ 129.066103728291125, 35.239411079416662 ], [ 129.065602956323659, 35.239401870014746 ], [ 129.064963510871621, 35.239342093742756 ], [ 129.064378072312621, 35.239231719797779 ], [ 129.063673059619418, 35.239061353437748 ], [ 129.063295453865095, 35.238916069842055 ], [ 129.063052806628548, 35.238815066499093 ], [ 129.062278869465615, 35.238357766722444 ], [ 129.061337397313821, 35.240281746232064 ], [ 129.061257821303371, 35.240468890252224 ], [ 129.061242033313476, 35.240678465168607 ], [ 129.062442567888382, 35.244358420964844 ], [ 129.062544510923942, 35.244495362297329 ], [ 129.0626751021627, 35.244670781465736 ], [ 129.066800703583539, 35.248977951091398 ], [ 129.067511895301038, 35.24970545288874 ], [ 129.068853453654611, 35.249727212726519 ], [ 129.068935216881556, 35.249424034039308 ], [ 129.069226166536254, 35.24868291989533 ], [ 129.069374086320323, 35.248527517707849 ], [ 129.070566968686364, 35.247791520129063 ], [ 129.070983621907175, 35.24760418121835 ], [ 129.074266947173498, 35.246444110531051 ], [ 129.076812495314698, 35.245574392125476 ], [ 129.077017465670167, 35.245555557943639 ], [ 129.077420705960748, 35.245678817284798 ] ] ] ] } },
{ "type": "Feature", "properties": { "OBJECTID": 572, "adm_nm": "부산광역시 금정구 선두구동", "adm_cd": "2111064", "adm_cd2": "2641063500", "sgg": "26410", "sido": "26", "sidonm": "부산광역시", "sggnm": "금정구" }, "geometry": { "type": "MultiPolygon", "coordinates": [ [ [ [ 129.108918400447806, 35.305068397078145 ], [ 129.110445629531, 35.304429748651629 ], [ 129.116017765261716, 35.302182212440421 ], [ 129.120834758584124, 35.301930771710069 ], [ 129.121432602256817, 35.301767720637493 ], [ 129.122199611730196, 35.301502253458665 ], [ 129.125824667868073, 35.299890370545008 ], [ 129.12747142572286, 35.299112732592583 ], [ 129.129664067197893, 35.298002272297175 ], [ 129.12968194241671, 35.297967299008334 ], [ 129.129875455623193, 35.297588464235737 ], [ 129.129958677733526, 35.297196842143272 ], [ 129.129975669987033, 35.297116871254829 ], [ 129.129995090968976, 35.296628815389816 ], [ 129.129938648337884, 35.293017918199489 ], [ 129.129829130255359, 35.290332341004053 ], [ 129.12744911914271, 35.285724072791254 ], [ 129.126487042974475, 35.283180180467475 ], [ 129.126454100395563, 35.283094604653201 ], [ 129.126405852689231, 35.282999800521075 ], [ 129.125971286278002, 35.282465528822634 ], [ 129.125857780478384, 35.282330322941988 ], [ 129.125689177207306, 35.282134111056443 ], [ 129.124914428038608, 35.28138922830879 ], [ 129.12404248302073, 35.280574098782168 ], [ 129.123964676068056, 35.280494569292671 ], [ 129.123925702692333, 35.280407033404941 ], [ 129.123925524822909, 35.280287621415312 ], [ 129.124196203496467, 35.279476649868911 ], [ 129.124253100384351, 35.27938395607422 ], [ 129.124280150187559, 35.279339890467995 ], [ 129.124305676516769, 35.279304708758126 ], [ 129.124389963808767, 35.279188542225086 ], [ 129.124732486267249, 35.278808702503305 ], [ 129.125136466465648, 35.278406248440632 ], [ 129.125425701725675, 35.27672189588661 ], [ 129.124929302604983, 35.274629847017344 ], [ 129.124636865263142, 35.273787280527849 ], [ 129.124517662972806, 35.273555957982488 ], [ 129.12439252090897, 35.27332224473929 ], [ 129.123166347317834, 35.271922763337173 ], [ 129.122642627113635, 35.271375185618261 ], [ 129.122620176644773, 35.271353563017072 ], [ 129.122531927374268, 35.271268570005944 ], [ 129.122421810577009, 35.271224298095454 ], [ 129.122348189495227, 35.271167405793278 ], [ 129.122259383906879, 35.271098759412403 ], [ 129.122133015152627, 35.270976890529653 ], [ 129.122015613172323, 35.270832802578305 ], [ 129.121370554565715, 35.269587803131103 ], [ 129.12093440132557, 35.268016708169732 ], [ 129.119375724129611, 35.262199047057599 ], [ 129.11937556449044, 35.262091814795056 ], [ 129.119662785377074, 35.26128558862785 ], [ 129.119797499735256, 35.260952711494419 ], [ 129.120016391789733, 35.260434762162184 ], [ 129.120082732438163, 35.260311550407152 ], [ 129.118278996663292, 35.259670938418559 ], [ 129.116009144109483, 35.259130701524036 ], [ 129.111426946701442, 35.25700063261479 ], [ 129.110541816235099, 35.256589130998485 ], [ 129.106989247639859, 35.255747507606884 ], [ 129.106477332446218, 35.256003545507753 ], [ 129.106143521394728, 35.256072366323316 ], [ 129.105320137441481, 35.256060594754992 ], [ 129.105088646668975, 35.256026492937053 ], [ 129.104978390617475, 35.25584893027991 ], [ 129.104921055274929, 35.255499904890677 ], [ 129.10361076466387, 35.255533848540892 ], [ 129.103531487853758, 35.255540416152655 ], [ 129.102445869679826, 35.255704622780534 ], [ 129.101632928980763, 35.256175526577159 ], [ 129.101395181623531, 35.256375338932038 ], [ 129.101162634607391, 35.256855883214371 ], [ 129.100663770269989, 35.257356991007356 ], [ 129.100002257272138, 35.257757430998559 ], [ 129.099514050228777, 35.257988333481343 ], [ 129.099753372830662, 35.258931677105494 ], [ 129.09979960356992, 35.259155050696322 ], [ 129.099742323816059, 35.25930927094398 ], [ 129.098342165289893, 35.26092137538491 ], [ 129.098189035987531, 35.261003307985121 ], [ 129.097069019810334, 35.261411273705598 ], [ 129.095394263732118, 35.263009208391495 ], [ 129.095375362048713, 35.263424854150841 ], [ 129.095766824560911, 35.267627447930884 ], [ 129.095809507078286, 35.26784868780021 ], [ 129.09588208585464, 35.268071433763531 ], [ 129.0959833518572, 35.268369602966736 ], [ 129.096505364149493, 35.269405914782581 ], [ 129.097287126754281, 35.271827637004016 ], [ 129.097383563116921, 35.272756688284389 ], [ 129.097215154501185, 35.273179538075937 ], [ 129.09561154914428, 35.27441179815078 ], [ 129.093783963724206, 35.275013267809278 ], [ 129.094556920015577, 35.276627093038819 ], [ 129.096381339564573, 35.279200973432253 ], [ 129.096544617147288, 35.279249810038934 ], [ 129.10006468273761, 35.281203397489918 ], [ 129.102611116276563, 35.283359665246969 ], [ 129.10368070006848, 35.283222020614922 ], [ 129.103867899636128, 35.282519931051326 ], [ 129.104276093421987, 35.282552957854982 ], [ 129.104509303219118, 35.282665774361 ], [ 129.104913294916059, 35.28286127047101 ], [ 129.105351801256774, 35.28320483927984 ], [ 129.105473838847161, 35.283385487844619 ], [ 129.105486863683325, 35.283553934423118 ], [ 129.105278237532843, 35.284191655413686 ], [ 129.105225003558957, 35.284354360252827 ], [ 129.104613251121464, 35.285620103993224 ], [ 129.104171874757867, 35.286425937675986 ], [ 129.103416961166118, 35.287747931664356 ], [ 129.102008211421207, 35.290981482884412 ], [ 129.101893873593013, 35.291520640979776 ], [ 129.101879407193309, 35.292274885555557 ], [ 129.101912196136226, 35.292882021268412 ], [ 129.10199587722704, 35.293167992744053 ], [ 129.102111643859757, 35.293459204591031 ], [ 129.10242233696215, 35.294003160553267 ], [ 129.102619197880045, 35.294309879984304 ], [ 129.102771161327667, 35.294490507467629 ], [ 129.102786022309175, 35.294573315539907 ], [ 129.102809892156159, 35.294706324192731 ], [ 129.102842266776946, 35.29496601498272 ], [ 129.102750601272902, 35.295160869051713 ], [ 129.102720862848003, 35.295179074866674 ], [ 129.10055500737684, 35.296407272116539 ], [ 129.099591539769477, 35.296879616231664 ], [ 129.098429640576086, 35.295727601223341 ], [ 129.097979124547322, 35.296124544944938 ], [ 129.097721102629151, 35.296644156414331 ], [ 129.096623860259285, 35.301625173076133 ], [ 129.09677664774776, 35.30252352466799 ], [ 129.097000009549163, 35.303539749677675 ], [ 129.097928733652139, 35.304052039242201 ], [ 129.09813635166924, 35.304165827284827 ], [ 129.103484801268053, 35.306139385288276 ], [ 129.10386596204296, 35.306178137406022 ], [ 129.10620555382917, 35.306200540907348 ], [ 129.108918400447806, 35.305068397078145 ] ] ] ] } },
{ "type": "Feature", "properties": { "OBJECTID": 573, "adm_nm": "부산광역시 금정구 청룡노포동", "adm_cd": "2111067", "adm_cd2": "2641066500", "sgg": "26410", "sido": "26", "sidonm": "부산광역시", "sggnm": "금정구" }, "geometry": { "type": "MultiPolygon", "coordinates": [ [ [ [ 129.097383563116921, 35.272756688284389 ], [ 129.095877100370245, 35.271972157158764 ], [ 129.091277300472001, 35.27214556701874 ], [ 129.089509569430192, 35.27350927958237 ], [ 129.088212046478645, 35.275191044644615 ], [ 129.088187837787586, 35.275220748845605 ], [ 129.088154345573628, 35.275255127952668 ], [ 129.08811755609446, 35.275287363996398 ], [ 129.088075395875507, 35.275318303740619 ], [ 129.088039289319426, 35.275341147980413 ], [ 129.088012389423966, 35.275356338574916 ], [ 129.087983594715496, 35.275371334955132 ], [ 129.087953239048602, 35.275385892914485 ], [ 129.087921672677567, 35.275399763523446 ], [ 129.08788923923683, 35.275412752936468 ], [ 129.0878562808482, 35.275424589791776 ], [ 129.087823153404429, 35.275435032299562 ], [ 129.087790178365424, 35.27544387698893 ], [ 129.08775478043097, 35.275450481476483 ], [ 129.087701645456633, 35.275453932424874 ], [ 129.083664788345715, 35.275543722741951 ], [ 129.083152317415937, 35.275449847831489 ], [ 129.082189188215807, 35.275902672316555 ], [ 129.081849029642655, 35.276056752622985 ], [ 129.08113419828581, 35.276270746282499 ], [ 129.08096208345907, 35.276211189600843 ], [ 129.080476176888396, 35.275897499744637 ], [ 129.080124101000081, 35.275589977311306 ], [ 129.079270811240889, 35.274937350974817 ], [ 129.077897346571802, 35.274084055328046 ], [ 129.07710928854101, 35.273638634385875 ], [ 129.076703815200744, 35.273453611468049 ], [ 129.076049802576478, 35.273243619685076 ], [ 129.070600764933857, 35.272681514484987 ], [ 129.065648920376816, 35.272178596431559 ], [ 129.063913167570547, 35.272342760593517 ], [ 129.063676215023833, 35.272487334117464 ], [ 129.063408643439459, 35.272581676826348 ], [ 129.060833415303762, 35.272237931217994 ], [ 129.059079362351923, 35.27401392973389 ], [ 129.057208800591582, 35.275681183835523 ], [ 129.054579610294752, 35.277592942450227 ], [ 129.051860904085032, 35.279329184363299 ], [ 129.050567891238302, 35.280055989565639 ], [ 129.050753094661644, 35.280140292264157 ], [ 129.050873788690609, 35.280242291564946 ], [ 129.050946798535875, 35.280360416813558 ], [ 129.050958083808183, 35.280455543267244 ], [ 129.050618263856762, 35.281399352488151 ], [ 129.050568768384181, 35.281509100351016 ], [ 129.050422991000914, 35.281670266884376 ], [ 129.050179054619491, 35.281898228104374 ], [ 129.050050117137999, 35.282079351458989 ], [ 129.049948324492306, 35.282298045935008 ], [ 129.049863464691924, 35.282710091384672 ], [ 129.04988450934971, 35.283524858385327 ], [ 129.049912768542754, 35.28386243063585 ], [ 129.049936187508223, 35.283926100202159 ], [ 129.051862286996993, 35.287957060608463 ], [ 129.051916577330189, 35.288036828156407 ], [ 129.060001131596323, 35.295483648062962 ], [ 129.060133986668149, 35.295554175602426 ], [ 129.060190119509031, 35.295575637648234 ], [ 129.060272402310119, 35.295543369310785 ], [ 129.060454671981432, 35.295379862086854 ], [ 129.060585457151916, 35.295174185495014 ], [ 129.06076580665075, 35.294955426228832 ], [ 129.060889155294831, 35.294811133450139 ], [ 129.061189155197837, 35.294515608662756 ], [ 129.062977955576088, 35.292782328653615 ], [ 129.063453722793696, 35.292400772517155 ], [ 129.063884654938931, 35.292123592399001 ], [ 129.064444636613359, 35.291815644380534 ], [ 129.064691436222489, 35.291698889978022 ], [ 129.065114960423415, 35.29150609986619 ], [ 129.065251466591434, 35.291452319555425 ], [ 129.069232605107004, 35.290133599475496 ], [ 129.069435501821687, 35.29006980095528 ], [ 129.069714181389458, 35.290046618585272 ], [ 129.072941389504535, 35.28991480080348 ], [ 129.073173047853686, 35.289942041962505 ], [ 129.073426333834476, 35.290019225982583 ], [ 129.073557902332823, 35.290072309820047 ], [ 129.077639277166412, 35.29351259304832 ], [ 129.078115740562026, 35.293958554570004 ], [ 129.080191687065934, 35.295943633385804 ], [ 129.086205216992511, 35.301194707295551 ], [ 129.086531566033869, 35.301476445777219 ], [ 129.087080769143711, 35.301919092306491 ], [ 129.087490447591591, 35.302226507699565 ], [ 129.088949685783803, 35.303068169663696 ], [ 129.089108740018446, 35.303142347842332 ], [ 129.089224043332791, 35.303185936757863 ], [ 129.090516119642302, 35.303541533265644 ], [ 129.090652862529225, 35.303564884041201 ], [ 129.090770498540252, 35.303571325323595 ], [ 129.090863494980852, 35.303558860834102 ], [ 129.090979510249269, 35.303511848577045 ], [ 129.094040536971761, 35.303447563991988 ], [ 129.095717869971338, 35.303554469672072 ], [ 129.097000009549163, 35.303539749677675 ], [ 129.09677664774776, 35.30252352466799 ], [ 129.096623860259285, 35.301625173076133 ], [ 129.097721102629151, 35.296644156414331 ], [ 129.097979124547322, 35.296124544944938 ], [ 129.098429640576086, 35.295727601223341 ], [ 129.099591539769477, 35.296879616231664 ], [ 129.10055500737684, 35.296407272116539 ], [ 129.102720862848003, 35.295179074866674 ], [ 129.102750601272902, 35.295160869051713 ], [ 129.102842266776946, 35.29496601498272 ], [ 129.102809892156159, 35.294706324192731 ], [ 129.102786022309175, 35.294573315539907 ], [ 129.102771161327667, 35.294490507467629 ], [ 129.102619197880045, 35.294309879984304 ], [ 129.10242233696215, 35.294003160553267 ], [ 129.102111643859757, 35.293459204591031 ], [ 129.10199587722704, 35.293167992744053 ], [ 129.101912196136226, 35.292882021268412 ], [ 129.101879407193309, 35.292274885555557 ], [ 129.101893873593013, 35.291520640979776 ], [ 129.102008211421207, 35.290981482884412 ], [ 129.103416961166118, 35.287747931664356 ], [ 129.104171874757867, 35.286425937675986 ], [ 129.104613251121464, 35.285620103993224 ], [ 129.105225003558957, 35.284354360252827 ], [ 129.105278237532843, 35.284191655413686 ], [ 129.105486863683325, 35.283553934423118 ], [ 129.105473838847161, 35.283385487844619 ], [ 129.105351801256774, 35.28320483927984 ], [ 129.104913294916059, 35.28286127047101 ], [ 129.104509303219118, 35.282665774361 ], [ 129.104276093421987, 35.282552957854982 ], [ 129.103867899636128, 35.282519931051326 ], [ 129.10368070006848, 35.283222020614922 ], [ 129.102611116276563, 35.283359665246969 ], [ 129.10006468273761, 35.281203397489918 ], [ 129.096544617147288, 35.279249810038934 ], [ 129.096381339564573, 35.279200973432253 ], [ 129.094556920015577, 35.276627093038819 ], [ 129.093783963724206, 35.275013267809278 ], [ 129.09561154914428, 35.27441179815078 ], [ 129.097215154501185, 35.273179538075937 ], [ 129.097383563116921, 35.272756688284389 ] ] ] ] } },
{ "type": "Feature", "properties": { "OBJECTID": 574, "adm_nm": "부산광역시 금정구 남산동", "adm_cd": "2111068", "adm_cd2": "2641067000", "sgg": "26410", "sido": "26", "sidonm": "부산광역시", "sggnm": "금정구" }, "geometry": { "type": "MultiPolygon", "coordinates": [ [ [ [ 129.097383563116921, 35.272756688284389 ], [ 129.097287126754281, 35.271827637004016 ], [ 129.096505364149493, 35.269405914782581 ], [ 129.0959833518572, 35.268369602966736 ], [ 129.09588208585464, 35.268071433763531 ], [ 129.095809507078286, 35.26784868780021 ], [ 129.095766824560911, 35.267627447930884 ], [ 129.095375362048713, 35.263424854150841 ], [ 129.095394263732118, 35.263009208391495 ], [ 129.097069019810334, 35.261411273705598 ], [ 129.096435253995537, 35.26160247464491 ], [ 129.09620930298837, 35.261652996968131 ], [ 129.095672159878035, 35.260895078120534 ], [ 129.094448199262246, 35.259093053340983 ], [ 129.093283880656145, 35.257261094646807 ], [ 129.091689961893024, 35.257773102937826 ], [ 129.091372407738078, 35.257987000009258 ], [ 129.091385081208216, 35.259796594768666 ], [ 129.090347632493064, 35.26048620369226 ], [ 129.084791984031284, 35.263693670486127 ], [ 129.083533346556493, 35.264128973682681 ], [ 129.082564870117579, 35.264304498063069 ], [ 129.081114793195354, 35.264434885614975 ], [ 129.080615921754202, 35.264038562319008 ], [ 129.080647190109289, 35.262958195562391 ], [ 129.080813600254658, 35.261496812602758 ], [ 129.080200258280826, 35.261028371735115 ], [ 129.07905817059239, 35.260418655905376 ], [ 129.077475805605445, 35.260060911470106 ], [ 129.076365082044816, 35.260234618014977 ], [ 129.074480200991928, 35.259974562808772 ], [ 129.06948358648458, 35.258039088911374 ], [ 129.067969966632006, 35.257309897818288 ], [ 129.067794042093652, 35.25724078881489 ], [ 129.067577324673209, 35.257156368052527 ], [ 129.067322841431718, 35.257276614373247 ], [ 129.066819346186406, 35.257570529652149 ], [ 129.062434931224459, 35.261603650517181 ], [ 129.06216432190314, 35.261924116341717 ], [ 129.061931821454749, 35.262524867043695 ], [ 129.062083905803576, 35.263116544134824 ], [ 129.062360537827885, 35.263659210337664 ], [ 129.062453847911854, 35.264368180248638 ], [ 129.062469444645586, 35.264486694125004 ], [ 129.062307547912411, 35.265349930794088 ], [ 129.061685972333891, 35.267330093582473 ], [ 129.06098840808076, 35.26913677834537 ], [ 129.060442078850627, 35.270320504482648 ], [ 129.060643443539391, 35.271699667538911 ], [ 129.060833415303762, 35.272237931217994 ], [ 129.063408643439459, 35.272581676826348 ], [ 129.063676215023833, 35.272487334117464 ], [ 129.063913167570547, 35.272342760593517 ], [ 129.065648920376816, 35.272178596431559 ], [ 129.070600764933857, 35.272681514484987 ], [ 129.076049802576478, 35.273243619685076 ], [ 129.076703815200744, 35.273453611468049 ], [ 129.07710928854101, 35.273638634385875 ], [ 129.077897346571802, 35.274084055328046 ], [ 129.079270811240889, 35.274937350974817 ], [ 129.080124101000081, 35.275589977311306 ], [ 129.080476176888396, 35.275897499744637 ], [ 129.08096208345907, 35.276211189600843 ], [ 129.08113419828581, 35.276270746282499 ], [ 129.081849029642655, 35.276056752622985 ], [ 129.082189188215807, 35.275902672316555 ], [ 129.083152317415937, 35.275449847831489 ], [ 129.083664788345715, 35.275543722741951 ], [ 129.087701645456633, 35.275453932424874 ], [ 129.08775478043097, 35.275450481476483 ], [ 129.087790178365424, 35.27544387698893 ], [ 129.087823153404429, 35.275435032299562 ], [ 129.0878562808482, 35.275424589791776 ], [ 129.08788923923683, 35.275412752936468 ], [ 129.087921672677567, 35.275399763523446 ], [ 129.087953239048602, 35.275385892914485 ], [ 129.087983594715496, 35.275371334955132 ], [ 129.088012389423966, 35.275356338574916 ], [ 129.088039289319426, 35.275341147980413 ], [ 129.088075395875507, 35.275318303740619 ], [ 129.08811755609446, 35.275287363996398 ], [ 129.088154345573628, 35.275255127952668 ], [ 129.088187837787586, 35.275220748845605 ], [ 129.088212046478645, 35.275191044644615 ], [ 129.089509569430192, 35.27350927958237 ], [ 129.091277300472001, 35.27214556701874 ], [ 129.095877100370245, 35.271972157158764 ], [ 129.097383563116921, 35.272756688284389 ] ] ] ] } },
{ "type": "Feature", "properties": { "OBJECTID": 575, "adm_nm": "부산광역시 금정구 구서1동", "adm_cd": "2111069", "adm_cd2": "2641068000", "sgg": "26410", "sido": "26", "sidonm": "부산광역시", "sggnm": "금정구" }, "geometry": { "type": "MultiPolygon", "coordinates": [ [ [ [ 129.104921055274929, 35.255499904890677 ], [ 129.104913288676812, 35.255356524848473 ], [ 129.104529230196505, 35.254674258065464 ], [ 129.103913672361927, 35.253948537294868 ], [ 129.103798010092305, 35.253835651058715 ], [ 129.102398014985425, 35.252469261209121 ], [ 129.101482823722989, 35.25179364234684 ], [ 129.100836106498605, 35.250341711124634 ], [ 129.100698095510694, 35.249132498237685 ], [ 129.100765067274807, 35.248019735225924 ], [ 129.100812648235689, 35.247534501762125 ], [ 129.100307317325473, 35.246815090180775 ], [ 129.100078283328173, 35.246627331312638 ], [ 129.097521155330867, 35.245137931554346 ], [ 129.09730509751941, 35.245038300302475 ], [ 129.097165595559204, 35.245005140315449 ], [ 129.096003259833992, 35.244731016894939 ], [ 129.095907466693802, 35.244714858091925 ], [ 129.095818299393414, 35.244717647993625 ], [ 129.094664268005431, 35.244920243112652 ], [ 129.094642849348389, 35.244962221230637 ], [ 129.094648368634267, 35.245020083763414 ], [ 129.094651587162133, 35.24504750197395 ], [ 129.094718408497044, 35.245618396123504 ], [ 129.094682063433083, 35.2455994630132 ], [ 129.092580449041719, 35.244282271755331 ], [ 129.090993410532036, 35.243150577257047 ], [ 129.089808962965748, 35.241944632978303 ], [ 129.089349600123256, 35.241471844194891 ], [ 129.089009247538172, 35.241579066786109 ], [ 129.088820916851091, 35.241653623855392 ], [ 129.088358243768738, 35.24191071651245 ], [ 129.085838607725179, 35.243426206197086 ], [ 129.084388871620263, 35.244486246134883 ], [ 129.083386531152257, 35.244680803351201 ], [ 129.083061044636821, 35.244449695431776 ], [ 129.082956243802784, 35.244419817367117 ], [ 129.081407578292016, 35.244473196038605 ], [ 129.081097859285563, 35.244501457650024 ], [ 129.078932279583682, 35.244890140645907 ], [ 129.078695470257429, 35.244942679356356 ], [ 129.078374400017708, 35.245017721503842 ], [ 129.077420705960748, 35.245678817284798 ], [ 129.078468322100804, 35.247234717917379 ], [ 129.078433467868734, 35.248122363514767 ], [ 129.07852098734449, 35.248483211787814 ], [ 129.078909895397913, 35.249016190127954 ], [ 129.080829654707316, 35.249792079984395 ], [ 129.084899574145339, 35.249786206057351 ], [ 129.084971567821583, 35.249675527636832 ], [ 129.089906126079029, 35.24997977325863 ], [ 129.089973445212109, 35.251355616421677 ], [ 129.089981905359934, 35.251528516720391 ], [ 129.09446707313657, 35.255308576757159 ], [ 129.096064369407003, 35.256297345880562 ], [ 129.098424510508295, 35.257696883995116 ], [ 129.098523674925104, 35.257752087956092 ], [ 129.098829026696393, 35.257859150963306 ], [ 129.099514050228777, 35.257988333481343 ], [ 129.100002257272138, 35.257757430998559 ], [ 129.100663770269989, 35.257356991007356 ], [ 129.101162634607391, 35.256855883214371 ], [ 129.101395181623531, 35.256375338932038 ], [ 129.101632928980763, 35.256175526577159 ], [ 129.102445869679826, 35.255704622780534 ], [ 129.103531487853758, 35.255540416152655 ], [ 129.10361076466387, 35.255533848540892 ], [ 129.104921055274929, 35.255499904890677 ] ] ] ] } },
{ "type": "Feature", "properties": { "OBJECTID": 576, "adm_nm": "부산광역시 금정구 구서2동", "adm_cd": "2111070", "adm_cd2": "2641069000", "sgg": "26410", "sido": "26", "sidonm": "부산광역시", "sggnm": "금정구" }, "geometry": { "type": "MultiPolygon", "coordinates": [ [ [ [ 129.097069019810334, 35.261411273705598 ], [ 129.098189035987531, 35.261003307985121 ], [ 129.098342165289893, 35.26092137538491 ], [ 129.099742323816059, 35.25930927094398 ], [ 129.09979960356992, 35.259155050696322 ], [ 129.099753372830662, 35.258931677105494 ], [ 129.099514050228777, 35.257988333481343 ], [ 129.098829026696393, 35.257859150963306 ], [ 129.098523674925104, 35.257752087956092 ], [ 129.098424510508295, 35.257696883995116 ], [ 129.096064369407003, 35.256297345880562 ], [ 129.09446707313657, 35.255308576757159 ], [ 129.089981905359934, 35.251528516720391 ], [ 129.089973445212109, 35.251355616421677 ], [ 129.089906126079029, 35.24997977325863 ], [ 129.084971567821583, 35.249675527636832 ], [ 129.084899574145339, 35.249786206057351 ], [ 129.080829654707316, 35.249792079984395 ], [ 129.078909895397913, 35.249016190127954 ], [ 129.07852098734449, 35.248483211787814 ], [ 129.078433467868734, 35.248122363514767 ], [ 129.078468322100804, 35.247234717917379 ], [ 129.077420705960748, 35.245678817284798 ], [ 129.077017465670167, 35.245555557943639 ], [ 129.076812495314698, 35.245574392125476 ], [ 129.074266947173498, 35.246444110531051 ], [ 129.070983621907175, 35.24760418121835 ], [ 129.070566968686364, 35.247791520129063 ], [ 129.069374086320323, 35.248527517707849 ], [ 129.069226166536254, 35.24868291989533 ], [ 129.068935216881556, 35.249424034039308 ], [ 129.068853453654611, 35.249727212726519 ], [ 129.067511895301038, 35.24970545288874 ], [ 129.067382321532364, 35.250243203594827 ], [ 129.066955561280764, 35.253147645454682 ], [ 129.06686447182355, 35.254245800444416 ], [ 129.067187308822923, 35.255674146888083 ], [ 129.067969966632006, 35.257309897818288 ], [ 129.06948358648458, 35.258039088911374 ], [ 129.074480200991928, 35.259974562808772 ], [ 129.076365082044816, 35.260234618014977 ], [ 129.077475805605445, 35.260060911470106 ], [ 129.07905817059239, 35.260418655905376 ], [ 129.080200258280826, 35.261028371735115 ], [ 129.080813600254658, 35.261496812602758 ], [ 129.080647190109289, 35.262958195562391 ], [ 129.080615921754202, 35.264038562319008 ], [ 129.081114793195354, 35.264434885614975 ], [ 129.082564870117579, 35.264304498063069 ], [ 129.083533346556493, 35.264128973682681 ], [ 129.084791984031284, 35.263693670486127 ], [ 129.090347632493064, 35.26048620369226 ], [ 129.091385081208216, 35.259796594768666 ], [ 129.091372407738078, 35.257987000009258 ], [ 129.091689961893024, 35.257773102937826 ], [ 129.093283880656145, 35.257261094646807 ], [ 129.094448199262246, 35.259093053340983 ], [ 129.095672159878035, 35.260895078120534 ], [ 129.09620930298837, 35.261652996968131 ], [ 129.096435253995537, 35.26160247464491 ], [ 129.097069019810334, 35.261411273705598 ] ] ] ] } },
{ "type": "Feature", "properties": { "OBJECTID": 577, "adm_nm": "부산광역시 금정구 금성동", "adm_cd": "2111071", "adm_cd2": "2641070000", "sgg": "26410", "sido": "26", "sidonm": "부산광역시", "sggnm": "금정구" }, "geometry": { "type": "MultiPolygon", "coordinates": [ [ [ [ 129.060833415303762, 35.272237931217994 ], [ 129.060643443539391, 35.271699667538911 ], [ 129.060442078850627, 35.270320504482648 ], [ 129.06098840808076, 35.26913677834537 ], [ 129.061685972333891, 35.267330093582473 ], [ 129.062307547912411, 35.265349930794088 ], [ 129.062469444645586, 35.264486694125004 ], [ 129.062453847911854, 35.264368180248638 ], [ 129.062360537827885, 35.263659210337664 ], [ 129.062083905803576, 35.263116544134824 ], [ 129.061931821454749, 35.262524867043695 ], [ 129.06216432190314, 35.261924116341717 ], [ 129.062434931224459, 35.261603650517181 ], [ 129.066819346186406, 35.257570529652149 ], [ 129.067322841431718, 35.257276614373247 ], [ 129.067577324673209, 35.257156368052527 ], [ 129.067794042093652, 35.25724078881489 ], [ 129.067969966632006, 35.257309897818288 ], [ 129.067187308822923, 35.255674146888083 ], [ 129.06686447182355, 35.254245800444416 ], [ 129.066955561280764, 35.253147645454682 ], [ 129.067382321532364, 35.250243203594827 ], [ 129.067511895301038, 35.24970545288874 ], [ 129.066800703583539, 35.248977951091398 ], [ 129.0626751021627, 35.244670781465736 ], [ 129.062544510923942, 35.244495362297329 ], [ 129.062442567888382, 35.244358420964844 ], [ 129.061242033313476, 35.240678465168607 ], [ 129.061257821303371, 35.240468890252224 ], [ 129.061337397313821, 35.240281746232064 ], [ 129.062278869465615, 35.238357766722444 ], [ 129.061706016729659, 35.237600086886744 ], [ 129.060197136894743, 35.234888358703238 ], [ 129.059490917906487, 35.233364740302086 ], [ 129.059328624869778, 35.232638572198404 ], [ 129.059343050240443, 35.232539348609407 ], [ 129.059710764773229, 35.230023432315313 ], [ 129.058321447912448, 35.230193460064754 ], [ 129.058119356743617, 35.230185672134482 ], [ 129.057980436056113, 35.230155838922272 ], [ 129.056992102073991, 35.229931436508359 ], [ 129.05624849071836, 35.22967720273008 ], [ 129.056153763587503, 35.229669403044461 ], [ 129.053806129435941, 35.229512481432621 ], [ 129.052704153196174, 35.229553996487219 ], [ 129.05158955002841, 35.229648699027926 ], [ 129.04912036421635, 35.230865738425344 ], [ 129.04653107718616, 35.230999704494003 ], [ 129.046091252022819, 35.23131448893426 ], [ 129.045743450655294, 35.233342951874818 ], [ 129.046537909022419, 35.234438871838847 ], [ 129.046970626030486, 35.2347711582009 ], [ 129.04915549963502, 35.238029715279232 ], [ 129.048814772250836, 35.238478559023058 ], [ 129.049921676109648, 35.23897988548466 ], [ 129.050638203458931, 35.239883406956388 ], [ 129.051070947825991, 35.241020086744079 ], [ 129.049609236374891, 35.245129579469221 ], [ 129.048715200218766, 35.245869842464622 ], [ 129.048282384040505, 35.246027215863954 ], [ 129.047615423688114, 35.246207883153545 ], [ 129.046097036774313, 35.246271916540394 ], [ 129.045522249430206, 35.247018017539546 ], [ 129.045437041138257, 35.247659201799813 ], [ 129.045374791251675, 35.250944780090904 ], [ 129.045415296070303, 35.252135943974984 ], [ 129.047004575657382, 35.254228686995944 ], [ 129.047735422174355, 35.25464259451703 ], [ 129.048551432008594, 35.255068160526143 ], [ 129.047792044961795, 35.256461275156163 ], [ 129.046734677403379, 35.257026622284506 ], [ 129.040645851870408, 35.258897156509995 ], [ 129.03765103622203, 35.259718685933088 ], [ 129.036096928146236, 35.259718460588694 ], [ 129.037002510432728, 35.261189636300593 ], [ 129.037753216746296, 35.262119655566387 ], [ 129.039122030928667, 35.262836251536299 ], [ 129.040005786592644, 35.262803144233352 ], [ 129.041599936112902, 35.263329962914639 ], [ 129.041888701635827, 35.26367633599336 ], [ 129.042131254281259, 35.264008468029921 ], [ 129.0423447611889, 35.265427092335599 ], [ 129.042403980596447, 35.266797349915898 ], [ 129.042402159727146, 35.26791794329926 ], [ 129.04258112181509, 35.268639110464008 ], [ 129.043181769837702, 35.269526374281952 ], [ 129.043499430568914, 35.269924938909028 ], [ 129.04455645735257, 35.270802760146402 ], [ 129.046237296463033, 35.272876225143655 ], [ 129.046879664525818, 35.273768146964635 ], [ 129.050567891238302, 35.280055989565639 ], [ 129.051860904085032, 35.279329184363299 ], [ 129.054579610294752, 35.277592942450227 ], [ 129.057208800591582, 35.275681183835523 ], [ 129.059079362351923, 35.27401392973389 ], [ 129.060833415303762, 35.272237931217994 ] ] ] ] } },
{ "type": "Feature", "properties": { "OBJECTID": 578, "adm_nm": "부산광역시 금정구 서3동", "adm_cd": "2111072", "adm_cd2": "2641053000", "sgg": "26410", "sido": "26", "sidonm": "부산광역시", "sggnm": "금정구" }, "geometry": { "type": "MultiPolygon", "coordinates": [ [ [ [ 129.106716609108702, 35.22789709143202 ], [ 129.107006184051386, 35.227771079271015 ], [ 129.107301525565845, 35.227547587407557 ], [ 129.107623290521929, 35.227166521775054 ], [ 129.107766432730784, 35.226634591367088 ], [ 129.106731802907177, 35.225613425439292 ], [ 129.105747924359264, 35.224703818595572 ], [ 129.105475936152743, 35.224430481591241 ], [ 129.105403845735736, 35.224279545001714 ], [ 129.105605854114373, 35.223968590423894 ], [ 129.106669985872287, 35.223076963251089 ], [ 129.107434012448806, 35.222846503648654 ], [ 129.10829365151514, 35.222414644389339 ], [ 129.10870602263833, 35.222092552171105 ], [ 129.108728861678031, 35.222063291293928 ], [ 129.109011776047112, 35.221700552060447 ], [ 129.110670022076846, 35.219024684829506 ], [ 129.109650433904932, 35.217257247646536 ], [ 129.108420119944128, 35.214108834876448 ], [ 129.101970056740271, 35.21524779832982 ], [ 129.099661257202342, 35.216158742803088 ], [ 129.100240678349053, 35.217152861850707 ], [ 129.101872221365483, 35.2192383183801 ], [ 129.101451761366661, 35.219616822526838 ], [ 129.100525996961579, 35.219206648587843 ], [ 129.099448845167217, 35.222202930705365 ], [ 129.100758634760297, 35.223076425284781 ], [ 129.102554931975448, 35.226382940185431 ], [ 129.103583876228925, 35.229775910345708 ], [ 129.106716609108702, 35.22789709143202 ] ] ] ] } },
{ "type": "Feature", "properties": { "OBJECTID": 3480, "adm_nm": "부산광역시 금정구 장전2동", "adm_cd": "2111074", "adm_cd2": "2641061000", "sgg": "26410", "sido": "26", "sidonm": "부산광역시", "sggnm": "금정구" }, "geometry": { "type": "MultiPolygon", "coordinates": [ [ [ [ 129.089407023338453, 35.231086917616047 ], [ 129.08915943179457, 35.226512918250798 ], [ 129.087799096028107, 35.222220040048967 ], [ 129.08726030886325, 35.221656807349376 ], [ 129.085086091820216, 35.221930569518783 ], [ 129.082497774215568, 35.223898144406128 ], [ 129.081916356336649, 35.224509541520462 ], [ 129.080695407033289, 35.223831458925645 ], [ 129.077705231512482, 35.226266997544045 ], [ 129.077497124876629, 35.226350843030232 ], [ 129.076754570834197, 35.226395985633971 ], [ 129.071553600256692, 35.226270844018217 ], [ 129.070473707431233, 35.225741350976826 ], [ 129.069168181940285, 35.225101186077588 ], [ 129.068820475283786, 35.225083507267129 ], [ 129.068593485607522, 35.225093544090257 ], [ 129.066874295032278, 35.225183757238945 ], [ 129.066531478119316, 35.225297039414997 ], [ 129.066488935882546, 35.226481701282069 ], [ 129.066112543993427, 35.226872803047222 ], [ 129.065354351562746, 35.226938693170951 ], [ 129.063659162271534, 35.226887940335871 ], [ 129.062685984327146, 35.226846746935955 ], [ 129.062224760596109, 35.226827139361568 ], [ 129.060645281708929, 35.2265024761262 ], [ 129.060199537936057, 35.226222523215064 ], [ 129.060146157228729, 35.22630921475934 ], [ 129.060000958979344, 35.22664132721993 ], [ 129.059974128066187, 35.226789233938575 ], [ 129.060299446324819, 35.227890624136542 ], [ 129.060398931720641, 35.228143600943554 ], [ 129.060559982877095, 35.228342054899819 ], [ 129.06057262199613, 35.228470491248522 ], [ 129.060326418747792, 35.229243712776707 ], [ 129.060004388951995, 35.229682215057117 ], [ 129.059710764773229, 35.230023432315313 ], [ 129.059343050240443, 35.232539348609407 ], [ 129.059328624869778, 35.232638572198404 ], [ 129.059490917906487, 35.233364740302086 ], [ 129.060197136894743, 35.234888358703238 ], [ 129.061706016729659, 35.237600086886744 ], [ 129.062278869465615, 35.238357766722444 ], [ 129.063052806628548, 35.238815066499093 ], [ 129.063295453865095, 35.238916069842055 ], [ 129.063673059619418, 35.239061353437748 ], [ 129.064378072312621, 35.239231719797779 ], [ 129.064963510871621, 35.239342093742756 ], [ 129.065602956323659, 35.239401870014746 ], [ 129.066103728291125, 35.239411079416662 ], [ 129.06631166275875, 35.239363543636344 ], [ 129.068691408757388, 35.238688770589761 ], [ 129.075595423052903, 35.236664183269944 ], [ 129.076800570104922, 35.238344867570753 ], [ 129.077211143064005, 35.238429806009776 ], [ 129.077653094291634, 35.238372836070461 ], [ 129.077848877884747, 35.238314796576176 ], [ 129.081710723468575, 35.236973407938947 ], [ 129.082931816499325, 35.234285015372464 ], [ 129.084138782690047, 35.233525062657378 ], [ 129.085556519091966, 35.233044489375658 ], [ 129.089407023338453, 35.231086917616047 ] ] ] ] } }
]
}
