{
"type": "FeatureCollection",
"name": "gijanggun",
"crs": { "type": "name", "properties": { "name": "urn:ogc:def:crs:OGC:1.3:CRS84" } },
"features": [
{ "type": "Feature", "properties": { "OBJECTID": 620, "adm_nm": "부산광역시 기장군 기장읍", "adm_cd": "2131011", "adm_cd2": "2671025000", "sgg": "26710", "sido": "26", "sidonm": "부산광역시", "sggnm": "기장군" }, "geometry": { "type": "MultiPolygon", "coordinates": [ [ [ [ 129.25290880641748, 35.252250856249603 ], [ 129.253358863936057, 35.250174814432413 ], [ 129.25337576324543, 35.246668237228782 ], [ 129.251853142054358, 35.244624398626662 ], [ 129.24828486180499, 35.24331056908489 ], [ 129.248031843629121, 35.24177645865111 ], [ 129.248301952358361, 35.240845538039821 ], [ 129.248560430309595, 35.2399547116569 ], [ 129.24681553846068, 35.237743768243107 ], [ 129.246223938945889, 35.237280191566576 ], [ 129.245744647124496, 35.237073388146662 ], [ 129.245107907521628, 35.234971277435911 ], [ 129.245446353264867, 35.233886470573616 ], [ 129.245738933601928, 35.231137348369238 ], [ 129.245553083107126, 35.230685810080232 ], [ 129.245456976831179, 35.230452334099418 ], [ 129.243758680697738, 35.229922975343385 ], [ 129.241680425048173, 35.228969232858972 ], [ 129.241074700267689, 35.227988195163704 ], [ 129.242101536578673, 35.227063214425769 ], [ 129.242341944745561, 35.226239074302178 ], [ 129.240404241297114, 35.222737366526246 ], [ 129.23892287575103, 35.220521417689262 ], [ 129.236583185810588, 35.219615540164746 ], [ 129.235843482193616, 35.219499798137591 ], [ 129.231233593765779, 35.220677875527599 ], [ 129.230539615646506, 35.221634667941345 ], [ 129.228458745089512, 35.220714444286202 ], [ 129.228469504993171, 35.220494054421017 ], [ 129.228526205370457, 35.219332678748302 ], [ 129.229998520707966, 35.219305573793626 ], [ 129.230733504280209, 35.219248887083346 ], [ 129.233233227911711, 35.214474610138012 ], [ 129.233209255618874, 35.214397454217014 ], [ 129.230142753602252, 35.204529230320034 ], [ 129.23006077843533, 35.204265397575618 ], [ 129.231521713738857, 35.201908854646433 ], [ 129.231825361080439, 35.20147183985177 ], [ 129.23015233418576, 35.19572537761114 ], [ 129.227310645215709, 35.192698471144539 ], [ 129.225733600271781, 35.19186680950439 ], [ 129.22381723034465, 35.189989424989363 ], [ 129.224107977304783, 35.189250931080046 ], [ 129.224541047378608, 35.188031675161959 ], [ 129.225037885842141, 35.186301234060316 ], [ 129.224750404136387, 35.185732738234201 ], [ 129.221833162328807, 35.184192474965606 ], [ 129.220263283958928, 35.18361559249503 ], [ 129.219334683235871, 35.183760122166355 ], [ 129.218915287385414, 35.184054691203279 ], [ 129.218123109055114, 35.184929855874152 ], [ 129.217772822997006, 35.186338828176048 ], [ 129.214670191525357, 35.186554966497667 ], [ 129.213624425801243, 35.185809258535578 ], [ 129.213362668471376, 35.185622588865961 ], [ 129.213430842039884, 35.185270690461351 ], [ 129.213930529284966, 35.185070300593772 ], [ 129.213909796697237, 35.184305653951235 ], [ 129.213484302017918, 35.18294273836306 ], [ 129.21280681967329, 35.180883149494484 ], [ 129.212339073105341, 35.180827949913187 ], [ 129.211686654654699, 35.18112674489592 ], [ 129.210846956590501, 35.181683968375893 ], [ 129.210819346639653, 35.182098861173777 ], [ 129.210941014082209, 35.182287905740488 ], [ 129.210828834482669, 35.18244933205326 ], [ 129.210325694390662, 35.182522255376334 ], [ 129.208331319341852, 35.182048621074415 ], [ 129.207922226562147, 35.181944959030275 ], [ 129.207861637917574, 35.182065988099531 ], [ 129.207604986735049, 35.182578697392209 ], [ 129.206892384173727, 35.185870877075331 ], [ 129.206317382636854, 35.19127882044517 ], [ 129.206335192276782, 35.191566604502739 ], [ 129.206580173641328, 35.192097220615288 ], [ 129.206855011685235, 35.192619057577041 ], [ 129.207145201678031, 35.193338176539619 ], [ 129.207313112518051, 35.194013090841885 ], [ 129.207448979080226, 35.194559196364317 ], [ 129.206667447539957, 35.197053956105798 ], [ 129.20426157246294, 35.198329827034463 ], [ 129.199450864101408, 35.200687350789146 ], [ 129.198388136431532, 35.200834159026975 ], [ 129.197674213405435, 35.200622109207401 ], [ 129.197276087795842, 35.200473258203708 ], [ 129.19687434366918, 35.200323051022131 ], [ 129.1946963944294, 35.198960853289158 ], [ 129.193858627703946, 35.19810861708671 ], [ 129.193664379535846, 35.195813832827739 ], [ 129.193519889640925, 35.195069859231701 ], [ 129.190810524503746, 35.192914938595571 ], [ 129.189044664041774, 35.189957613882044 ], [ 129.188188876685302, 35.189335566897512 ], [ 129.186378292214215, 35.18947311095873 ], [ 129.183779132820803, 35.189719930277654 ], [ 129.183322560000903, 35.19072035829852 ], [ 129.185643041156624, 35.195486684932348 ], [ 129.184322921551427, 35.196577240631321 ], [ 129.182620128267928, 35.197983857384159 ], [ 129.179633866403691, 35.197900141902338 ], [ 129.174741973853202, 35.200952660917757 ], [ 129.17247209723871, 35.20202302077535 ], [ 129.171395589728348, 35.201872699379116 ], [ 129.170084843267745, 35.200963393253197 ], [ 129.16936951017513, 35.200984167907514 ], [ 129.165040022152482, 35.203111323721672 ], [ 129.16425470000857, 35.204847806290609 ], [ 129.162981854327114, 35.205972207378302 ], [ 129.160260272831835, 35.206293114853807 ], [ 129.160091351148196, 35.208170618157453 ], [ 129.159759259163053, 35.209692566062863 ], [ 129.160454812954129, 35.21183722750348 ], [ 129.162031393136772, 35.212562648964251 ], [ 129.164740238695117, 35.214936315012125 ], [ 129.165398693751399, 35.216138604521369 ], [ 129.166126998870794, 35.218213543395429 ], [ 129.166214414384314, 35.218469209087289 ], [ 129.166229967778776, 35.218569865860147 ], [ 129.166204749794161, 35.218744653978682 ], [ 129.166103255764767, 35.219108248533921 ], [ 129.166424994379611, 35.219178097804026 ], [ 129.167122629547293, 35.219283600864557 ], [ 129.167357873650957, 35.219316548939112 ], [ 129.167605225018207, 35.219319529729425 ], [ 129.167840386536227, 35.219309234496556 ], [ 129.169093028444792, 35.219157809077409 ], [ 129.169222716986269, 35.219134336575394 ], [ 129.169429378977838, 35.219074169905369 ], [ 129.16969672327545, 35.218944061281199 ], [ 129.170004557563061, 35.218783936905702 ], [ 129.170284131403946, 35.218680430742843 ], [ 129.170515109229541, 35.218613584041265 ], [ 129.170705646438307, 35.218596676600569 ], [ 129.170871915978381, 35.218603098734114 ], [ 129.171013879390927, 35.218626198296754 ], [ 129.174020135441339, 35.219122797882264 ], [ 129.174338719599348, 35.219230884064707 ], [ 129.174975922158922, 35.219467419218297 ], [ 129.175038033305214, 35.219508040487554 ], [ 129.175149852830231, 35.219602849384238 ], [ 129.175386101729345, 35.219880643654662 ], [ 129.17559770591231, 35.220222937845946 ], [ 129.178846273707677, 35.223501696662488 ], [ 129.181410584804269, 35.22574341565074 ], [ 129.181563870251097, 35.225868671847827 ], [ 129.182802357539117, 35.226860682035763 ], [ 129.182852056721146, 35.226891133294359 ], [ 129.182971989554432, 35.226904519160641 ], [ 129.183075335946995, 35.226897599415572 ], [ 129.184850021328828, 35.227268026429542 ], [ 129.187516823677896, 35.229018963955888 ], [ 129.187578991300683, 35.229072211560336 ], [ 129.187620466682063, 35.229115801485875 ], [ 129.189092558581279, 35.231123978413727 ], [ 129.18912478834099, 35.231228571349682 ], [ 129.189123345076581, 35.231409637280798 ], [ 129.189116906797267, 35.231566015610369 ], [ 129.190495372967547, 35.237799635158112 ], [ 129.191795481458456, 35.240236769258601 ], [ 129.193427308012105, 35.241681672129538 ], [ 129.193528074052153, 35.24180274082881 ], [ 129.193569734481713, 35.241919063203362 ], [ 129.193596964705961, 35.2420384527477 ], [ 129.193597575516122, 35.242077282262201 ], [ 129.193593857802966, 35.242127538523739 ], [ 129.193576380359303, 35.242234246583408 ], [ 129.193508892269506, 35.242440449244306 ], [ 129.193274080622388, 35.24312942684665 ], [ 129.191679132828597, 35.247367753413108 ], [ 129.191573277775944, 35.247595800131741 ], [ 129.191417169744909, 35.247826376799011 ], [ 129.191210870020541, 35.248078857214757 ], [ 129.191016315348236, 35.248302222656726 ], [ 129.190756869010471, 35.248588734876762 ], [ 129.190344124465099, 35.249040349003593 ], [ 129.190190706588197, 35.249161830232481 ], [ 129.190057948956365, 35.249266296650568 ], [ 129.189833630714901, 35.249402417669394 ], [ 129.189550229699648, 35.249548335852303 ], [ 129.188859234999597, 35.249835506377785 ], [ 129.188614098550687, 35.249915909031145 ], [ 129.188330651996182, 35.250047263695436 ], [ 129.187952802181599, 35.250256370376526 ], [ 129.187392050913473, 35.250625777410853 ], [ 129.187117771262507, 35.250895320190807 ], [ 129.187023473829015, 35.251021548373885 ], [ 129.186941162132399, 35.251215641322581 ], [ 129.186712059171157, 35.251856086075939 ], [ 129.186688737249767, 35.251996748601847 ], [ 129.186597751635816, 35.254762931877934 ], [ 129.186602508689418, 35.254830725285025 ], [ 129.1886234434767, 35.261118140641386 ], [ 129.18978718856232, 35.263967794696427 ], [ 129.19169388639304, 35.265379242860519 ], [ 129.192005485716777, 35.265103778195879 ], [ 129.192110931373008, 35.265028274174441 ], [ 129.192782933943306, 35.264712688856825 ], [ 129.192929763771872, 35.264659713190518 ], [ 129.193092691778673, 35.264623681571258 ], [ 129.193225893717226, 35.264642283696183 ], [ 129.194758600980549, 35.265169081562213 ], [ 129.194857455957106, 35.265223546183066 ], [ 129.194958678946847, 35.26530624542783 ], [ 129.195041617192032, 35.265422888947818 ], [ 129.195133793811749, 35.265562108128663 ], [ 129.195189156945617, 35.265667496868858 ], [ 129.195976665721389, 35.267577871221988 ], [ 129.198024971888543, 35.268543800795001 ], [ 129.198442372410796, 35.268688785057009 ], [ 129.198720529492533, 35.26874563489973 ], [ 129.19900082552914, 35.268791923703795 ], [ 129.199492811291719, 35.268828194636136 ], [ 129.200068202963962, 35.268861116713396 ], [ 129.206382447092039, 35.269183541519062 ], [ 129.206491212047496, 35.269183774147251 ], [ 129.206589841081524, 35.269166494249333 ], [ 129.206717868198467, 35.269044313851211 ], [ 129.206811548990657, 35.268880108977193 ], [ 129.206922116196608, 35.268621498586455 ], [ 129.207172203276002, 35.267719644197875 ], [ 129.207258691239645, 35.267244210420294 ], [ 129.207372361529309, 35.266527550209965 ], [ 129.207380551334467, 35.266384181464524 ], [ 129.207368415829706, 35.265814049367862 ], [ 129.207342333684068, 35.265653081565688 ], [ 129.207292803097488, 35.265519982269915 ], [ 129.207138120282707, 35.265243077194107 ], [ 129.207071446921418, 35.265092408306991 ], [ 129.207015400437228, 35.264920782974293 ], [ 129.206998026712171, 35.264812271741668 ], [ 129.206991258830158, 35.264675838869501 ], [ 129.208483068870578, 35.262176444294987 ], [ 129.20860759714887, 35.261990772310753 ], [ 129.209430584346904, 35.26102364474017 ], [ 129.21012796557676, 35.260283515937374 ], [ 129.210347725729605, 35.260089197670077 ], [ 129.210586906964835, 35.25996142066154 ], [ 129.211967350780895, 35.259571893437759 ], [ 129.212172514551014, 35.259520808074754 ], [ 129.212880274495177, 35.259497339858953 ], [ 129.213098443876191, 35.25951266324347 ], [ 129.215315019382416, 35.259129177646507 ], [ 129.218985586766507, 35.257906864059358 ], [ 129.219816358443438, 35.257505611625554 ], [ 129.219840954094764, 35.257483910095132 ], [ 129.219910228409589, 35.257422786048679 ], [ 129.219974016594506, 35.257287590410833 ], [ 129.220089745470034, 35.256769417035201 ], [ 129.21994147966447, 35.256496164210624 ], [ 129.219880480126278, 35.256288347014468 ], [ 129.219857922619639, 35.255536235963227 ], [ 129.219939263286932, 35.255216153879182 ], [ 129.220073217054164, 35.254897047480128 ], [ 129.220454456670325, 35.25464452056864 ], [ 129.225660862827709, 35.251494676928139 ], [ 129.227301454034773, 35.251884706910083 ], [ 129.22856806120285, 35.254093741666495 ], [ 129.228684302224394, 35.254175725507054 ], [ 129.229011448577097, 35.254257325016162 ], [ 129.229401637948342, 35.254256589193972 ], [ 129.229765344832373, 35.254208301611833 ], [ 129.230192106674338, 35.254086351017712 ], [ 129.23053973862983, 35.25395155928684 ], [ 129.231087300462946, 35.253656301928409 ], [ 129.231282221554409, 35.253595339856339 ], [ 129.231408832792397, 35.253616730639735 ], [ 129.231753270741905, 35.253753462165484 ], [ 129.234146407961873, 35.255332554185713 ], [ 129.234840486610437, 35.256025674455607 ], [ 129.235104635629114, 35.256198256038196 ], [ 129.235848188056877, 35.256214113217567 ], [ 129.236190823817395, 35.256196141579593 ], [ 129.238912095147612, 35.255853323571692 ], [ 129.240652668528355, 35.255560001798472 ], [ 129.241321232575899, 35.255186565024751 ], [ 129.242038926391871, 35.254487419762469 ], [ 129.245818611644609, 35.253700996046732 ], [ 129.246816325411572, 35.254007179745109 ], [ 129.249873887366761, 35.253125807952777 ], [ 129.25290880641748, 35.252250856249603 ] ] ] ] } },
{ "type": "Feature", "properties": { "OBJECTID": 621, "adm_nm": "부산광역시 기장군 장안읍", "adm_cd": "2131012", "adm_cd2": "2671025300", "sgg": "26710", "sido": "26", "sidonm": "부산광역시", "sggnm": "기장군" }, "geometry": { "type": "MultiPolygon", "coordinates": [ [ [ [ 129.202973684207876, 35.38786983020016 ], [ 129.203147347858334, 35.38582899820247 ], [ 129.203214627707126, 35.385501573238372 ], [ 129.203395954988395, 35.385153719966709 ], [ 129.204312984231166, 35.384288615944968 ], [ 129.208708475806304, 35.381171275447073 ], [ 129.209031442505818, 35.380996592114911 ], [ 129.210953403119447, 35.380436132744606 ], [ 129.217355505821615, 35.378687660471414 ], [ 129.217721409231558, 35.378673069038364 ], [ 129.221983917098953, 35.379298477678624 ], [ 129.222671088955821, 35.379407415893716 ], [ 129.222948986090017, 35.37947184233311 ], [ 129.223346139297291, 35.379617219250179 ], [ 129.224081307337059, 35.380054160476924 ], [ 129.226284791410393, 35.380602006023253 ], [ 129.23040198233349, 35.3814703040089 ], [ 129.231195914050204, 35.381614901407438 ], [ 129.232345381865372, 35.381223116827428 ], [ 129.232820601381349, 35.380913764469931 ], [ 129.233692567340739, 35.380603662405541 ], [ 129.235635797566033, 35.380307717934315 ], [ 129.235814564209022, 35.38038853528321 ], [ 129.236173194253439, 35.380923537468576 ], [ 129.236694192951973, 35.382265142869905 ], [ 129.241309025611287, 35.385579142034281 ], [ 129.241643078168011, 35.385697939599289 ], [ 129.241955805893127, 35.385654646093734 ], [ 129.247359963568016, 35.384737821928169 ], [ 129.249201933525342, 35.383488229691693 ], [ 129.250391561484975, 35.383758845458708 ], [ 129.250946681205278, 35.38455126689972 ], [ 129.251195979078602, 35.385723355410121 ], [ 129.250790594559618, 35.386150843336303 ], [ 129.250907301644702, 35.386799112627259 ], [ 129.251939001795535, 35.387190480057548 ], [ 129.252003576056921, 35.387214975105387 ], [ 129.253434516520457, 35.386851961310732 ], [ 129.254514532656003, 35.386475886153171 ], [ 129.254565230971252, 35.386015004142976 ], [ 129.25508512168534, 35.385527532501989 ], [ 129.256120312404732, 35.384850759146993 ], [ 129.256200149113738, 35.384841258143908 ], [ 129.256631100998021, 35.384789973531227 ], [ 129.259946791611384, 35.384640469669293 ], [ 129.262335583196062, 35.385581267520621 ], [ 129.265270764726552, 35.386471762838077 ], [ 129.265373425433211, 35.386270762311369 ], [ 129.265806446448892, 35.385422920944485 ], [ 129.266765599165211, 35.38336223190008 ], [ 129.26732087434084, 35.381449462055059 ], [ 129.268269147630178, 35.379906149134506 ], [ 129.26961134703194, 35.379356626431147 ], [ 129.27158286764751, 35.377845045492229 ], [ 129.272500677902258, 35.376923971166349 ], [ 129.276711995543479, 35.372401234890383 ], [ 129.277314696684016, 35.37131542823758 ], [ 129.277602770910107, 35.370175186704195 ], [ 129.2785637021301, 35.367882571202713 ], [ 129.279710444459226, 35.365783016575278 ], [ 129.28091377081472, 35.365561242710754 ], [ 129.283180775098771, 35.365225130019446 ], [ 129.283508756585377, 35.362714202280593 ], [ 129.283261036073668, 35.362512599764656 ], [ 129.282546859133618, 35.361915770991395 ], [ 129.280985942194775, 35.360477671012717 ], [ 129.280801859567674, 35.359191473728238 ], [ 129.280571177762027, 35.356106626637633 ], [ 129.282438412015125, 35.353905942301481 ], [ 129.28345841552445, 35.35344409572167 ], [ 129.284476564781272, 35.352270059450795 ], [ 129.284595687803773, 35.351019978125287 ], [ 129.284562495040348, 35.350755870892748 ], [ 129.283847297969714, 35.345972530844108 ], [ 129.283767706475999, 35.34567863307003 ], [ 129.2818811308656, 35.342975396729614 ], [ 129.281430734915688, 35.342572088963294 ], [ 129.280288327978241, 35.34203540368145 ], [ 129.279878727880231, 35.341702636338653 ], [ 129.279856176419486, 35.341514353807554 ], [ 129.28245825722604, 35.339799862905615 ], [ 129.282560252640565, 35.339778882340866 ], [ 129.284039769182328, 35.339474537305165 ], [ 129.284284456133179, 35.339429246306125 ], [ 129.285497991551807, 35.339204617883809 ], [ 129.285533008715447, 35.339234040906895 ], [ 129.285846978898661, 35.33949787703957 ], [ 129.286234077194308, 35.33974239675203 ], [ 129.286600677524433, 35.339973965476645 ], [ 129.289173690980419, 35.340209955742175 ], [ 129.289362310554424, 35.340144246804719 ], [ 129.290891493881986, 35.338656671865728 ], [ 129.291176642599908, 35.337786400285637 ], [ 129.29206012488774, 35.336537539993571 ], [ 129.293179304977741, 35.335946816199261 ], [ 129.296540634342364, 35.335565444670024 ], [ 129.297704848087989, 35.335531163711948 ], [ 129.299838932250964, 35.33495302674762 ], [ 129.300875182479245, 35.334243671156486 ], [ 129.301696390293273, 35.33340239279125 ], [ 129.303210474928221, 35.331821983661783 ], [ 129.303360823866285, 35.33166504327292 ], [ 129.303915061321561, 35.330933898530908 ], [ 129.304530928399799, 35.32951391038803 ], [ 129.303586685201708, 35.329478153666905 ], [ 129.302852419877809, 35.328812571337458 ], [ 129.302294511778115, 35.3283068367152 ], [ 129.301974997435138, 35.32769433458283 ], [ 129.300420995969262, 35.322610254971238 ], [ 129.301063573338752, 35.322185643010478 ], [ 129.302410713197276, 35.321747603593444 ], [ 129.302651832122052, 35.321371878147374 ], [ 129.301816246551653, 35.320315552366907 ], [ 129.299039166209752, 35.31826517729175 ], [ 129.290645376686058, 35.318795616147717 ], [ 129.289670605379428, 35.31815424049438 ], [ 129.288675718037013, 35.318585463109599 ], [ 129.286848501406041, 35.31985720649832 ], [ 129.286510137304134, 35.320358483090736 ], [ 129.287019202503302, 35.320555051088547 ], [ 129.28769084456485, 35.32116093406102 ], [ 129.287950210108193, 35.323217985694619 ], [ 129.28730289845231, 35.323477665013371 ], [ 129.284742485888216, 35.32373223499026 ], [ 129.28448442477918, 35.326181246823474 ], [ 129.284463849427198, 35.326376844224619 ], [ 129.281851309490861, 35.326591128579203 ], [ 129.277848899723324, 35.325581737073215 ], [ 129.277764234988638, 35.325560383192148 ], [ 129.277134749587447, 35.325401612673964 ], [ 129.27756806973872, 35.324692382010838 ], [ 129.274003474100056, 35.323274852183971 ], [ 129.271219261304765, 35.322749820958592 ], [ 129.268869610183032, 35.321556738663197 ], [ 129.26832407102512, 35.321185039013159 ], [ 129.265276561588053, 35.319108484130567 ], [ 129.262954496100775, 35.315158806646238 ], [ 129.26257005520921, 35.315250558821184 ], [ 129.261197387234972, 35.31557808278226 ], [ 129.260972266249183, 35.31531069404712 ], [ 129.260920957196646, 35.315249748079822 ], [ 129.258937397301025, 35.312893504013573 ], [ 129.256215949889565, 35.312445973344445 ], [ 129.255717110196997, 35.312623112863967 ], [ 129.254396353972624, 35.313092111586471 ], [ 129.253231961640694, 35.311179248868108 ], [ 129.252964463686254, 35.308870621461466 ], [ 129.252943738672684, 35.308691748357084 ], [ 129.251595065100275, 35.308690109533543 ], [ 129.246398504112818, 35.30810446775093 ], [ 129.245188537906586, 35.307782063467492 ], [ 129.244864360638644, 35.307695683435405 ], [ 129.243368404554616, 35.307658176568751 ], [ 129.243236572968698, 35.30766519478324 ], [ 129.243123125631968, 35.307694279394838 ], [ 129.243058324859049, 35.307721564442694 ], [ 129.24298546562477, 35.307753466216568 ], [ 129.242915614573349, 35.307794552933885 ], [ 129.242755102330079, 35.307888982704021 ], [ 129.241414635312282, 35.308867317080065 ], [ 129.239930547208701, 35.310065388983531 ], [ 129.239788642690655, 35.310219713514797 ], [ 129.239712846516937, 35.310302144715145 ], [ 129.239122920659696, 35.311495035615941 ], [ 129.238942735281427, 35.311883642577982 ], [ 129.238902176087237, 35.311984922883227 ], [ 129.238874635270264, 35.312053687830065 ], [ 129.238832431228445, 35.312159062308389 ], [ 129.238766807499331, 35.312322879075104 ], [ 129.237979578122093, 35.313691715808083 ], [ 129.237811086588465, 35.313850723446016 ], [ 129.237490296017285, 35.31407754254613 ], [ 129.236881331691507, 35.314406224198535 ], [ 129.23638752378298, 35.314657003096833 ], [ 129.235395460148169, 35.315145879763996 ], [ 129.23476754297576, 35.315371895647345 ], [ 129.233888866153848, 35.315654378079806 ], [ 129.23381374850851, 35.315663431572858 ], [ 129.233546949978859, 35.315695557783535 ], [ 129.233284637395656, 35.315706169193618 ], [ 129.233196690194518, 35.315709722827442 ], [ 129.232644646522914, 35.315774928738783 ], [ 129.232335778362852, 35.315856547715377 ], [ 129.231982044336718, 35.316100295123114 ], [ 129.230135431759408, 35.317440719680974 ], [ 129.229782058475138, 35.317819513719051 ], [ 129.229564508772626, 35.318130513593324 ], [ 129.22940041514849, 35.318400901208477 ], [ 129.229380197347837, 35.318539369747455 ], [ 129.229388716886206, 35.31863725457454 ], [ 129.229480068744436, 35.318880166508421 ], [ 129.230068478768601, 35.319717073636511 ], [ 129.230239722924011, 35.31951675475964 ], [ 129.230463515781253, 35.319257467026901 ], [ 129.23074570340367, 35.319062790601549 ], [ 129.231011390598525, 35.318912422528825 ], [ 129.231613638203811, 35.318686473414537 ], [ 129.231841632515511, 35.318641724686628 ], [ 129.232170651667872, 35.318637732619855 ], [ 129.232382868588331, 35.318691832280862 ], [ 129.233144732183717, 35.319037795257429 ], [ 129.233311501842195, 35.319194156822505 ], [ 129.233854984504177, 35.320228535337392 ], [ 129.233917936697253, 35.320429383086548 ], [ 129.234054365992108, 35.321333232448325 ], [ 129.233746184929601, 35.321620519671924 ], [ 129.23186680616999, 35.321433517563349 ], [ 129.231623008294122, 35.32190830905877 ], [ 129.229761830540838, 35.325532730128053 ], [ 129.227598422891873, 35.326613083051065 ], [ 129.22513001214682, 35.327196703867472 ], [ 129.22088256445312, 35.328113680737239 ], [ 129.220218468257173, 35.328750772713313 ], [ 129.219142257026959, 35.329348306570331 ], [ 129.218683260327765, 35.329594191062405 ], [ 129.215706700874534, 35.330850701954198 ], [ 129.215542578083983, 35.33086716175815 ], [ 129.21537386672091, 35.330865881557671 ], [ 129.215048905690679, 35.330856720907775 ], [ 129.214696148695793, 35.330821647105708 ], [ 129.214303794377685, 35.330807730048903 ], [ 129.214007153078569, 35.330808383192064 ], [ 129.213919423482281, 35.33081166028893 ], [ 129.213860040346646, 35.330831242183635 ], [ 129.213579133585057, 35.330998871799395 ], [ 129.213389408829073, 35.331184215791346 ], [ 129.211717567283557, 35.332868387405597 ], [ 129.210873794489686, 35.333823849715209 ], [ 129.210856205085975, 35.333848455255165 ], [ 129.210816723008691, 35.333903702782621 ], [ 129.210804999481951, 35.333968636814625 ], [ 129.210667036883848, 35.33578970612767 ], [ 129.21068327214067, 35.335942233033329 ], [ 129.210747130797984, 35.336114126601636 ], [ 129.208123703983631, 35.337681426793118 ], [ 129.205195448159401, 35.339426089180066 ], [ 129.205060816896179, 35.339468508441698 ], [ 129.203821639502081, 35.339975291782949 ], [ 129.203623748013968, 35.340079486398551 ], [ 129.203493168179989, 35.340159216503736 ], [ 129.203429855997314, 35.340201522100315 ], [ 129.2033627233576, 35.34029900742734 ], [ 129.203295881279615, 35.340513334463637 ], [ 129.20255358108156, 35.344828071103002 ], [ 129.202558444734564, 35.345186701728657 ], [ 129.20257489122335, 35.345430111169776 ], [ 129.202630915565749, 35.345647468660992 ], [ 129.202786927390719, 35.346220076994669 ], [ 129.203270139676363, 35.347686322592004 ], [ 129.204201104622086, 35.349091744427788 ], [ 129.206431383251044, 35.352334028307922 ], [ 129.208366249628881, 35.356711312692731 ], [ 129.208396331597669, 35.356845855919005 ], [ 129.208407840198475, 35.357056549442511 ], [ 129.208410166298279, 35.357354740913195 ], [ 129.208393411487918, 35.359991621443356 ], [ 129.207197589818065, 35.361759191052499 ], [ 129.206195233570668, 35.363852198200483 ], [ 129.206124377757988, 35.364032354384605 ], [ 129.205913727560954, 35.364938286712977 ], [ 129.205914022402567, 35.365061189070119 ], [ 129.205968438154514, 35.36522075624778 ], [ 129.20618201284725, 35.365477051392226 ], [ 129.206240640496532, 35.365601063760259 ], [ 129.206269919956412, 35.365719684562272 ], [ 129.206155395193264, 35.367065581256767 ], [ 129.206125347475279, 35.367194635154952 ], [ 129.204867597600753, 35.370590894681378 ], [ 129.20479042517897, 35.370781764904962 ], [ 129.201963388794951, 35.374928913566649 ], [ 129.20070325657781, 35.375205495979586 ], [ 129.19936106641444, 35.375753478348912 ], [ 129.198796180205278, 35.37687571380647 ], [ 129.19875455805709, 35.376954029507786 ], [ 129.198677105915152, 35.377037309045569 ], [ 129.195819860845745, 35.379821931791938 ], [ 129.195731691548389, 35.379882204370148 ], [ 129.195145674375368, 35.380155186036802 ], [ 129.195070534616832, 35.380182516340859 ], [ 129.194891421711901, 35.380231476946939 ], [ 129.194786576676648, 35.380263157367679 ], [ 129.194702697472906, 35.380291920926588 ], [ 129.194629326428611, 35.380320670437818 ], [ 129.194569958431117, 35.380355130458696 ], [ 129.194524574994375, 35.380389574583006 ], [ 129.194472324911743, 35.380475565935868 ], [ 129.193770777358026, 35.381819709489612 ], [ 129.193727352037286, 35.38193717993515 ], [ 129.193716968256211, 35.381988756617019 ], [ 129.19372060594884, 35.382046016640231 ], [ 129.193731178863317, 35.382080363732712 ], [ 129.194508060912312, 35.383748597834689 ], [ 129.196797805491997, 35.38546593842198 ], [ 129.197626922500888, 35.386274980083286 ], [ 129.199107529476578, 35.387686058999869 ], [ 129.200313857513606, 35.388528161508184 ], [ 129.20052624413421, 35.388665963546067 ], [ 129.20117631246373, 35.388585971374177 ], [ 129.202585994395264, 35.388135548362484 ], [ 129.202750173411744, 35.388061868699374 ], [ 129.202874573731151, 35.387983865034386 ], [ 129.202973684207876, 35.38786983020016 ] ] ] ] } },
{ "type": "Feature", "properties": { "OBJECTID": 622, "adm_nm": "부산광역시 기장군 정관읍", "adm_cd": "2131013", "adm_cd2": "2671025600", "sgg": "26710", "sido": "26", "sidonm": "부산광역시", "sggnm": "기장군" }, "geometry": { "type": "MultiPolygon", "coordinates": [ [ [ [ 129.230068478768601, 35.319717073636511 ], [ 129.230088680427627, 35.319868195936458 ], [ 129.22996560961127, 35.320067625037836 ], [ 129.229805183361606, 35.320179338576658 ], [ 129.229633922381481, 35.32021641630395 ], [ 129.229454889206608, 35.320186744465808 ], [ 129.229285675278476, 35.320102654422371 ], [ 129.229194684348471, 35.319988050741877 ], [ 129.227759451302262, 35.31667209139885 ], [ 129.227663787630149, 35.316354923113487 ], [ 129.227617641947745, 35.316068038182976 ], [ 129.227562885830366, 35.315642761491034 ], [ 129.225744714411604, 35.314852527593992 ], [ 129.223359220254508, 35.314100931992265 ], [ 129.222443983963217, 35.314119442950307 ], [ 129.22114801854093, 35.314497623135914 ], [ 129.221014234084834, 35.314549896238134 ], [ 129.220873469756214, 35.314631105891401 ], [ 129.220725690630417, 35.31472388128828 ], [ 129.220683745474417, 35.314762077940628 ], [ 129.220592092000828, 35.314845546256066 ], [ 129.220451615155298, 35.315030821252755 ], [ 129.220247843154226, 35.315268253267384 ], [ 129.220177526749097, 35.315337766203932 ], [ 129.220087366315113, 35.315391550634445 ], [ 129.219994515889681, 35.315430612911847 ], [ 129.219388956499586, 35.315674541172342 ], [ 129.219184709912213, 35.315744285980401 ], [ 129.218885386014364, 35.315837331801106 ], [ 129.218723387538176, 35.315883890993199 ], [ 129.218448525843087, 35.315907504901034 ], [ 129.218358773405527, 35.315913335422145 ], [ 129.218215919459823, 35.315907921763632 ], [ 129.21768690015827, 35.315775904221951 ], [ 129.217475262936858, 35.315718455187991 ], [ 129.217376446078219, 35.315672380129335 ], [ 129.217278875276179, 35.315587381295757 ], [ 129.216977293432819, 35.315312683126557 ], [ 129.216929581930145, 35.315268750592431 ], [ 129.215902998567628, 35.314255524209848 ], [ 129.21335743724697, 35.311198436260092 ], [ 129.213265499256465, 35.311082954361282 ], [ 129.213159277554951, 35.310892334791049 ], [ 129.213145022893087, 35.310834543753359 ], [ 129.213130732012957, 35.310759389123945 ], [ 129.21029365805731, 35.308727703331073 ], [ 129.201393134137675, 35.30914511494354 ], [ 129.201272843980547, 35.309156276872329 ], [ 129.20113191946416, 35.309173855162193 ], [ 129.197186491320537, 35.309701709776661 ], [ 129.197002764633964, 35.30978273407991 ], [ 129.196668306444991, 35.310009293741551 ], [ 129.196402463533417, 35.310087765012845 ], [ 129.195436947053423, 35.310126983096168 ], [ 129.194875210100236, 35.31007677076115 ], [ 129.194428426151887, 35.310023660896242 ], [ 129.191963866214678, 35.309478670033705 ], [ 129.184408069165556, 35.307200498498311 ], [ 129.181646626830457, 35.305993807993005 ], [ 129.180421969556193, 35.30540499950753 ], [ 129.180275200195183, 35.305207485201919 ], [ 129.179092170914345, 35.304789427533194 ], [ 129.17792541615114, 35.304384829768253 ], [ 129.17765598772877, 35.304320639861679 ], [ 129.177536994606186, 35.304312746913638 ], [ 129.17714030992417, 35.304286435603728 ], [ 129.175114190605996, 35.304378139639624 ], [ 129.174779355379059, 35.304443205955394 ], [ 129.174585686302493, 35.304489236884002 ], [ 129.171647788450343, 35.3061862830899 ], [ 129.170578888388462, 35.306806877367649 ], [ 129.169472037859549, 35.307462021579255 ], [ 129.164933310886084, 35.307560475188282 ], [ 129.164816946857485, 35.307569856340514 ], [ 129.164663161673332, 35.30763769298764 ], [ 129.164599469280745, 35.30769619114011 ], [ 129.164547022769113, 35.307757749430166 ], [ 129.16452084642475, 35.307810036697994 ], [ 129.163655371860585, 35.311046776001746 ], [ 129.163679194434053, 35.311693072599816 ], [ 129.162858651326445, 35.312453906640378 ], [ 129.162820020077646, 35.312475071338326 ], [ 129.162784293805231, 35.312485764897893 ], [ 129.162654893591196, 35.31250909845744 ], [ 129.16255725844826, 35.312500010024735 ], [ 129.162429578164108, 35.312481736551433 ], [ 129.162315923757262, 35.312448078619809 ], [ 129.162199430519564, 35.312386738117915 ], [ 129.162094105647299, 35.312288508556676 ], [ 129.160053486822989, 35.310348332895934 ], [ 129.157076098387307, 35.308807423709453 ], [ 129.15697464917335, 35.308764509105991 ], [ 129.156801890314853, 35.308730921118034 ], [ 129.156046103909432, 35.308605841855773 ], [ 129.155873384033015, 35.308596848685667 ], [ 129.155700671518389, 35.308590913299952 ], [ 129.155485731145347, 35.308585043808705 ], [ 129.155365586350968, 35.308582118826038 ], [ 129.155207907519099, 35.308588471781484 ], [ 129.15506155617939, 35.308619389673105 ], [ 129.154813890796191, 35.308687346840621 ], [ 129.154766767821201, 35.308706279318457 ], [ 129.154645074299196, 35.308755195390432 ], [ 129.154527170629109, 35.308832239921834 ], [ 129.154475392908495, 35.308866079474598 ], [ 129.15429167548325, 35.308992348680157 ], [ 129.154232068684081, 35.309040068577396 ], [ 129.154105172530251, 35.309141678272987 ], [ 129.154051211258661, 35.309186000351474 ], [ 129.153921548840543, 35.309317123709285 ], [ 129.153770642514246, 35.309497925659173 ], [ 129.153741742401053, 35.309532567204272 ], [ 129.153676121895302, 35.309656145343773 ], [ 129.153625763297441, 35.309750988050155 ], [ 129.153528608210223, 35.30999702704343 ], [ 129.153390685478598, 35.310526716284542 ], [ 129.153361112650742, 35.310772691860251 ], [ 129.153361512512504, 35.3109848191135 ], [ 129.15338889109259, 35.313581679735037 ], [ 129.153396511283518, 35.313643162788516 ], [ 129.153414485528401, 35.313715362762089 ], [ 129.154088914102147, 35.31597710992321 ], [ 129.154650183180479, 35.317435092486349 ], [ 129.154718019331511, 35.317570280449019 ], [ 129.154079034397313, 35.320760481605376 ], [ 129.153961796948948, 35.320762976509151 ], [ 129.153842955719199, 35.320771469753829 ], [ 129.153702784369983, 35.320800191120831 ], [ 129.1535939439581, 35.320827995090255 ], [ 129.153500154193239, 35.320874225854645 ], [ 129.153349171933627, 35.320958940693465 ], [ 129.153259205654791, 35.321032836871225 ], [ 129.15323775163489, 35.321055631693199 ], [ 129.153195495552779, 35.321100556967728 ], [ 129.152203456203466, 35.32222155936374 ], [ 129.152117401409697, 35.322387683329687 ], [ 129.152109949038731, 35.322415332679945 ], [ 129.152095060297228, 35.322486069658325 ], [ 129.152072800984456, 35.322630594551448 ], [ 129.152050911304087, 35.322973377905775 ], [ 129.152038993780735, 35.324653429185318 ], [ 129.152040607316451, 35.324743699417247 ], [ 129.152065586391785, 35.324816333839351 ], [ 129.15256234029718, 35.32589934724929 ], [ 129.152615037218169, 35.325973062221962 ], [ 129.152497788115113, 35.330238202140109 ], [ 129.15199714685761, 35.333222457559643 ], [ 129.151582177746377, 35.33494015019474 ], [ 129.15122785627824, 35.336177923352622 ], [ 129.149156543790951, 35.337308404633994 ], [ 129.14898321207653, 35.337359192073713 ], [ 129.148732093423178, 35.337220503709325 ], [ 129.14869716618125, 35.337184015837174 ], [ 129.1484177483228, 35.336892114275742 ], [ 129.148121089367521, 35.336682661258422 ], [ 129.147744920188444, 35.336482879871966 ], [ 129.147338666137898, 35.336267130336822 ], [ 129.146712734036299, 35.336266298389859 ], [ 129.146248723232361, 35.336334140066967 ], [ 129.142690217557288, 35.337732984656924 ], [ 129.14238812755633, 35.337869525516979 ], [ 129.141988591222798, 35.338174772408735 ], [ 129.14180634487272, 35.33844040311763 ], [ 129.141781633620326, 35.338607830411938 ], [ 129.141630689561794, 35.338956397504063 ], [ 129.140691921929545, 35.340344656647687 ], [ 129.140292986629419, 35.340673737336012 ], [ 129.140035148940797, 35.340833352463811 ], [ 129.137764993676768, 35.341991318443576 ], [ 129.135107467368613, 35.343141631401494 ], [ 129.135020374128118, 35.343169173472198 ], [ 129.134974239560307, 35.343173283105536 ], [ 129.134832720264114, 35.343185859605363 ], [ 129.134631589022973, 35.343158617503434 ], [ 129.133692812099923, 35.342940065287657 ], [ 129.132581286842367, 35.34365497288271 ], [ 129.13225969835571, 35.343748649917913 ], [ 129.131864315896024, 35.343809464998287 ], [ 129.131670208244884, 35.3438217075051 ], [ 129.131066737283732, 35.343859744576434 ], [ 129.129324121556522, 35.343965896849021 ], [ 129.12823595784576, 35.343797054359833 ], [ 129.127759147293233, 35.344371526253127 ], [ 129.127555612273767, 35.344616786695447 ], [ 129.127270789920601, 35.345044049822675 ], [ 129.127239305793324, 35.345196311015769 ], [ 129.127234922011581, 35.345289136331751 ], [ 129.127253198680052, 35.34539307311482 ], [ 129.127314633397901, 35.345563792345182 ], [ 129.127369196112113, 35.345671406633464 ], [ 129.129421932958252, 35.348516952327365 ], [ 129.129490030847023, 35.348587406922277 ], [ 129.129655673750335, 35.34873575262079 ], [ 129.129823525452338, 35.348850673216596 ], [ 129.130023092856874, 35.348950707278682 ], [ 129.130651202857763, 35.349243337787705 ], [ 129.131027596334064, 35.349402576480166 ], [ 129.131755360623714, 35.349661697914797 ], [ 129.132276775524247, 35.349824485575851 ], [ 129.132471723537208, 35.34987253747834 ], [ 129.132607719548417, 35.349902103669976 ], [ 129.133058738943447, 35.34997214601804 ], [ 129.133267255206817, 35.350001630249764 ], [ 129.1339525402974, 35.350598642800506 ], [ 129.134572470227596, 35.351411067407092 ], [ 129.134595258458717, 35.351492708205122 ], [ 129.134726685034821, 35.35287000500157 ], [ 129.134726820433343, 35.352959109764171 ], [ 129.134710155028671, 35.353062958882028 ], [ 129.131957018745538, 35.35716189705289 ], [ 129.130030056712286, 35.358828184039595 ], [ 129.12956356985066, 35.359164891500463 ], [ 129.130276844366108, 35.361951574630709 ], [ 129.130286787664318, 35.362652025079299 ], [ 129.13030470776161, 35.362839762118625 ], [ 129.130322583239234, 35.362984172172126 ], [ 129.130340422504787, 35.363114135072728 ], [ 129.130358217936305, 35.363215206895951 ], [ 129.130384922460195, 35.363366828442665 ], [ 129.130589233619645, 35.364298149236411 ], [ 129.130677909995711, 35.364601351608883 ], [ 129.130863789240522, 35.365027210165891 ], [ 129.131296770843335, 35.365561108325863 ], [ 129.131402740847562, 35.365647648850732 ], [ 129.131528915635727, 35.365690770996551 ], [ 129.132055403041761, 35.365675837195404 ], [ 129.132408076241603, 35.365617688968456 ], [ 129.132602014987924, 35.365574149874703 ], [ 129.132919439135804, 35.365530470613457 ], [ 129.133307430510001, 35.365501165011359 ], [ 129.133686660752204, 35.365507972623952 ], [ 129.13406590671633, 35.36552200128969 ], [ 129.136570902005047, 35.365750306800457 ], [ 129.137973500870913, 35.365958148787939 ], [ 129.138158753658416, 35.365994043825438 ], [ 129.138414609036374, 35.366051525722213 ], [ 129.138506433748432, 35.366081478253086 ], [ 129.140975278735539, 35.36510663957722 ], [ 129.141216675580011, 35.36501702660636 ], [ 129.141419144972645, 35.364946609866962 ], [ 129.146347889093079, 35.363884689714261 ], [ 129.148362919385676, 35.36416552611346 ], [ 129.148395360620384, 35.364161058915279 ], [ 129.148945188297517, 35.364085342712031 ], [ 129.149360587592128, 35.363990460881553 ], [ 129.149875989226985, 35.363840816852694 ], [ 129.152785994179311, 35.36272462163975 ], [ 129.153088990951318, 35.362540453640982 ], [ 129.153340433132541, 35.362366306262224 ], [ 129.153739874174249, 35.361849222107814 ], [ 129.153987642624628, 35.36133730813448 ], [ 129.154102391364972, 35.361059010824547 ], [ 129.154153478916442, 35.360805630631944 ], [ 129.15725306950111, 35.35900362799002 ], [ 129.157562489552419, 35.359013175714146 ], [ 129.161405283554103, 35.35885419160315 ], [ 129.161611502206625, 35.358834048505592 ], [ 129.161787331090665, 35.358784137752956 ], [ 129.161884257817889, 35.358714481376865 ], [ 129.162392511431506, 35.358048220711517 ], [ 129.162401466453048, 35.357973711232333 ], [ 129.162352542207998, 35.357780071979683 ], [ 129.162267275932038, 35.357606315406954 ], [ 129.162187557528938, 35.35717430412825 ], [ 129.162162994618569, 35.357020356391104 ], [ 129.162162703303409, 35.356876321940589 ], [ 129.162295598375408, 35.356593021659336 ], [ 129.162552968803283, 35.356364200393614 ], [ 129.162825643431063, 35.356209862602213 ], [ 129.163625641008935, 35.355836251302492 ], [ 129.167458899066276, 35.354057848408559 ], [ 129.174533508625331, 35.351465534998837 ], [ 129.174607343864949, 35.351451467956977 ], [ 129.175431106109357, 35.351371192150189 ], [ 129.177016310258836, 35.351299115180744 ], [ 129.177141303655134, 35.351294279930634 ], [ 129.177351604460512, 35.351326551596316 ], [ 129.177885919614596, 35.351409514260141 ], [ 129.178076347622522, 35.351441813571256 ], [ 129.178241293815717, 35.351516012306938 ], [ 129.178400585378313, 35.35159952857024 ], [ 129.181628212106943, 35.353650880617565 ], [ 129.181794468440472, 35.353803485713961 ], [ 129.181944255505471, 35.35399688469392 ], [ 129.182094323642019, 35.354326148537496 ], [ 129.182136387915534, 35.354584242678605 ], [ 129.182191307288008, 35.355027439582813 ], [ 129.182278768852996, 35.355180185220071 ], [ 129.182557303924227, 35.355444701854253 ], [ 129.185583635062471, 35.358174568043474 ], [ 129.186310444210392, 35.358523334180497 ], [ 129.186929262782996, 35.358812809598845 ], [ 129.187705852965109, 35.359152996967502 ], [ 129.189478758593083, 35.35976167094222 ], [ 129.189590773562458, 35.359761504702803 ], [ 129.189711049683268, 35.359747733688124 ], [ 129.189856149067168, 35.359703354516064 ], [ 129.189992898585047, 35.359628410978679 ], [ 129.190262231774028, 35.359490425517521 ], [ 129.190357657682284, 35.359486874486372 ], [ 129.192317559351153, 35.360207313295149 ], [ 129.193493326699809, 35.360910290520749 ], [ 129.193580668276752, 35.361005268039911 ], [ 129.19363500267869, 35.361171623018912 ], [ 129.193815059299624, 35.361869379491061 ], [ 129.198092492276885, 35.369215534728028 ], [ 129.199251400016436, 35.374923594978938 ], [ 129.199342245385623, 35.375436956973907 ], [ 129.199372572350285, 35.375622763026897 ], [ 129.19936106641444, 35.375753478348912 ], [ 129.20070325657781, 35.375205495979586 ], [ 129.201963388794951, 35.374928913566649 ], [ 129.20479042517897, 35.370781764904962 ], [ 129.204867597600753, 35.370590894681378 ], [ 129.206125347475279, 35.367194635154952 ], [ 129.206155395193264, 35.367065581256767 ], [ 129.206269919956412, 35.365719684562272 ], [ 129.206240640496532, 35.365601063760259 ], [ 129.20618201284725, 35.365477051392226 ], [ 129.205968438154514, 35.36522075624778 ], [ 129.205914022402567, 35.365061189070119 ], [ 129.205913727560954, 35.364938286712977 ], [ 129.206124377757988, 35.364032354384605 ], [ 129.206195233570668, 35.363852198200483 ], [ 129.207197589818065, 35.361759191052499 ], [ 129.208393411487918, 35.359991621443356 ], [ 129.208410166298279, 35.357354740913195 ], [ 129.208407840198475, 35.357056549442511 ], [ 129.208396331597669, 35.356845855919005 ], [ 129.208366249628881, 35.356711312692731 ], [ 129.206431383251044, 35.352334028307922 ], [ 129.204201104622086, 35.349091744427788 ], [ 129.203270139676363, 35.347686322592004 ], [ 129.202786927390719, 35.346220076994669 ], [ 129.202630915565749, 35.345647468660992 ], [ 129.20257489122335, 35.345430111169776 ], [ 129.202558444734564, 35.345186701728657 ], [ 129.20255358108156, 35.344828071103002 ], [ 129.203295881279615, 35.340513334463637 ], [ 129.2033627233576, 35.34029900742734 ], [ 129.203429855997314, 35.340201522100315 ], [ 129.203493168179989, 35.340159216503736 ], [ 129.203623748013968, 35.340079486398551 ], [ 129.203821639502081, 35.339975291782949 ], [ 129.205060816896179, 35.339468508441698 ], [ 129.205195448159401, 35.339426089180066 ], [ 129.208123703983631, 35.337681426793118 ], [ 129.210747130797984, 35.336114126601636 ], [ 129.21068327214067, 35.335942233033329 ], [ 129.210667036883848, 35.33578970612767 ], [ 129.210804999481951, 35.333968636814625 ], [ 129.210816723008691, 35.333903702782621 ], [ 129.210856205085975, 35.333848455255165 ], [ 129.210873794489686, 35.333823849715209 ], [ 129.211717567283557, 35.332868387405597 ], [ 129.213389408829073, 35.331184215791346 ], [ 129.213579133585057, 35.330998871799395 ], [ 129.213860040346646, 35.330831242183635 ], [ 129.213919423482281, 35.33081166028893 ], [ 129.214007153078569, 35.330808383192064 ], [ 129.214303794377685, 35.330807730048903 ], [ 129.214696148695793, 35.330821647105708 ], [ 129.215048905690679, 35.330856720907775 ], [ 129.21537386672091, 35.330865881557671 ], [ 129.215542578083983, 35.33086716175815 ], [ 129.215706700874534, 35.330850701954198 ], [ 129.218683260327765, 35.329594191062405 ], [ 129.219142257026959, 35.329348306570331 ], [ 129.220218468257173, 35.328750772713313 ], [ 129.22088256445312, 35.328113680737239 ], [ 129.22513001214682, 35.327196703867472 ], [ 129.227598422891873, 35.326613083051065 ], [ 129.229761830540838, 35.325532730128053 ], [ 129.231623008294122, 35.32190830905877 ], [ 129.23186680616999, 35.321433517563349 ], [ 129.233746184929601, 35.321620519671924 ], [ 129.234054365992108, 35.321333232448325 ], [ 129.233917936697253, 35.320429383086548 ], [ 129.233854984504177, 35.320228535337392 ], [ 129.233311501842195, 35.319194156822505 ], [ 129.233144732183717, 35.319037795257429 ], [ 129.232382868588331, 35.318691832280862 ], [ 129.232170651667872, 35.318637732619855 ], [ 129.231841632515511, 35.318641724686628 ], [ 129.231613638203811, 35.318686473414537 ], [ 129.231011390598525, 35.318912422528825 ], [ 129.23074570340367, 35.319062790601549 ], [ 129.230463515781253, 35.319257467026901 ], [ 129.230239722924011, 35.31951675475964 ], [ 129.230068478768601, 35.319717073636511 ] ] ] ] } },
{ "type": "Feature", "properties": { "OBJECTID": 623, "adm_nm": "부산광역시 기장군 일광면", "adm_cd": "2131031", "adm_cd2": "2671031000", "sgg": "26710", "sido": "26", "sidonm": "부산광역시", "sggnm": "기장군" }, "geometry": { "type": "MultiPolygon", "coordinates": [ [ [ [ 129.230068478768601, 35.319717073636511 ], [ 129.229480068744436, 35.318880166508421 ], [ 129.229388716886206, 35.31863725457454 ], [ 129.229380197347837, 35.318539369747455 ], [ 129.22940041514849, 35.318400901208477 ], [ 129.229564508772626, 35.318130513593324 ], [ 129.229782058475138, 35.317819513719051 ], [ 129.230135431759408, 35.317440719680974 ], [ 129.231982044336718, 35.316100295123114 ], [ 129.232335778362852, 35.315856547715377 ], [ 129.232644646522914, 35.315774928738783 ], [ 129.233196690194518, 35.315709722827442 ], [ 129.233284637395656, 35.315706169193618 ], [ 129.233546949978859, 35.315695557783535 ], [ 129.23381374850851, 35.315663431572858 ], [ 129.233888866153848, 35.315654378079806 ], [ 129.23476754297576, 35.315371895647345 ], [ 129.235395460148169, 35.315145879763996 ], [ 129.23638752378298, 35.314657003096833 ], [ 129.236881331691507, 35.314406224198535 ], [ 129.237490296017285, 35.31407754254613 ], [ 129.237811086588465, 35.313850723446016 ], [ 129.237979578122093, 35.313691715808083 ], [ 129.238766807499331, 35.312322879075104 ], [ 129.238832431228445, 35.312159062308389 ], [ 129.238874635270264, 35.312053687830065 ], [ 129.238902176087237, 35.311984922883227 ], [ 129.238942735281427, 35.311883642577982 ], [ 129.239122920659696, 35.311495035615941 ], [ 129.239712846516937, 35.310302144715145 ], [ 129.239788642690655, 35.310219713514797 ], [ 129.239930547208701, 35.310065388983531 ], [ 129.241414635312282, 35.308867317080065 ], [ 129.242755102330079, 35.307888982704021 ], [ 129.242915614573349, 35.307794552933885 ], [ 129.24298546562477, 35.307753466216568 ], [ 129.243058324859049, 35.307721564442694 ], [ 129.243123125631968, 35.307694279394838 ], [ 129.243236572968698, 35.30766519478324 ], [ 129.243368404554616, 35.307658176568751 ], [ 129.244864360638644, 35.307695683435405 ], [ 129.245188537906586, 35.307782063467492 ], [ 129.246398504112818, 35.30810446775093 ], [ 129.251595065100275, 35.308690109533543 ], [ 129.252943738672684, 35.308691748357084 ], [ 129.252964463686254, 35.308870621461466 ], [ 129.253231961640694, 35.311179248868108 ], [ 129.254396353972624, 35.313092111586471 ], [ 129.255717110196997, 35.312623112863967 ], [ 129.256215949889565, 35.312445973344445 ], [ 129.258937397301025, 35.312893504013573 ], [ 129.260920957196646, 35.315249748079822 ], [ 129.260972266249183, 35.31531069404712 ], [ 129.261197387234972, 35.31557808278226 ], [ 129.26257005520921, 35.315250558821184 ], [ 129.262954496100775, 35.315158806646238 ], [ 129.262160801359784, 35.310374430828617 ], [ 129.261762647417896, 35.309391036451629 ], [ 129.261394125443417, 35.309542964026186 ], [ 129.258694866546335, 35.306253926426621 ], [ 129.258559522334423, 35.30603370752106 ], [ 129.25855106785292, 35.305939598023045 ], [ 129.2585983988115, 35.305340559198171 ], [ 129.258673789803709, 35.304998776085867 ], [ 129.260604616153501, 35.298991155100651 ], [ 129.261365815185798, 35.297564383505303 ], [ 129.261403289479063, 35.297502588516387 ], [ 129.261803201018751, 35.29749745266313 ], [ 129.262130980865351, 35.297641139125453 ], [ 129.262586004497479, 35.298108617569646 ], [ 129.263022770572945, 35.29860508761103 ], [ 129.263264445688236, 35.299082319375174 ], [ 129.263547933368812, 35.299212159736683 ], [ 129.263877811072575, 35.299211430025238 ], [ 129.264130767451832, 35.298842548770175 ], [ 129.263791595680544, 35.296320270514038 ], [ 129.263740446575838, 35.296059368603245 ], [ 129.26186273947522, 35.293713232665013 ], [ 129.261858733595204, 35.293502713347458 ], [ 129.261355858827784, 35.29057738025125 ], [ 129.260309003543426, 35.289411507253938 ], [ 129.259341388162994, 35.28886700422602 ], [ 129.258241005615474, 35.288243567405168 ], [ 129.257876855953924, 35.288023872117058 ], [ 129.257734524460659, 35.287896708017087 ], [ 129.257621987455764, 35.287743926542838 ], [ 129.257530263120856, 35.287582692373689 ], [ 129.257673907901875, 35.287267558942141 ], [ 129.259028698186427, 35.284795215134366 ], [ 129.259868235232517, 35.283564244964992 ], [ 129.260282884924038, 35.282741155837819 ], [ 129.260473074654158, 35.281390704953843 ], [ 129.260164383990087, 35.280861179295435 ], [ 129.258806536634722, 35.280190639868131 ], [ 129.258060855295525, 35.280391918603371 ], [ 129.257539242614229, 35.2804284050696 ], [ 129.257139649327513, 35.280290491176729 ], [ 129.256582838882679, 35.280098302001925 ], [ 129.25611084380327, 35.279480928941723 ], [ 129.255735514896713, 35.278989968400609 ], [ 129.255389792538182, 35.277122854769694 ], [ 129.255360876081909, 35.276079557305181 ], [ 129.255649200266987, 35.275722898008411 ], [ 129.255866134765711, 35.275454529363557 ], [ 129.255472189683701, 35.274203915430256 ], [ 129.254323745538159, 35.27283353398024 ], [ 129.25290604275267, 35.271173727395855 ], [ 129.251651536240075, 35.270688529240843 ], [ 129.251258337953317, 35.270642341688337 ], [ 129.251016438551915, 35.271342717310993 ], [ 129.250339786991759, 35.271676493211388 ], [ 129.246741475567234, 35.272519116761146 ], [ 129.246503068455524, 35.272559231557601 ], [ 129.24580223553707, 35.272411648146459 ], [ 129.245470866876019, 35.27223936193689 ], [ 129.244669699791842, 35.271611871590359 ], [ 129.244060981999894, 35.270855891326057 ], [ 129.243909479803875, 35.270315054191819 ], [ 129.243891916041406, 35.270252345834479 ], [ 129.243806480578314, 35.269522351810622 ], [ 129.244002959864019, 35.268751439005769 ], [ 129.24452260053792, 35.267856788650484 ], [ 129.244242412198219, 35.266380971729411 ], [ 129.243714518434501, 35.264606430228255 ], [ 129.243099949517187, 35.263636414311833 ], [ 129.242904134716809, 35.263563030242466 ], [ 129.242832037378264, 35.26362484351597 ], [ 129.242762721625041, 35.263787433234604 ], [ 129.242785563798179, 35.264170090574808 ], [ 129.242948991423617, 35.264298109284319 ], [ 129.242881057716971, 35.264511069388526 ], [ 129.241676694838844, 35.264997134624949 ], [ 129.236121744802489, 35.264726882636374 ], [ 129.235731527741422, 35.264560765984072 ], [ 129.234809144063831, 35.263552870258565 ], [ 129.234478541947396, 35.263016564291618 ], [ 129.234092455116524, 35.262390177562381 ], [ 129.234062822726628, 35.262075491435155 ], [ 129.233954361672147, 35.260922825807093 ], [ 129.234497751048082, 35.259335977115292 ], [ 129.235449803302146, 35.258383000258704 ], [ 129.23634986409678, 35.257912035665385 ], [ 129.239501540967183, 35.257506316628657 ], [ 129.239933296309232, 35.25779231219547 ], [ 129.240964169953941, 35.258521545572101 ], [ 129.24212835807532, 35.259355203114715 ], [ 129.243681460285302, 35.260101482510443 ], [ 129.244206590823183, 35.260225359166533 ], [ 129.247844048479351, 35.259643837660413 ], [ 129.251117306968126, 35.260150460109955 ], [ 129.251966885227603, 35.260214844769564 ], [ 129.252634284685769, 35.259587745694013 ], [ 129.253567700881604, 35.256790904818637 ], [ 129.253561047416241, 35.256550501897792 ], [ 129.2521419964377, 35.25593550583784 ], [ 129.252024260856615, 35.255216097575278 ], [ 129.252439143939654, 35.253711759607867 ], [ 129.25290880641748, 35.252250856249603 ], [ 129.249873887366761, 35.253125807952777 ], [ 129.246816325411572, 35.254007179745109 ], [ 129.245818611644609, 35.253700996046732 ], [ 129.242038926391871, 35.254487419762469 ], [ 129.241321232575899, 35.255186565024751 ], [ 129.240652668528355, 35.255560001798472 ], [ 129.238912095147612, 35.255853323571692 ], [ 129.236190823817395, 35.256196141579593 ], [ 129.235848188056877, 35.256214113217567 ], [ 129.235104635629114, 35.256198256038196 ], [ 129.234840486610437, 35.256025674455607 ], [ 129.234146407961873, 35.255332554185713 ], [ 129.231753270741905, 35.253753462165484 ], [ 129.231408832792397, 35.253616730639735 ], [ 129.231282221554409, 35.253595339856339 ], [ 129.231087300462946, 35.253656301928409 ], [ 129.23053973862983, 35.25395155928684 ], [ 129.230192106674338, 35.254086351017712 ], [ 129.229765344832373, 35.254208301611833 ], [ 129.229401637948342, 35.254256589193972 ], [ 129.229011448577097, 35.254257325016162 ], [ 129.228684302224394, 35.254175725507054 ], [ 129.22856806120285, 35.254093741666495 ], [ 129.227301454034773, 35.251884706910083 ], [ 129.225660862827709, 35.251494676928139 ], [ 129.220454456670325, 35.25464452056864 ], [ 129.220073217054164, 35.254897047480128 ], [ 129.219939263286932, 35.255216153879182 ], [ 129.219857922619639, 35.255536235963227 ], [ 129.219880480126278, 35.256288347014468 ], [ 129.21994147966447, 35.256496164210624 ], [ 129.220089745470034, 35.256769417035201 ], [ 129.219974016594506, 35.257287590410833 ], [ 129.219910228409589, 35.257422786048679 ], [ 129.219840954094764, 35.257483910095132 ], [ 129.219816358443438, 35.257505611625554 ], [ 129.218985586766507, 35.257906864059358 ], [ 129.215315019382416, 35.259129177646507 ], [ 129.213098443876191, 35.25951266324347 ], [ 129.212880274495177, 35.259497339858953 ], [ 129.212172514551014, 35.259520808074754 ], [ 129.211967350780895, 35.259571893437759 ], [ 129.210586906964835, 35.25996142066154 ], [ 129.210347725729605, 35.260089197670077 ], [ 129.21012796557676, 35.260283515937374 ], [ 129.209430584346904, 35.26102364474017 ], [ 129.20860759714887, 35.261990772310753 ], [ 129.208483068870578, 35.262176444294987 ], [ 129.206991258830158, 35.264675838869501 ], [ 129.206998026712171, 35.264812271741668 ], [ 129.207015400437228, 35.264920782974293 ], [ 129.207071446921418, 35.265092408306991 ], [ 129.207138120282707, 35.265243077194107 ], [ 129.207292803097488, 35.265519982269915 ], [ 129.207342333684068, 35.265653081565688 ], [ 129.207368415829706, 35.265814049367862 ], [ 129.207380551334467, 35.266384181464524 ], [ 129.207372361529309, 35.266527550209965 ], [ 129.207258691239645, 35.267244210420294 ], [ 129.207172203276002, 35.267719644197875 ], [ 129.206922116196608, 35.268621498586455 ], [ 129.206811548990657, 35.268880108977193 ], [ 129.206717868198467, 35.269044313851211 ], [ 129.206589841081524, 35.269166494249333 ], [ 129.206491212047496, 35.269183774147251 ], [ 129.206382447092039, 35.269183541519062 ], [ 129.200068202963962, 35.268861116713396 ], [ 129.199492811291719, 35.268828194636136 ], [ 129.19900082552914, 35.268791923703795 ], [ 129.198720529492533, 35.26874563489973 ], [ 129.198442372410796, 35.268688785057009 ], [ 129.198024971888543, 35.268543800795001 ], [ 129.195976665721389, 35.267577871221988 ], [ 129.195835104436782, 35.267913344590113 ], [ 129.195757340888576, 35.268037768891404 ], [ 129.195567344973995, 35.268284806031474 ], [ 129.19539789943002, 35.268477184667034 ], [ 129.195264923252864, 35.268564017060172 ], [ 129.195095190438536, 35.268639626863944 ], [ 129.194757996012186, 35.268773900462399 ], [ 129.194239397059988, 35.268921609691887 ], [ 129.194023682315873, 35.268970924011597 ], [ 129.19371381445535, 35.269022273129103 ], [ 129.193378667334628, 35.26906047252691 ], [ 129.193263871657194, 35.269064421882334 ], [ 129.193103178568123, 35.26907974409886 ], [ 129.192979283197616, 35.269125135085282 ], [ 129.192905895808224, 35.269159157059434 ], [ 129.192839445090897, 35.269213889283556 ], [ 129.192720330232476, 35.269338369303931 ], [ 129.191313976989022, 35.270832226895635 ], [ 129.191094098396775, 35.271073650728276 ], [ 129.191030032057398, 35.271164154568517 ], [ 129.190988882466939, 35.271243332503253 ], [ 129.190961509071855, 35.271322471998673 ], [ 129.190938805762556, 35.27143927156947 ], [ 129.190938978464089, 35.271510833218429 ], [ 129.191015068507937, 35.27164444262894 ], [ 129.19108870209817, 35.271712124638128 ], [ 129.191153104641245, 35.271757233191146 ], [ 129.192332668816277, 35.272435269451563 ], [ 129.192728110077098, 35.27264935414037 ], [ 129.193282339647624, 35.273000676856654 ], [ 129.193470978015881, 35.273147273794038 ], [ 129.193599813525509, 35.273252545851427 ], [ 129.193724151108341, 35.273395481675585 ], [ 129.193883104782628, 35.273611825337333 ], [ 129.194021389530917, 35.273826308916945 ], [ 129.194109005392647, 35.273973071002032 ], [ 129.194159836107445, 35.274108593597319 ], [ 129.194707567756183, 35.278419517888125 ], [ 129.194701599060352, 35.27852942810626 ], [ 129.194677032501517, 35.278685367134322 ], [ 129.194473172233842, 35.279470268034309 ], [ 129.194200867188783, 35.28031532447875 ], [ 129.192532661838442, 35.281432220213638 ], [ 129.192358357202238, 35.281537268989155 ], [ 129.19219331416744, 35.281614206794956 ], [ 129.189453071304797, 35.282887357540275 ], [ 129.189353428288143, 35.282930961018927 ], [ 129.189225721400845, 35.282975893145057 ], [ 129.189119795802128, 35.283001618592898 ], [ 129.188907814011685, 35.28300449621959 ], [ 129.188674028236079, 35.283003582098111 ], [ 129.188480740378765, 35.28300132856176 ], [ 129.188256262068336, 35.282986333680583 ], [ 129.188206527207882, 35.28298132011971 ], [ 129.187919517289259, 35.282952375681454 ], [ 129.187788579350297, 35.28295001262326 ], [ 129.187685718888815, 35.28295911145247 ], [ 129.187598493490157, 35.282982252161176 ], [ 129.187439638873172, 35.283036152229805 ], [ 129.187305701653059, 35.283087479369499 ], [ 129.187206044921538, 35.283129801957998 ], [ 129.186903971645393, 35.283260603626722 ], [ 129.184730522240301, 35.284347525141349 ], [ 129.181866621897399, 35.28617525987103 ], [ 129.179561532979989, 35.291275864400781 ], [ 129.179546033230963, 35.291316763967338 ], [ 129.179534232452255, 35.291363137884069 ], [ 129.179527587554048, 35.291436908347656 ], [ 129.179533995443535, 35.291508454559093 ], [ 129.179676070303515, 35.292329876716948 ], [ 129.179729505429549, 35.292527849655521 ], [ 129.180112939188689, 35.293932862133481 ], [ 129.180226068567464, 35.294335215375746 ], [ 129.180282404905654, 35.294434816992982 ], [ 129.180366874555915, 35.294566297532086 ], [ 129.180445029534525, 35.294660728280853 ], [ 129.181107679177899, 35.295422595204727 ], [ 129.181163902244663, 35.295462137151894 ], [ 129.181210729086303, 35.295485063051665 ], [ 129.181310496072143, 35.295497695292291 ], [ 129.182145108903001, 35.29646886530584 ], [ 129.183017576817065, 35.299028263992668 ], [ 129.183033278110713, 35.29908191781 ], [ 129.183036531556098, 35.299135569987868 ], [ 129.183036657920866, 35.299191797298874 ], [ 129.182915948143801, 35.299589374528672 ], [ 129.182863195196632, 35.299707013434364 ], [ 129.182698598823777, 35.299996042863619 ], [ 129.182543204395671, 35.300230119601935 ], [ 129.182313227352012, 35.30056267367803 ], [ 129.181334030637004, 35.301909664336925 ], [ 129.180820899088843, 35.302514851059705 ], [ 129.180702682146205, 35.30264022936931 ], [ 129.180578194213751, 35.302749032832075 ], [ 129.180444318813727, 35.302833562969418 ], [ 129.180276210121519, 35.302956484204685 ], [ 129.180238864535283, 35.30298720937239 ], [ 129.179862507598585, 35.303364281286427 ], [ 129.179651521266692, 35.303630825036265 ], [ 129.179565041352163, 35.30382597195554 ], [ 129.179563556031269, 35.304013271034385 ], [ 129.179594114101604, 35.304164907880086 ], [ 129.180275200195183, 35.305207485201919 ], [ 129.180421969556193, 35.30540499950753 ], [ 129.181646626830457, 35.305993807993005 ], [ 129.184408069165556, 35.307200498498311 ], [ 129.191963866214678, 35.309478670033705 ], [ 129.194428426151887, 35.310023660896242 ], [ 129.194875210100236, 35.31007677076115 ], [ 129.195436947053423, 35.310126983096168 ], [ 129.196402463533417, 35.310087765012845 ], [ 129.196668306444991, 35.310009293741551 ], [ 129.197002764633964, 35.30978273407991 ], [ 129.197186491320537, 35.309701709776661 ], [ 129.20113191946416, 35.309173855162193 ], [ 129.201272843980547, 35.309156276872329 ], [ 129.201393134137675, 35.30914511494354 ], [ 129.21029365805731, 35.308727703331073 ], [ 129.213130732012957, 35.310759389123945 ], [ 129.213145022893087, 35.310834543753359 ], [ 129.213159277554951, 35.310892334791049 ], [ 129.213265499256465, 35.311082954361282 ], [ 129.21335743724697, 35.311198436260092 ], [ 129.215902998567628, 35.314255524209848 ], [ 129.216929581930145, 35.315268750592431 ], [ 129.216977293432819, 35.315312683126557 ], [ 129.217278875276179, 35.315587381295757 ], [ 129.217376446078219, 35.315672380129335 ], [ 129.217475262936858, 35.315718455187991 ], [ 129.21768690015827, 35.315775904221951 ], [ 129.218215919459823, 35.315907921763632 ], [ 129.218358773405527, 35.315913335422145 ], [ 129.218448525843087, 35.315907504901034 ], [ 129.218723387538176, 35.315883890993199 ], [ 129.218885386014364, 35.315837331801106 ], [ 129.219184709912213, 35.315744285980401 ], [ 129.219388956499586, 35.315674541172342 ], [ 129.219994515889681, 35.315430612911847 ], [ 129.220087366315113, 35.315391550634445 ], [ 129.220177526749097, 35.315337766203932 ], [ 129.220247843154226, 35.315268253267384 ], [ 129.220451615155298, 35.315030821252755 ], [ 129.220592092000828, 35.314845546256066 ], [ 129.220683745474417, 35.314762077940628 ], [ 129.220725690630417, 35.31472388128828 ], [ 129.220873469756214, 35.314631105891401 ], [ 129.221014234084834, 35.314549896238134 ], [ 129.22114801854093, 35.314497623135914 ], [ 129.222443983963217, 35.314119442950307 ], [ 129.223359220254508, 35.314100931992265 ], [ 129.225744714411604, 35.314852527593992 ], [ 129.227562885830366, 35.315642761491034 ], [ 129.227617641947745, 35.316068038182976 ], [ 129.227663787630149, 35.316354923113487 ], [ 129.227759451302262, 35.31667209139885 ], [ 129.229194684348471, 35.319988050741877 ], [ 129.229285675278476, 35.320102654422371 ], [ 129.229454889206608, 35.320186744465808 ], [ 129.229633922381481, 35.32021641630395 ], [ 129.229805183361606, 35.320179338576658 ], [ 129.22996560961127, 35.320067625037836 ], [ 129.230088680427627, 35.319868195936458 ], [ 129.230068478768601, 35.319717073636511 ] ] ] ] } },
{ "type": "Feature", "properties": { "OBJECTID": 624, "adm_nm": "부산광역시 기장군 철마면", "adm_cd": "2131033", "adm_cd2": "2671033000", "sgg": "26710", "sido": "26", "sidonm": "부산광역시", "sggnm": "기장군" }, "geometry": { "type": "MultiPolygon", "coordinates": [ [ [ [ 129.180275200195183, 35.305207485201919 ], [ 129.179594114101604, 35.304164907880086 ], [ 129.179563556031269, 35.304013271034385 ], [ 129.179565041352163, 35.30382597195554 ], [ 129.179651521266692, 35.303630825036265 ], [ 129.179862507598585, 35.303364281286427 ], [ 129.180238864535283, 35.30298720937239 ], [ 129.180276210121519, 35.302956484204685 ], [ 129.180444318813727, 35.302833562969418 ], [ 129.180578194213751, 35.302749032832075 ], [ 129.180702682146205, 35.30264022936931 ], [ 129.180820899088843, 35.302514851059705 ], [ 129.181334030637004, 35.301909664336925 ], [ 129.182313227352012, 35.30056267367803 ], [ 129.182543204395671, 35.300230119601935 ], [ 129.182698598823777, 35.299996042863619 ], [ 129.182863195196632, 35.299707013434364 ], [ 129.182915948143801, 35.299589374528672 ], [ 129.183036657920866, 35.299191797298874 ], [ 129.183036531556098, 35.299135569987868 ], [ 129.183033278110713, 35.29908191781 ], [ 129.183017576817065, 35.299028263992668 ], [ 129.182145108903001, 35.29646886530584 ], [ 129.181310496072143, 35.295497695292291 ], [ 129.181210729086303, 35.295485063051665 ], [ 129.181163902244663, 35.295462137151894 ], [ 129.181107679177899, 35.295422595204727 ], [ 129.180445029534525, 35.294660728280853 ], [ 129.180366874555915, 35.294566297532086 ], [ 129.180282404905654, 35.294434816992982 ], [ 129.180226068567464, 35.294335215375746 ], [ 129.180112939188689, 35.293932862133481 ], [ 129.179729505429549, 35.292527849655521 ], [ 129.179676070303515, 35.292329876716948 ], [ 129.179533995443535, 35.291508454559093 ], [ 129.179527587554048, 35.291436908347656 ], [ 129.179534232452255, 35.291363137884069 ], [ 129.179546033230963, 35.291316763967338 ], [ 129.179561532979989, 35.291275864400781 ], [ 129.181866621897399, 35.28617525987103 ], [ 129.184730522240301, 35.284347525141349 ], [ 129.186903971645393, 35.283260603626722 ], [ 129.187206044921538, 35.283129801957998 ], [ 129.187305701653059, 35.283087479369499 ], [ 129.187439638873172, 35.283036152229805 ], [ 129.187598493490157, 35.282982252161176 ], [ 129.187685718888815, 35.28295911145247 ], [ 129.187788579350297, 35.28295001262326 ], [ 129.187919517289259, 35.282952375681454 ], [ 129.188206527207882, 35.28298132011971 ], [ 129.188256262068336, 35.282986333680583 ], [ 129.188480740378765, 35.28300132856176 ], [ 129.188674028236079, 35.283003582098111 ], [ 129.188907814011685, 35.28300449621959 ], [ 129.189119795802128, 35.283001618592898 ], [ 129.189225721400845, 35.282975893145057 ], [ 129.189353428288143, 35.282930961018927 ], [ 129.189453071304797, 35.282887357540275 ], [ 129.19219331416744, 35.281614206794956 ], [ 129.192358357202238, 35.281537268989155 ], [ 129.192532661838442, 35.281432220213638 ], [ 129.194200867188783, 35.28031532447875 ], [ 129.194473172233842, 35.279470268034309 ], [ 129.194677032501517, 35.278685367134322 ], [ 129.194701599060352, 35.27852942810626 ], [ 129.194707567756183, 35.278419517888125 ], [ 129.194159836107445, 35.274108593597319 ], [ 129.194109005392647, 35.273973071002032 ], [ 129.194021389530917, 35.273826308916945 ], [ 129.193883104782628, 35.273611825337333 ], [ 129.193724151108341, 35.273395481675585 ], [ 129.193599813525509, 35.273252545851427 ], [ 129.193470978015881, 35.273147273794038 ], [ 129.193282339647624, 35.273000676856654 ], [ 129.192728110077098, 35.27264935414037 ], [ 129.192332668816277, 35.272435269451563 ], [ 129.191153104641245, 35.271757233191146 ], [ 129.19108870209817, 35.271712124638128 ], [ 129.191015068507937, 35.27164444262894 ], [ 129.190938978464089, 35.271510833218429 ], [ 129.190938805762556, 35.27143927156947 ], [ 129.190961509071855, 35.271322471998673 ], [ 129.190988882466939, 35.271243332503253 ], [ 129.191030032057398, 35.271164154568517 ], [ 129.191094098396775, 35.271073650728276 ], [ 129.191313976989022, 35.270832226895635 ], [ 129.192720330232476, 35.269338369303931 ], [ 129.192839445090897, 35.269213889283556 ], [ 129.192905895808224, 35.269159157059434 ], [ 129.192979283197616, 35.269125135085282 ], [ 129.193103178568123, 35.26907974409886 ], [ 129.193263871657194, 35.269064421882334 ], [ 129.193378667334628, 35.26906047252691 ], [ 129.19371381445535, 35.269022273129103 ], [ 129.194023682315873, 35.268970924011597 ], [ 129.194239397059988, 35.268921609691887 ], [ 129.194757996012186, 35.268773900462399 ], [ 129.195095190438536, 35.268639626863944 ], [ 129.195264923252864, 35.268564017060172 ], [ 129.19539789943002, 35.268477184667034 ], [ 129.195567344973995, 35.268284806031474 ], [ 129.195757340888576, 35.268037768891404 ], [ 129.195835104436782, 35.267913344590113 ], [ 129.195976665721389, 35.267577871221988 ], [ 129.195189156945617, 35.265667496868858 ], [ 129.195133793811749, 35.265562108128663 ], [ 129.195041617192032, 35.265422888947818 ], [ 129.194958678946847, 35.26530624542783 ], [ 129.194857455957106, 35.265223546183066 ], [ 129.194758600980549, 35.265169081562213 ], [ 129.193225893717226, 35.264642283696183 ], [ 129.193092691778673, 35.264623681571258 ], [ 129.192929763771872, 35.264659713190518 ], [ 129.192782933943306, 35.264712688856825 ], [ 129.192110931373008, 35.265028274174441 ], [ 129.192005485716777, 35.265103778195879 ], [ 129.19169388639304, 35.265379242860519 ], [ 129.18978718856232, 35.263967794696427 ], [ 129.1886234434767, 35.261118140641386 ], [ 129.186602508689418, 35.254830725285025 ], [ 129.186597751635816, 35.254762931877934 ], [ 129.186688737249767, 35.251996748601847 ], [ 129.186712059171157, 35.251856086075939 ], [ 129.186941162132399, 35.251215641322581 ], [ 129.187023473829015, 35.251021548373885 ], [ 129.187117771262507, 35.250895320190807 ], [ 129.187392050913473, 35.250625777410853 ], [ 129.187952802181599, 35.250256370376526 ], [ 129.188330651996182, 35.250047263695436 ], [ 129.188614098550687, 35.249915909031145 ], [ 129.188859234999597, 35.249835506377785 ], [ 129.189550229699648, 35.249548335852303 ], [ 129.189833630714901, 35.249402417669394 ], [ 129.190057948956365, 35.249266296650568 ], [ 129.190190706588197, 35.249161830232481 ], [ 129.190344124465099, 35.249040349003593 ], [ 129.190756869010471, 35.248588734876762 ], [ 129.191016315348236, 35.248302222656726 ], [ 129.191210870020541, 35.248078857214757 ], [ 129.191417169744909, 35.247826376799011 ], [ 129.191573277775944, 35.247595800131741 ], [ 129.191679132828597, 35.247367753413108 ], [ 129.193274080622388, 35.24312942684665 ], [ 129.193508892269506, 35.242440449244306 ], [ 129.193576380359303, 35.242234246583408 ], [ 129.193593857802966, 35.242127538523739 ], [ 129.193597575516122, 35.242077282262201 ], [ 129.193596964705961, 35.2420384527477 ], [ 129.193569734481713, 35.241919063203362 ], [ 129.193528074052153, 35.24180274082881 ], [ 129.193427308012105, 35.241681672129538 ], [ 129.191795481458456, 35.240236769258601 ], [ 129.190495372967547, 35.237799635158112 ], [ 129.189116906797267, 35.231566015610369 ], [ 129.189123345076581, 35.231409637280798 ], [ 129.18912478834099, 35.231228571349682 ], [ 129.189092558581279, 35.231123978413727 ], [ 129.187620466682063, 35.229115801485875 ], [ 129.187578991300683, 35.229072211560336 ], [ 129.187516823677896, 35.229018963955888 ], [ 129.184850021328828, 35.227268026429542 ], [ 129.183075335946995, 35.226897599415572 ], [ 129.182971989554432, 35.226904519160641 ], [ 129.182852056721146, 35.226891133294359 ], [ 129.182802357539117, 35.226860682035763 ], [ 129.181563870251097, 35.225868671847827 ], [ 129.181410584804269, 35.22574341565074 ], [ 129.178846273707677, 35.223501696662488 ], [ 129.17559770591231, 35.220222937845946 ], [ 129.175386101729345, 35.219880643654662 ], [ 129.175149852830231, 35.219602849384238 ], [ 129.175038033305214, 35.219508040487554 ], [ 129.174975922158922, 35.219467419218297 ], [ 129.174338719599348, 35.219230884064707 ], [ 129.174020135441339, 35.219122797882264 ], [ 129.171013879390927, 35.218626198296754 ], [ 129.170871915978381, 35.218603098734114 ], [ 129.170705646438307, 35.218596676600569 ], [ 129.170515109229541, 35.218613584041265 ], [ 129.170284131403946, 35.218680430742843 ], [ 129.170004557563061, 35.218783936905702 ], [ 129.16969672327545, 35.218944061281199 ], [ 129.169429378977838, 35.219074169905369 ], [ 129.169222716986269, 35.219134336575394 ], [ 129.169093028444792, 35.219157809077409 ], [ 129.167840386536227, 35.219309234496556 ], [ 129.167605225018207, 35.219319529729425 ], [ 129.167357873650957, 35.219316548939112 ], [ 129.167122629547293, 35.219283600864557 ], [ 129.166424994379611, 35.219178097804026 ], [ 129.166103255764767, 35.219108248533921 ], [ 129.16640185179898, 35.220836831679357 ], [ 129.167727453530517, 35.223323325680568 ], [ 129.167958385490181, 35.223756375426419 ], [ 129.16886955947561, 35.224660183642243 ], [ 129.169513801954849, 35.226088760509228 ], [ 129.16956544851277, 35.226347292310102 ], [ 129.169523685822327, 35.22675274153422 ], [ 129.169269980303653, 35.227668744179127 ], [ 129.169134044746045, 35.227864648399674 ], [ 129.167898976555193, 35.22916517665044 ], [ 129.167553342487025, 35.229490304059645 ], [ 129.167347601182342, 35.229677721426185 ], [ 129.161635488961139, 35.233937902921213 ], [ 129.157947285426872, 35.235345537545193 ], [ 129.157896195809343, 35.235371355589827 ], [ 129.156841269726158, 35.235904621369173 ], [ 129.155130916949048, 35.237010450810004 ], [ 129.15513580612668, 35.237150956799461 ], [ 129.155212293189919, 35.239343277072734 ], [ 129.155690702039266, 35.243271021923881 ], [ 129.155417259878305, 35.244203200700149 ], [ 129.154962317269536, 35.245054993618609 ], [ 129.154287037364469, 35.245523803782909 ], [ 129.150299134670064, 35.247497250232804 ], [ 129.149959665131689, 35.247613687005511 ], [ 129.149595596390299, 35.247626538348413 ], [ 129.14925506839549, 35.247591833854109 ], [ 129.148224040181901, 35.247310693271153 ], [ 129.148118703090773, 35.247270347106166 ], [ 129.147337384489106, 35.24873662642424 ], [ 129.147228558796371, 35.248900323375693 ], [ 129.147062959335074, 35.249145874166494 ], [ 129.146982498377184, 35.249251117491845 ], [ 129.146840450167105, 35.249399286715857 ], [ 129.14666040468623, 35.249528008309362 ], [ 129.145580010097376, 35.250230308157818 ], [ 129.145350315971285, 35.250318591892821 ], [ 129.144287019155428, 35.250727211857622 ], [ 129.139235165518159, 35.254155431124168 ], [ 129.139625714279276, 35.255791641737673 ], [ 129.140009451998424, 35.25715684534395 ], [ 129.140200632219802, 35.257427686014857 ], [ 129.141042839661083, 35.259219758664692 ], [ 129.141125847547954, 35.259433376603134 ], [ 129.141145118196874, 35.259542806036642 ], [ 129.141145305236023, 35.259652269865342 ], [ 129.141107381817449, 35.259782613812327 ], [ 129.141073305088099, 35.259870854021067 ], [ 129.141063074472271, 35.25989733159431 ], [ 129.14101241857486, 35.260012078679743 ], [ 129.140984621989929, 35.260052537330694 ], [ 129.140929979879274, 35.260132053278348 ], [ 129.140884609538347, 35.260162559715269 ], [ 129.140860069258196, 35.260179057929257 ], [ 129.140806885625551, 35.260190752441837 ], [ 129.140669476683968, 35.260220960921849 ], [ 129.140383488776791, 35.260278620383062 ], [ 129.139932218643509, 35.2603312693902 ], [ 129.139557181075617, 35.26035775647842 ], [ 129.139514932253434, 35.260356363632006 ], [ 129.139404596894053, 35.260352723536947 ], [ 129.138889448839336, 35.260233413806077 ], [ 129.138685886777807, 35.260160687432695 ], [ 129.138501370425985, 35.260067072763022 ], [ 129.138304118353943, 35.259963047519591 ], [ 129.138154031659752, 35.25988125458192 ], [ 129.138075047031265, 35.259838218763569 ], [ 129.137744244643329, 35.259703046292216 ], [ 129.137432591704055, 35.259620006412689 ], [ 129.136624934955563, 35.259443693480549 ], [ 129.136427821635834, 35.259428267088225 ], [ 129.136243463468986, 35.259428475286349 ], [ 129.135931981844067, 35.25943924869371 ], [ 129.135404354238261, 35.259460686298141 ], [ 129.131737006371395, 35.25995466079921 ], [ 129.13020504703502, 35.260050108398318 ], [ 129.129627172814565, 35.260462496722553 ], [ 129.129417558818346, 35.260572183972045 ], [ 129.129042776635487, 35.260760229338281 ], [ 129.126380724164022, 35.261868026764418 ], [ 129.126279187199685, 35.261895885752971 ], [ 129.126005710186888, 35.261904893938301 ], [ 129.125636946452147, 35.261894840522309 ], [ 129.124670502876228, 35.261812440167709 ], [ 129.122732604318372, 35.261598636371467 ], [ 129.122636408046333, 35.261574919513215 ], [ 129.12246377214629, 35.261532337076112 ], [ 129.122247356693975, 35.261454927286529 ], [ 129.122067009588307, 35.261384852912684 ], [ 129.12156227007145, 35.261164267398136 ], [ 129.121359061702549, 35.261056525482168 ], [ 129.120993757274533, 35.260853557266977 ], [ 129.120082732438163, 35.260311550407152 ], [ 129.120016391789733, 35.260434762162184 ], [ 129.119797499735256, 35.260952711494419 ], [ 129.119662785377074, 35.26128558862785 ], [ 129.11937556449044, 35.262091814795056 ], [ 129.119375724129611, 35.262199047057599 ], [ 129.12093440132557, 35.268016708169732 ], [ 129.121370554565715, 35.269587803131103 ], [ 129.122015613172323, 35.270832802578305 ], [ 129.122133015152627, 35.270976890529653 ], [ 129.122259383906879, 35.271098759412403 ], [ 129.122348189495227, 35.271167405793278 ], [ 129.122421810577009, 35.271224298095454 ], [ 129.122531927374268, 35.271268570005944 ], [ 129.122620176644773, 35.271353563017072 ], [ 129.122642627113635, 35.271375185618261 ], [ 129.123166347317834, 35.271922763337173 ], [ 129.12439252090897, 35.27332224473929 ], [ 129.124517662972806, 35.273555957982488 ], [ 129.124636865263142, 35.273787280527849 ], [ 129.124929302604983, 35.274629847017344 ], [ 129.125425701725675, 35.27672189588661 ], [ 129.125136466465648, 35.278406248440632 ], [ 129.124732486267249, 35.278808702503305 ], [ 129.124389963808767, 35.279188542225086 ], [ 129.124305676516769, 35.279304708758126 ], [ 129.124280150187559, 35.279339890467995 ], [ 129.124253100384351, 35.27938395607422 ], [ 129.124196203496467, 35.279476649868911 ], [ 129.123925524822909, 35.280287621415312 ], [ 129.123925702692333, 35.280407033404941 ], [ 129.123964676068056, 35.280494569292671 ], [ 129.12404248302073, 35.280574098782168 ], [ 129.124914428038608, 35.28138922830879 ], [ 129.125689177207306, 35.282134111056443 ], [ 129.125857780478384, 35.282330322941988 ], [ 129.125971286278002, 35.282465528822634 ], [ 129.126405852689231, 35.282999800521075 ], [ 129.126454100395563, 35.283094604653201 ], [ 129.126487042974475, 35.283180180467475 ], [ 129.12744911914271, 35.285724072791254 ], [ 129.129829130255359, 35.290332341004053 ], [ 129.129938648337884, 35.293017918199489 ], [ 129.129995090968976, 35.296628815389816 ], [ 129.129975669987033, 35.297116871254829 ], [ 129.129958677733526, 35.297196842143272 ], [ 129.129875455623193, 35.297588464235737 ], [ 129.12968194241671, 35.297967299008334 ], [ 129.129664067197893, 35.298002272297175 ], [ 129.12747142572286, 35.299112732592583 ], [ 129.125824667868073, 35.299890370545008 ], [ 129.122199611730196, 35.301502253458665 ], [ 129.121432602256817, 35.301767720637493 ], [ 129.120834758584124, 35.301930771710069 ], [ 129.116017765261716, 35.302182212440421 ], [ 129.110445629531, 35.304429748651629 ], [ 129.108918400447806, 35.305068397078145 ], [ 129.109606686231018, 35.305436734598516 ], [ 129.110423510166356, 35.305969197083336 ], [ 129.110975797761085, 35.306610329193532 ], [ 129.111645952076685, 35.308769606804574 ], [ 129.111707222008704, 35.309216900799072 ], [ 129.111796403317896, 35.310201619633517 ], [ 129.111919972518308, 35.311566348498843 ], [ 129.111915201817169, 35.311677793089011 ], [ 129.111893249456529, 35.312189927981066 ], [ 129.1119127103604, 35.314340753544165 ], [ 129.111935887517831, 35.3151540815686 ], [ 129.112080630774614, 35.316152545760943 ], [ 129.112225261768032, 35.317060652276126 ], [ 129.112468974719491, 35.31783310726383 ], [ 129.112717857102012, 35.318347996775749 ], [ 129.113309552325347, 35.319495162603836 ], [ 129.113646471707085, 35.319847303376996 ], [ 129.114673055916995, 35.320388566506089 ], [ 129.115683091795489, 35.320916292821963 ], [ 129.117984740642299, 35.322147660253179 ], [ 129.118476066768835, 35.322463472910577 ], [ 129.119017758718059, 35.323280823551251 ], [ 129.119332928478968, 35.323822747495846 ], [ 129.119548901225357, 35.324423501196577 ], [ 129.119654532830396, 35.32499724496774 ], [ 129.119660558688253, 35.325345177694764 ], [ 129.119738444484625, 35.325810509899362 ], [ 129.119899463341511, 35.326537843607959 ], [ 129.120121124114746, 35.327242522635444 ], [ 129.120479154588679, 35.328176076033152 ], [ 129.120587297095653, 35.328418237969636 ], [ 129.120874862996317, 35.32891818019737 ], [ 129.121160466390791, 35.329254230014435 ], [ 129.121318871084469, 35.329395169875248 ], [ 129.121694614895176, 35.329568658949498 ], [ 129.122059884037128, 35.329702258400296 ], [ 129.122392040759934, 35.329777456338483 ], [ 129.122731913967385, 35.32986247428574 ], [ 129.122872984978443, 35.329915249916866 ], [ 129.123294614459951, 35.33010045766779 ], [ 129.124190029090727, 35.330496820151559 ], [ 129.124530079017973, 35.33065985458942 ], [ 129.124670655181632, 35.33073395154139 ], [ 129.124820338143024, 35.330848906036849 ], [ 129.125235510769102, 35.331245746109488 ], [ 129.125516829892945, 35.331520202179213 ], [ 129.125721076740717, 35.331750175600192 ], [ 129.125839132930025, 35.331924563946849 ], [ 129.12599590115579, 35.332217704135388 ], [ 129.126068682112702, 35.332403275855199 ], [ 129.126232582590717, 35.332926602282882 ], [ 129.126253148393886, 35.333041681864465 ], [ 129.12626255226769, 35.333257001577763 ], [ 129.126249323992369, 35.33349094036074 ], [ 129.126213445796139, 35.333732298202854 ], [ 129.126121044797571, 35.334047991185081 ], [ 129.126053318633666, 35.33420398556126 ], [ 129.125931406437161, 35.334475139217432 ], [ 129.125795930581916, 35.33477230437029 ], [ 129.125630965001818, 35.335050934789301 ], [ 129.125468257506753, 35.335318434450315 ], [ 129.125228762501905, 35.335753060576018 ], [ 129.125103954697323, 35.335998096804715 ], [ 129.125050384957291, 35.33613567226822 ], [ 129.12503250832583, 35.33630276764012 ], [ 129.125060063831967, 35.336551497231902 ], [ 129.125078402360344, 35.336681419750107 ], [ 129.125932379851974, 35.341035631161546 ], [ 129.125973350747529, 35.341158121100435 ], [ 129.126041572717753, 35.341325115613749 ], [ 129.126193809655717, 35.341607133641112 ], [ 129.126311941995425, 35.341814924177378 ], [ 129.126402725294838, 35.341915068011581 ], [ 129.126479840306672, 35.341974412971311 ], [ 129.126579652178094, 35.342048542909595 ], [ 129.126706674005021, 35.342137540370267 ], [ 129.126892618465774, 35.342241299315482 ], [ 129.127198757250483, 35.34241176258913 ], [ 129.12758878566575, 35.342630404051711 ], [ 129.127996994529383, 35.34287502602708 ], [ 129.128223821376878, 35.343041865046104 ], [ 129.128301013498429, 35.343138320953493 ], [ 129.128337374868693, 35.343212537044543 ], [ 129.128339839916862, 35.343342486098628 ], [ 129.128340059944293, 35.3434872755142 ], [ 129.12832663705538, 35.343594959756501 ], [ 129.128290562372257, 35.343710095958862 ], [ 129.12823595784576, 35.343797054359833 ], [ 129.129324121556522, 35.343965896849021 ], [ 129.131066737283732, 35.343859744576434 ], [ 129.131670208244884, 35.3438217075051 ], [ 129.131864315896024, 35.343809464998287 ], [ 129.13225969835571, 35.343748649917913 ], [ 129.132581286842367, 35.34365497288271 ], [ 129.133692812099923, 35.342940065287657 ], [ 129.134631589022973, 35.343158617503434 ], [ 129.134832720264114, 35.343185859605363 ], [ 129.134974239560307, 35.343173283105536 ], [ 129.135020374128118, 35.343169173472198 ], [ 129.135107467368613, 35.343141631401494 ], [ 129.137764993676768, 35.341991318443576 ], [ 129.140035148940797, 35.340833352463811 ], [ 129.140292986629419, 35.340673737336012 ], [ 129.140691921929545, 35.340344656647687 ], [ 129.141630689561794, 35.338956397504063 ], [ 129.141781633620326, 35.338607830411938 ], [ 129.14180634487272, 35.33844040311763 ], [ 129.141988591222798, 35.338174772408735 ], [ 129.14238812755633, 35.337869525516979 ], [ 129.142690217557288, 35.337732984656924 ], [ 129.146248723232361, 35.336334140066967 ], [ 129.146712734036299, 35.336266298389859 ], [ 129.147338666137898, 35.336267130336822 ], [ 129.147744920188444, 35.336482879871966 ], [ 129.148121089367521, 35.336682661258422 ], [ 129.1484177483228, 35.336892114275742 ], [ 129.14869716618125, 35.337184015837174 ], [ 129.148732093423178, 35.337220503709325 ], [ 129.14898321207653, 35.337359192073713 ], [ 129.149156543790951, 35.337308404633994 ], [ 129.15122785627824, 35.336177923352622 ], [ 129.151582177746377, 35.33494015019474 ], [ 129.15199714685761, 35.333222457559643 ], [ 129.152497788115113, 35.330238202140109 ], [ 129.152615037218169, 35.325973062221962 ], [ 129.15256234029718, 35.32589934724929 ], [ 129.152065586391785, 35.324816333839351 ], [ 129.152040607316451, 35.324743699417247 ], [ 129.152038993780735, 35.324653429185318 ], [ 129.152050911304087, 35.322973377905775 ], [ 129.152072800984456, 35.322630594551448 ], [ 129.152095060297228, 35.322486069658325 ], [ 129.152109949038731, 35.322415332679945 ], [ 129.152117401409697, 35.322387683329687 ], [ 129.152203456203466, 35.32222155936374 ], [ 129.153195495552779, 35.321100556967728 ], [ 129.15323775163489, 35.321055631693199 ], [ 129.153259205654791, 35.321032836871225 ], [ 129.153349171933627, 35.320958940693465 ], [ 129.153500154193239, 35.320874225854645 ], [ 129.1535939439581, 35.320827995090255 ], [ 129.153702784369983, 35.320800191120831 ], [ 129.153842955719199, 35.320771469753829 ], [ 129.153961796948948, 35.320762976509151 ], [ 129.154079034397313, 35.320760481605376 ], [ 129.154718019331511, 35.317570280449019 ], [ 129.154650183180479, 35.317435092486349 ], [ 129.154088914102147, 35.31597710992321 ], [ 129.153414485528401, 35.313715362762089 ], [ 129.153396511283518, 35.313643162788516 ], [ 129.15338889109259, 35.313581679735037 ], [ 129.153361512512504, 35.3109848191135 ], [ 129.153361112650742, 35.310772691860251 ], [ 129.153390685478598, 35.310526716284542 ], [ 129.153528608210223, 35.30999702704343 ], [ 129.153625763297441, 35.309750988050155 ], [ 129.153676121895302, 35.309656145343773 ], [ 129.153741742401053, 35.309532567204272 ], [ 129.153770642514246, 35.309497925659173 ], [ 129.153921548840543, 35.309317123709285 ], [ 129.154051211258661, 35.309186000351474 ], [ 129.154105172530251, 35.309141678272987 ], [ 129.154232068684081, 35.309040068577396 ], [ 129.15429167548325, 35.308992348680157 ], [ 129.154475392908495, 35.308866079474598 ], [ 129.154527170629109, 35.308832239921834 ], [ 129.154645074299196, 35.308755195390432 ], [ 129.154766767821201, 35.308706279318457 ], [ 129.154813890796191, 35.308687346840621 ], [ 129.15506155617939, 35.308619389673105 ], [ 129.155207907519099, 35.308588471781484 ], [ 129.155365586350968, 35.308582118826038 ], [ 129.155485731145347, 35.308585043808705 ], [ 129.155700671518389, 35.308590913299952 ], [ 129.155873384033015, 35.308596848685667 ], [ 129.156046103909432, 35.308605841855773 ], [ 129.156801890314853, 35.308730921118034 ], [ 129.15697464917335, 35.308764509105991 ], [ 129.157076098387307, 35.308807423709453 ], [ 129.160053486822989, 35.310348332895934 ], [ 129.162094105647299, 35.312288508556676 ], [ 129.162199430519564, 35.312386738117915 ], [ 129.162315923757262, 35.312448078619809 ], [ 129.162429578164108, 35.312481736551433 ], [ 129.16255725844826, 35.312500010024735 ], [ 129.162654893591196, 35.31250909845744 ], [ 129.162784293805231, 35.312485764897893 ], [ 129.162820020077646, 35.312475071338326 ], [ 129.162858651326445, 35.312453906640378 ], [ 129.163679194434053, 35.311693072599816 ], [ 129.163655371860585, 35.311046776001746 ], [ 129.16452084642475, 35.307810036697994 ], [ 129.164547022769113, 35.307757749430166 ], [ 129.164599469280745, 35.30769619114011 ], [ 129.164663161673332, 35.30763769298764 ], [ 129.164816946857485, 35.307569856340514 ], [ 129.164933310886084, 35.307560475188282 ], [ 129.169472037859549, 35.307462021579255 ], [ 129.170578888388462, 35.306806877367649 ], [ 129.171647788450343, 35.3061862830899 ], [ 129.174585686302493, 35.304489236884002 ], [ 129.174779355379059, 35.304443205955394 ], [ 129.175114190605996, 35.304378139639624 ], [ 129.17714030992417, 35.304286435603728 ], [ 129.177536994606186, 35.304312746913638 ], [ 129.17765598772877, 35.304320639861679 ], [ 129.17792541615114, 35.304384829768253 ], [ 129.179092170914345, 35.304789427533194 ], [ 129.180275200195183, 35.305207485201919 ] ] ] ] } }
]
}
