{
"type": "FeatureCollection",
"name": "haeundaegu",
"crs": { "type": "name", "properties": { "name": "urn:ogc:def:crs:OGC:1.3:CRS84" } },
"features": [
{ "type": "Feature", "properties": { "OBJECTID": 531, "adm_nm": "부산광역시 해운대구 우1동", "adm_cd": "2109073", "adm_cd2": "2635051000", "sgg": "26350", "sido": "26", "sidonm": "부산광역시", "sggnm": "해운대구" }, "geometry": { "type": "MultiPolygon", "coordinates": [ [ [ [ 129.166305759368157, 35.17907288508097 ], [ 129.166365834766481, 35.17865830872347 ], [ 129.166013775328025, 35.177990700561445 ], [ 129.165695721791053, 35.177435343673963 ], [ 129.165013411027701, 35.175603169934028 ], [ 129.164575665209071, 35.174509911947609 ], [ 129.164436276991722, 35.17429201590565 ], [ 129.163797016973405, 35.173957467183868 ], [ 129.163610403301561, 35.173736679315034 ], [ 129.164242916502843, 35.172965643327167 ], [ 129.16428544708063, 35.172820878467519 ], [ 129.164314787090063, 35.172370212476238 ], [ 129.164296719639765, 35.172232389565487 ], [ 129.162827851555477, 35.166680512492 ], [ 129.162853318366984, 35.166141774468706 ], [ 129.162857112979935, 35.166061490729248 ], [ 129.161990427584129, 35.163842305180111 ], [ 129.161421348734336, 35.163163024857099 ], [ 129.161193749701198, 35.162934019491395 ], [ 129.160736114685704, 35.161475595305149 ], [ 129.160404374808479, 35.159314478868794 ], [ 129.160628535107776, 35.158571691998958 ], [ 129.158638466893251, 35.158076344076136 ], [ 129.156983424992376, 35.157559056238789 ], [ 129.155686405629893, 35.157008808019846 ], [ 129.154893546770467, 35.156558205182215 ], [ 129.154648277389867, 35.156065988977097 ], [ 129.154967541084744, 35.1548636037327 ], [ 129.15402129768799, 35.154433703659713 ], [ 129.153452797537796, 35.152951341848528 ], [ 129.153042318082214, 35.151884406316036 ], [ 129.152656781115041, 35.151764501346285 ], [ 129.151641390029823, 35.151740287796756 ], [ 129.150560789537479, 35.151753441806264 ], [ 129.150290905960844, 35.151836690960884 ], [ 129.149934674600416, 35.152271488804821 ], [ 129.149909339584781, 35.152706460986657 ], [ 129.151124127314347, 35.15652301790449 ], [ 129.151530521881313, 35.156738254292023 ], [ 129.152787155003608, 35.15735199105734 ], [ 129.152156421898525, 35.158087824768359 ], [ 129.151320768178891, 35.158972380212283 ], [ 129.150154349097136, 35.15966357675439 ], [ 129.148878322290983, 35.160448733604539 ], [ 129.148455078276328, 35.160688755770899 ], [ 129.14760589095485, 35.161210010941758 ], [ 129.146165939598006, 35.161982524754599 ], [ 129.144642684122857, 35.162856874484824 ], [ 129.14447230071508, 35.164303007371529 ], [ 129.145438856168767, 35.165074304821225 ], [ 129.146368654910532, 35.165608100338254 ], [ 129.147861146657164, 35.166232684962971 ], [ 129.149081670039351, 35.166870631114683 ], [ 129.149527143448978, 35.167153176946549 ], [ 129.149781693041689, 35.167445082179484 ], [ 129.149712875090103, 35.167796341434176 ], [ 129.149601809469431, 35.168887691805253 ], [ 129.149661960837506, 35.169461834909733 ], [ 129.149766739019924, 35.169897944837103 ], [ 129.150191273560978, 35.170522902853754 ], [ 129.151067170302611, 35.171812763784317 ], [ 129.151193384745881, 35.171998276478206 ], [ 129.151258546378159, 35.172228086334904 ], [ 129.15105638066359, 35.172847149031121 ], [ 129.147229822836778, 35.176643554665688 ], [ 129.146167299180121, 35.17813839937741 ], [ 129.145626695966428, 35.179522068021292 ], [ 129.145337093839828, 35.180776909888927 ], [ 129.145244715834082, 35.182940406782393 ], [ 129.145348604983013, 35.186031482849771 ], [ 129.145773281435709, 35.192050301712129 ], [ 129.1472170347906, 35.192654895833009 ], [ 129.14963786952913, 35.194664456999021 ], [ 129.151789518518854, 35.198185174841917 ], [ 129.153025851846422, 35.199238763072074 ], [ 129.154535545905674, 35.199018750084335 ], [ 129.155620670760641, 35.198222256943488 ], [ 129.156266910852366, 35.198227194616052 ], [ 129.157165224324814, 35.19772465087884 ], [ 129.158299304999559, 35.197464885596986 ], [ 129.159861710090809, 35.196596144938788 ], [ 129.160243745659841, 35.195550710569258 ], [ 129.160985846537272, 35.195276749798616 ], [ 129.161257455019751, 35.194852932390752 ], [ 129.160848268073238, 35.194315080635697 ], [ 129.160305883809968, 35.192840017636996 ], [ 129.160619363925179, 35.191520941672088 ], [ 129.161753199843218, 35.189867829068412 ], [ 129.161732308347467, 35.188760884269975 ], [ 129.161913312510592, 35.187754650684276 ], [ 129.163278794854619, 35.18759670983593 ], [ 129.163008833563623, 35.186857636959935 ], [ 129.163296891994889, 35.186278395138835 ], [ 129.162660775793171, 35.186003244377318 ], [ 129.161925774507381, 35.185036717743294 ], [ 129.161424800895958, 35.184587191763022 ], [ 129.161036648060787, 35.184235069801993 ], [ 129.161146154394686, 35.183725746098368 ], [ 129.161856476049593, 35.183466242118357 ], [ 129.162231363230603, 35.181591800680998 ], [ 129.164033922783972, 35.180554569828622 ], [ 129.166053979516278, 35.179505528928146 ], [ 129.166305759368157, 35.17907288508097 ] ] ] ] } },
{ "type": "Feature", "properties": { "OBJECTID": 532, "adm_nm": "부산광역시 해운대구 우2동", "adm_cd": "2109074", "adm_cd2": "2635052000", "sgg": "26350", "sido": "26", "sidonm": "부산광역시", "sggnm": "해운대구" }, "geometry": { "type": "MultiPolygon", "coordinates": [ [ [ [ 129.144642684122857, 35.162856874484824 ], [ 129.143188287030398, 35.163707621346148 ], [ 129.142787449733476, 35.16371058852333 ], [ 129.14048067058016, 35.16199466717088 ], [ 129.139685055555873, 35.162538128983343 ], [ 129.139168370469406, 35.162797939810424 ], [ 129.138524073545426, 35.163058266791417 ], [ 129.137883617688516, 35.163199367453331 ], [ 129.136928954724794, 35.163188184987945 ], [ 129.135549133450979, 35.162803355719106 ], [ 129.134081618959868, 35.162168352300576 ], [ 129.134984271014844, 35.16037473884704 ], [ 129.136290862040795, 35.158651456006432 ], [ 129.136912816825344, 35.15770738714258 ], [ 129.137333841045375, 35.156805018213156 ], [ 129.137358448408321, 35.155664343605302 ], [ 129.136980848274249, 35.154587584352477 ], [ 129.136501359855544, 35.153755862886577 ], [ 129.13296227503875, 35.150060960338486 ], [ 129.130745858259502, 35.147713731190663 ], [ 129.130323931599889, 35.147985067951566 ], [ 129.133357047568211, 35.151107279905808 ], [ 129.135947653429042, 35.153958272851881 ], [ 129.136228332289562, 35.154344342809694 ], [ 129.136524584926889, 35.154915384982608 ], [ 129.136728664884544, 35.155624122974338 ], [ 129.136663523396976, 35.156731180216291 ], [ 129.136352055522138, 35.15755901961596 ], [ 129.135867789987003, 35.158267309863596 ], [ 129.13478178279837, 35.159729717008908 ], [ 129.132918204703714, 35.161915390998345 ], [ 129.132452623379351, 35.161707657975128 ], [ 129.131328372052991, 35.162965629302029 ], [ 129.13095017811176, 35.163288925534978 ], [ 129.130263153837518, 35.163769224607549 ], [ 129.126583321283704, 35.166026173305688 ], [ 129.1243587401691, 35.169063750222776 ], [ 129.123562166475665, 35.170397329965844 ], [ 129.123432464782695, 35.170614474389986 ], [ 129.123171200856234, 35.171051876632454 ], [ 129.122609922458253, 35.172696804469268 ], [ 129.122499055335624, 35.1730217184355 ], [ 129.121920282438538, 35.173638563281713 ], [ 129.121057932032699, 35.174647138562634 ], [ 129.122424178158099, 35.175338406803888 ], [ 129.123281848358403, 35.174414823164653 ], [ 129.124094861539731, 35.173414996718144 ], [ 129.125665522511298, 35.174177444666427 ], [ 129.127839479365917, 35.175351096198973 ], [ 129.128466895720862, 35.175152530619762 ], [ 129.129019382348076, 35.175431508455404 ], [ 129.129783635858473, 35.175945729569641 ], [ 129.130035278337772, 35.176031619358071 ], [ 129.130252540186603, 35.17579399621701 ], [ 129.130678265623516, 35.175805544191554 ], [ 129.131181067109509, 35.176075662878148 ], [ 129.132242883576282, 35.176184896465372 ], [ 129.132938839343865, 35.176760226197089 ], [ 129.133156923329011, 35.17746048223065 ], [ 129.134054728248458, 35.177964835751453 ], [ 129.134211880603829, 35.178492713023289 ], [ 129.135416787927653, 35.178976492308152 ], [ 129.135782889256177, 35.180038056896045 ], [ 129.137701219481812, 35.180859683096337 ], [ 129.141290199920803, 35.185236350230447 ], [ 129.143714638728056, 35.188182915859208 ], [ 129.143976558283782, 35.188460911220943 ], [ 129.144609099627644, 35.189995414279352 ], [ 129.145126553521152, 35.191138865477477 ], [ 129.145773281435709, 35.192050301712129 ], [ 129.145348604983013, 35.186031482849771 ], [ 129.145244715834082, 35.182940406782393 ], [ 129.145337093839828, 35.180776909888927 ], [ 129.145626695966428, 35.179522068021292 ], [ 129.146167299180121, 35.17813839937741 ], [ 129.147229822836778, 35.176643554665688 ], [ 129.15105638066359, 35.172847149031121 ], [ 129.151258546378159, 35.172228086334904 ], [ 129.151193384745881, 35.171998276478206 ], [ 129.151067170302611, 35.171812763784317 ], [ 129.150191273560978, 35.170522902853754 ], [ 129.149766739019924, 35.169897944837103 ], [ 129.149661960837506, 35.169461834909733 ], [ 129.149601809469431, 35.168887691805253 ], [ 129.149712875090103, 35.167796341434176 ], [ 129.149781693041689, 35.167445082179484 ], [ 129.149527143448978, 35.167153176946549 ], [ 129.149081670039351, 35.166870631114683 ], [ 129.147861146657164, 35.166232684962971 ], [ 129.146368654910532, 35.165608100338254 ], [ 129.145438856168767, 35.165074304821225 ], [ 129.14447230071508, 35.164303007371529 ], [ 129.144642684122857, 35.162856874484824 ] ] ] ] } },
{ "type": "Feature", "properties": { "OBJECTID": 533, "adm_nm": "부산광역시 해운대구 중1동", "adm_cd": "2109053", "adm_cd2": "2635053000", "sgg": "26350", "sido": "26", "sidonm": "부산광역시", "sggnm": "해운대구" }, "geometry": { "type": "MultiPolygon", "coordinates": [ [ [ [ 129.174628282783175, 35.168222365809939 ], [ 129.17599547094585, 35.16727111980066 ], [ 129.176980603715776, 35.166510343829273 ], [ 129.175587603932883, 35.165155866627316 ], [ 129.175531409906995, 35.164836101325953 ], [ 129.175736652606105, 35.164652838492273 ], [ 129.17811559107875, 35.163746286688195 ], [ 129.177725548722833, 35.163393782241513 ], [ 129.177157905419847, 35.163037090344986 ], [ 129.175940294423953, 35.162366715391258 ], [ 129.175868192974121, 35.162042448598392 ], [ 129.175328840432144, 35.161997903049858 ], [ 129.173953511473371, 35.161737730399885 ], [ 129.17335173948814, 35.161670443174522 ], [ 129.173304636687249, 35.161665266962856 ], [ 129.173073049551249, 35.161639799308794 ], [ 129.172987572688413, 35.161630385447509 ], [ 129.172912117475306, 35.161617337640905 ], [ 129.172189946370167, 35.161492337860622 ], [ 129.172141078060662, 35.161483875832772 ], [ 129.172095548910505, 35.161474312826165 ], [ 129.171812806188655, 35.161412961552081 ], [ 129.171712366091356, 35.161347188481749 ], [ 129.17165706489331, 35.16131096313277 ], [ 129.171654327231352, 35.161266351485182 ], [ 129.173509534675077, 35.159576223444979 ], [ 129.175563901798455, 35.157753262884455 ], [ 129.175666326429223, 35.157664524278054 ], [ 129.175737870145241, 35.157617310891602 ], [ 129.176198320867059, 35.157313489042352 ], [ 129.176975939181943, 35.156806703173835 ], [ 129.177728891612901, 35.156326183776585 ], [ 129.177681608568207, 35.154922783218282 ], [ 129.173831777997435, 35.156621423107296 ], [ 129.173385194524144, 35.156853719675894 ], [ 129.172077041586675, 35.15759877180701 ], [ 129.170579942206729, 35.158516037847846 ], [ 129.170079728552452, 35.158952235510327 ], [ 129.169807991037004, 35.159164636215806 ], [ 129.168566698037012, 35.159424522046145 ], [ 129.165344638811575, 35.159234578967954 ], [ 129.164445186467447, 35.159156914164988 ], [ 129.162633975656433, 35.15894021866643 ], [ 129.162574251602535, 35.158931783643936 ], [ 129.161583775280832, 35.158791890158511 ], [ 129.160628535107776, 35.158571691998958 ], [ 129.160404374808479, 35.159314478868794 ], [ 129.160736114685704, 35.161475595305149 ], [ 129.161193749701198, 35.162934019491395 ], [ 129.161421348734336, 35.163163024857099 ], [ 129.161990427584129, 35.163842305180111 ], [ 129.162857112979935, 35.166061490729248 ], [ 129.162853318366984, 35.166141774468706 ], [ 129.162827851555477, 35.166680512492 ], [ 129.166395845929003, 35.167084294423333 ], [ 129.166952485863817, 35.167745150251349 ], [ 129.169640565659506, 35.170670413875861 ], [ 129.170405244009032, 35.170727363700571 ], [ 129.17068681505495, 35.170748313877496 ], [ 129.170774021505309, 35.170755081735351 ], [ 129.171189059986176, 35.170787300222564 ], [ 129.171226934932776, 35.1708690312851 ], [ 129.17169007766077, 35.171955841157597 ], [ 129.171713151660555, 35.172590816926402 ], [ 129.171206226843765, 35.173461585666921 ], [ 129.172131341825263, 35.172884218294001 ], [ 129.17265951389561, 35.172898064688077 ], [ 129.172729105090042, 35.172895728541562 ], [ 129.172884163064339, 35.172821673300234 ], [ 129.173028830934328, 35.172709610707038 ], [ 129.173105543634364, 35.172630270501642 ], [ 129.173153259034962, 35.172580907479954 ], [ 129.173274750025882, 35.17240695433668 ], [ 129.174164907656291, 35.170544213394969 ], [ 129.174280219942858, 35.170254450926471 ], [ 129.174361702524465, 35.169905147261829 ], [ 129.17423560198236, 35.169640171968865 ], [ 129.173989399902638, 35.169356185974877 ], [ 129.173923366076053, 35.1690895965382 ], [ 129.174064951994012, 35.168768135466536 ], [ 129.174628282783175, 35.168222365809939 ] ] ] ] } },
{ "type": "Feature", "properties": { "OBJECTID": 534, "adm_nm": "부산광역시 해운대구 중2동", "adm_cd": "2109054", "adm_cd2": "2635054000", "sgg": "26350", "sido": "26", "sidonm": "부산광역시", "sggnm": "해운대구" }, "geometry": { "type": "MultiPolygon", "coordinates": [ [ [ [ 129.189687725082507, 35.165897714572964 ], [ 129.190405769236463, 35.165636822756397 ], [ 129.191380514421667, 35.164913995448295 ], [ 129.192887691814519, 35.164900884217147 ], [ 129.193881253169479, 35.165059886636868 ], [ 129.196067125478464, 35.165019739968699 ], [ 129.196195292058434, 35.164267341736476 ], [ 129.195462236865495, 35.163046335625573 ], [ 129.194212825450705, 35.161222221591387 ], [ 129.19412226420161, 35.161081447933221 ], [ 129.193666039154351, 35.160653520796473 ], [ 129.192288371906386, 35.159841733845532 ], [ 129.191788700400878, 35.159815151795456 ], [ 129.191124137884742, 35.160112035179189 ], [ 129.18855177194547, 35.159808674363369 ], [ 129.18778998694853, 35.159715611414001 ], [ 129.187109931123786, 35.159434142786189 ], [ 129.186001589886075, 35.158955659185452 ], [ 129.185008980729123, 35.157531504063137 ], [ 129.184673750393301, 35.156757798006716 ], [ 129.183940621965036, 35.156112317746405 ], [ 129.183250750391039, 35.155623589595535 ], [ 129.182228495589754, 35.155116811668911 ], [ 129.181188136451766, 35.154743870955492 ], [ 129.180644415284348, 35.154691352438448 ], [ 129.178431329889804, 35.15483796248774 ], [ 129.177699109046415, 35.15489170375136 ], [ 129.177681608568207, 35.154922783218282 ], [ 129.177728891612901, 35.156326183776585 ], [ 129.176975939181943, 35.156806703173835 ], [ 129.176198320867059, 35.157313489042352 ], [ 129.175737870145241, 35.157617310891602 ], [ 129.175666326429223, 35.157664524278054 ], [ 129.175563901798455, 35.157753262884455 ], [ 129.173509534675077, 35.159576223444979 ], [ 129.171654327231352, 35.161266351485182 ], [ 129.17165706489331, 35.16131096313277 ], [ 129.171712366091356, 35.161347188481749 ], [ 129.171812806188655, 35.161412961552081 ], [ 129.172095548910505, 35.161474312826165 ], [ 129.172141078060662, 35.161483875832772 ], [ 129.172189946370167, 35.161492337860622 ], [ 129.172912117475306, 35.161617337640905 ], [ 129.172987572688413, 35.161630385447509 ], [ 129.173073049551249, 35.161639799308794 ], [ 129.173304636687249, 35.161665266962856 ], [ 129.17335173948814, 35.161670443174522 ], [ 129.173953511473371, 35.161737730399885 ], [ 129.175328840432144, 35.161997903049858 ], [ 129.175868192974121, 35.162042448598392 ], [ 129.176280565283236, 35.162036552643521 ], [ 129.177967437008732, 35.162370148514064 ], [ 129.178971133178919, 35.162757880382443 ], [ 129.180112808081901, 35.163576814576729 ], [ 129.180703690691416, 35.164236917564445 ], [ 129.180824384314292, 35.164359536441836 ], [ 129.182011782471022, 35.164497636158238 ], [ 129.184331595456484, 35.164483798696082 ], [ 129.186123708239165, 35.164019856022385 ], [ 129.187488413235116, 35.164534631813936 ], [ 129.187149482662534, 35.166588846283545 ], [ 129.18710328237492, 35.166992750656057 ], [ 129.186673144047745, 35.167276839941216 ], [ 129.18668633070655, 35.167350000363591 ], [ 129.187406592541322, 35.167349171359263 ], [ 129.187848620467804, 35.167381900784889 ], [ 129.187913061237992, 35.167320436802903 ], [ 129.188002615022469, 35.167194263918859 ], [ 129.18820539801095, 35.166406775842731 ], [ 129.188857115201301, 35.166066338433055 ], [ 129.189687725082507, 35.165897714572964 ] ] ] ] } },
{ "type": "Feature", "properties": { "OBJECTID": 535, "adm_nm": "부산광역시 해운대구 송정동", "adm_cd": "2109056", "adm_cd2": "2635056000", "sgg": "26350", "sido": "26", "sidonm": "부산광역시", "sggnm": "해운대구" }, "geometry": { "type": "MultiPolygon", "coordinates": [ [ [ [ 129.207922226562147, 35.181944959030275 ], [ 129.207583776413912, 35.180470561838305 ], [ 129.207334533210457, 35.180068993094118 ], [ 129.205672342968512, 35.179114296643114 ], [ 129.20494262845051, 35.179054516669446 ], [ 129.204587149883167, 35.180235993101959 ], [ 129.20452635768018, 35.180633148274737 ], [ 129.203910561118931, 35.180630204581469 ], [ 129.20337008358328, 35.180566315155289 ], [ 129.20272876588939, 35.180463300800163 ], [ 129.202474691513487, 35.180394883758353 ], [ 129.202297725765703, 35.180347228425134 ], [ 129.200154527859183, 35.179346885999003 ], [ 129.199678338490116, 35.179077028432012 ], [ 129.198869661603283, 35.178416158097583 ], [ 129.198039623744791, 35.177179834948085 ], [ 129.197479423525266, 35.176062337784657 ], [ 129.19739014039888, 35.175884229128044 ], [ 129.197646797611554, 35.175270724279464 ], [ 129.197767278455984, 35.174851809240813 ], [ 129.198072853349515, 35.173339250536777 ], [ 129.1978129977675, 35.170449005062459 ], [ 129.197454472652254, 35.168743786154145 ], [ 129.196067125478464, 35.165019739968699 ], [ 129.193881253169479, 35.165059886636868 ], [ 129.192887691814519, 35.164900884217147 ], [ 129.191380514421667, 35.164913995448295 ], [ 129.190405769236463, 35.165636822756397 ], [ 129.189687725082507, 35.165897714572964 ], [ 129.190867919278332, 35.167426470640201 ], [ 129.19081722967374, 35.168072800421328 ], [ 129.190667254100163, 35.168896437255107 ], [ 129.19061294653099, 35.169124858425718 ], [ 129.190966921050489, 35.170429333472178 ], [ 129.190985477264576, 35.170890181264049 ], [ 129.191662518772574, 35.172134987696758 ], [ 129.191883096505421, 35.173015390221416 ], [ 129.191633904829246, 35.173664979724492 ], [ 129.191835276570345, 35.173883877140668 ], [ 129.192008029454655, 35.174392130216667 ], [ 129.191836956997491, 35.176036893141706 ], [ 129.190905644734187, 35.177906760660704 ], [ 129.190722515993286, 35.178104879495422 ], [ 129.190117560337768, 35.178273135841188 ], [ 129.189466602916326, 35.179541767702887 ], [ 129.189553179292403, 35.180630965732632 ], [ 129.190153164419797, 35.18160387506817 ], [ 129.19060330978283, 35.182796986238593 ], [ 129.190166711701238, 35.183263444481241 ], [ 129.188746686637302, 35.183757060898827 ], [ 129.187838279999568, 35.184293405853815 ], [ 129.187913782212405, 35.184680021008404 ], [ 129.189307821130939, 35.186071819827177 ], [ 129.189588964635789, 35.186474604059541 ], [ 129.189401901462531, 35.186940933859056 ], [ 129.188650360407138, 35.187451628929281 ], [ 129.188583359957534, 35.188079612913796 ], [ 129.189044664041774, 35.189957613882044 ], [ 129.190810524503746, 35.192914938595571 ], [ 129.193519889640925, 35.195069859231701 ], [ 129.193664379535846, 35.195813832827739 ], [ 129.193858627703946, 35.19810861708671 ], [ 129.1946963944294, 35.198960853289158 ], [ 129.19687434366918, 35.200323051022131 ], [ 129.197276087795842, 35.200473258203708 ], [ 129.197674213405435, 35.200622109207401 ], [ 129.198388136431532, 35.200834159026975 ], [ 129.199450864101408, 35.200687350789146 ], [ 129.20426157246294, 35.198329827034463 ], [ 129.206667447539957, 35.197053956105798 ], [ 129.207448979080226, 35.194559196364317 ], [ 129.207313112518051, 35.194013090841885 ], [ 129.207145201678031, 35.193338176539619 ], [ 129.206855011685235, 35.192619057577041 ], [ 129.206580173641328, 35.192097220615288 ], [ 129.206335192276782, 35.191566604502739 ], [ 129.206317382636854, 35.19127882044517 ], [ 129.206892384173727, 35.185870877075331 ], [ 129.207604986735049, 35.182578697392209 ], [ 129.207861637917574, 35.182065988099531 ], [ 129.207922226562147, 35.181944959030275 ] ] ] ] } },
{ "type": "Feature", "properties": { "OBJECTID": 536, "adm_nm": "부산광역시 해운대구 반여2동", "adm_cd": "2109058", "adm_cd2": "2635058000", "sgg": "26350", "sido": "26", "sidonm": "부산광역시", "sggnm": "해운대구" }, "geometry": { "type": "MultiPolygon", "coordinates": [ [ [ [ 129.145773281435709, 35.192050301712129 ], [ 129.140736208325848, 35.192977436289766 ], [ 129.138223534033528, 35.19345287111296 ], [ 129.136253999697487, 35.193785257001899 ], [ 129.135547185665445, 35.194105259437059 ], [ 129.133338315508013, 35.194262864282592 ], [ 129.132536389645537, 35.193692409000882 ], [ 129.13216388524711, 35.193737916382894 ], [ 129.131944798209531, 35.193612421770169 ], [ 129.131423152340773, 35.19352400773387 ], [ 129.130539175847701, 35.193528085666294 ], [ 129.129500403600474, 35.193894907131167 ], [ 129.128598864250051, 35.193900928458767 ], [ 129.12752955074879, 35.194078433687608 ], [ 129.126475456587116, 35.194472186540224 ], [ 129.125573388106062, 35.194273192955706 ], [ 129.124178570545297, 35.194151855673489 ], [ 129.123497884442941, 35.194064328197186 ], [ 129.122406764662003, 35.193739063122507 ], [ 129.123300518570687, 35.194531431900636 ], [ 129.124628360129492, 35.195134041031935 ], [ 129.126366552475162, 35.195881883241093 ], [ 129.126832038358572, 35.196134719723624 ], [ 129.127312420788542, 35.196463704537834 ], [ 129.127661894447243, 35.196720382570547 ], [ 129.127783831109099, 35.196983897660701 ], [ 129.12791708523261, 35.19786285452868 ], [ 129.127960655409822, 35.198532468475499 ], [ 129.128129806857714, 35.198963222688029 ], [ 129.129413806329552, 35.19882363625586 ], [ 129.134004176888993, 35.198303512548968 ], [ 129.135397853381932, 35.197981366601262 ], [ 129.138056064539882, 35.197279814860927 ], [ 129.141330387479769, 35.196494180006695 ], [ 129.143698755434428, 35.195694217779284 ], [ 129.145217166950374, 35.194747808928049 ], [ 129.145773281435709, 35.192050301712129 ] ] ] ] } },
{ "type": "Feature", "properties": { "OBJECTID": 537, "adm_nm": "부산광역시 해운대구 반여3동", "adm_cd": "2109059", "adm_cd2": "2635059000", "sgg": "26350", "sido": "26", "sidonm": "부산광역시", "sggnm": "해운대구" }, "geometry": { "type": "MultiPolygon", "coordinates": [ [ [ [ 129.152962185892022, 35.200931515240171 ], [ 129.153025851846422, 35.199238763072074 ], [ 129.151789518518854, 35.198185174841917 ], [ 129.14963786952913, 35.194664456999021 ], [ 129.1472170347906, 35.192654895833009 ], [ 129.145773281435709, 35.192050301712129 ], [ 129.145217166950374, 35.194747808928049 ], [ 129.143698755434428, 35.195694217779284 ], [ 129.141330387479769, 35.196494180006695 ], [ 129.138056064539882, 35.197279814860927 ], [ 129.135397853381932, 35.197981366601262 ], [ 129.134004176888993, 35.198303512548968 ], [ 129.129413806329552, 35.19882363625586 ], [ 129.128129806857714, 35.198963222688029 ], [ 129.12831038269465, 35.199389206805094 ], [ 129.129050244325839, 35.200324925880935 ], [ 129.130314891391862, 35.201537079101477 ], [ 129.130670424137747, 35.202057425634017 ], [ 129.131016179252214, 35.20296754487326 ], [ 129.131295729669972, 35.204195713740937 ], [ 129.131528021133079, 35.204559735978165 ], [ 129.131893849649373, 35.20452890406164 ], [ 129.133017276720068, 35.204214893558252 ], [ 129.133849246966889, 35.20414908260468 ], [ 129.134390678814412, 35.204403900224989 ], [ 129.135542112525968, 35.205168453743077 ], [ 129.136161608323846, 35.20573260402189 ], [ 129.136439259880831, 35.206510486321761 ], [ 129.13663913733788, 35.207477651300209 ], [ 129.137053763628387, 35.207485963439062 ], [ 129.137727847221555, 35.20714436383976 ], [ 129.138516885282087, 35.206905862824172 ], [ 129.139832691830776, 35.206529045329894 ], [ 129.140986679673716, 35.206336454320464 ], [ 129.142503851107278, 35.205936503157339 ], [ 129.143893143131208, 35.205411227034851 ], [ 129.144542591709325, 35.205217752492516 ], [ 129.145255191589143, 35.205171250489066 ], [ 129.145572757138325, 35.205075166774101 ], [ 129.146042074914959, 35.204731366834707 ], [ 129.146650418872497, 35.203926600890696 ], [ 129.147804791618, 35.202782217895027 ], [ 129.148636319347901, 35.202298008254296 ], [ 129.150030864710487, 35.201741542328726 ], [ 129.152962185892022, 35.200931515240171 ] ] ] ] } },
{ "type": "Feature", "properties": { "OBJECTID": 538, "adm_nm": "부산광역시 해운대구 반송2동", "adm_cd": "2109062", "adm_cd2": "2635062000", "sgg": "26350", "sido": "26", "sidonm": "부산광역시", "sggnm": "해운대구" }, "geometry": { "type": "MultiPolygon", "coordinates": [ [ [ [ 129.16640185179898, 35.220836831679357 ], [ 129.164527158795721, 35.22205500371745 ], [ 129.164158866595812, 35.222405595434104 ], [ 129.163846071643434, 35.222703372032747 ], [ 129.162866567900977, 35.223802373915163 ], [ 129.158800044751871, 35.225529027193062 ], [ 129.157567593222637, 35.225869077035632 ], [ 129.153330617306409, 35.227026012459739 ], [ 129.152485886477308, 35.227359118642447 ], [ 129.151979963097432, 35.228333783088161 ], [ 129.151276880154569, 35.229866402261052 ], [ 129.149911078828723, 35.230094028034799 ], [ 129.149351724645527, 35.230119854945954 ], [ 129.149298181514951, 35.230101474712015 ], [ 129.149108184563261, 35.23003623512119 ], [ 129.148750611112519, 35.229913177047315 ], [ 129.148497890571093, 35.229848721602366 ], [ 129.1480161376453, 35.229725850806759 ], [ 129.146862265745881, 35.229431357023458 ], [ 129.144833636769278, 35.229014079477523 ], [ 129.14252866240173, 35.229126120156259 ], [ 129.141739088769583, 35.229802115602887 ], [ 129.139930421754627, 35.230102648334338 ], [ 129.139806587781123, 35.23075592278623 ], [ 129.140862225280046, 35.232200831856709 ], [ 129.141577711600434, 35.233212089921793 ], [ 129.141569811838934, 35.233549301366402 ], [ 129.141378851965328, 35.233750568451072 ], [ 129.13933232105407, 35.234534995743751 ], [ 129.138672115087047, 35.234964041181293 ], [ 129.138192980859571, 35.235554407489417 ], [ 129.13626965379126, 35.236912088054545 ], [ 129.13608639483158, 35.237172484172639 ], [ 129.136948746431841, 35.2376665510508 ], [ 129.137281580910638, 35.238466984575837 ], [ 129.137900696290245, 35.23891664772794 ], [ 129.138969315505705, 35.239845109019768 ], [ 129.139927953775327, 35.240596647421647 ], [ 129.140538193201877, 35.241581818646104 ], [ 129.141253318489987, 35.241888269068873 ], [ 129.14160130014352, 35.242594194523932 ], [ 129.141199819398281, 35.24380460780295 ], [ 129.141294019853717, 35.244155785035737 ], [ 129.142139468953246, 35.244893839244263 ], [ 129.14239643410221, 35.245581554427744 ], [ 129.143761943220028, 35.246857941269518 ], [ 129.143614046574243, 35.248689085159519 ], [ 129.144320283239836, 35.249912557428303 ], [ 129.144287019155428, 35.250727211857622 ], [ 129.145350315971285, 35.250318591892821 ], [ 129.145580010097376, 35.250230308157818 ], [ 129.14666040468623, 35.249528008309362 ], [ 129.146840450167105, 35.249399286715857 ], [ 129.146982498377184, 35.249251117491845 ], [ 129.147062959335074, 35.249145874166494 ], [ 129.147228558796371, 35.248900323375693 ], [ 129.147337384489106, 35.24873662642424 ], [ 129.148118703090773, 35.247270347106166 ], [ 129.148224040181901, 35.247310693271153 ], [ 129.14925506839549, 35.247591833854109 ], [ 129.149595596390299, 35.247626538348413 ], [ 129.149959665131689, 35.247613687005511 ], [ 129.150299134670064, 35.247497250232804 ], [ 129.154287037364469, 35.245523803782909 ], [ 129.154962317269536, 35.245054993618609 ], [ 129.155417259878305, 35.244203200700149 ], [ 129.155690702039266, 35.243271021923881 ], [ 129.155212293189919, 35.239343277072734 ], [ 129.15513580612668, 35.237150956799461 ], [ 129.155130916949048, 35.237010450810004 ], [ 129.156841269726158, 35.235904621369173 ], [ 129.157896195809343, 35.235371355589827 ], [ 129.157947285426872, 35.235345537545193 ], [ 129.161635488961139, 35.233937902921213 ], [ 129.167347601182342, 35.229677721426185 ], [ 129.167553342487025, 35.229490304059645 ], [ 129.167898976555193, 35.22916517665044 ], [ 129.169134044746045, 35.227864648399674 ], [ 129.169269980303653, 35.227668744179127 ], [ 129.169523685822327, 35.22675274153422 ], [ 129.16956544851277, 35.226347292310102 ], [ 129.169513801954849, 35.226088760509228 ], [ 129.16886955947561, 35.224660183642243 ], [ 129.167958385490181, 35.223756375426419 ], [ 129.167727453530517, 35.223323325680568 ], [ 129.16640185179898, 35.220836831679357 ] ] ] ] } },
{ "type": "Feature", "properties": { "OBJECTID": 539, "adm_nm": "부산광역시 해운대구 재송1동", "adm_cd": "2109064", "adm_cd2": "2635065000", "sgg": "26350", "sido": "26", "sidonm": "부산광역시", "sggnm": "해운대구" }, "geometry": { "type": "MultiPolygon", "coordinates": [ [ [ [ 129.143714638728056, 35.188182915859208 ], [ 129.141290199920803, 35.185236350230447 ], [ 129.137701219481812, 35.180859683096337 ], [ 129.135782889256177, 35.180038056896045 ], [ 129.135416787927653, 35.178976492308152 ], [ 129.134211880603829, 35.178492713023289 ], [ 129.134054728248458, 35.177964835751453 ], [ 129.133156923329011, 35.17746048223065 ], [ 129.132938839343865, 35.176760226197089 ], [ 129.132242883576282, 35.176184896465372 ], [ 129.131181067109509, 35.176075662878148 ], [ 129.130678265623516, 35.175805544191554 ], [ 129.130252540186603, 35.17579399621701 ], [ 129.130035278337772, 35.176031619358071 ], [ 129.129783635858473, 35.175945729569641 ], [ 129.129019382348076, 35.175431508455404 ], [ 129.128466895720862, 35.175152530619762 ], [ 129.127839479365917, 35.175351096198973 ], [ 129.125665522511298, 35.174177444666427 ], [ 129.124094861539731, 35.173414996718144 ], [ 129.123281848358403, 35.174414823164653 ], [ 129.122424178158099, 35.175338406803888 ], [ 129.121057932032699, 35.174647138562634 ], [ 129.119258917037001, 35.176751106648815 ], [ 129.119261930981992, 35.178500453951443 ], [ 129.1184497281304, 35.181782254015971 ], [ 129.115516435100972, 35.187830487508059 ], [ 129.115291224028965, 35.18966379790281 ], [ 129.119286427023667, 35.191947394003321 ], [ 129.120362682798429, 35.191651794316762 ], [ 129.121242426245061, 35.187788700483324 ], [ 129.125569618578311, 35.187313356065637 ], [ 129.126490967047289, 35.188359456937789 ], [ 129.128709227984757, 35.188631727559475 ], [ 129.129406437683315, 35.187998721632383 ], [ 129.129447219596358, 35.187778831544236 ], [ 129.129048799375369, 35.187545345422635 ], [ 129.128827598112991, 35.187258535865155 ], [ 129.128957153336728, 35.186906233832318 ], [ 129.129337306464123, 35.186095835059326 ], [ 129.129409079248177, 35.185669404817688 ], [ 129.129473749442241, 35.185267072308157 ], [ 129.129594373563293, 35.185163889917156 ], [ 129.129906291597791, 35.185130821693051 ], [ 129.130572003997372, 35.185208285427308 ], [ 129.132867652058565, 35.186167816302017 ], [ 129.133261059372416, 35.18637326023498 ], [ 129.135246769498906, 35.187693756394935 ], [ 129.138097961209951, 35.188876069793857 ], [ 129.138337411033149, 35.188938855299583 ], [ 129.138612605590595, 35.188899789785921 ], [ 129.143714638728056, 35.188182915859208 ] ] ] ] } },
{ "type": "Feature", "properties": { "OBJECTID": 540, "adm_nm": "부산광역시 해운대구 재송2동", "adm_cd": "2109065", "adm_cd2": "2635066000", "sgg": "26350", "sido": "26", "sidonm": "부산광역시", "sggnm": "해운대구" }, "geometry": { "type": "MultiPolygon", "coordinates": [ [ [ [ 129.145773281435709, 35.192050301712129 ], [ 129.145126553521152, 35.191138865477477 ], [ 129.144609099627644, 35.189995414279352 ], [ 129.143976558283782, 35.188460911220943 ], [ 129.143714638728056, 35.188182915859208 ], [ 129.138612605590595, 35.188899789785921 ], [ 129.138337411033149, 35.188938855299583 ], [ 129.138097961209951, 35.188876069793857 ], [ 129.135246769498906, 35.187693756394935 ], [ 129.133261059372416, 35.18637326023498 ], [ 129.132867652058565, 35.186167816302017 ], [ 129.130572003997372, 35.185208285427308 ], [ 129.129906291597791, 35.185130821693051 ], [ 129.129594373563293, 35.185163889917156 ], [ 129.129473749442241, 35.185267072308157 ], [ 129.129409079248177, 35.185669404817688 ], [ 129.129337306464123, 35.186095835059326 ], [ 129.128957153336728, 35.186906233832318 ], [ 129.128827598112991, 35.187258535865155 ], [ 129.129048799375369, 35.187545345422635 ], [ 129.129447219596358, 35.187778831544236 ], [ 129.129406437683315, 35.187998721632383 ], [ 129.128709227984757, 35.188631727559475 ], [ 129.126490967047289, 35.188359456937789 ], [ 129.125569618578311, 35.187313356065637 ], [ 129.121242426245061, 35.187788700483324 ], [ 129.120362682798429, 35.191651794316762 ], [ 129.119286427023667, 35.191947394003321 ], [ 129.120439130437347, 35.192606212292759 ], [ 129.122406764662003, 35.193739063122507 ], [ 129.123497884442941, 35.194064328197186 ], [ 129.124178570545297, 35.194151855673489 ], [ 129.125573388106062, 35.194273192955706 ], [ 129.126475456587116, 35.194472186540224 ], [ 129.12752955074879, 35.194078433687608 ], [ 129.128598864250051, 35.193900928458767 ], [ 129.129500403600474, 35.193894907131167 ], [ 129.130539175847701, 35.193528085666294 ], [ 129.131423152340773, 35.19352400773387 ], [ 129.131944798209531, 35.193612421770169 ], [ 129.13216388524711, 35.193737916382894 ], [ 129.132536389645537, 35.193692409000882 ], [ 129.133338315508013, 35.194262864282592 ], [ 129.135547185665445, 35.194105259437059 ], [ 129.136253999697487, 35.193785257001899 ], [ 129.138223534033528, 35.19345287111296 ], [ 129.140736208325848, 35.192977436289766 ], [ 129.145773281435709, 35.192050301712129 ] ] ] ] } },
{ "type": "Feature", "properties": { "OBJECTID": 541, "adm_nm": "부산광역시 해운대구 좌1동", "adm_cd": "2109066", "adm_cd2": "2635055100", "sgg": "26350", "sido": "26", "sidonm": "부산광역시", "sggnm": "해운대구" }, "geometry": { "type": "MultiPolygon", "coordinates": [ [ [ [ 129.181835014465008, 35.172127671635529 ], [ 129.181152789901205, 35.171809814207343 ], [ 129.177813290953992, 35.170157343721606 ], [ 129.176074320105243, 35.169320253626026 ], [ 129.175091567404451, 35.168634137091267 ], [ 129.174628282783175, 35.168222365809939 ], [ 129.174064951994012, 35.168768135466536 ], [ 129.173923366076053, 35.1690895965382 ], [ 129.173989399902638, 35.169356185974877 ], [ 129.17423560198236, 35.169640171968865 ], [ 129.174361702524465, 35.169905147261829 ], [ 129.174280219942858, 35.170254450926471 ], [ 129.174164907656291, 35.170544213394969 ], [ 129.173274750025882, 35.17240695433668 ], [ 129.173153259034962, 35.172580907479954 ], [ 129.173105543634364, 35.172630270501642 ], [ 129.173028830934328, 35.172709610707038 ], [ 129.172884163064339, 35.172821673300234 ], [ 129.172729105090042, 35.172895728541562 ], [ 129.17265951389561, 35.172898064688077 ], [ 129.172131341825263, 35.172884218294001 ], [ 129.171206226843765, 35.173461585666921 ], [ 129.172691002992224, 35.174249034398706 ], [ 129.170923794293884, 35.17661167817451 ], [ 129.172644928287752, 35.177616925821454 ], [ 129.172837811026142, 35.177714712669996 ], [ 129.172937804431172, 35.177765405157729 ], [ 129.173037796842038, 35.177816096672821 ], [ 129.173241661624729, 35.177905480705952 ], [ 129.173294029043461, 35.177922214525566 ], [ 129.173470340633429, 35.17797853361791 ], [ 129.173684055975542, 35.178027148927477 ], [ 129.173871897481689, 35.178050933872839 ], [ 129.174106702961325, 35.17806344495412 ], [ 129.17414036559623, 35.178065236236151 ], [ 129.174422197948104, 35.178046470523078 ], [ 129.174735260636368, 35.177990965327233 ], [ 129.174881591964777, 35.177959777814166 ], [ 129.175195882146767, 35.177891186854907 ], [ 129.175311914248084, 35.177862661128977 ], [ 129.175502734417194, 35.177815748568484 ], [ 129.176787811458126, 35.177499774483977 ], [ 129.177564983523098, 35.177288245117644 ], [ 129.177850499225173, 35.177210532403116 ], [ 129.178087435337716, 35.1771220898679 ], [ 129.178301934665029, 35.177000626181375 ], [ 129.178543177182831, 35.176842425928513 ], [ 129.178666073267749, 35.17673616985735 ], [ 129.178721799186803, 35.176687984710341 ], [ 129.178869069468732, 35.17651523301425 ], [ 129.179548443920055, 35.175530622803954 ], [ 129.179792678059641, 35.175167526422833 ], [ 129.181347546288578, 35.172853250424708 ], [ 129.181835014465008, 35.172127671635529 ] ] ] ] } },
{ "type": "Feature", "properties": { "OBJECTID": 542, "adm_nm": "부산광역시 해운대구 좌2동", "adm_cd": "2109067", "adm_cd2": "2635055200", "sgg": "26350", "sido": "26", "sidonm": "부산광역시", "sggnm": "해운대구" }, "geometry": { "type": "MultiPolygon", "coordinates": [ [ [ [ 129.189687725082507, 35.165897714572964 ], [ 129.188857115201301, 35.166066338433055 ], [ 129.18820539801095, 35.166406775842731 ], [ 129.188002615022469, 35.167194263918859 ], [ 129.187913061237992, 35.167320436802903 ], [ 129.187848620467804, 35.167381900784889 ], [ 129.187406592541322, 35.167349171359263 ], [ 129.18668633070655, 35.167350000363591 ], [ 129.186673144047745, 35.167276839941216 ], [ 129.18710328237492, 35.166992750656057 ], [ 129.187149482662534, 35.166588846283545 ], [ 129.187488413235116, 35.164534631813936 ], [ 129.186123708239165, 35.164019856022385 ], [ 129.184331595456484, 35.164483798696082 ], [ 129.182011782471022, 35.164497636158238 ], [ 129.180824384314292, 35.164359536441836 ], [ 129.180703690691416, 35.164236917564445 ], [ 129.180112808081901, 35.163576814576729 ], [ 129.178971133178919, 35.162757880382443 ], [ 129.177967437008732, 35.162370148514064 ], [ 129.176280565283236, 35.162036552643521 ], [ 129.175868192974121, 35.162042448598392 ], [ 129.175940294423953, 35.162366715391258 ], [ 129.177157905419847, 35.163037090344986 ], [ 129.177725548722833, 35.163393782241513 ], [ 129.17811559107875, 35.163746286688195 ], [ 129.175736652606105, 35.164652838492273 ], [ 129.175531409906995, 35.164836101325953 ], [ 129.175587603932883, 35.165155866627316 ], [ 129.176980603715776, 35.166510343829273 ], [ 129.17599547094585, 35.16727111980066 ], [ 129.174628282783175, 35.168222365809939 ], [ 129.175091567404451, 35.168634137091267 ], [ 129.176074320105243, 35.169320253626026 ], [ 129.177813290953992, 35.170157343721606 ], [ 129.181152789901205, 35.171809814207343 ], [ 129.181835014465008, 35.172127671635529 ], [ 129.181948191420588, 35.172188658197427 ], [ 129.182443697531937, 35.172455688041772 ], [ 129.18284394088613, 35.172703890078481 ], [ 129.183038393402001, 35.172855295932237 ], [ 129.183133871881552, 35.172929640896655 ], [ 129.183365390558578, 35.173153903928323 ], [ 129.183513106279861, 35.173366596635546 ], [ 129.183557039975824, 35.173429874975305 ], [ 129.183681674060153, 35.173695450818244 ], [ 129.18377200248915, 35.174028940350595 ], [ 129.183807188168515, 35.174351208143314 ], [ 129.183800945422405, 35.174645235460844 ], [ 129.183753350555946, 35.174933697938606 ], [ 129.183575069739788, 35.175335443141826 ], [ 129.183374387177651, 35.175662123297968 ], [ 129.183102827045502, 35.176056486706486 ], [ 129.184672890021062, 35.176457390661234 ], [ 129.188558997751926, 35.177362144509154 ], [ 129.190905644734187, 35.177906760660704 ], [ 129.191836956997491, 35.176036893141706 ], [ 129.192008029454655, 35.174392130216667 ], [ 129.191835276570345, 35.173883877140668 ], [ 129.191633904829246, 35.173664979724492 ], [ 129.191883096505421, 35.173015390221416 ], [ 129.191662518772574, 35.172134987696758 ], [ 129.190985477264576, 35.170890181264049 ], [ 129.190966921050489, 35.170429333472178 ], [ 129.19061294653099, 35.169124858425718 ], [ 129.190667254100163, 35.168896437255107 ], [ 129.19081722967374, 35.168072800421328 ], [ 129.190867919278332, 35.167426470640201 ], [ 129.189687725082507, 35.165897714572964 ] ] ] ] } },
{ "type": "Feature", "properties": { "OBJECTID": 543, "adm_nm": "부산광역시 해운대구 좌3동", "adm_cd": "2109068", "adm_cd2": "2635055300", "sgg": "26350", "sido": "26", "sidonm": "부산광역시", "sggnm": "해운대구" }, "geometry": { "type": "MultiPolygon", "coordinates": [ [ [ [ 129.170923794293884, 35.17661167817451 ], [ 129.172691002992224, 35.174249034398706 ], [ 129.171206226843765, 35.173461585666921 ], [ 129.171713151660555, 35.172590816926402 ], [ 129.17169007766077, 35.171955841157597 ], [ 129.171226934932776, 35.1708690312851 ], [ 129.171189059986176, 35.170787300222564 ], [ 129.170774021505309, 35.170755081735351 ], [ 129.17068681505495, 35.170748313877496 ], [ 129.170405244009032, 35.170727363700571 ], [ 129.169640565659506, 35.170670413875861 ], [ 129.166952485863817, 35.167745150251349 ], [ 129.166395845929003, 35.167084294423333 ], [ 129.162827851555477, 35.166680512492 ], [ 129.164296719639765, 35.172232389565487 ], [ 129.164314787090063, 35.172370212476238 ], [ 129.16428544708063, 35.172820878467519 ], [ 129.164242916502843, 35.172965643327167 ], [ 129.163610403301561, 35.173736679315034 ], [ 129.163797016973405, 35.173957467183868 ], [ 129.164436276991722, 35.17429201590565 ], [ 129.164575665209071, 35.174509911947609 ], [ 129.165013411027701, 35.175603169934028 ], [ 129.165695721791053, 35.177435343673963 ], [ 129.166013775328025, 35.177990700561445 ], [ 129.166365834766481, 35.17865830872347 ], [ 129.166305759368157, 35.17907288508097 ], [ 129.16686677637901, 35.179506890567659 ], [ 129.168054223404226, 35.180105649148089 ], [ 129.168264002269439, 35.180064747349611 ], [ 129.170923794293884, 35.17661167817451 ] ] ] ] } },
{ "type": "Feature", "properties": { "OBJECTID": 544, "adm_nm": "부산광역시 해운대구 좌4동", "adm_cd": "2109069", "adm_cd2": "2635055400", "sgg": "26350", "sido": "26", "sidonm": "부산광역시", "sggnm": "해운대구" }, "geometry": { "type": "MultiPolygon", "coordinates": [ [ [ [ 129.189044664041774, 35.189957613882044 ], [ 129.188583359957534, 35.188079612913796 ], [ 129.188650360407138, 35.187451628929281 ], [ 129.189401901462531, 35.186940933859056 ], [ 129.189588964635789, 35.186474604059541 ], [ 129.189307821130939, 35.186071819827177 ], [ 129.187913782212405, 35.184680021008404 ], [ 129.187838279999568, 35.184293405853815 ], [ 129.188746686637302, 35.183757060898827 ], [ 129.190166711701238, 35.183263444481241 ], [ 129.19060330978283, 35.182796986238593 ], [ 129.190153164419797, 35.18160387506817 ], [ 129.189553179292403, 35.180630965732632 ], [ 129.189466602916326, 35.179541767702887 ], [ 129.190117560337768, 35.178273135841188 ], [ 129.190722515993286, 35.178104879495422 ], [ 129.190905644734187, 35.177906760660704 ], [ 129.188558997751926, 35.177362144509154 ], [ 129.184672890021062, 35.176457390661234 ], [ 129.183102827045502, 35.176056486706486 ], [ 129.183374387177651, 35.175662123297968 ], [ 129.183575069739788, 35.175335443141826 ], [ 129.183753350555946, 35.174933697938606 ], [ 129.183800945422405, 35.174645235460844 ], [ 129.183807188168515, 35.174351208143314 ], [ 129.18377200248915, 35.174028940350595 ], [ 129.183681674060153, 35.173695450818244 ], [ 129.183557039975824, 35.173429874975305 ], [ 129.183513106279861, 35.173366596635546 ], [ 129.183365390558578, 35.173153903928323 ], [ 129.183133871881552, 35.172929640896655 ], [ 129.183038393402001, 35.172855295932237 ], [ 129.18284394088613, 35.172703890078481 ], [ 129.182443697531937, 35.172455688041772 ], [ 129.181948191420588, 35.172188658197427 ], [ 129.181835014465008, 35.172127671635529 ], [ 129.181347546288578, 35.172853250424708 ], [ 129.179792678059641, 35.175167526422833 ], [ 129.179548443920055, 35.175530622803954 ], [ 129.178869069468732, 35.17651523301425 ], [ 129.178721799186803, 35.176687984710341 ], [ 129.178666073267749, 35.17673616985735 ], [ 129.178543177182831, 35.176842425928513 ], [ 129.178301934665029, 35.177000626181375 ], [ 129.178087435337716, 35.1771220898679 ], [ 129.177850499225173, 35.177210532403116 ], [ 129.177564983523098, 35.177288245117644 ], [ 129.176787811458126, 35.177499774483977 ], [ 129.175502734417194, 35.177815748568484 ], [ 129.175311914248084, 35.177862661128977 ], [ 129.175195882146767, 35.177891186854907 ], [ 129.174881591964777, 35.177959777814166 ], [ 129.174735260636368, 35.177990965327233 ], [ 129.174422197948104, 35.178046470523078 ], [ 129.17414036559623, 35.178065236236151 ], [ 129.174106702961325, 35.17806344495412 ], [ 129.173871897481689, 35.178050933872839 ], [ 129.173684055975542, 35.178027148927477 ], [ 129.173470340633429, 35.17797853361791 ], [ 129.173294029043461, 35.177922214525566 ], [ 129.173241661624729, 35.177905480705952 ], [ 129.173037796842038, 35.177816096672821 ], [ 129.172937804431172, 35.177765405157729 ], [ 129.172837811026142, 35.177714712669996 ], [ 129.172644928287752, 35.177616925821454 ], [ 129.170923794293884, 35.17661167817451 ], [ 129.168264002269439, 35.180064747349611 ], [ 129.168054223404226, 35.180105649148089 ], [ 129.16686677637901, 35.179506890567659 ], [ 129.166305759368157, 35.17907288508097 ], [ 129.166053979516278, 35.179505528928146 ], [ 129.164033922783972, 35.180554569828622 ], [ 129.162231363230603, 35.181591800680998 ], [ 129.161856476049593, 35.183466242118357 ], [ 129.161146154394686, 35.183725746098368 ], [ 129.161036648060787, 35.184235069801993 ], [ 129.161424800895958, 35.184587191763022 ], [ 129.161925774507381, 35.185036717743294 ], [ 129.162660775793171, 35.186003244377318 ], [ 129.163296891994889, 35.186278395138835 ], [ 129.163008833563623, 35.186857636959935 ], [ 129.163278794854619, 35.18759670983593 ], [ 129.161913312510592, 35.187754650684276 ], [ 129.161732308347467, 35.188760884269975 ], [ 129.161753199843218, 35.189867829068412 ], [ 129.160619363925179, 35.191520941672088 ], [ 129.160305883809968, 35.192840017636996 ], [ 129.160848268073238, 35.194315080635697 ], [ 129.161257455019751, 35.194852932390752 ], [ 129.160985846537272, 35.195276749798616 ], [ 129.160243745659841, 35.195550710569258 ], [ 129.159861710090809, 35.196596144938788 ], [ 129.158299304999559, 35.197464885596986 ], [ 129.157165224324814, 35.19772465087884 ], [ 129.156266910852366, 35.198227194616052 ], [ 129.155620670760641, 35.198222256943488 ], [ 129.154535545905674, 35.199018750084335 ], [ 129.153025851846422, 35.199238763072074 ], [ 129.152962185892022, 35.200931515240171 ], [ 129.1542102563306, 35.20177018898778 ], [ 129.154565317071246, 35.203349619497608 ], [ 129.154880109998203, 35.204063820691601 ], [ 129.156182360295844, 35.204271498900326 ], [ 129.159078321777713, 35.204738801815573 ], [ 129.160260272831835, 35.206293114853807 ], [ 129.162981854327114, 35.205972207378302 ], [ 129.16425470000857, 35.204847806290609 ], [ 129.165040022152482, 35.203111323721672 ], [ 129.16936951017513, 35.200984167907514 ], [ 129.170084843267745, 35.200963393253197 ], [ 129.171395589728348, 35.201872699379116 ], [ 129.17247209723871, 35.20202302077535 ], [ 129.174741973853202, 35.200952660917757 ], [ 129.179633866403691, 35.197900141902338 ], [ 129.182620128267928, 35.197983857384159 ], [ 129.184322921551427, 35.196577240631321 ], [ 129.185643041156624, 35.195486684932348 ], [ 129.183322560000903, 35.19072035829852 ], [ 129.183779132820803, 35.189719930277654 ], [ 129.186378292214215, 35.18947311095873 ], [ 129.188188876685302, 35.189335566897512 ], [ 129.189044664041774, 35.189957613882044 ] ] ] ] } },
{ "type": "Feature", "properties": { "OBJECTID": 545, "adm_nm": "부산광역시 해운대구 반여1동", "adm_cd": "2109070", "adm_cd2": "2635057000", "sgg": "26350", "sido": "26", "sidonm": "부산광역시", "sggnm": "해운대구" }, "geometry": { "type": "MultiPolygon", "coordinates": [ [ [ [ 129.156182360295844, 35.204271498900326 ], [ 129.154880109998203, 35.204063820691601 ], [ 129.154565317071246, 35.203349619497608 ], [ 129.1542102563306, 35.20177018898778 ], [ 129.152962185892022, 35.200931515240171 ], [ 129.150030864710487, 35.201741542328726 ], [ 129.148636319347901, 35.202298008254296 ], [ 129.147804791618, 35.202782217895027 ], [ 129.146650418872497, 35.203926600890696 ], [ 129.146042074914959, 35.204731366834707 ], [ 129.145572757138325, 35.205075166774101 ], [ 129.145255191589143, 35.205171250489066 ], [ 129.144542591709325, 35.205217752492516 ], [ 129.143893143131208, 35.205411227034851 ], [ 129.142503851107278, 35.205936503157339 ], [ 129.140986679673716, 35.206336454320464 ], [ 129.139832691830776, 35.206529045329894 ], [ 129.138516885282087, 35.206905862824172 ], [ 129.137727847221555, 35.20714436383976 ], [ 129.137053763628387, 35.207485963439062 ], [ 129.13663913733788, 35.207477651300209 ], [ 129.136439259880831, 35.206510486321761 ], [ 129.136161608323846, 35.20573260402189 ], [ 129.135542112525968, 35.205168453743077 ], [ 129.134390678814412, 35.204403900224989 ], [ 129.133849246966889, 35.20414908260468 ], [ 129.133017276720068, 35.204214893558252 ], [ 129.131893849649373, 35.20452890406164 ], [ 129.131528021133079, 35.204559735978165 ], [ 129.131295729669972, 35.204195713740937 ], [ 129.131016179252214, 35.20296754487326 ], [ 129.130670424137747, 35.202057425634017 ], [ 129.130314891391862, 35.201537079101477 ], [ 129.129050244325839, 35.200324925880935 ], [ 129.12831038269465, 35.199389206805094 ], [ 129.128129806857714, 35.198963222688029 ], [ 129.127960655409822, 35.198532468475499 ], [ 129.12791708523261, 35.19786285452868 ], [ 129.127783831109099, 35.196983897660701 ], [ 129.127661894447243, 35.196720382570547 ], [ 129.127312420788542, 35.196463704537834 ], [ 129.126832038358572, 35.196134719723624 ], [ 129.126366552475162, 35.195881883241093 ], [ 129.124628360129492, 35.195134041031935 ], [ 129.123300518570687, 35.194531431900636 ], [ 129.122406764662003, 35.193739063122507 ], [ 129.120439130437347, 35.192606212292759 ], [ 129.119286427023667, 35.191947394003321 ], [ 129.115291224028965, 35.18966379790281 ], [ 129.11419861514014, 35.193087787710915 ], [ 129.114208284744052, 35.193478647747462 ], [ 129.114209201450251, 35.193515654081317 ], [ 129.114233552963469, 35.194151112861832 ], [ 129.114235042101768, 35.194189182653027 ], [ 129.114253133155842, 35.194392982101569 ], [ 129.114335777425794, 35.195322387370126 ], [ 129.114364210757657, 35.195560859395648 ], [ 129.114549964831497, 35.196641035111398 ], [ 129.11517103162592, 35.198785232375499 ], [ 129.115208168916354, 35.198913409596756 ], [ 129.115571026075571, 35.199753642909528 ], [ 129.115803831958374, 35.200267426425327 ], [ 129.11583477346602, 35.200335705819306 ], [ 129.115873364839729, 35.200420865503148 ], [ 129.116378112260293, 35.2010936506585 ], [ 129.118290975437219, 35.203610470439699 ], [ 129.119105194654736, 35.204545432551377 ], [ 129.119376912832109, 35.204967242114073 ], [ 129.119871184276093, 35.205813841423279 ], [ 129.120163610778462, 35.206314716479085 ], [ 129.120240787778187, 35.206525223036394 ], [ 129.120984968414461, 35.208555022013059 ], [ 129.121166961901167, 35.209321248834549 ], [ 129.121173547298014, 35.209535164972571 ], [ 129.121190291243778, 35.210079158122575 ], [ 129.12029386622666, 35.213324557316 ], [ 129.119765185862491, 35.214812570453091 ], [ 129.120374487058911, 35.215003217687972 ], [ 129.121162059580001, 35.215357929415532 ], [ 129.121956910554047, 35.216106705380952 ], [ 129.12214058845646, 35.216277845019377 ], [ 129.122213823015841, 35.216340252492415 ], [ 129.122335872299658, 35.216430623000115 ], [ 129.122463816545348, 35.216520359882281 ], [ 129.122546753083952, 35.216577777524144 ], [ 129.122695382991822, 35.216677185895399 ], [ 129.122749814989703, 35.216713582699306 ], [ 129.122926485044246, 35.216829679226578 ], [ 129.123095320584866, 35.216911808573371 ], [ 129.125078566587376, 35.217561571232238 ], [ 129.125249545753121, 35.21761140265604 ], [ 129.128715309090268, 35.218604957340524 ], [ 129.130032763037036, 35.218698912201134 ], [ 129.129983737387164, 35.218480174523386 ], [ 129.133605880687298, 35.218107509006039 ], [ 129.134450820820746, 35.218099289904096 ], [ 129.134760446993965, 35.218100495304483 ], [ 129.135248666875583, 35.218104354961575 ], [ 129.135552375952813, 35.218110607828123 ], [ 129.13567484994357, 35.218116603634748 ], [ 129.135831160939006, 35.218131297622435 ], [ 129.136441682133608, 35.218232738078164 ], [ 129.136997467095085, 35.218376689901937 ], [ 129.137748387919828, 35.218428222403858 ], [ 129.141029548250998, 35.218540287763602 ], [ 129.141294680414632, 35.218410756360072 ], [ 129.141848523879958, 35.218037720676669 ], [ 129.141992149337909, 35.217940977670345 ], [ 129.142335892282858, 35.217111107830902 ], [ 129.142409554800281, 35.216933003293676 ], [ 129.143487693804929, 35.214215321385112 ], [ 129.143630422293853, 35.213653095728816 ], [ 129.143511344121492, 35.212770368444644 ], [ 129.144227617700579, 35.211065278296033 ], [ 129.144695971271659, 35.210058096807153 ], [ 129.145716522655363, 35.208639499791673 ], [ 129.150705214840968, 35.206032062725797 ], [ 129.156182360295844, 35.204271498900326 ] ] ] ] } },
{ "type": "Feature", "properties": { "OBJECTID": 546, "adm_nm": "부산광역시 해운대구 반여4동", "adm_cd": "2109071", "adm_cd2": "2635059500", "sgg": "26350", "sido": "26", "sidonm": "부산광역시", "sggnm": "해운대구" }, "geometry": { "type": "MultiPolygon", "coordinates": [ [ [ [ 129.116378112260293, 35.2010936506585 ], [ 129.11505869894745, 35.201767396100628 ], [ 129.11377643849471, 35.20176638745594 ], [ 129.112109720101898, 35.203213472021858 ], [ 129.11138457166993, 35.203867309514912 ], [ 129.110228324865375, 35.206855611659662 ], [ 129.110162515025422, 35.207058554755399 ], [ 129.110121873067385, 35.207389308258172 ], [ 129.109874518684677, 35.209673543069371 ], [ 129.109918214409248, 35.209933610547978 ], [ 129.110040413440146, 35.210114243992706 ], [ 129.110324009732579, 35.210977461790804 ], [ 129.111041599419224, 35.211587374769145 ], [ 129.111161669472949, 35.211689424583234 ], [ 129.111936592910496, 35.212205877994364 ], [ 129.113449506903095, 35.21294038318517 ], [ 129.116538080088986, 35.213920841323549 ], [ 129.118353878663697, 35.213591059726681 ], [ 129.118910049393349, 35.213636585387547 ], [ 129.119082877230426, 35.214590526895776 ], [ 129.119765185862491, 35.214812570453091 ], [ 129.12029386622666, 35.213324557316 ], [ 129.121190291243778, 35.210079158122575 ], [ 129.121173547298014, 35.209535164972571 ], [ 129.121166961901167, 35.209321248834549 ], [ 129.120984968414461, 35.208555022013059 ], [ 129.120240787778187, 35.206525223036394 ], [ 129.120163610778462, 35.206314716479085 ], [ 129.119871184276093, 35.205813841423279 ], [ 129.119376912832109, 35.204967242114073 ], [ 129.119105194654736, 35.204545432551377 ], [ 129.118290975437219, 35.203610470439699 ], [ 129.116378112260293, 35.2010936506585 ] ] ] ] } },
{ "type": "Feature", "properties": { "OBJECTID": 547, "adm_nm": "부산광역시 해운대구 반송1동", "adm_cd": "2109072", "adm_cd2": "2635061000", "sgg": "26350", "sido": "26", "sidonm": "부산광역시", "sggnm": "해운대구" }, "geometry": { "type": "MultiPolygon", "coordinates": [ [ [ [ 129.16640185179898, 35.220836831679357 ], [ 129.166103255764767, 35.219108248533921 ], [ 129.166204749794161, 35.218744653978682 ], [ 129.166229967778776, 35.218569865860147 ], [ 129.166214414384314, 35.218469209087289 ], [ 129.166126998870794, 35.218213543395429 ], [ 129.165398693751399, 35.216138604521369 ], [ 129.164740238695117, 35.214936315012125 ], [ 129.162031393136772, 35.212562648964251 ], [ 129.160454812954129, 35.21183722750348 ], [ 129.159759259163053, 35.209692566062863 ], [ 129.160091351148196, 35.208170618157453 ], [ 129.160260272831835, 35.206293114853807 ], [ 129.159078321777713, 35.204738801815573 ], [ 129.156182360295844, 35.204271498900326 ], [ 129.150705214840968, 35.206032062725797 ], [ 129.145716522655363, 35.208639499791673 ], [ 129.144695971271659, 35.210058096807153 ], [ 129.144227617700579, 35.211065278296033 ], [ 129.143511344121492, 35.212770368444644 ], [ 129.143630422293853, 35.213653095728816 ], [ 129.143487693804929, 35.214215321385112 ], [ 129.142409554800281, 35.216933003293676 ], [ 129.142335892282858, 35.217111107830902 ], [ 129.141992149337909, 35.217940977670345 ], [ 129.141848523879958, 35.218037720676669 ], [ 129.141294680414632, 35.218410756360072 ], [ 129.141029548250998, 35.218540287763602 ], [ 129.137748387919828, 35.218428222403858 ], [ 129.136997467095085, 35.218376689901937 ], [ 129.136441682133608, 35.218232738078164 ], [ 129.135831160939006, 35.218131297622435 ], [ 129.13567484994357, 35.218116603634748 ], [ 129.135552375952813, 35.218110607828123 ], [ 129.135248666875583, 35.218104354961575 ], [ 129.134760446993965, 35.218100495304483 ], [ 129.134450820820746, 35.218099289904096 ], [ 129.133605880687298, 35.218107509006039 ], [ 129.129983737387164, 35.218480174523386 ], [ 129.130032763037036, 35.218698912201134 ], [ 129.128715309090268, 35.218604957340524 ], [ 129.125249545753121, 35.21761140265604 ], [ 129.125078566587376, 35.217561571232238 ], [ 129.123095320584866, 35.216911808573371 ], [ 129.122926485044246, 35.216829679226578 ], [ 129.122749814989703, 35.216713582699306 ], [ 129.122695382991822, 35.216677185895399 ], [ 129.122546753083952, 35.216577777524144 ], [ 129.122463816545348, 35.216520359882281 ], [ 129.122335872299658, 35.216430623000115 ], [ 129.122213823015841, 35.216340252492415 ], [ 129.12214058845646, 35.216277845019377 ], [ 129.121956910554047, 35.216106705380952 ], [ 129.121162059580001, 35.215357929415532 ], [ 129.120374487058911, 35.215003217687972 ], [ 129.119765185862491, 35.214812570453091 ], [ 129.119082877230426, 35.214590526895776 ], [ 129.118076492776055, 35.217661848592279 ], [ 129.117453739277636, 35.219181057303466 ], [ 129.117419828377592, 35.219263791395413 ], [ 129.11733153574761, 35.220127871441264 ], [ 129.117296096533693, 35.220474732293553 ], [ 129.117347277804953, 35.222446015674336 ], [ 129.117386433434831, 35.22252318961889 ], [ 129.118083247406105, 35.223896403670061 ], [ 129.118961142246945, 35.224835321579278 ], [ 129.119483301749995, 35.225107732541957 ], [ 129.120848947024598, 35.225820164852792 ], [ 129.12367577362005, 35.227106637251119 ], [ 129.125844070530491, 35.22694133230776 ], [ 129.127182459393111, 35.227681267802915 ], [ 129.129661507164968, 35.230500538814468 ], [ 129.130561865226326, 35.23126390063014 ], [ 129.130128742649902, 35.232280612622326 ], [ 129.130227870494963, 35.23327010358183 ], [ 129.130601457187623, 35.233841598525139 ], [ 129.130990764405396, 35.235240029562227 ], [ 129.132223610523397, 35.235546902871306 ], [ 129.133508679043302, 35.236424367065069 ], [ 129.134456723045503, 35.236829424078394 ], [ 129.135852791815722, 35.236540562352793 ], [ 129.13608639483158, 35.237172484172639 ], [ 129.13626965379126, 35.236912088054545 ], [ 129.138192980859571, 35.235554407489417 ], [ 129.138672115087047, 35.234964041181293 ], [ 129.13933232105407, 35.234534995743751 ], [ 129.141378851965328, 35.233750568451072 ], [ 129.141569811838934, 35.233549301366402 ], [ 129.141577711600434, 35.233212089921793 ], [ 129.140862225280046, 35.232200831856709 ], [ 129.139806587781123, 35.23075592278623 ], [ 129.139930421754627, 35.230102648334338 ], [ 129.141739088769583, 35.229802115602887 ], [ 129.14252866240173, 35.229126120156259 ], [ 129.144833636769278, 35.229014079477523 ], [ 129.146862265745881, 35.229431357023458 ], [ 129.1480161376453, 35.229725850806759 ], [ 129.148497890571093, 35.229848721602366 ], [ 129.148750611112519, 35.229913177047315 ], [ 129.149108184563261, 35.23003623512119 ], [ 129.149298181514951, 35.230101474712015 ], [ 129.149351724645527, 35.230119854945954 ], [ 129.149911078828723, 35.230094028034799 ], [ 129.151276880154569, 35.229866402261052 ], [ 129.151979963097432, 35.228333783088161 ], [ 129.152485886477308, 35.227359118642447 ], [ 129.153330617306409, 35.227026012459739 ], [ 129.157567593222637, 35.225869077035632 ], [ 129.158800044751871, 35.225529027193062 ], [ 129.162866567900977, 35.223802373915163 ], [ 129.163846071643434, 35.222703372032747 ], [ 129.164158866595812, 35.222405595434104 ], [ 129.164527158795721, 35.22205500371745 ], [ 129.16640185179898, 35.220836831679357 ] ] ] ] } },
{ "type": "Feature", "properties": { "OBJECTID": 3437, "adm_nm": "부산광역시 해운대구 우3동", "adm_cd": "2109075", "adm_cd2": "2635052500", "sgg": "26350", "sido": "26", "sidonm": "부산광역시", "sggnm": "해운대구" }, "geometry": { "type": "MultiPolygon", "coordinates": [ [ [ [ 129.152787155003608, 35.15735199105734 ], [ 129.148825717900706, 35.156623982135862 ], [ 129.148388177806282, 35.156421397749959 ], [ 129.147666539957385, 35.155763716459369 ], [ 129.147450118811065, 35.154229391216163 ], [ 129.147412246884414, 35.154006568704283 ], [ 129.147259957616939, 35.153693747966429 ], [ 129.147094088347927, 35.153473195134957 ], [ 129.146754983854208, 35.153360885981357 ], [ 129.146370989715791, 35.153367692520192 ], [ 129.142301571279262, 35.15445204234328 ], [ 129.141405070872906, 35.155059500294925 ], [ 129.141026420192333, 35.155881291328384 ], [ 129.140910472280609, 35.156343475433246 ], [ 129.140449399229141, 35.157074695296458 ], [ 129.135866797141858, 35.161121142774107 ], [ 129.135739737083497, 35.161233329483963 ], [ 129.135079229004901, 35.161694356593756 ], [ 129.134081618959868, 35.162168352300576 ], [ 129.135549133450979, 35.162803355719106 ], [ 129.136928954724794, 35.163188184987945 ], [ 129.137883617688516, 35.163199367453331 ], [ 129.138524073545426, 35.163058266791417 ], [ 129.139168370469406, 35.162797939810424 ], [ 129.139685055555873, 35.162538128983343 ], [ 129.14048067058016, 35.16199466717088 ], [ 129.142787449733476, 35.16371058852333 ], [ 129.143188287030398, 35.163707621346148 ], [ 129.144642684122857, 35.162856874484824 ], [ 129.146165939598006, 35.161982524754599 ], [ 129.14760589095485, 35.161210010941758 ], [ 129.148455078276328, 35.160688755770899 ], [ 129.148878322290983, 35.160448733604539 ], [ 129.150154349097136, 35.15966357675439 ], [ 129.151320768178891, 35.158972380212283 ], [ 129.152156421898525, 35.158087824768359 ], [ 129.152787155003608, 35.15735199105734 ] ] ] ] } }
]
}
