{
"type": "FeatureCollection",
"name": "junggu",
"crs": { "type": "name", "properties": { "name": "urn:ogc:def:crs:OGC:1.3:CRS84" } },
"features": [
{ "type": "Feature", "properties": { "OBJECTID": 425, "adm_nm": "부산광역시 중구 중앙동", "adm_cd": "2101051", "adm_cd2": "2611051000", "sgg": "26110", "sido": "26", "sidonm": "부산광역시", "sggnm": "중구" }, "geometry": { "type": "MultiPolygon", "coordinates": [ [ [ [ 129.040016075943669, 35.111424681629003 ], [ 129.042729811150906, 35.110722158835344 ], [ 129.042347191581996, 35.110343447658529 ], [ 129.042315222001491, 35.110297967631631 ], [ 129.041990699125989, 35.109828710441882 ], [ 129.041430470921398, 35.109010295030885 ], [ 129.040880109137447, 35.10811134155702 ], [ 129.044552563658414, 35.105805842610877 ], [ 129.043737748862753, 35.104924394413509 ], [ 129.04036624750276, 35.107030566588172 ], [ 129.0398182034819, 35.105841812889452 ], [ 129.039933928187907, 35.105768889493959 ], [ 129.043675860472774, 35.103410637547064 ], [ 129.04224004979767, 35.101914131062841 ], [ 129.039997430566103, 35.102872621323037 ], [ 129.038869098590482, 35.10355492774449 ], [ 129.039673608935317, 35.104392862686176 ], [ 129.038225756082227, 35.104347901569604 ], [ 129.037980196949007, 35.103892512566816 ], [ 129.038096011491746, 35.098007183934655 ], [ 129.038244969461061, 35.097493847031004 ], [ 129.038928928901299, 35.096227465573385 ], [ 129.03950425242661, 35.095225179067526 ], [ 129.039301915210388, 35.095100430956172 ], [ 129.03870067315296, 35.096163210553769 ], [ 129.0382160754761, 35.097008685735823 ], [ 129.03631505397712, 35.096422892700062 ], [ 129.036615099001637, 35.095576010929285 ], [ 129.036924754677983, 35.094723530103948 ], [ 129.036772541686673, 35.094688827043981 ], [ 129.035435174975646, 35.098276648062544 ], [ 129.035555693768657, 35.098592768964011 ], [ 129.036048352906903, 35.099027351921166 ], [ 129.036421961916346, 35.099416876806949 ], [ 129.036396604618744, 35.099861606004076 ], [ 129.036278420966426, 35.10023978390636 ], [ 129.036245060024896, 35.100237037528608 ], [ 129.035807983329249, 35.100196354644751 ], [ 129.035756593445342, 35.100172104846095 ], [ 129.035650947958771, 35.100125814387958 ], [ 129.03547598651005, 35.100351428463142 ], [ 129.035426414274923, 35.100425209229016 ], [ 129.035071072792107, 35.100954082183328 ], [ 129.034993738942376, 35.101129253332836 ], [ 129.034928048887991, 35.101293811901165 ], [ 129.034747836511713, 35.101908988834765 ], [ 129.034683570361437, 35.102342509974918 ], [ 129.034637971868676, 35.102700175077523 ], [ 129.034554137163667, 35.104124395898474 ], [ 129.034688695910404, 35.104968733758994 ], [ 129.034976233057222, 35.106639328702144 ], [ 129.035315383208768, 35.10738088557985 ], [ 129.036362340322739, 35.109067111970788 ], [ 129.038203110180007, 35.112004408792259 ], [ 129.040016075943669, 35.111424681629003 ] ] ] ] } },
{ "type": "Feature", "properties": { "OBJECTID": 426, "adm_nm": "부산광역시 중구 동광동", "adm_cd": "2101052", "adm_cd2": "2611052000", "sgg": "26110", "sido": "26", "sidonm": "부산광역시", "sggnm": "중구" }, "geometry": { "type": "MultiPolygon", "coordinates": [ [ [ [ 129.035555693768657, 35.098592768964011 ], [ 129.035537899208492, 35.098744312166808 ], [ 129.035408318814234, 35.099323255583876 ], [ 129.035352809273974, 35.099511847023656 ], [ 129.034939636334173, 35.09973741185005 ], [ 129.034214760245987, 35.099300915750632 ], [ 129.03399785565739, 35.099194592928711 ], [ 129.033608307388164, 35.099276577100113 ], [ 129.0335004429256, 35.099438991626613 ], [ 129.033188818973429, 35.100661369724072 ], [ 129.033273350708896, 35.101469017415354 ], [ 129.033318292458944, 35.101679212222692 ], [ 129.033475144488818, 35.101810249195395 ], [ 129.033573165316824, 35.10187230722461 ], [ 129.033719792651198, 35.101949090296877 ], [ 129.034442459744554, 35.104235326584643 ], [ 129.034449297249523, 35.104261967595768 ], [ 129.034518697882106, 35.104568148594218 ], [ 129.034533594399221, 35.105452786365234 ], [ 129.034457300422304, 35.105661164974322 ], [ 129.034361294113467, 35.105735656657735 ], [ 129.034167832971434, 35.105881491652703 ], [ 129.033830883543402, 35.106022016741711 ], [ 129.033523240240328, 35.106134377745263 ], [ 129.033193847758241, 35.106339435262022 ], [ 129.033156682322272, 35.106362790250728 ], [ 129.032814895232747, 35.106593081141703 ], [ 129.032179906136605, 35.108540699472691 ], [ 129.032609744596243, 35.108799613875092 ], [ 129.034372143847662, 35.108824324876679 ], [ 129.036362340322739, 35.109067111970788 ], [ 129.035315383208768, 35.10738088557985 ], [ 129.034976233057222, 35.106639328702144 ], [ 129.034688695910404, 35.104968733758994 ], [ 129.034554137163667, 35.104124395898474 ], [ 129.034637971868676, 35.102700175077523 ], [ 129.034683570361437, 35.102342509974918 ], [ 129.034747836511713, 35.101908988834765 ], [ 129.034928048887991, 35.101293811901165 ], [ 129.034993738942376, 35.101129253332836 ], [ 129.035071072792107, 35.100954082183328 ], [ 129.035426414274923, 35.100425209229016 ], [ 129.03547598651005, 35.100351428463142 ], [ 129.035650947958771, 35.100125814387958 ], [ 129.035756593445342, 35.100172104846095 ], [ 129.035807983329249, 35.100196354644751 ], [ 129.036245060024896, 35.100237037528608 ], [ 129.036278420966426, 35.10023978390636 ], [ 129.036396604618744, 35.099861606004076 ], [ 129.036421961916346, 35.099416876806949 ], [ 129.036048352906903, 35.099027351921166 ], [ 129.035555693768657, 35.098592768964011 ] ] ] ] } },
{ "type": "Feature", "properties": { "OBJECTID": 427, "adm_nm": "부산광역시 중구 대청동", "adm_cd": "2101053", "adm_cd2": "2611053000", "sgg": "26110", "sido": "26", "sidonm": "부산광역시", "sggnm": "중구" }, "geometry": { "type": "MultiPolygon", "coordinates": [ [ [ [ 129.032609744596243, 35.108799613875092 ], [ 129.032179906136605, 35.108540699472691 ], [ 129.032814895232747, 35.106593081141703 ], [ 129.033156682322272, 35.106362790250728 ], [ 129.033193847758241, 35.106339435262022 ], [ 129.033523240240328, 35.106134377745263 ], [ 129.033830883543402, 35.106022016741711 ], [ 129.034167832971434, 35.105881491652703 ], [ 129.034361294113467, 35.105735656657735 ], [ 129.034457300422304, 35.105661164974322 ], [ 129.034533594399221, 35.105452786365234 ], [ 129.034518697882106, 35.104568148594218 ], [ 129.034449297249523, 35.104261967595768 ], [ 129.034442459744554, 35.104235326584643 ], [ 129.033719792651198, 35.101949090296877 ], [ 129.032157576799648, 35.101955156968579 ], [ 129.030456371598774, 35.102499337075457 ], [ 129.029526329028215, 35.102696236601439 ], [ 129.029415968721423, 35.102701412341702 ], [ 129.028723908315925, 35.102705100739207 ], [ 129.027900968001973, 35.102641893919518 ], [ 129.027886990954954, 35.103018873060066 ], [ 129.028284483675748, 35.104059945792393 ], [ 129.028166195351645, 35.106689562693568 ], [ 129.028180128758606, 35.108224225109339 ], [ 129.03271066377485, 35.109254704180337 ], [ 129.032609744596243, 35.108799613875092 ] ] ] ] } },
{ "type": "Feature", "properties": { "OBJECTID": 428, "adm_nm": "부산광역시 중구 보수동", "adm_cd": "2101054", "adm_cd2": "2611054500", "sgg": "26110", "sido": "26", "sidonm": "부산광역시", "sggnm": "중구" }, "geometry": { "type": "MultiPolygon", "coordinates": [ [ [ [ 129.02704782701889, 35.11049540178221 ], [ 129.028180128758606, 35.108224225109339 ], [ 129.028166195351645, 35.106689562693568 ], [ 129.028284483675748, 35.104059945792393 ], [ 129.027886990954954, 35.103018873060066 ], [ 129.021226983329512, 35.10330608027158 ], [ 129.022345487234702, 35.107520394618824 ], [ 129.022933304373623, 35.10897200871046 ], [ 129.025785414028945, 35.11069965618853 ], [ 129.026441345775822, 35.111093305925095 ], [ 129.02704782701889, 35.11049540178221 ] ] ] ] } },
{ "type": "Feature", "properties": { "OBJECTID": 429, "adm_nm": "부산광역시 중구 부평동", "adm_cd": "2101056", "adm_cd2": "2611056000", "sgg": "26110", "sido": "26", "sidonm": "부산광역시", "sggnm": "중구" }, "geometry": { "type": "MultiPolygon", "coordinates": [ [ [ [ 129.027886990954954, 35.103018873060066 ], [ 129.027900968001973, 35.102641893919518 ], [ 129.027825180087376, 35.099035985667832 ], [ 129.025139347757317, 35.098067127030951 ], [ 129.024793179478223, 35.098946148376932 ], [ 129.024743036580844, 35.099069940450818 ], [ 129.024546388724104, 35.099553259681379 ], [ 129.024232998946019, 35.100079009029578 ], [ 129.023900989008808, 35.100363289819875 ], [ 129.021550155816726, 35.101912113158015 ], [ 129.021226983329512, 35.10330608027158 ], [ 129.027886990954954, 35.103018873060066 ] ] ] ] } },
{ "type": "Feature", "properties": { "OBJECTID": 430, "adm_nm": "부산광역시 중구 광복동", "adm_cd": "2101057", "adm_cd2": "2611057000", "sgg": "26110", "sido": "26", "sidonm": "부산광역시", "sggnm": "중구" }, "geometry": { "type": "MultiPolygon", "coordinates": [ [ [ [ 129.033719792651198, 35.101949090296877 ], [ 129.033573165316824, 35.10187230722461 ], [ 129.033475144488818, 35.101810249195395 ], [ 129.033318292458944, 35.101679212222692 ], [ 129.033273350708896, 35.101469017415354 ], [ 129.033188818973429, 35.100661369724072 ], [ 129.0335004429256, 35.099438991626613 ], [ 129.033608307388164, 35.099276577100113 ], [ 129.03399785565739, 35.099194592928711 ], [ 129.034214760245987, 35.099300915750632 ], [ 129.034939636334173, 35.09973741185005 ], [ 129.035352809273974, 35.099511847023656 ], [ 129.035408318814234, 35.099323255583876 ], [ 129.035537899208492, 35.098744312166808 ], [ 129.035555693768657, 35.098592768964011 ], [ 129.035435174975646, 35.098276648062544 ], [ 129.034278658974699, 35.097935985352805 ], [ 129.033798242730569, 35.098094197088606 ], [ 129.03315451328055, 35.098309874412614 ], [ 129.03288109009307, 35.098413950335285 ], [ 129.032683190107377, 35.098499772286523 ], [ 129.032269842350956, 35.098673455614652 ], [ 129.031634705389337, 35.098919757953205 ], [ 129.031594844045799, 35.098935196937177 ], [ 129.031406806278312, 35.098998324686349 ], [ 129.031197501130436, 35.099045466400625 ], [ 129.02979962961021, 35.099084908195294 ], [ 129.029248005589579, 35.099091150924536 ], [ 129.028449112241958, 35.099087152662854 ], [ 129.027825180087376, 35.099035985667832 ], [ 129.027900968001973, 35.102641893919518 ], [ 129.028723908315925, 35.102705100739207 ], [ 129.029415968721423, 35.102701412341702 ], [ 129.029526329028215, 35.102696236601439 ], [ 129.030456371598774, 35.102499337075457 ], [ 129.032157576799648, 35.101955156968579 ], [ 129.033719792651198, 35.101949090296877 ] ] ] ] } },
{ "type": "Feature", "properties": { "OBJECTID": 431, "adm_nm": "부산광역시 중구 남포동", "adm_cd": "2101058", "adm_cd2": "2611058000", "sgg": "26110", "sido": "26", "sidonm": "부산광역시", "sggnm": "중구" }, "geometry": { "type": "MultiPolygon", "coordinates": [ [ [ [ 129.035435174975646, 35.098276648062544 ], [ 129.036772541686673, 35.094688827043981 ], [ 129.036669504640855, 35.094664384777793 ], [ 129.036371996458257, 35.095509294314311 ], [ 129.036050785469655, 35.096363901920448 ], [ 129.035284520392395, 35.096655123573328 ], [ 129.033894592933365, 35.09694044076042 ], [ 129.033751453032522, 35.096952079587993 ], [ 129.033639664235807, 35.09694229043393 ], [ 129.03222151504167, 35.096787484619355 ], [ 129.028672777415636, 35.096368901782789 ], [ 129.026401162188904, 35.095819554817361 ], [ 129.026210944028378, 35.095679023153039 ], [ 129.025139347757317, 35.098067127030951 ], [ 129.027825180087376, 35.099035985667832 ], [ 129.028449112241958, 35.099087152662854 ], [ 129.029248005589579, 35.099091150924536 ], [ 129.02979962961021, 35.099084908195294 ], [ 129.031197501130436, 35.099045466400625 ], [ 129.031406806278312, 35.098998324686349 ], [ 129.031594844045799, 35.098935196937177 ], [ 129.031634705389337, 35.098919757953205 ], [ 129.032269842350956, 35.098673455614652 ], [ 129.032683190107377, 35.098499772286523 ], [ 129.03288109009307, 35.098413950335285 ], [ 129.03315451328055, 35.098309874412614 ], [ 129.033798242730569, 35.098094197088606 ], [ 129.034278658974699, 35.097935985352805 ], [ 129.035435174975646, 35.098276648062544 ] ] ] ] } },
{ "type": "Feature", "properties": { "OBJECTID": 432, "adm_nm": "부산광역시 중구 영주1동", "adm_cd": "2101059", "adm_cd2": "2611059000", "sgg": "26110", "sido": "26", "sidonm": "부산광역시", "sggnm": "중구" }, "geometry": { "type": "MultiPolygon", "coordinates": [ [ [ [ 129.038203110180007, 35.112004408792259 ], [ 129.036362340322739, 35.109067111970788 ], [ 129.034372143847662, 35.108824324876679 ], [ 129.034820192170287, 35.109129645962206 ], [ 129.034680845923816, 35.109398731041267 ], [ 129.034558161978026, 35.109558212651464 ], [ 129.033680487713355, 35.110604074993937 ], [ 129.033039062512017, 35.114378731344082 ], [ 129.033185753126133, 35.115499095736226 ], [ 129.034737022786118, 35.114415522560634 ], [ 129.038203110180007, 35.112004408792259 ] ] ] ] } },
{ "type": "Feature", "properties": { "OBJECTID": 433, "adm_nm": "부산광역시 중구 영주2동", "adm_cd": "2101060", "adm_cd2": "2611060000", "sgg": "26110", "sido": "26", "sidonm": "부산광역시", "sggnm": "중구" }, "geometry": { "type": "MultiPolygon", "coordinates": [ [ [ [ 129.028223563290993, 35.117335201052647 ], [ 129.032649785003997, 35.115987180639884 ], [ 129.033185753126133, 35.115499095736226 ], [ 129.033039062512017, 35.114378731344082 ], [ 129.033680487713355, 35.110604074993937 ], [ 129.034558161978026, 35.109558212651464 ], [ 129.034680845923816, 35.109398731041267 ], [ 129.034820192170287, 35.109129645962206 ], [ 129.034372143847662, 35.108824324876679 ], [ 129.032609744596243, 35.108799613875092 ], [ 129.03271066377485, 35.109254704180337 ], [ 129.028180128758606, 35.108224225109339 ], [ 129.02704782701889, 35.11049540178221 ], [ 129.027642938272066, 35.110971205746928 ], [ 129.027793410535622, 35.111121869158644 ], [ 129.028437886070805, 35.112678910819469 ], [ 129.028473450158884, 35.112835772991964 ], [ 129.028482927075004, 35.112986806103294 ], [ 129.028178763431981, 35.115673532381251 ], [ 129.026931278882955, 35.115945906162004 ], [ 129.026133128232118, 35.116777714805856 ], [ 129.027818252641794, 35.117345089085219 ], [ 129.028223563290993, 35.117335201052647 ] ] ] ] } }
]
}
