{
"type": "FeatureCollection",
"name": "namgu",
"crs": { "type": "name", "properties": { "name": "urn:ogc:def:crs:OGC:1.3:CRS84" } },
"features": [
{ "type": "Feature", "properties": { "OBJECTID": 501, "adm_nm": "부산광역시 남구 대연3동", "adm_cd": "2107053", "adm_cd2": "2629053000", "sgg": "26290", "sido": "26", "sidonm": "부산광역시", "sggnm": "남구" }, "geometry": { "type": "MultiPolygon", "coordinates": [ [ [ [ 129.096004455593061, 35.159866665302751 ], [ 129.097969153123046, 35.155806445016175 ], [ 129.098115925626786, 35.155535180371317 ], [ 129.098234051922503, 35.155340560923136 ], [ 129.099111344204658, 35.154051929298852 ], [ 129.100154431869669, 35.152547870766838 ], [ 129.101641410513594, 35.150693546686561 ], [ 129.101958927708154, 35.149473380062425 ], [ 129.102561962015159, 35.147699917322846 ], [ 129.103297042030391, 35.146009275148465 ], [ 129.103342444471252, 35.145764043385824 ], [ 129.103411698189319, 35.144359311918144 ], [ 129.102735611374897, 35.143646550554884 ], [ 129.102429854251398, 35.143220750668618 ], [ 129.102316804768662, 35.142802692226397 ], [ 129.102735593480929, 35.142308126765883 ], [ 129.102945002646464, 35.142073952615021 ], [ 129.103332586020457, 35.141640535396149 ], [ 129.103630392144908, 35.141334715490032 ], [ 129.103690843945714, 35.141272645965287 ], [ 129.103988934079126, 35.140975673374619 ], [ 129.104884431038414, 35.140208882162028 ], [ 129.106029681959285, 35.139357667551529 ], [ 129.106868054876372, 35.138737391248611 ], [ 129.107639877072586, 35.138166455303285 ], [ 129.111340711927284, 35.135676201146381 ], [ 129.108595540037328, 35.132372458428549 ], [ 129.105963106261015, 35.129178549618722 ], [ 129.106013938063938, 35.127832058286515 ], [ 129.10614520500738, 35.12761885247523 ], [ 129.106280116407504, 35.127316104051204 ], [ 129.106272564589432, 35.127139061418205 ], [ 129.105791421712922, 35.126906185165574 ], [ 129.104934770566246, 35.126491560609175 ], [ 129.10355947078753, 35.126579895480702 ], [ 129.103067469870581, 35.126415097784985 ], [ 129.102735751593883, 35.126303964055396 ], [ 129.102143554435287, 35.126062618844237 ], [ 129.101543562426968, 35.125765333519276 ], [ 129.100878808981747, 35.125435508888259 ], [ 129.099943250791398, 35.125026424986203 ], [ 129.098722598214721, 35.124908833025053 ], [ 129.099847663847896, 35.127008674157814 ], [ 129.100642408714776, 35.128086961525689 ], [ 129.100703532455753, 35.128182269698883 ], [ 129.099803726330038, 35.12869732097959 ], [ 129.097203195553533, 35.13009808138213 ], [ 129.098148469262412, 35.130100691272915 ], [ 129.098214517502868, 35.134173377073473 ], [ 129.098190099352536, 35.134241461072456 ], [ 129.09778468314974, 35.134782849060869 ], [ 129.097666238498874, 35.134919761675029 ], [ 129.097599261358056, 35.134978497210042 ], [ 129.097149400857035, 35.135359319019287 ], [ 129.097084465033447, 35.135375327365963 ], [ 129.096712713030882, 35.1354485579174 ], [ 129.096420015893784, 35.135771133997878 ], [ 129.097606034498369, 35.136247996152207 ], [ 129.097644670560783, 35.136264967898157 ], [ 129.097894047695235, 35.136374529481927 ], [ 129.096063322375926, 35.140162786773075 ], [ 129.09603332349522, 35.140222753670827 ], [ 129.094993832656058, 35.142027456622465 ], [ 129.091204267869529, 35.146269482301605 ], [ 129.091146154048147, 35.146317845793661 ], [ 129.091117651226966, 35.14634156539266 ], [ 129.090691165366081, 35.146608601624244 ], [ 129.087736808879811, 35.148301409357735 ], [ 129.087563943026652, 35.14837688157651 ], [ 129.087304380634123, 35.148460950343448 ], [ 129.087111611899701, 35.148501066630971 ], [ 129.086745369950307, 35.148568545708798 ], [ 129.086081862322544, 35.148671593102883 ], [ 129.084987434078641, 35.148803243252296 ], [ 129.083644966733317, 35.149054593896054 ], [ 129.08332457577859, 35.149289110393397 ], [ 129.079872698204099, 35.152696618046711 ], [ 129.079998784417114, 35.15333526263646 ], [ 129.082261649994592, 35.157497109788949 ], [ 129.082535860498552, 35.157868581189582 ], [ 129.082930722507939, 35.15823841213367 ], [ 129.084134372539779, 35.158811139374208 ], [ 129.087703311830069, 35.160372043989014 ], [ 129.088017376330129, 35.160472854368528 ], [ 129.089393519009292, 35.160809261946916 ], [ 129.089781755885781, 35.160699390671752 ], [ 129.090310861411098, 35.160497435409923 ], [ 129.09105355869255, 35.160354666503544 ], [ 129.092766290179782, 35.16031717781803 ], [ 129.093712448437856, 35.160647318247555 ], [ 129.09436952078795, 35.161140098323166 ], [ 129.094823516489953, 35.161740601616678 ], [ 129.095538875128625, 35.160327750986916 ], [ 129.096004455593061, 35.159866665302751 ] ] ] ] } },
{ "type": "Feature", "properties": { "OBJECTID": 502, "adm_nm": "부산광역시 남구 대연4동", "adm_cd": "2107054", "adm_cd2": "2629054000", "sgg": "26290", "sido": "26", "sidonm": "부산광역시", "sggnm": "남구" }, "geometry": { "type": "MultiPolygon", "coordinates": [ [ [ [ 129.097203195553533, 35.13009808138213 ], [ 129.099803726330038, 35.12869732097959 ], [ 129.100703532455753, 35.128182269698883 ], [ 129.100642408714776, 35.128086961525689 ], [ 129.099847663847896, 35.127008674157814 ], [ 129.098722598214721, 35.124908833025053 ], [ 129.094752955448968, 35.125180457030481 ], [ 129.094540322139181, 35.125133676808339 ], [ 129.092736631602179, 35.124435277687603 ], [ 129.092103652910339, 35.1241431371365 ], [ 129.091670949292705, 35.123657131868995 ], [ 129.091374434362365, 35.123087501243582 ], [ 129.091487023854029, 35.12281260118688 ], [ 129.091279949971437, 35.122065579045092 ], [ 129.090676454688236, 35.1210321780379 ], [ 129.090350078688857, 35.120848367426007 ], [ 129.087329987328673, 35.124882785313403 ], [ 129.085449028801577, 35.125244001053041 ], [ 129.086210817419982, 35.126550620313253 ], [ 129.085947994495228, 35.127746933233006 ], [ 129.085856503669817, 35.128045322121295 ], [ 129.085821860451944, 35.128137332849114 ], [ 129.085584795806426, 35.128456430560291 ], [ 129.085426618751171, 35.128607013965635 ], [ 129.084583368181313, 35.128887819737209 ], [ 129.0840037869105, 35.128989491305362 ], [ 129.08375610840767, 35.128981282038374 ], [ 129.08290855682452, 35.128953230853398 ], [ 129.082728405623783, 35.129175637728835 ], [ 129.082153243735831, 35.130538909324244 ], [ 129.082115075367142, 35.13087879444641 ], [ 129.083239503934749, 35.131394599501235 ], [ 129.08793029481032, 35.133160800123633 ], [ 129.08802112637656, 35.13314371255634 ], [ 129.088118310747547, 35.133118850951412 ], [ 129.088135185957583, 35.13308816358164 ], [ 129.088262375590574, 35.132289451970848 ], [ 129.088274573825032, 35.132212413890691 ], [ 129.088298502210165, 35.132061250640135 ], [ 129.08836868180822, 35.131553998357383 ], [ 129.088391481878574, 35.131519747669863 ], [ 129.089129093994643, 35.130411890294461 ], [ 129.08927695659537, 35.130189804781004 ], [ 129.097203195553533, 35.13009808138213 ] ] ] ] } },
{ "type": "Feature", "properties": { "OBJECTID": 503, "adm_nm": "부산광역시 남구 대연5동", "adm_cd": "2107055", "adm_cd2": "2629055000", "sgg": "26290", "sido": "26", "sidonm": "부산광역시", "sggnm": "남구" }, "geometry": { "type": "MultiPolygon", "coordinates": [ [ [ [ 129.096420015893784, 35.135771133997878 ], [ 129.09384167057749, 35.13527996466771 ], [ 129.093624950145937, 35.135261328338999 ], [ 129.090539690385981, 35.135061698064582 ], [ 129.090508232400737, 35.135060093232568 ], [ 129.089662613823521, 35.135016970172842 ], [ 129.089402787559465, 35.135003720817416 ], [ 129.089352757524381, 35.135001174603602 ], [ 129.089233440073286, 35.134996416755534 ], [ 129.089139302539934, 35.134992804462492 ], [ 129.088334215587764, 35.134961922556705 ], [ 129.087975465009436, 35.134949085150382 ], [ 129.0870590126151, 35.135769597594468 ], [ 129.087015063999559, 35.136189000881991 ], [ 129.086973808965638, 35.136582704634279 ], [ 129.086970092862117, 35.1366181692974 ], [ 129.086865720240979, 35.137618748445711 ], [ 129.086837194046723, 35.138044250000071 ], [ 129.087074176787212, 35.138042330609963 ], [ 129.087285632323557, 35.138042003836247 ], [ 129.087264586997236, 35.138823813985525 ], [ 129.086517011735367, 35.140344592363206 ], [ 129.086487839434909, 35.140380328136125 ], [ 129.086387996364692, 35.140502585930065 ], [ 129.086212196237824, 35.1407178361858 ], [ 129.082740817263073, 35.141250736446004 ], [ 129.082347261212533, 35.143173805997769 ], [ 129.082314017557593, 35.143570809718973 ], [ 129.083263817268801, 35.14473324955685 ], [ 129.083644966733317, 35.149054593896054 ], [ 129.084987434078641, 35.148803243252296 ], [ 129.086081862322544, 35.148671593102883 ], [ 129.086745369950307, 35.148568545708798 ], [ 129.087111611899701, 35.148501066630971 ], [ 129.087304380634123, 35.148460950343448 ], [ 129.087563943026652, 35.14837688157651 ], [ 129.087736808879811, 35.148301409357735 ], [ 129.090691165366081, 35.146608601624244 ], [ 129.091117651226966, 35.14634156539266 ], [ 129.091146154048147, 35.146317845793661 ], [ 129.091204267869529, 35.146269482301605 ], [ 129.094993832656058, 35.142027456622465 ], [ 129.09603332349522, 35.140222753670827 ], [ 129.096063322375926, 35.140162786773075 ], [ 129.097894047695235, 35.136374529481927 ], [ 129.097644670560783, 35.136264967898157 ], [ 129.097606034498369, 35.136247996152207 ], [ 129.096420015893784, 35.135771133997878 ] ] ] ] } },
{ "type": "Feature", "properties": { "OBJECTID": 504, "adm_nm": "부산광역시 남구 대연6동", "adm_cd": "2107056", "adm_cd2": "2629056000", "sgg": "26290", "sido": "26", "sidonm": "부산광역시", "sggnm": "남구" }, "geometry": { "type": "MultiPolygon", "coordinates": [ [ [ [ 129.087975465009436, 35.134949085150382 ], [ 129.085589168387571, 35.134868382077471 ], [ 129.083870973608555, 35.134775513604524 ], [ 129.081612576922993, 35.134532848014743 ], [ 129.081492190130831, 35.134508955360239 ], [ 129.081280969377985, 35.134466990663228 ], [ 129.07895385855042, 35.133694089056569 ], [ 129.079265592369012, 35.134945783422097 ], [ 129.079284116405461, 35.135045272375763 ], [ 129.079262583178604, 35.135302019788142 ], [ 129.078682987507875, 35.136571157179027 ], [ 129.078130851960964, 35.137138676603023 ], [ 129.077662193118272, 35.137184217374177 ], [ 129.076104369891794, 35.140624944821099 ], [ 129.076068142426493, 35.14071046831409 ], [ 129.076046432886443, 35.140790007406011 ], [ 129.076073111879964, 35.140844681817399 ], [ 129.07614819416267, 35.140883393792379 ], [ 129.07625712709546, 35.140903214822096 ], [ 129.07649141094123, 35.140939995829463 ], [ 129.077545306593294, 35.140924472435138 ], [ 129.082314017557593, 35.143570809718973 ], [ 129.082347261212533, 35.143173805997769 ], [ 129.082740817263073, 35.141250736446004 ], [ 129.086212196237824, 35.1407178361858 ], [ 129.086387996364692, 35.140502585930065 ], [ 129.086487839434909, 35.140380328136125 ], [ 129.086517011735367, 35.140344592363206 ], [ 129.087264586997236, 35.138823813985525 ], [ 129.087285632323557, 35.138042003836247 ], [ 129.087074176787212, 35.138042330609963 ], [ 129.086837194046723, 35.138044250000071 ], [ 129.086865720240979, 35.137618748445711 ], [ 129.086970092862117, 35.1366181692974 ], [ 129.086973808965638, 35.136582704634279 ], [ 129.087015063999559, 35.136189000881991 ], [ 129.0870590126151, 35.135769597594468 ], [ 129.087975465009436, 35.134949085150382 ] ] ] ] } },
{ "type": "Feature", "properties": { "OBJECTID": 505, "adm_nm": "부산광역시 남구 용호1동", "adm_cd": "2107057", "adm_cd2": "2629057000", "sgg": "26290", "sido": "26", "sidonm": "부산광역시", "sggnm": "남구" }, "geometry": { "type": "MultiPolygon", "coordinates": [ [ [ [ 129.111810150893831, 35.135477062726224 ], [ 129.113408089781444, 35.134799316109131 ], [ 129.114757809050673, 35.134156717882504 ], [ 129.115045179726195, 35.134000203111164 ], [ 129.115512433597729, 35.133745691537982 ], [ 129.116892535658451, 35.132863081136023 ], [ 129.116243493031988, 35.132130846372355 ], [ 129.115520544838517, 35.131315230361416 ], [ 129.11542572761789, 35.131208257155059 ], [ 129.115210989368762, 35.130965981404799 ], [ 129.116532199917714, 35.130207349030691 ], [ 129.115833902961697, 35.12914853993945 ], [ 129.113761880554136, 35.12701881894138 ], [ 129.113199917694203, 35.126395619365397 ], [ 129.113149860949875, 35.126337284834328 ], [ 129.113046306674761, 35.12619899417129 ], [ 129.112511741121779, 35.12480692280014 ], [ 129.112451340508528, 35.123999401651538 ], [ 129.112417207061355, 35.123542996854702 ], [ 129.111826169927326, 35.11878944428058 ], [ 129.11106014474737, 35.116377715441601 ], [ 129.106108517521164, 35.116760921420656 ], [ 129.102765530807545, 35.117244413986406 ], [ 129.103600318896383, 35.117821802061727 ], [ 129.103822800100147, 35.118088048601599 ], [ 129.105178518286579, 35.119935863823784 ], [ 129.105357197327521, 35.120189409559202 ], [ 129.104840533620006, 35.121232812658484 ], [ 129.104806120113864, 35.121302303437332 ], [ 129.10432162727426, 35.122361034742703 ], [ 129.104226955090041, 35.123720143647894 ], [ 129.104223090981947, 35.12377580581677 ], [ 129.104326086508536, 35.124921426484271 ], [ 129.104934770566246, 35.126491560609175 ], [ 129.105791421712922, 35.126906185165574 ], [ 129.106272564589432, 35.127139061418205 ], [ 129.106280116407504, 35.127316104051204 ], [ 129.10614520500738, 35.12761885247523 ], [ 129.106013938063938, 35.127832058286515 ], [ 129.105963106261015, 35.129178549618722 ], [ 129.108595540037328, 35.132372458428549 ], [ 129.111340711927284, 35.135676201146381 ], [ 129.111810150893831, 35.135477062726224 ] ] ] ] } },
{ "type": "Feature", "properties": { "OBJECTID": 506, "adm_nm": "부산광역시 남구 용호2동", "adm_cd": "2107058", "adm_cd2": "2629058000", "sgg": "26290", "sido": "26", "sidonm": "부산광역시", "sggnm": "남구" }, "geometry": { "type": "MultiPolygon", "coordinates": [ [ [ [ 129.127239771477292, 35.114300039313711 ], [ 129.127441751463493, 35.112153539213153 ], [ 129.127792971886635, 35.11099184703869 ], [ 129.127925761472653, 35.110241797469648 ], [ 129.12782689334054, 35.109630885205533 ], [ 129.12684891642607, 35.107499875391575 ], [ 129.12606804511654, 35.106244183656145 ], [ 129.123743824709408, 35.101950656078571 ], [ 129.123692553092837, 35.101738558644854 ], [ 129.123913502870806, 35.101433994538127 ], [ 129.124663303974074, 35.100932228346757 ], [ 129.125210650502424, 35.100860012065674 ], [ 129.125175933239404, 35.100697729691809 ], [ 129.124178206359346, 35.099286922358672 ], [ 129.123881975275822, 35.099041517091422 ], [ 129.123495891618632, 35.098860334091654 ], [ 129.1195733321955, 35.099380015002517 ], [ 129.118525363733369, 35.099561187723317 ], [ 129.115717859865129, 35.100136423594321 ], [ 129.115431674666524, 35.100279221600807 ], [ 129.114609777110189, 35.10094508442139 ], [ 129.113894608503927, 35.101609036584051 ], [ 129.112949354357823, 35.102985798751519 ], [ 129.112713950406942, 35.104587995567847 ], [ 129.112048829977851, 35.107803101457037 ], [ 129.111060083869177, 35.111311587153168 ], [ 129.111024665500025, 35.113112379083823 ], [ 129.11106014474737, 35.116377715441601 ], [ 129.116781119441612, 35.115575994358316 ], [ 129.123226356273506, 35.114841935644129 ], [ 129.127239771477292, 35.114300039313711 ] ] ] ] } },
{ "type": "Feature", "properties": { "OBJECTID": 507, "adm_nm": "부산광역시 남구 용호3동", "adm_cd": "2107059", "adm_cd2": "2629059000", "sgg": "26290", "sido": "26", "sidonm": "부산광역시", "sggnm": "남구" }, "geometry": { "type": "MultiPolygon", "coordinates": [ [ [ [ 129.127239771477292, 35.114300039313711 ], [ 129.123226356273506, 35.114841935644129 ], [ 129.116781119441612, 35.115575994358316 ], [ 129.11106014474737, 35.116377715441601 ], [ 129.111826169927326, 35.11878944428058 ], [ 129.112417207061355, 35.123542996854702 ], [ 129.112451340508528, 35.123999401651538 ], [ 129.112511741121779, 35.12480692280014 ], [ 129.113046306674761, 35.12619899417129 ], [ 129.113149860949875, 35.126337284834328 ], [ 129.113199917694203, 35.126395619365397 ], [ 129.113761880554136, 35.12701881894138 ], [ 129.115833902961697, 35.12914853993945 ], [ 129.116532199917714, 35.130207349030691 ], [ 129.116646576818198, 35.13014169384774 ], [ 129.117172429118455, 35.130272273777173 ], [ 129.118313224108363, 35.131505678646519 ], [ 129.118579117798248, 35.131844039730844 ], [ 129.120610399386834, 35.133949727165444 ], [ 129.121075019897376, 35.133274051002275 ], [ 129.121177547712279, 35.132889668090343 ], [ 129.121071944287365, 35.132535314494575 ], [ 129.12160305425823, 35.1313254620244 ], [ 129.122340210588504, 35.128766329790366 ], [ 129.122537369090281, 35.127074185201927 ], [ 129.122869008555568, 35.126291219590797 ], [ 129.124944823425409, 35.12217264776362 ], [ 129.125948605485945, 35.121035880707254 ], [ 129.127027225190545, 35.119814322052939 ], [ 129.12714795103517, 35.11928107485268 ], [ 129.127240537092206, 35.114795935957794 ], [ 129.127239771477292, 35.114300039313711 ] ] ] ] } },
{ "type": "Feature", "properties": { "OBJECTID": 508, "adm_nm": "부산광역시 남구 용호4동", "adm_cd": "2107060", "adm_cd2": "2629060000", "sgg": "26290", "sido": "26", "sidonm": "부산광역시", "sggnm": "남구" }, "geometry": { "type": "MultiPolygon", "coordinates": [ [ [ [ 129.11106014474737, 35.116377715441601 ], [ 129.111024665500025, 35.113112379083823 ], [ 129.111060083869177, 35.111311587153168 ], [ 129.112048829977851, 35.107803101457037 ], [ 129.112713950406942, 35.104587995567847 ], [ 129.112949354357823, 35.102985798751519 ], [ 129.110528846243795, 35.101104740011678 ], [ 129.108790986370423, 35.102330768597149 ], [ 129.105675253057456, 35.100011945344342 ], [ 129.105629928655873, 35.099962248614823 ], [ 129.105351710408257, 35.099633517874828 ], [ 129.105270625016914, 35.099511439244445 ], [ 129.105004413057458, 35.099179205475878 ], [ 129.104892438487781, 35.099062972271589 ], [ 129.104781349295848, 35.098955177111421 ], [ 129.104686610316236, 35.098869860686357 ], [ 129.104555115041165, 35.098753362640693 ], [ 129.10448665858965, 35.098719614568793 ], [ 129.104415466925275, 35.098694078448496 ], [ 129.104321385586388, 35.098661547619841 ], [ 129.104233299817224, 35.09863848720758 ], [ 129.104143071035736, 35.09861971068409 ], [ 129.103195280333523, 35.098432846489324 ], [ 129.102726607104472, 35.098356045747117 ], [ 129.099532924836126, 35.098227747434478 ], [ 129.09943914531496, 35.0982561431709 ], [ 129.097557094833718, 35.099317019922658 ], [ 129.098351659697784, 35.099842018331181 ], [ 129.102901243805377, 35.102693500010361 ], [ 129.106964551074356, 35.109316062618355 ], [ 129.107020192118398, 35.109417566177669 ], [ 129.107034084862249, 35.109563299816401 ], [ 129.107044572362952, 35.110014019137253 ], [ 129.106284935209629, 35.113582084128979 ], [ 129.106160689727943, 35.113780623614993 ], [ 129.105856083812625, 35.114042184208749 ], [ 129.105654627798771, 35.114081934712694 ], [ 129.105226133050706, 35.114065972483345 ], [ 129.104852828503653, 35.114041875714875 ], [ 129.104124308428595, 35.114714991424513 ], [ 129.10284316407035, 35.116783486806682 ], [ 129.102765530807545, 35.117244413986406 ], [ 129.106108517521164, 35.116760921420656 ], [ 129.11106014474737, 35.116377715441601 ] ] ] ] } },
{ "type": "Feature", "properties": { "OBJECTID": 509, "adm_nm": "부산광역시 남구 용당동", "adm_cd": "2107061", "adm_cd2": "2629061000", "sgg": "26290", "sido": "26", "sidonm": "부산광역시", "sggnm": "남구" }, "geometry": { "type": "MultiPolygon", "coordinates": [ [ [ [ 129.104934770566246, 35.126491560609175 ], [ 129.104326086508536, 35.124921426484271 ], [ 129.104223090981947, 35.12377580581677 ], [ 129.104226955090041, 35.123720143647894 ], [ 129.10432162727426, 35.122361034742703 ], [ 129.104806120113864, 35.121302303437332 ], [ 129.104840533620006, 35.121232812658484 ], [ 129.105357197327521, 35.120189409559202 ], [ 129.105178518286579, 35.119935863823784 ], [ 129.103822800100147, 35.118088048601599 ], [ 129.103600318896383, 35.117821802061727 ], [ 129.102765530807545, 35.117244413986406 ], [ 129.10284316407035, 35.116783486806682 ], [ 129.104124308428595, 35.114714991424513 ], [ 129.104852828503653, 35.114041875714875 ], [ 129.105226133050706, 35.114065972483345 ], [ 129.105654627798771, 35.114081934712694 ], [ 129.105856083812625, 35.114042184208749 ], [ 129.106160689727943, 35.113780623614993 ], [ 129.106284935209629, 35.113582084128979 ], [ 129.107044572362952, 35.110014019137253 ], [ 129.107034084862249, 35.109563299816401 ], [ 129.107020192118398, 35.109417566177669 ], [ 129.106964551074356, 35.109316062618355 ], [ 129.102901243805377, 35.102693500010361 ], [ 129.098351659697784, 35.099842018331181 ], [ 129.097557094833718, 35.099317019922658 ], [ 129.094595871958632, 35.099125531158975 ], [ 129.093735124042013, 35.107534274135254 ], [ 129.091813319262229, 35.10779364320242 ], [ 129.087378866632235, 35.107138742462297 ], [ 129.087206791222002, 35.107500089252625 ], [ 129.087146327145263, 35.109012294892885 ], [ 129.087295026014829, 35.109023084591335 ], [ 129.088370631789019, 35.109091995329081 ], [ 129.088196213236102, 35.110435861671824 ], [ 129.087870238071446, 35.116890339053612 ], [ 129.087853530641894, 35.117293922337204 ], [ 129.088251216265974, 35.118560351316177 ], [ 129.090350078688857, 35.120848367426007 ], [ 129.090676454688236, 35.1210321780379 ], [ 129.091279949971437, 35.122065579045092 ], [ 129.091487023854029, 35.12281260118688 ], [ 129.091374434362365, 35.123087501243582 ], [ 129.091670949292705, 35.123657131868995 ], [ 129.092103652910339, 35.1241431371365 ], [ 129.092736631602179, 35.124435277687603 ], [ 129.094540322139181, 35.125133676808339 ], [ 129.094752955448968, 35.125180457030481 ], [ 129.098722598214721, 35.124908833025053 ], [ 129.099943250791398, 35.125026424986203 ], [ 129.100878808981747, 35.125435508888259 ], [ 129.101543562426968, 35.125765333519276 ], [ 129.102143554435287, 35.126062618844237 ], [ 129.102735751593883, 35.126303964055396 ], [ 129.103067469870581, 35.126415097784985 ], [ 129.10355947078753, 35.126579895480702 ], [ 129.104934770566246, 35.126491560609175 ] ] ] ] } },
{ "type": "Feature", "properties": { "OBJECTID": 510, "adm_nm": "부산광역시 남구 감만1동", "adm_cd": "2107062", "adm_cd2": "2629062000", "sgg": "26290", "sido": "26", "sidonm": "부산광역시", "sggnm": "남구" }, "geometry": { "type": "MultiPolygon", "coordinates": [ [ [ [ 129.077604041825225, 35.120810490932826 ], [ 129.077082290922704, 35.119728450408303 ], [ 129.079099643203392, 35.118611866093453 ], [ 129.079891522185164, 35.118861315856115 ], [ 129.080485579798079, 35.119202555655136 ], [ 129.080795488527258, 35.119564806677545 ], [ 129.083336316173813, 35.119485574660224 ], [ 129.087332605546891, 35.118776387742727 ], [ 129.088251216265974, 35.118560351316177 ], [ 129.087853530641894, 35.117293922337204 ], [ 129.087870238071446, 35.116890339053612 ], [ 129.088196213236102, 35.110435861671824 ], [ 129.088370631789019, 35.109091995329081 ], [ 129.087295026014829, 35.109023084591335 ], [ 129.087146327145263, 35.109012294892885 ], [ 129.087206791222002, 35.107500089252625 ], [ 129.087378866632235, 35.107138742462297 ], [ 129.087586194157694, 35.103588017351619 ], [ 129.074914243480038, 35.103577800926104 ], [ 129.067426125597137, 35.107558398913845 ], [ 129.067197918088084, 35.107693980812421 ], [ 129.06989256467304, 35.113841179521458 ], [ 129.073777884191884, 35.116746397951729 ], [ 129.073247368622958, 35.118135842218138 ], [ 129.072266376567825, 35.118728318226005 ], [ 129.071353855058788, 35.117714937485516 ], [ 129.071013082029054, 35.117375894054085 ], [ 129.0694962264335, 35.118295271496386 ], [ 129.072998377115965, 35.122171148251653 ], [ 129.073084370989335, 35.122166531016482 ], [ 129.074984089028192, 35.121712749393019 ], [ 129.076196244735968, 35.120910684322752 ], [ 129.077604041825225, 35.120810490932826 ] ] ] ] } },
{ "type": "Feature", "properties": { "OBJECTID": 511, "adm_nm": "부산광역시 남구 감만2동", "adm_cd": "2107063", "adm_cd2": "2629063000", "sgg": "26290", "sido": "26", "sidonm": "부산광역시", "sggnm": "남구" }, "geometry": { "type": "MultiPolygon", "coordinates": [ [ [ [ 129.090350078688857, 35.120848367426007 ], [ 129.088251216265974, 35.118560351316177 ], [ 129.087332605546891, 35.118776387742727 ], [ 129.083336316173813, 35.119485574660224 ], [ 129.080795488527258, 35.119564806677545 ], [ 129.080485579798079, 35.119202555655136 ], [ 129.079891522185164, 35.118861315856115 ], [ 129.079099643203392, 35.118611866093453 ], [ 129.077082290922704, 35.119728450408303 ], [ 129.077604041825225, 35.120810490932826 ], [ 129.079051328086706, 35.12109106270001 ], [ 129.079624827741071, 35.121283856569676 ], [ 129.079684746612855, 35.12130904455374 ], [ 129.080808999566329, 35.121785308278994 ], [ 129.080984468441955, 35.121860110331184 ], [ 129.081745405595825, 35.122713817049316 ], [ 129.083598208317369, 35.124103066287823 ], [ 129.083625171561238, 35.124123154279054 ], [ 129.084071673193307, 35.124414353101535 ], [ 129.085449028801577, 35.125244001053041 ], [ 129.087329987328673, 35.124882785313403 ], [ 129.090350078688857, 35.120848367426007 ] ] ] ] } },
{ "type": "Feature", "properties": { "OBJECTID": 512, "adm_nm": "부산광역시 남구 문현1동", "adm_cd": "2107066", "adm_cd2": "2629068000", "sgg": "26290", "sido": "26", "sidonm": "부산광역시", "sggnm": "남구" }, "geometry": { "type": "MultiPolygon", "coordinates": [ [ [ [ 129.083644966733317, 35.149054593896054 ], [ 129.083263817268801, 35.14473324955685 ], [ 129.082314017557593, 35.143570809718973 ], [ 129.077545306593294, 35.140924472435138 ], [ 129.076274807217857, 35.143157501563138 ], [ 129.076277036393691, 35.143224829796424 ], [ 129.07628008226169, 35.143338378189732 ], [ 129.076214788264934, 35.143383606606868 ], [ 129.076169747461051, 35.143414803957747 ], [ 129.076062871203391, 35.143419106583949 ], [ 129.075836709400335, 35.143414998022919 ], [ 129.075601857984822, 35.143396392415411 ], [ 129.075394988458925, 35.143369216057145 ], [ 129.075199789802781, 35.143340587479898 ], [ 129.075104025364595, 35.143313235422298 ], [ 129.072083126278613, 35.142393377065495 ], [ 129.070901464927601, 35.141840896720964 ], [ 129.068744388103795, 35.140699871657802 ], [ 129.067047593585755, 35.139987745519505 ], [ 129.06716000633682, 35.140370238760539 ], [ 129.067894965343413, 35.141813738949807 ], [ 129.068013504010509, 35.142046360557046 ], [ 129.068419586892617, 35.142633291961857 ], [ 129.070827310964091, 35.145809922827112 ], [ 129.070997252538746, 35.147669151809971 ], [ 129.071343509265063, 35.14877766571594 ], [ 129.071703033656377, 35.149058993138702 ], [ 129.074239723660668, 35.150294181146045 ], [ 129.0778064393931, 35.151942496659025 ], [ 129.078715482426929, 35.152285300152528 ], [ 129.079872698204099, 35.152696618046711 ], [ 129.08332457577859, 35.149289110393397 ], [ 129.083644966733317, 35.149054593896054 ] ] ] ] } },
{ "type": "Feature", "properties": { "OBJECTID": 513, "adm_nm": "부산광역시 남구 문현2동", "adm_cd": "2107067", "adm_cd2": "2629069000", "sgg": "26290", "sido": "26", "sidonm": "부산광역시", "sggnm": "남구" }, "geometry": { "type": "MultiPolygon", "coordinates": [ [ [ [ 129.067047593585755, 35.139987745519505 ], [ 129.067890722993951, 35.136924743265965 ], [ 129.066094709185819, 35.136977523857595 ], [ 129.064483129333155, 35.141392386501934 ], [ 129.063991701645534, 35.142081849796156 ], [ 129.063638400168827, 35.142577508360105 ], [ 129.063503490961182, 35.142766792226794 ], [ 129.063429209410288, 35.14295469309419 ], [ 129.063197306751618, 35.143558435524035 ], [ 129.063193048806596, 35.14374002665285 ], [ 129.06317430744275, 35.14453931453528 ], [ 129.063124878192241, 35.148184796499628 ], [ 129.063276789799914, 35.148554072419735 ], [ 129.063334132551603, 35.148693460322662 ], [ 129.066770152862034, 35.147784945504633 ], [ 129.071343509265063, 35.14877766571594 ], [ 129.070997252538746, 35.147669151809971 ], [ 129.070827310964091, 35.145809922827112 ], [ 129.068419586892617, 35.142633291961857 ], [ 129.068013504010509, 35.142046360557046 ], [ 129.067894965343413, 35.141813738949807 ], [ 129.06716000633682, 35.140370238760539 ], [ 129.067047593585755, 35.139987745519505 ] ] ] ] } },
{ "type": "Feature", "properties": { "OBJECTID": 514, "adm_nm": "부산광역시 남구 문현3동", "adm_cd": "2107068", "adm_cd2": "2629070000", "sgg": "26290", "sido": "26", "sidonm": "부산광역시", "sggnm": "남구" }, "geometry": { "type": "MultiPolygon", "coordinates": [ [ [ [ 129.077545306593294, 35.140924472435138 ], [ 129.07649141094123, 35.140939995829463 ], [ 129.07625712709546, 35.140903214822096 ], [ 129.07614819416267, 35.140883393792379 ], [ 129.076073111879964, 35.140844681817399 ], [ 129.076046432886443, 35.140790007406011 ], [ 129.076068142426493, 35.14071046831409 ], [ 129.076104369891794, 35.140624944821099 ], [ 129.077662193118272, 35.137184217374177 ], [ 129.078130851960964, 35.137138676603023 ], [ 129.078682987507875, 35.136571157179027 ], [ 129.079262583178604, 35.135302019788142 ], [ 129.079284116405461, 35.135045272375763 ], [ 129.079265592369012, 35.134945783422097 ], [ 129.07895385855042, 35.133694089056569 ], [ 129.07860655873111, 35.133655863813516 ], [ 129.078523736314025, 35.133647820392063 ], [ 129.078236049134148, 35.133682982782112 ], [ 129.077881840474703, 35.133780558161355 ], [ 129.077526935889892, 35.133933012526988 ], [ 129.077288331157064, 35.13405332161269 ], [ 129.076884309210357, 35.134257064947242 ], [ 129.076496541214993, 35.134470795357785 ], [ 129.076534882140493, 35.134521735014332 ], [ 129.07518745288931, 35.135255290970008 ], [ 129.07504113240168, 35.135330843719828 ], [ 129.074570060525815, 35.13557407774875 ], [ 129.073165182789694, 35.136299454744943 ], [ 129.071994503270275, 35.136856435835554 ], [ 129.071944317281577, 35.13687921153754 ], [ 129.071847576893816, 35.136923099182063 ], [ 129.071684620684067, 35.136966541102268 ], [ 129.070617363668617, 35.136982736912195 ], [ 129.067890722993951, 35.136924743265965 ], [ 129.067047593585755, 35.139987745519505 ], [ 129.068744388103795, 35.140699871657802 ], [ 129.070901464927601, 35.141840896720964 ], [ 129.072083126278613, 35.142393377065495 ], [ 129.075104025364595, 35.143313235422298 ], [ 129.075199789802781, 35.143340587479898 ], [ 129.075394988458925, 35.143369216057145 ], [ 129.075601857984822, 35.143396392415411 ], [ 129.075836709400335, 35.143414998022919 ], [ 129.076062871203391, 35.143419106583949 ], [ 129.076169747461051, 35.143414803957747 ], [ 129.076214788264934, 35.143383606606868 ], [ 129.07628008226169, 35.143338378189732 ], [ 129.076277036393691, 35.143224829796424 ], [ 129.076274807217857, 35.143157501563138 ], [ 129.077545306593294, 35.140924472435138 ] ] ] ] } },
{ "type": "Feature", "properties": { "OBJECTID": 515, "adm_nm": "부산광역시 남구 문현4동", "adm_cd": "2107069", "adm_cd2": "2629071000", "sgg": "26290", "sido": "26", "sidonm": "부산광역시", "sggnm": "남구" }, "geometry": { "type": "MultiPolygon", "coordinates": [ [ [ [ 129.07895385855042, 35.133694089056569 ], [ 129.075853709410268, 35.129899979293675 ], [ 129.072832073137846, 35.13133454320721 ], [ 129.073083249627047, 35.131630883507405 ], [ 129.073044908563219, 35.131773103362661 ], [ 129.072813695856269, 35.132044903309243 ], [ 129.069676224603597, 35.130409464890199 ], [ 129.069542612384936, 35.130031881354341 ], [ 129.069296533916571, 35.129298936827119 ], [ 129.068564196457856, 35.127878253176235 ], [ 129.068523459012624, 35.127828961149589 ], [ 129.068396028166745, 35.12768569483859 ], [ 129.067823191991152, 35.127106118290222 ], [ 129.067709621846348, 35.127059896108889 ], [ 129.066423021736966, 35.127594590365369 ], [ 129.065298938803352, 35.129623107486509 ], [ 129.065332812723312, 35.129913610489012 ], [ 129.066094709185819, 35.136977523857595 ], [ 129.067890722993951, 35.136924743265965 ], [ 129.070617363668617, 35.136982736912195 ], [ 129.071684620684067, 35.136966541102268 ], [ 129.071847576893816, 35.136923099182063 ], [ 129.071944317281577, 35.13687921153754 ], [ 129.071994503270275, 35.136856435835554 ], [ 129.073165182789694, 35.136299454744943 ], [ 129.074570060525815, 35.13557407774875 ], [ 129.07504113240168, 35.135330843719828 ], [ 129.07518745288931, 35.135255290970008 ], [ 129.076534882140493, 35.134521735014332 ], [ 129.076496541214993, 35.134470795357785 ], [ 129.076884309210357, 35.134257064947242 ], [ 129.077288331157064, 35.13405332161269 ], [ 129.077526935889892, 35.133933012526988 ], [ 129.077881840474703, 35.133780558161355 ], [ 129.078236049134148, 35.133682982782112 ], [ 129.078523736314025, 35.133647820392063 ], [ 129.07860655873111, 35.133655863813516 ], [ 129.07895385855042, 35.133694089056569 ] ] ] ] } },
{ "type": "Feature", "properties": { "OBJECTID": 516, "adm_nm": "부산광역시 남구 대연1동", "adm_cd": "2107070", "adm_cd2": "2629051000", "sgg": "26290", "sido": "26", "sidonm": "부산광역시", "sggnm": "남구" }, "geometry": { "type": "MultiPolygon", "coordinates": [ [ [ [ 129.097203195553533, 35.13009808138213 ], [ 129.08927695659537, 35.130189804781004 ], [ 129.089129093994643, 35.130411890294461 ], [ 129.088391481878574, 35.131519747669863 ], [ 129.08836868180822, 35.131553998357383 ], [ 129.088298502210165, 35.132061250640135 ], [ 129.088274573825032, 35.132212413890691 ], [ 129.088262375590574, 35.132289451970848 ], [ 129.088135185957583, 35.13308816358164 ], [ 129.088118310747547, 35.133118850951412 ], [ 129.08802112637656, 35.13314371255634 ], [ 129.08793029481032, 35.133160800123633 ], [ 129.083239503934749, 35.131394599501235 ], [ 129.082115075367142, 35.13087879444641 ], [ 129.081222819220102, 35.131029121493903 ], [ 129.081190608747448, 35.131021205569695 ], [ 129.079958081491895, 35.130276026951222 ], [ 129.079031073029739, 35.129710142319404 ], [ 129.078919305923534, 35.129645608266699 ], [ 129.078734829674545, 35.129554567497507 ], [ 129.07870441930217, 35.129545486009185 ], [ 129.078052522572307, 35.129553546790049 ], [ 129.077518667336705, 35.129587029022588 ], [ 129.075853709410268, 35.129899979293675 ], [ 129.07895385855042, 35.133694089056569 ], [ 129.081280969377985, 35.134466990663228 ], [ 129.081492190130831, 35.134508955360239 ], [ 129.081612576922993, 35.134532848014743 ], [ 129.083870973608555, 35.134775513604524 ], [ 129.085589168387571, 35.134868382077471 ], [ 129.087975465009436, 35.134949085150382 ], [ 129.088334215587764, 35.134961922556705 ], [ 129.089139302539934, 35.134992804462492 ], [ 129.089233440073286, 35.134996416755534 ], [ 129.089352757524381, 35.135001174603602 ], [ 129.089402787559465, 35.135003720817416 ], [ 129.089662613823521, 35.135016970172842 ], [ 129.090508232400737, 35.135060093232568 ], [ 129.090539690385981, 35.135061698064582 ], [ 129.093624950145937, 35.135261328338999 ], [ 129.09384167057749, 35.13527996466771 ], [ 129.096420015893784, 35.135771133997878 ], [ 129.096712713030882, 35.1354485579174 ], [ 129.097084465033447, 35.135375327365963 ], [ 129.097149400857035, 35.135359319019287 ], [ 129.097599261358056, 35.134978497210042 ], [ 129.097666238498874, 35.134919761675029 ], [ 129.09778468314974, 35.134782849060869 ], [ 129.098190099352536, 35.134241461072456 ], [ 129.098214517502868, 35.134173377073473 ], [ 129.098148469262412, 35.130100691272915 ], [ 129.097203195553533, 35.13009808138213 ] ] ] ] } },
{ "type": "Feature", "properties": { "OBJECTID": 517, "adm_nm": "부산광역시 남구 우암동", "adm_cd": "2107071", "adm_cd2": "2629064500", "sgg": "26290", "sido": "26", "sidonm": "부산광역시", "sggnm": "남구" }, "geometry": { "type": "MultiPolygon", "coordinates": [ [ [ [ 129.075853709410268, 35.129899979293675 ], [ 129.077518667336705, 35.129587029022588 ], [ 129.078052522572307, 35.129553546790049 ], [ 129.07870441930217, 35.129545486009185 ], [ 129.078734829674545, 35.129554567497507 ], [ 129.078919305923534, 35.129645608266699 ], [ 129.079031073029739, 35.129710142319404 ], [ 129.079958081491895, 35.130276026951222 ], [ 129.081190608747448, 35.131021205569695 ], [ 129.081222819220102, 35.131029121493903 ], [ 129.082115075367142, 35.13087879444641 ], [ 129.082153243735831, 35.130538909324244 ], [ 129.082728405623783, 35.129175637728835 ], [ 129.08290855682452, 35.128953230853398 ], [ 129.08375610840767, 35.128981282038374 ], [ 129.0840037869105, 35.128989491305362 ], [ 129.084583368181313, 35.128887819737209 ], [ 129.085426618751171, 35.128607013965635 ], [ 129.085584795806426, 35.128456430560291 ], [ 129.085821860451944, 35.128137332849114 ], [ 129.085856503669817, 35.128045322121295 ], [ 129.085947994495228, 35.127746933233006 ], [ 129.086210817419982, 35.126550620313253 ], [ 129.085449028801577, 35.125244001053041 ], [ 129.084071673193307, 35.124414353101535 ], [ 129.083625171561238, 35.124123154279054 ], [ 129.083598208317369, 35.124103066287823 ], [ 129.081745405595825, 35.122713817049316 ], [ 129.080984468441955, 35.121860110331184 ], [ 129.080808999566329, 35.121785308278994 ], [ 129.079684746612855, 35.12130904455374 ], [ 129.079624827741071, 35.121283856569676 ], [ 129.079051328086706, 35.12109106270001 ], [ 129.077604041825225, 35.120810490932826 ], [ 129.076196244735968, 35.120910684322752 ], [ 129.074984089028192, 35.121712749393019 ], [ 129.073084370989335, 35.122166531016482 ], [ 129.072998377115965, 35.122171148251653 ], [ 129.071967261042545, 35.122512496319011 ], [ 129.070945618121385, 35.122832160802105 ], [ 129.06997938936243, 35.123132632046946 ], [ 129.069938492715465, 35.123086795671135 ], [ 129.069400429850788, 35.122483264987984 ], [ 129.068664011421788, 35.121683196864701 ], [ 129.067084412912862, 35.122256298178236 ], [ 129.065339048523754, 35.122893138430051 ], [ 129.065441409446919, 35.123087646078353 ], [ 129.065460310015084, 35.123123507831039 ], [ 129.066273798131675, 35.124659094606677 ], [ 129.066522434946933, 35.125119182278667 ], [ 129.06672316142874, 35.125501681323463 ], [ 129.066782341588691, 35.125889712260715 ], [ 129.066716666421712, 35.126372942872301 ], [ 129.066657419393607, 35.126789832766924 ], [ 129.066567945741838, 35.127097026768787 ], [ 129.066423021736966, 35.127594590365369 ], [ 129.067709621846348, 35.127059896108889 ], [ 129.067823191991152, 35.127106118290222 ], [ 129.068396028166745, 35.12768569483859 ], [ 129.068523459012624, 35.127828961149589 ], [ 129.068564196457856, 35.127878253176235 ], [ 129.069296533916571, 35.129298936827119 ], [ 129.069542612384936, 35.130031881354341 ], [ 129.069676224603597, 35.130409464890199 ], [ 129.072813695856269, 35.132044903309243 ], [ 129.073044908563219, 35.131773103362661 ], [ 129.073083249627047, 35.131630883507405 ], [ 129.072832073137846, 35.13133454320721 ], [ 129.075853709410268, 35.129899979293675 ] ] ] ] } }
]
}
