{
"type": "FeatureCollection",
"name": "sahagu",
"crs": { "type": "name", "properties": { "name": "urn:ogc:def:crs:OGC:1.3:CRS84" } },
"features": [
{ "type": "Feature", "properties": { "OBJECTID": 548, "adm_nm": "부산광역시 사하구 괴정1동", "adm_cd": "2110051", "adm_cd2": "2638051000", "sgg": "26380", "sido": "26", "sidonm": "부산광역시", "sggnm": "사하구" }, "geometry": { "type": "MultiPolygon", "coordinates": [ [ [ [ 128.99308386906219, 35.093243069629374 ], [ 128.990594799804484, 35.091193385730207 ], [ 128.988776276825149, 35.091834386408742 ], [ 128.983556061198499, 35.091884269258465 ], [ 128.982400967533181, 35.094307750732845 ], [ 128.984499838370652, 35.094597040992603 ], [ 128.984550556879128, 35.094611107392943 ], [ 128.984687553625605, 35.094693279098593 ], [ 128.984916470316904, 35.094860146955313 ], [ 128.985106016099337, 35.095094157548097 ], [ 128.985950028797134, 35.096524292527342 ], [ 128.986160581263562, 35.097095527869655 ], [ 128.986318481562137, 35.097523945234826 ], [ 128.986676415226952, 35.09860014736433 ], [ 128.986771152145138, 35.098952134208169 ], [ 128.987693884717004, 35.103953666474879 ], [ 128.987783330240973, 35.104829064251604 ], [ 128.987599000098982, 35.105177180895055 ], [ 128.987400622910343, 35.105484856853217 ], [ 128.987484855929779, 35.1057362077539 ], [ 128.987756854360157, 35.106387713980482 ], [ 128.988420298337644, 35.107008915213477 ], [ 128.989933250210782, 35.108296053249049 ], [ 128.991128557808167, 35.109269736274229 ], [ 128.991600723741811, 35.109651091708351 ], [ 128.991817295177697, 35.109594981606016 ], [ 128.992042436090344, 35.109422384064956 ], [ 128.992966094784833, 35.107699557323734 ], [ 128.993537602211035, 35.105465262373642 ], [ 128.992757083583598, 35.102807983189166 ], [ 128.992526946612429, 35.102697372963611 ], [ 128.992469001670088, 35.102412143471867 ], [ 128.992478756726456, 35.102369872417981 ], [ 128.992844521989809, 35.101154075470859 ], [ 128.992991436866561, 35.100665729581102 ], [ 128.993139066145176, 35.100175018753582 ], [ 128.993259076393173, 35.099863280556292 ], [ 128.993370794854627, 35.099587131436088 ], [ 128.993447354992611, 35.095232698272703 ], [ 128.99308386906219, 35.093243069629374 ] ] ] ] } },
{ "type": "Feature", "properties": { "OBJECTID": 549, "adm_nm": "부산광역시 사하구 괴정2동", "adm_cd": "2110052", "adm_cd2": "2638052000", "sgg": "26380", "sido": "26", "sidonm": "부산광역시", "sggnm": "사하구" }, "geometry": { "type": "MultiPolygon", "coordinates": [ [ [ [ 129.003711214743731, 35.110670106338958 ], [ 129.006149805981437, 35.109547224713822 ], [ 129.006282241869826, 35.109469418925663 ], [ 129.006627974147165, 35.10917431634504 ], [ 129.006822833738369, 35.10900798909141 ], [ 129.010162529415169, 35.106098233571224 ], [ 129.010513649273918, 35.105592602819321 ], [ 129.009690326553425, 35.104772548934505 ], [ 129.009656455835454, 35.104728954528419 ], [ 129.007432619248988, 35.101829096156784 ], [ 129.00732093637501, 35.101592769548986 ], [ 129.007256985571189, 35.101343277076538 ], [ 129.006748590700766, 35.099093306672643 ], [ 129.003460996818973, 35.09697097637919 ], [ 129.000240236898435, 35.097382084353669 ], [ 129.000481143130202, 35.099674007609842 ], [ 128.999559903836001, 35.100778655241889 ], [ 128.998937601805153, 35.103248904324097 ], [ 128.998589943532039, 35.104689585530011 ], [ 128.998165218617316, 35.107483100903934 ], [ 128.998750880611851, 35.112153514100825 ], [ 128.998918044926882, 35.113453774999677 ], [ 128.999691103690253, 35.116118625334281 ], [ 129.000145582884187, 35.1183844090923 ], [ 129.001163617325034, 35.11422631698106 ], [ 129.001669802536497, 35.114298283459753 ], [ 129.001776241889473, 35.11430412976199 ], [ 129.002268232010238, 35.114259391537949 ], [ 129.0026878321749, 35.114209614426919 ], [ 129.002825029543516, 35.11418239015719 ], [ 129.003087589690836, 35.114092921092158 ], [ 129.003170367139035, 35.114026775746233 ], [ 129.003803712935706, 35.113249934126138 ], [ 129.003827351145247, 35.113162403548074 ], [ 129.003839188130286, 35.113063218075744 ], [ 129.003817374466735, 35.112977998808134 ], [ 129.003801341223522, 35.112915412441872 ], [ 129.003739830841084, 35.112709249019922 ], [ 129.003274230161253, 35.111808928700739 ], [ 129.003711214743731, 35.110670106338958 ] ] ] ] } },
{ "type": "Feature", "properties": { "OBJECTID": 550, "adm_nm": "부산광역시 사하구 괴정3동", "adm_cd": "2110053", "adm_cd2": "2638053000", "sgg": "26380", "sido": "26", "sidonm": "부산광역시", "sggnm": "사하구" }, "geometry": { "type": "MultiPolygon", "coordinates": [ [ [ [ 129.000145582884187, 35.1183844090923 ], [ 128.999691103690253, 35.116118625334281 ], [ 128.998918044926882, 35.113453774999677 ], [ 128.998750880611851, 35.112153514100825 ], [ 128.998165218617316, 35.107483100903934 ], [ 128.998589943532039, 35.104689585530011 ], [ 128.998937601805153, 35.103248904324097 ], [ 128.999559903836001, 35.100778655241889 ], [ 129.000481143130202, 35.099674007609842 ], [ 129.000240236898435, 35.097382084353669 ], [ 128.9982345456784, 35.095752877491584 ], [ 128.995676860971344, 35.094636559627276 ], [ 128.993792188314643, 35.093893290285429 ], [ 128.99308386906219, 35.093243069629374 ], [ 128.993447354992611, 35.095232698272703 ], [ 128.993370794854627, 35.099587131436088 ], [ 128.993259076393173, 35.099863280556292 ], [ 128.993139066145176, 35.100175018753582 ], [ 128.992991436866561, 35.100665729581102 ], [ 128.992844521989809, 35.101154075470859 ], [ 128.992478756726456, 35.102369872417981 ], [ 128.992469001670088, 35.102412143471867 ], [ 128.992526946612429, 35.102697372963611 ], [ 128.992757083583598, 35.102807983189166 ], [ 128.993537602211035, 35.105465262373642 ], [ 128.992966094784833, 35.107699557323734 ], [ 128.992042436090344, 35.109422384064956 ], [ 128.991817295177697, 35.109594981606016 ], [ 128.991600723741811, 35.109651091708351 ], [ 128.992190471313847, 35.110766305773616 ], [ 128.992646570189777, 35.11098530103601 ], [ 128.992965991732973, 35.111202250925125 ], [ 128.993069894187812, 35.111313105858741 ], [ 128.993947315114553, 35.112541899851962 ], [ 128.994466843690446, 35.113696287071946 ], [ 128.994747788321007, 35.114369263808626 ], [ 128.995123016630316, 35.114853817823999 ], [ 128.995332767715752, 35.115073925333881 ], [ 128.995571380435933, 35.115294017113783 ], [ 128.998082387588425, 35.11759538530611 ], [ 128.998142254076981, 35.117641125650813 ], [ 128.998850071738303, 35.118149720360179 ], [ 128.999233269819143, 35.118391529671115 ], [ 128.999384969752441, 35.11848261274784 ], [ 128.999604559845721, 35.118520311789744 ], [ 128.999698111331583, 35.118525218442059 ], [ 129.000145582884187, 35.1183844090923 ] ] ] ] } },
{ "type": "Feature", "properties": { "OBJECTID": 551, "adm_nm": "부산광역시 사하구 괴정4동", "adm_cd": "2110054", "adm_cd2": "2638054000", "sgg": "26380", "sido": "26", "sidonm": "부산광역시", "sggnm": "사하구" }, "geometry": { "type": "MultiPolygon", "coordinates": [ [ [ [ 128.992190471313847, 35.110766305773616 ], [ 128.991600723741811, 35.109651091708351 ], [ 128.991128557808167, 35.109269736274229 ], [ 128.989933250210782, 35.108296053249049 ], [ 128.988420298337644, 35.107008915213477 ], [ 128.987756854360157, 35.106387713980482 ], [ 128.987484855929779, 35.1057362077539 ], [ 128.987400622910343, 35.105484856853217 ], [ 128.987599000098982, 35.105177180895055 ], [ 128.987783330240973, 35.104829064251604 ], [ 128.987693884717004, 35.103953666474879 ], [ 128.986771152145138, 35.098952134208169 ], [ 128.986676415226952, 35.09860014736433 ], [ 128.986318481562137, 35.097523945234826 ], [ 128.986160581263562, 35.097095527869655 ], [ 128.985950028797134, 35.096524292527342 ], [ 128.985106016099337, 35.095094157548097 ], [ 128.984916470316904, 35.094860146955313 ], [ 128.984687553625605, 35.094693279098593 ], [ 128.984550556879128, 35.094611107392943 ], [ 128.984499838370652, 35.094597040992603 ], [ 128.982400967533181, 35.094307750732845 ], [ 128.982003015908333, 35.094198046643143 ], [ 128.981753860718186, 35.094172380920192 ], [ 128.981556598336965, 35.094175214767439 ], [ 128.98097479013191, 35.094216390064702 ], [ 128.980915168366693, 35.094224238575748 ], [ 128.980791208018019, 35.094254210885957 ], [ 128.980487095065826, 35.094336057585629 ], [ 128.978964350474087, 35.095433926903937 ], [ 128.977844579317548, 35.0960406204712 ], [ 128.976420501283286, 35.096565816617669 ], [ 128.976282074490769, 35.096597124561072 ], [ 128.976086541011369, 35.096595675544108 ], [ 128.975003044184945, 35.09653237535921 ], [ 128.976657154359827, 35.097453377694691 ], [ 128.97803772219342, 35.099365514922987 ], [ 128.981547341756254, 35.102126653378811 ], [ 128.982746341515366, 35.102822640538321 ], [ 128.983026978042801, 35.102932922149456 ], [ 128.983550880454686, 35.103644799247022 ], [ 128.985501646917953, 35.107174946412236 ], [ 128.988107790337381, 35.107774505069514 ], [ 128.9884483014431, 35.107957967279312 ], [ 128.988581689403674, 35.108074981992054 ], [ 128.989661105122821, 35.109366445016036 ], [ 128.990142029841707, 35.109960186925996 ], [ 128.990687899867339, 35.110659359109619 ], [ 128.990758103928613, 35.11070992062826 ], [ 128.990816038066924, 35.110743148746899 ], [ 128.99157433880859, 35.110780732270868 ], [ 128.992190471313847, 35.110766305773616 ] ] ] ] } },
{ "type": "Feature", "properties": { "OBJECTID": 552, "adm_nm": "부산광역시 사하구 당리동", "adm_cd": "2110055", "adm_cd2": "2638055000", "sgg": "26380", "sido": "26", "sidonm": "부산광역시", "sggnm": "사하구" }, "geometry": { "type": "MultiPolygon", "coordinates": [ [ [ [ 128.997968560249916, 35.122548157871137 ], [ 129.000322671955018, 35.120375027314999 ], [ 129.00051087661609, 35.120201283690506 ], [ 129.000145582884187, 35.1183844090923 ], [ 128.999698111331583, 35.118525218442059 ], [ 128.999604559845721, 35.118520311789744 ], [ 128.999384969752441, 35.11848261274784 ], [ 128.999233269819143, 35.118391529671115 ], [ 128.998850071738303, 35.118149720360179 ], [ 128.998142254076981, 35.117641125650813 ], [ 128.998082387588425, 35.11759538530611 ], [ 128.995571380435933, 35.115294017113783 ], [ 128.995332767715752, 35.115073925333881 ], [ 128.995123016630316, 35.114853817823999 ], [ 128.994747788321007, 35.114369263808626 ], [ 128.994466843690446, 35.113696287071946 ], [ 128.993947315114553, 35.112541899851962 ], [ 128.993069894187812, 35.111313105858741 ], [ 128.992965991732973, 35.111202250925125 ], [ 128.992646570189777, 35.11098530103601 ], [ 128.992190471313847, 35.110766305773616 ], [ 128.99157433880859, 35.110780732270868 ], [ 128.990816038066924, 35.110743148746899 ], [ 128.990758103928613, 35.11070992062826 ], [ 128.990687899867339, 35.110659359109619 ], [ 128.990142029841707, 35.109960186925996 ], [ 128.989661105122821, 35.109366445016036 ], [ 128.988581689403674, 35.108074981992054 ], [ 128.9884483014431, 35.107957967279312 ], [ 128.988107790337381, 35.107774505069514 ], [ 128.985501646917953, 35.107174946412236 ], [ 128.983550880454686, 35.103644799247022 ], [ 128.983026978042801, 35.102932922149456 ], [ 128.982746341515366, 35.102822640538321 ], [ 128.981547341756254, 35.102126653378811 ], [ 128.97803772219342, 35.099365514922987 ], [ 128.976657154359827, 35.097453377694691 ], [ 128.975003044184945, 35.09653237535921 ], [ 128.971339642096837, 35.097734517044906 ], [ 128.973366894171562, 35.101980843750191 ], [ 128.97355195342999, 35.103510421543255 ], [ 128.972958180350616, 35.10380952484838 ], [ 128.970972338616377, 35.104472546875641 ], [ 128.97072348950104, 35.104551111191583 ], [ 128.970556697502502, 35.104603773847963 ], [ 128.970336762327634, 35.104679253752209 ], [ 128.970201396955389, 35.104735851693881 ], [ 128.97011681456749, 35.104771222372335 ], [ 128.969924824899238, 35.104863187859586 ], [ 128.969720885604858, 35.104974822678429 ], [ 128.969487616019848, 35.105122479317487 ], [ 128.969440910077338, 35.105152051796196 ], [ 128.969084774740651, 35.105414708385766 ], [ 128.969001047807666, 35.105496835333994 ], [ 128.968960675613516, 35.105536448028104 ], [ 128.968307629713735, 35.106234899860802 ], [ 128.969204044688951, 35.106397529468126 ], [ 128.971730258995223, 35.109236360036341 ], [ 128.971877863927403, 35.109441225804311 ], [ 128.973235785154799, 35.111543739116037 ], [ 128.975637345339948, 35.116335417685839 ], [ 128.975675281458564, 35.116460400637472 ], [ 128.975791200042551, 35.116925658385085 ], [ 128.976120972445443, 35.116830778274178 ], [ 128.976182477671756, 35.116819708228178 ], [ 128.976303013313412, 35.116798036379528 ], [ 128.97982418517978, 35.116754071492899 ], [ 128.980392949638969, 35.117191811646315 ], [ 128.981527646382432, 35.118107061820275 ], [ 128.98159304065635, 35.118242816894174 ], [ 128.981695351345195, 35.118710915297036 ], [ 128.981777786149166, 35.119059657121277 ], [ 128.981891503244412, 35.119363908921898 ], [ 128.982148240720136, 35.119600818404152 ], [ 128.982271174891821, 35.119714247483849 ], [ 128.982337985496628, 35.119775890255433 ], [ 128.984224996472562, 35.121128866573024 ], [ 128.985526625032293, 35.122012401926177 ], [ 128.986735309027267, 35.12313275534386 ], [ 128.987149699930626, 35.123629093446198 ], [ 128.987272986006246, 35.123789403560671 ], [ 128.987356897855221, 35.123898537475277 ], [ 128.987510355843085, 35.124192646485916 ], [ 128.987581320440313, 35.124437389839748 ], [ 128.987689081479317, 35.124927699782951 ], [ 128.989779407898652, 35.123699521958805 ], [ 128.990241076768797, 35.123586877914661 ], [ 128.992822483827638, 35.123205097711171 ], [ 128.993064261315652, 35.12317673390185 ], [ 128.994946707437947, 35.123148503061877 ], [ 128.997968560249916, 35.122548157871137 ] ] ] ] } },
{ "type": "Feature", "properties": { "OBJECTID": 553, "adm_nm": "부산광역시 사하구 하단1동", "adm_cd": "2110056", "adm_cd2": "2638056100", "sgg": "26380", "sido": "26", "sidonm": "부산광역시", "sggnm": "사하구" }, "geometry": { "type": "MultiPolygon", "coordinates": [ [ [ [ 128.936856403381228, 35.109884367743234 ], [ 128.939385938775956, 35.109180917109683 ], [ 128.941640559886025, 35.108715607729458 ], [ 128.945478160449994, 35.108066807026397 ], [ 128.950463023369252, 35.107410919538339 ], [ 128.95998407376328, 35.106204233335347 ], [ 128.968307629713735, 35.106234899860802 ], [ 128.968960675613516, 35.105536448028104 ], [ 128.969001047807666, 35.105496835333994 ], [ 128.969084774740651, 35.105414708385766 ], [ 128.969440910077338, 35.105152051796196 ], [ 128.969487616019848, 35.105122479317487 ], [ 128.969720885604858, 35.104974822678429 ], [ 128.969924824899238, 35.104863187859586 ], [ 128.97011681456749, 35.104771222372335 ], [ 128.970201396955389, 35.104735851693881 ], [ 128.970336762327634, 35.104679253752209 ], [ 128.970556697502502, 35.104603773847963 ], [ 128.97072348950104, 35.104551111191583 ], [ 128.970972338616377, 35.104472546875641 ], [ 128.972958180350616, 35.10380952484838 ], [ 128.97355195342999, 35.103510421543255 ], [ 128.973366894171562, 35.101980843750191 ], [ 128.971339642096837, 35.097734517044906 ], [ 128.971004130348206, 35.098188228091082 ], [ 128.970848013778181, 35.098330853061753 ], [ 128.970337649417445, 35.098707637143463 ], [ 128.96970997654185, 35.099099913170797 ], [ 128.969651216184616, 35.099133461981872 ], [ 128.967747611985232, 35.100094664026393 ], [ 128.96699631120228, 35.100422282327528 ], [ 128.966450717478921, 35.100621104818899 ], [ 128.966331684910386, 35.100647800292741 ], [ 128.966185577389297, 35.100666854548393 ], [ 128.964405561282405, 35.100826228920141 ], [ 128.963351518388521, 35.099962766091501 ], [ 128.963186069033043, 35.099862197599279 ], [ 128.96274811547795, 35.099655736544847 ], [ 128.961987699716815, 35.099353408985806 ], [ 128.961378158785919, 35.099151876701946 ], [ 128.960381829868112, 35.098865841380501 ], [ 128.958269826417848, 35.099018201173607 ], [ 128.955958772934025, 35.09918485726206 ], [ 128.955619926719834, 35.099209277328406 ], [ 128.955460208562016, 35.09782335020455 ], [ 128.95530721398498, 35.09649576293036 ], [ 128.955150670325196, 35.095137343194232 ], [ 128.954878640628607, 35.093955916859187 ], [ 128.954370139114189, 35.092396936713705 ], [ 128.953443508142158, 35.089555947960761 ], [ 128.952453274760956, 35.087661375336531 ], [ 128.951279499895804, 35.085946219154849 ], [ 128.951213487863868, 35.08584977637895 ], [ 128.951175901273757, 35.085794837191109 ], [ 128.950534505764864, 35.0837254475842 ], [ 128.951327887488276, 35.080157435006598 ], [ 128.951033902482919, 35.079633369198483 ], [ 128.950904495207681, 35.078017227783455 ], [ 128.938516062900533, 35.07810166840806 ], [ 128.932978898136327, 35.084124243610013 ], [ 128.929522544604907, 35.08846673269715 ], [ 128.925354447408779, 35.093411534530844 ], [ 128.926782992328782, 35.095357290881438 ], [ 128.928656160011087, 35.099126289511766 ], [ 128.929038926842566, 35.099995431808267 ], [ 128.930350361719377, 35.103118485073161 ], [ 128.93178371472473, 35.106663695172465 ], [ 128.932474831050712, 35.108879309830357 ], [ 128.932904654914267, 35.11028433141648 ], [ 128.936856403381228, 35.109884367743234 ] ] ] ] } },
{ "type": "Feature", "properties": { "OBJECTID": 554, "adm_nm": "부산광역시 사하구 하단2동", "adm_cd": "2110057", "adm_cd2": "2638056200", "sgg": "26380", "sido": "26", "sidonm": "부산광역시", "sggnm": "사하구" }, "geometry": { "type": "MultiPolygon", "coordinates": [ [ [ [ 128.975791200042551, 35.116925658385085 ], [ 128.975675281458564, 35.116460400637472 ], [ 128.975637345339948, 35.116335417685839 ], [ 128.973235785154799, 35.111543739116037 ], [ 128.971877863927403, 35.109441225804311 ], [ 128.971730258995223, 35.109236360036341 ], [ 128.969204044688951, 35.106397529468126 ], [ 128.968307629713735, 35.106234899860802 ], [ 128.95998407376328, 35.106204233335347 ], [ 128.950463023369252, 35.107410919538339 ], [ 128.945478160449994, 35.108066807026397 ], [ 128.941640559886025, 35.108715607729458 ], [ 128.939385938775956, 35.109180917109683 ], [ 128.936856403381228, 35.109884367743234 ], [ 128.939037681065116, 35.112901215638175 ], [ 128.95687902012088, 35.127306089733921 ], [ 128.958255841852292, 35.123086602851465 ], [ 128.959907975666169, 35.120277912208387 ], [ 128.96095603461589, 35.120026907393331 ], [ 128.961500245190905, 35.119911661728935 ], [ 128.963146350160542, 35.12015636125777 ], [ 128.963303212094928, 35.120645485590849 ], [ 128.963624870059391, 35.121568939614463 ], [ 128.963679464856, 35.12166899994164 ], [ 128.96371102885962, 35.121724271555479 ], [ 128.966332049144029, 35.121416396311666 ], [ 128.967414416721766, 35.121213550642153 ], [ 128.96781014742524, 35.121134334430401 ], [ 128.968895564347889, 35.120917048736004 ], [ 128.974951748623852, 35.117607814489915 ], [ 128.975791200042551, 35.116925658385085 ] ] ] ] } },
{ "type": "Feature", "properties": { "OBJECTID": 555, "adm_nm": "부산광역시 사하구 신평1동", "adm_cd": "2110058", "adm_cd2": "2638057100", "sgg": "26380", "sido": "26", "sidonm": "부산광역시", "sggnm": "사하구" }, "geometry": { "type": "MultiPolygon", "coordinates": [ [ [ [ 128.975003044184945, 35.09653237535921 ], [ 128.976086541011369, 35.096595675544108 ], [ 128.976282074490769, 35.096597124561072 ], [ 128.976420501283286, 35.096565816617669 ], [ 128.977844579317548, 35.0960406204712 ], [ 128.978964350474087, 35.095433926903937 ], [ 128.980487095065826, 35.094336057585629 ], [ 128.980791208018019, 35.094254210885957 ], [ 128.980915168366693, 35.094224238575748 ], [ 128.98097479013191, 35.094216390064702 ], [ 128.981556598336965, 35.094175214767439 ], [ 128.981753860718186, 35.094172380920192 ], [ 128.982003015908333, 35.094198046643143 ], [ 128.982400967533181, 35.094307750732845 ], [ 128.983556061198499, 35.091884269258465 ], [ 128.983675189352766, 35.090280226662351 ], [ 128.984296804337674, 35.087537030295003 ], [ 128.984351855069946, 35.087392415951406 ], [ 128.984369494708375, 35.087271910228175 ], [ 128.984357800248802, 35.087064634863268 ], [ 128.984263994385913, 35.086645277681122 ], [ 128.983094764468575, 35.084929573213657 ], [ 128.977440983973423, 35.085124835759608 ], [ 128.975073028168964, 35.085172237748552 ], [ 128.967752006127029, 35.085394652012802 ], [ 128.966030109852539, 35.090031512477957 ], [ 128.967744842449378, 35.091190630754113 ], [ 128.96894460860446, 35.091899371807749 ], [ 128.968491402519788, 35.09396252967526 ], [ 128.968110794030565, 35.095419038001772 ], [ 128.967788935424437, 35.095613730961503 ], [ 128.967771930287768, 35.095641569978078 ], [ 128.96892337405572, 35.096421117449168 ], [ 128.971339642096837, 35.097734517044906 ], [ 128.975003044184945, 35.09653237535921 ] ] ] ] } },
{ "type": "Feature", "properties": { "OBJECTID": 556, "adm_nm": "부산광역시 사하구 신평2동", "adm_cd": "2110059", "adm_cd2": "2638057200", "sgg": "26380", "sido": "26", "sidonm": "부산광역시", "sggnm": "사하구" }, "geometry": { "type": "MultiPolygon", "coordinates": [ [ [ [ 128.971339642096837, 35.097734517044906 ], [ 128.96892337405572, 35.096421117449168 ], [ 128.967771930287768, 35.095641569978078 ], [ 128.967788935424437, 35.095613730961503 ], [ 128.968110794030565, 35.095419038001772 ], [ 128.968491402519788, 35.09396252967526 ], [ 128.96894460860446, 35.091899371807749 ], [ 128.967744842449378, 35.091190630754113 ], [ 128.966030109852539, 35.090031512477957 ], [ 128.967752006127029, 35.085394652012802 ], [ 128.96802024469045, 35.084593981849203 ], [ 128.96492227076584, 35.083544062205632 ], [ 128.957732381029558, 35.081429617279483 ], [ 128.957022800073076, 35.081239352724403 ], [ 128.951033902482919, 35.079633369198483 ], [ 128.951327887488276, 35.080157435006598 ], [ 128.950534505764864, 35.0837254475842 ], [ 128.951175901273757, 35.085794837191109 ], [ 128.951213487863868, 35.08584977637895 ], [ 128.951279499895804, 35.085946219154849 ], [ 128.952453274760956, 35.087661375336531 ], [ 128.953443508142158, 35.089555947960761 ], [ 128.954370139114189, 35.092396936713705 ], [ 128.954878640628607, 35.093955916859187 ], [ 128.955150670325196, 35.095137343194232 ], [ 128.95530721398498, 35.09649576293036 ], [ 128.955460208562016, 35.09782335020455 ], [ 128.955619926719834, 35.099209277328406 ], [ 128.955958772934025, 35.09918485726206 ], [ 128.958269826417848, 35.099018201173607 ], [ 128.960381829868112, 35.098865841380501 ], [ 128.961378158785919, 35.099151876701946 ], [ 128.961987699716815, 35.099353408985806 ], [ 128.96274811547795, 35.099655736544847 ], [ 128.963186069033043, 35.099862197599279 ], [ 128.963351518388521, 35.099962766091501 ], [ 128.964405561282405, 35.100826228920141 ], [ 128.966185577389297, 35.100666854548393 ], [ 128.966331684910386, 35.100647800292741 ], [ 128.966450717478921, 35.100621104818899 ], [ 128.96699631120228, 35.100422282327528 ], [ 128.967747611985232, 35.100094664026393 ], [ 128.969651216184616, 35.099133461981872 ], [ 128.96970997654185, 35.099099913170797 ], [ 128.970337649417445, 35.098707637143463 ], [ 128.970848013778181, 35.098330853061753 ], [ 128.971004130348206, 35.098188228091082 ], [ 128.971339642096837, 35.097734517044906 ] ] ] ] } },
{ "type": "Feature", "properties": { "OBJECTID": 557, "adm_nm": "부산광역시 사하구 장림1동", "adm_cd": "2110060", "adm_cd2": "2638058000", "sgg": "26380", "sido": "26", "sidonm": "부산광역시", "sggnm": "사하구" }, "geometry": { "type": "MultiPolygon", "coordinates": [ [ [ [ 128.977440983973423, 35.085124835759608 ], [ 128.977327218402934, 35.082305902673674 ], [ 128.976568261817619, 35.080635679876757 ], [ 128.97493826453632, 35.080633024556221 ], [ 128.973044410226009, 35.080647181360291 ], [ 128.970482460623884, 35.080670826809083 ], [ 128.969352722980659, 35.08068376109226 ], [ 128.968822825355147, 35.08068984346712 ], [ 128.968565373359382, 35.080713418238162 ], [ 128.968261473622675, 35.080741260641616 ], [ 128.968218899022077, 35.080745166329763 ], [ 128.968014403435234, 35.080317325599516 ], [ 128.967940570376527, 35.080162529493812 ], [ 128.967854974578216, 35.079949283249938 ], [ 128.967642817044009, 35.079420693423778 ], [ 128.967618344116318, 35.079359712998524 ], [ 128.967425141913338, 35.078775666553113 ], [ 128.967194839979015, 35.077492016810524 ], [ 128.966582642512122, 35.073372683285506 ], [ 128.966602731481743, 35.073105120828309 ], [ 128.96662411259291, 35.072931526157973 ], [ 128.966647946790772, 35.072860265909348 ], [ 128.96676346018819, 35.072750770224317 ], [ 128.967212062261552, 35.072418003731457 ], [ 128.967386037342294, 35.072316563942543 ], [ 128.967452599398854, 35.072277749243675 ], [ 128.967619991604494, 35.071920375761309 ], [ 128.968005852583019, 35.070713387598964 ], [ 128.969162497895098, 35.066438176725988 ], [ 128.969119255575123, 35.065902268801288 ], [ 128.967947993192325, 35.065035643527452 ], [ 128.967389350696266, 35.065035512353212 ], [ 128.966852388947473, 35.065066677130936 ], [ 128.966613685171353, 35.065276498011769 ], [ 128.964112544739521, 35.067502661019688 ], [ 128.963418018526284, 35.068248295435424 ], [ 128.962837510076753, 35.06865900400107 ], [ 128.958519923550682, 35.070881993824294 ], [ 128.957173675060233, 35.071457533341018 ], [ 128.95521301278859, 35.072682215043976 ], [ 128.952536649394062, 35.072043942586816 ], [ 128.950904495207681, 35.078017227783455 ], [ 128.951033902482919, 35.079633369198483 ], [ 128.957022800073076, 35.081239352724403 ], [ 128.957732381029558, 35.081429617279483 ], [ 128.96492227076584, 35.083544062205632 ], [ 128.96802024469045, 35.084593981849203 ], [ 128.967752006127029, 35.085394652012802 ], [ 128.975073028168964, 35.085172237748552 ], [ 128.977440983973423, 35.085124835759608 ] ] ] ] } },
{ "type": "Feature", "properties": { "OBJECTID": 558, "adm_nm": "부산광역시 사하구 장림2동", "adm_cd": "2110061", "adm_cd2": "2638059000", "sgg": "26380", "sido": "26", "sidonm": "부산광역시", "sggnm": "사하구" }, "geometry": { "type": "MultiPolygon", "coordinates": [ [ [ [ 128.983094764468575, 35.084929573213657 ], [ 128.983574748584545, 35.084910832730458 ], [ 128.983659543106484, 35.08473563841887 ], [ 128.983035262951972, 35.081465860592317 ], [ 128.983670215127489, 35.079928610992589 ], [ 128.984033751833579, 35.079662796021786 ], [ 128.984626415659477, 35.079202931083131 ], [ 128.984793244652764, 35.079065953186742 ], [ 128.984806823020818, 35.079030726172455 ], [ 128.985421794821434, 35.075970528998262 ], [ 128.985381407919249, 35.074894959994857 ], [ 128.984102837305926, 35.074136083596223 ], [ 128.982718033138696, 35.073364720874586 ], [ 128.980591434842808, 35.07203993217383 ], [ 128.979675865947144, 35.070354787366682 ], [ 128.978756013726297, 35.069336297010317 ], [ 128.973833412663708, 35.065657942826078 ], [ 128.973716636205154, 35.065602349989533 ], [ 128.973433744328531, 35.065615128375562 ], [ 128.971372045852547, 35.066139981406536 ], [ 128.970634150758286, 35.066383930910497 ], [ 128.969119255575123, 35.065902268801288 ], [ 128.969162497895098, 35.066438176725988 ], [ 128.968005852583019, 35.070713387598964 ], [ 128.967619991604494, 35.071920375761309 ], [ 128.967452599398854, 35.072277749243675 ], [ 128.967386037342294, 35.072316563942543 ], [ 128.967212062261552, 35.072418003731457 ], [ 128.96676346018819, 35.072750770224317 ], [ 128.966647946790772, 35.072860265909348 ], [ 128.96662411259291, 35.072931526157973 ], [ 128.966602731481743, 35.073105120828309 ], [ 128.966582642512122, 35.073372683285506 ], [ 128.967194839979015, 35.077492016810524 ], [ 128.967425141913338, 35.078775666553113 ], [ 128.967618344116318, 35.079359712998524 ], [ 128.967642817044009, 35.079420693423778 ], [ 128.967854974578216, 35.079949283249938 ], [ 128.967940570376527, 35.080162529493812 ], [ 128.968014403435234, 35.080317325599516 ], [ 128.968218899022077, 35.080745166329763 ], [ 128.968261473622675, 35.080741260641616 ], [ 128.968565373359382, 35.080713418238162 ], [ 128.968822825355147, 35.08068984346712 ], [ 128.969352722980659, 35.08068376109226 ], [ 128.970482460623884, 35.080670826809083 ], [ 128.973044410226009, 35.080647181360291 ], [ 128.97493826453632, 35.080633024556221 ], [ 128.976568261817619, 35.080635679876757 ], [ 128.977327218402934, 35.082305902673674 ], [ 128.977440983973423, 35.085124835759608 ], [ 128.983094764468575, 35.084929573213657 ] ] ] ] } },
{ "type": "Feature", "properties": { "OBJECTID": 559, "adm_nm": "부산광역시 사하구 다대1동", "adm_cd": "2110062", "adm_cd2": "2638060100", "sgg": "26380", "sido": "26", "sidonm": "부산광역시", "sggnm": "사하구" }, "geometry": { "type": "MultiPolygon", "coordinates": [ [ [ [ 128.972661369913197, 35.029657264705236 ], [ 128.971085420061684, 35.029326820582163 ], [ 128.96872008287275, 35.029854663077771 ], [ 128.968532702413597, 35.030232343545443 ], [ 128.968604119507631, 35.030583633539599 ], [ 128.968707409243052, 35.030822753487328 ], [ 128.971064312104886, 35.034187863258751 ], [ 128.971406288440392, 35.034494113563234 ], [ 128.971821838053302, 35.034691536254179 ], [ 128.972255624161676, 35.03480622380377 ], [ 128.972764555946867, 35.034685736138449 ], [ 128.973095141387262, 35.034528321605471 ], [ 128.973569732632598, 35.033976536775242 ], [ 128.973757710369625, 35.03358975587809 ], [ 128.973836883749129, 35.032948815987254 ], [ 128.973727367011378, 35.03264977964146 ], [ 128.973603367296022, 35.03231777131397 ], [ 128.973444358530315, 35.031987137443799 ], [ 128.973150656002588, 35.031499223611455 ], [ 128.972990182881745, 35.031260209558525 ], [ 128.972840495440437, 35.031077865669367 ], [ 128.972661369913197, 35.029657264705236 ] ] ], [ [ [ 128.975983978993725, 35.04326512443609 ], [ 128.975653923220193, 35.043212029534487 ], [ 128.97527588920488, 35.043286590078452 ], [ 128.974815409324435, 35.043449133499209 ], [ 128.974408197142793, 35.043640597772516 ], [ 128.974089248513337, 35.04381441969096 ], [ 128.973611349546303, 35.044111699647544 ], [ 128.973497370407813, 35.044182643589309 ], [ 128.972558934284564, 35.044915923768514 ], [ 128.972148075594674, 35.04528355836991 ], [ 128.972031652221858, 35.045754794428994 ], [ 128.972144820386916, 35.046086428237601 ], [ 128.972455769422879, 35.046204876065175 ], [ 128.973319152883306, 35.046227824985692 ], [ 128.97371694080195, 35.046102649735587 ], [ 128.974027076704715, 35.04602683173259 ], [ 128.974486431663593, 35.045889080865017 ], [ 128.975015846531079, 35.045688517824182 ], [ 128.975265968362095, 35.045537094044334 ], [ 128.97566687818275, 35.045213238956769 ], [ 128.976264511160338, 35.044683043299351 ], [ 128.976428111764648, 35.044434975287196 ], [ 128.976557144305332, 35.044156468492538 ], [ 128.976492072551878, 35.043779380918032 ], [ 128.976299133603419, 35.043525052697689 ], [ 128.976162273088875, 35.043351966083669 ], [ 128.975983978993725, 35.04326512443609 ] ] ], [ [ [ 128.969119255575123, 35.065902268801288 ], [ 128.970634150758286, 35.066383930910497 ], [ 128.971720156517648, 35.063407427060397 ], [ 128.971949809338099, 35.06305121156548 ], [ 128.972362265947481, 35.062524314435798 ], [ 128.973992379131857, 35.061747558784482 ], [ 128.97446277349971, 35.061576008796571 ], [ 128.975315026007024, 35.061265191382404 ], [ 128.976518210376469, 35.060700563847981 ], [ 128.97808395101012, 35.059442186814316 ], [ 128.978320139149787, 35.059237049364974 ], [ 128.978522603516694, 35.058952865337787 ], [ 128.978553845221228, 35.058375899529622 ], [ 128.978552559775295, 35.058349793104121 ], [ 128.978175381479701, 35.057789546794545 ], [ 128.977556041842547, 35.056918918708284 ], [ 128.977336305700675, 35.055408473242096 ], [ 128.976785794198179, 35.055248987669344 ], [ 128.975938025272939, 35.05551548108307 ], [ 128.975845469318159, 35.055581444725355 ], [ 128.975706108970911, 35.055680765682418 ], [ 128.975333386069082, 35.055946449197975 ], [ 128.975314089891185, 35.056564412686392 ], [ 128.972797073248955, 35.056632227927132 ], [ 128.972446815991304, 35.055262245854394 ], [ 128.972407379188525, 35.054644648327233 ], [ 128.972392097305118, 35.054405285051779 ], [ 128.973494193567973, 35.053348569893608 ], [ 128.973893254194337, 35.053240530088537 ], [ 128.973935478351819, 35.053229099091219 ], [ 128.974583721673184, 35.053190471299587 ], [ 128.975880183667726, 35.053113238096692 ], [ 128.978032491994639, 35.053106231112061 ], [ 128.980048865832373, 35.053129513080052 ], [ 128.982650839540099, 35.051935943304059 ], [ 128.982848300946472, 35.051623890638872 ], [ 128.982140031922313, 35.047761065344901 ], [ 128.979953040517813, 35.047740624133006 ], [ 128.975879068907034, 35.047956077656266 ], [ 128.974671559835429, 35.048654876456027 ], [ 128.973110702686455, 35.049097255797008 ], [ 128.972250813613527, 35.048839406469526 ], [ 128.970514917123097, 35.048095892748201 ], [ 128.970038101987967, 35.04777639669198 ], [ 128.96958220800866, 35.047470892869192 ], [ 128.969490153862665, 35.047223815874261 ], [ 128.969114586324935, 35.046215724016072 ], [ 128.969154050498844, 35.045766575976756 ], [ 128.969607290956219, 35.044983400607784 ], [ 128.970073713978167, 35.044749537666561 ], [ 128.971164605156332, 35.044311567855594 ], [ 128.972914606523972, 35.043474984979433 ], [ 128.972865184092825, 35.043055547412514 ], [ 128.969930494843311, 35.040420097594989 ], [ 128.972608308345485, 35.040399976145672 ], [ 128.971100673358649, 35.038257437948673 ], [ 128.968538776933372, 35.037080118913146 ], [ 128.96822569339372, 35.03697018141991 ], [ 128.967841452126294, 35.036747375220614 ], [ 128.967542347238918, 35.036452456442703 ], [ 128.96734667241995, 35.036142072498926 ], [ 128.967162942635127, 35.035533006249068 ], [ 128.967126605583189, 35.034467245126287 ], [ 128.967189375377529, 35.034111085791892 ], [ 128.966967027454558, 35.033275029899308 ], [ 128.966142945588274, 35.032616840281811 ], [ 128.965676647530188, 35.032636689770484 ], [ 128.964619494733, 35.03392889891466 ], [ 128.963006391128857, 35.037073310208058 ], [ 128.962647968714407, 35.038533811967014 ], [ 128.962703514469382, 35.03921177135296 ], [ 128.963392773240088, 35.040073442961862 ], [ 128.964468409575602, 35.042286583939031 ], [ 128.964504991771861, 35.046210686959256 ], [ 128.964371552097532, 35.046458269709312 ], [ 128.962072432431569, 35.047368278394252 ], [ 128.961117870395782, 35.047351556579571 ], [ 128.959223386784345, 35.047318345242402 ], [ 128.958348551402992, 35.047959447722981 ], [ 128.955895017476905, 35.052427973280892 ], [ 128.955686353557496, 35.053095674475948 ], [ 128.95688712765832, 35.05447882920614 ], [ 128.956402505539472, 35.056327388695294 ], [ 128.955446053864335, 35.059975453686171 ], [ 128.953610848777885, 35.066960751988653 ], [ 128.952933625197716, 35.069538160471225 ], [ 128.952536649394062, 35.072043942586816 ], [ 128.95521301278859, 35.072682215043976 ], [ 128.957173675060233, 35.071457533341018 ], [ 128.958519923550682, 35.070881993824294 ], [ 128.962837510076753, 35.06865900400107 ], [ 128.963418018526284, 35.068248295435424 ], [ 128.964112544739521, 35.067502661019688 ], [ 128.966613685171353, 35.065276498011769 ], [ 128.966852388947473, 35.065066677130936 ], [ 128.967389350696266, 35.065035512353212 ], [ 128.967947993192325, 35.065035643527452 ], [ 128.969119255575123, 35.065902268801288 ] ] ] ] } },
{ "type": "Feature", "properties": { "OBJECTID": 560, "adm_nm": "부산광역시 사하구 다대2동", "adm_cd": "2110063", "adm_cd2": "2638060200", "sgg": "26380", "sido": "26", "sidonm": "부산광역시", "sggnm": "사하구" }, "geometry": { "type": "MultiPolygon", "coordinates": [ [ [ [ 128.996863924911281, 35.048453378291327 ], [ 128.994424546317845, 35.048119573234835 ], [ 128.990609274257167, 35.048918242513047 ], [ 128.990277430673956, 35.049084707696593 ], [ 128.989808362077952, 35.050518476715304 ], [ 128.990062925374616, 35.052566578343857 ], [ 128.990506849504499, 35.052917107819106 ], [ 128.988156731787228, 35.057972453212052 ], [ 128.984559193953828, 35.05969255961449 ], [ 128.980114020077934, 35.057873942242573 ], [ 128.977556041842547, 35.056918918708284 ], [ 128.978175381479701, 35.057789546794545 ], [ 128.978552559775295, 35.058349793104121 ], [ 128.978553845221228, 35.058375899529622 ], [ 128.978522603516694, 35.058952865337787 ], [ 128.978320139149787, 35.059237049364974 ], [ 128.97808395101012, 35.059442186814316 ], [ 128.976518210376469, 35.060700563847981 ], [ 128.975315026007024, 35.061265191382404 ], [ 128.97446277349971, 35.061576008796571 ], [ 128.973992379131857, 35.061747558784482 ], [ 128.972362265947481, 35.062524314435798 ], [ 128.971949809338099, 35.06305121156548 ], [ 128.971720156517648, 35.063407427060397 ], [ 128.970634150758286, 35.066383930910497 ], [ 128.971372045852547, 35.066139981406536 ], [ 128.973433744328531, 35.065615128375562 ], [ 128.973716636205154, 35.065602349989533 ], [ 128.973833412663708, 35.065657942826078 ], [ 128.978756013726297, 35.069336297010317 ], [ 128.979675865947144, 35.070354787366682 ], [ 128.981204068472636, 35.068727089314443 ], [ 128.982973573097013, 35.068451769016896 ], [ 128.983749542214554, 35.06803989746043 ], [ 128.987341049994171, 35.066080930046887 ], [ 128.987561995623309, 35.065863105448067 ], [ 128.987864766300788, 35.065303943618709 ], [ 128.988385798786737, 35.063428809358946 ], [ 128.988925914071501, 35.061241528241261 ], [ 128.991655885298144, 35.060399444187851 ], [ 128.993371288439988, 35.06002668675891 ], [ 128.993862211816889, 35.06000589093555 ], [ 128.994699512405674, 35.057734899083101 ], [ 128.994880593889746, 35.057220318522035 ], [ 128.99498158540132, 35.056909181528816 ], [ 128.995002500151855, 35.056726703315739 ], [ 128.9950129513104, 35.05655615371434 ], [ 128.995005996138019, 35.056439465682296 ], [ 128.994943580706064, 35.056070775712627 ], [ 128.994688675955189, 35.054414302966926 ], [ 128.994688699451871, 35.05416964966809 ], [ 128.994706498718813, 35.054037132221417 ], [ 128.994753962622013, 35.053874048156445 ], [ 128.995406335405448, 35.052129830574245 ], [ 128.996863924911281, 35.048453378291327 ] ] ] ] } },
{ "type": "Feature", "properties": { "OBJECTID": 561, "adm_nm": "부산광역시 사하구 구평동", "adm_cd": "2110064", "adm_cd2": "2638061000", "sgg": "26380", "sido": "26", "sidonm": "부산광역시", "sggnm": "사하구" }, "geometry": { "type": "MultiPolygon", "coordinates": [ [ [ [ 128.990594799804484, 35.091193385730207 ], [ 128.990971233274877, 35.09002354538152 ], [ 128.991767520637012, 35.088973716477398 ], [ 128.992536141877991, 35.088319963991736 ], [ 128.993376464640022, 35.087904562860011 ], [ 128.994264761025846, 35.088377138050198 ], [ 128.996690706409225, 35.08609580887525 ], [ 128.996651718509469, 35.085451687886533 ], [ 128.996935570998232, 35.083370614696285 ], [ 128.997176371653495, 35.083028155577168 ], [ 128.99311906615398, 35.083869993995229 ], [ 128.992725072177052, 35.080139338967008 ], [ 128.993204467222398, 35.079065706165096 ], [ 128.995079395395095, 35.075715842953286 ], [ 128.995095541624067, 35.075686978414822 ], [ 128.995029995189668, 35.074542227833597 ], [ 128.994686336446165, 35.074362063555071 ], [ 128.993729996554578, 35.073789399396837 ], [ 128.993778269556771, 35.072673750188862 ], [ 128.994387979251286, 35.071394026497011 ], [ 128.995366913272278, 35.071346959854317 ], [ 128.995383016516854, 35.066789783104667 ], [ 128.995326649901017, 35.063494143436088 ], [ 128.996406266641458, 35.060261368213169 ], [ 128.998958255035149, 35.054407556232277 ], [ 128.999518471081984, 35.053122410911534 ], [ 128.999600657633863, 35.052933869212566 ], [ 129.001296037400977, 35.048215040820686 ], [ 129.000156307715343, 35.047941528186065 ], [ 128.999756248533885, 35.047865698242646 ], [ 128.999023953804027, 35.048813936198776 ], [ 128.996863924911281, 35.048453378291327 ], [ 128.995406335405448, 35.052129830574245 ], [ 128.994753962622013, 35.053874048156445 ], [ 128.994706498718813, 35.054037132221417 ], [ 128.994688699451871, 35.05416964966809 ], [ 128.994688675955189, 35.054414302966926 ], [ 128.994943580706064, 35.056070775712627 ], [ 128.995005996138019, 35.056439465682296 ], [ 128.9950129513104, 35.05655615371434 ], [ 128.995002500151855, 35.056726703315739 ], [ 128.99498158540132, 35.056909181528816 ], [ 128.994880593889746, 35.057220318522035 ], [ 128.994699512405674, 35.057734899083101 ], [ 128.993862211816889, 35.06000589093555 ], [ 128.993371288439988, 35.06002668675891 ], [ 128.991655885298144, 35.060399444187851 ], [ 128.988925914071501, 35.061241528241261 ], [ 128.988385798786737, 35.063428809358946 ], [ 128.987864766300788, 35.065303943618709 ], [ 128.987561995623309, 35.065863105448067 ], [ 128.987341049994171, 35.066080930046887 ], [ 128.983749542214554, 35.06803989746043 ], [ 128.982973573097013, 35.068451769016896 ], [ 128.981204068472636, 35.068727089314443 ], [ 128.979675865947144, 35.070354787366682 ], [ 128.980591434842808, 35.07203993217383 ], [ 128.982718033138696, 35.073364720874586 ], [ 128.984102837305926, 35.074136083596223 ], [ 128.985381407919249, 35.074894959994857 ], [ 128.985421794821434, 35.075970528998262 ], [ 128.984806823020818, 35.079030726172455 ], [ 128.984793244652764, 35.079065953186742 ], [ 128.984626415659477, 35.079202931083131 ], [ 128.984033751833579, 35.079662796021786 ], [ 128.983670215127489, 35.079928610992589 ], [ 128.983035262951972, 35.081465860592317 ], [ 128.983659543106484, 35.08473563841887 ], [ 128.983574748584545, 35.084910832730458 ], [ 128.983094764468575, 35.084929573213657 ], [ 128.984263994385913, 35.086645277681122 ], [ 128.984357800248802, 35.087064634863268 ], [ 128.984369494708375, 35.087271910228175 ], [ 128.984351855069946, 35.087392415951406 ], [ 128.984296804337674, 35.087537030295003 ], [ 128.983675189352766, 35.090280226662351 ], [ 128.983556061198499, 35.091884269258465 ], [ 128.988776276825149, 35.091834386408742 ], [ 128.990594799804484, 35.091193385730207 ] ] ] ] } },
{ "type": "Feature", "properties": { "OBJECTID": 562, "adm_nm": "부산광역시 사하구 감천1동", "adm_cd": "2110065", "adm_cd2": "2638062000", "sgg": "26380", "sido": "26", "sidonm": "부산광역시", "sggnm": "사하구" }, "geometry": { "type": "MultiPolygon", "coordinates": [ [ [ [ 129.003460996818973, 35.09697097637919 ], [ 129.003122564346995, 35.094727043725129 ], [ 129.002469956732625, 35.09386803029107 ], [ 129.002651645881855, 35.093387919275756 ], [ 129.004519789922227, 35.090988612734755 ], [ 129.006661659536746, 35.089738649040044 ], [ 129.013174404631997, 35.08809081487248 ], [ 129.012649757405342, 35.086257743172119 ], [ 129.011630961718936, 35.08155531126193 ], [ 129.011603248282256, 35.080659846670102 ], [ 129.011355442412594, 35.076934111338339 ], [ 129.011315514861934, 35.076863004637303 ], [ 129.011189099894352, 35.076857503389391 ], [ 129.011028336947589, 35.076880521096236 ], [ 129.010882971620674, 35.076901348724178 ], [ 129.010656675996415, 35.076950567771746 ], [ 129.010390461406729, 35.077021705383366 ], [ 129.010124261072207, 35.077141966398798 ], [ 129.009352381274738, 35.077513927112633 ], [ 129.00864026957413, 35.077962407742767 ], [ 129.008504326892108, 35.0780919315917 ], [ 129.008347538898562, 35.078241388980253 ], [ 129.006253765846594, 35.078630560827605 ], [ 129.004440896320887, 35.078444862927803 ], [ 129.003931778789678, 35.081289913932224 ], [ 129.004317350372162, 35.08227725966556 ], [ 129.005145478563094, 35.084397733465494 ], [ 129.002709882934425, 35.084678319138703 ], [ 128.999158681169916, 35.083320692223836 ], [ 128.999772035324924, 35.081722165540278 ], [ 129.001786918408413, 35.081229645416201 ], [ 129.001533962239392, 35.080410899236362 ], [ 128.998625281076102, 35.0805545382931 ], [ 128.997981406430938, 35.08082757863427 ], [ 128.997176371653495, 35.083028155577168 ], [ 128.996935570998232, 35.083370614696285 ], [ 128.996651718509469, 35.085451687886533 ], [ 128.996690706409225, 35.08609580887525 ], [ 128.994264761025846, 35.088377138050198 ], [ 128.993376464640022, 35.087904562860011 ], [ 128.992536141877991, 35.088319963991736 ], [ 128.991767520637012, 35.088973716477398 ], [ 128.990971233274877, 35.09002354538152 ], [ 128.990594799804484, 35.091193385730207 ], [ 128.99308386906219, 35.093243069629374 ], [ 128.993792188314643, 35.093893290285429 ], [ 128.995676860971344, 35.094636559627276 ], [ 128.9982345456784, 35.095752877491584 ], [ 129.000240236898435, 35.097382084353669 ], [ 129.003460996818973, 35.09697097637919 ] ] ] ] } },
{ "type": "Feature", "properties": { "OBJECTID": 563, "adm_nm": "부산광역시 사하구 감천2동", "adm_cd": "2110066", "adm_cd2": "2638063000", "sgg": "26380", "sido": "26", "sidonm": "부산광역시", "sggnm": "사하구" }, "geometry": { "type": "MultiPolygon", "coordinates": [ [ [ [ 129.012841544246101, 35.095408236289302 ], [ 129.013843532091499, 35.094170152122999 ], [ 129.014149292891744, 35.093664962776437 ], [ 129.014300486225977, 35.093185947273362 ], [ 129.014420929334477, 35.091489818434539 ], [ 129.014399690710206, 35.09138159417639 ], [ 129.014249878561799, 35.090704094462566 ], [ 129.01401555533775, 35.089189657004077 ], [ 129.013174404631997, 35.08809081487248 ], [ 129.006661659536746, 35.089738649040044 ], [ 129.004519789922227, 35.090988612734755 ], [ 129.002651645881855, 35.093387919275756 ], [ 129.002469956732625, 35.09386803029107 ], [ 129.003122564346995, 35.094727043725129 ], [ 129.003460996818973, 35.09697097637919 ], [ 129.006748590700766, 35.099093306672643 ], [ 129.009194897043528, 35.099364187445325 ], [ 129.010026587128692, 35.099380621504828 ], [ 129.010099018303293, 35.099377794231792 ], [ 129.010135224740509, 35.099370709939201 ], [ 129.010167974887509, 35.099350869264512 ], [ 129.01025765278888, 35.099281476641259 ], [ 129.010300752983454, 35.099230492973049 ], [ 129.010502482259312, 35.098991837271129 ], [ 129.011734246061053, 35.097204594846914 ], [ 129.012841544246101, 35.095408236289302 ] ] ] ] } }
]
}
