{
"type": "FeatureCollection",
"name": "sasanggu",
"crs": { "type": "name", "properties": { "name": "urn:ogc:def:crs:OGC:1.3:CRS84" } },
"features": [
{ "type": "Feature", "properties": { "OBJECTID": 608, "adm_nm": "부산광역시 사상구 삼락동", "adm_cd": "2115051", "adm_cd2": "2653058000", "sgg": "26530", "sido": "26", "sidonm": "부산광역시", "sggnm": "사상구" }, "geometry": { "type": "MultiPolygon", "coordinates": [ [ [ [ 128.987946053341005, 35.1959047485512 ], [ 128.987661103945101, 35.194291347483002 ], [ 128.987610731142638, 35.194006161600413 ], [ 128.98754566432936, 35.193740449815259 ], [ 128.987116964498284, 35.193525633349239 ], [ 128.986769441589388, 35.193351502797938 ], [ 128.986079537193291, 35.193018985305791 ], [ 128.986045938068997, 35.19298895022704 ], [ 128.983570675251855, 35.190514409746299 ], [ 128.983432656183822, 35.189978219809468 ], [ 128.98170910756221, 35.182793275315063 ], [ 128.98154116329232, 35.182064785955404 ], [ 128.981654515826506, 35.182041985725498 ], [ 128.98096632980139, 35.179131393477554 ], [ 128.980123139190368, 35.1755363898368 ], [ 128.980265072103407, 35.173451418768039 ], [ 128.981395821255404, 35.172524568300688 ], [ 128.980384955218227, 35.168599059722467 ], [ 128.980328800801374, 35.16862805595558 ], [ 128.980171475470598, 35.168709289505117 ], [ 128.97875548132842, 35.169418296274202 ], [ 128.978594811133519, 35.169471242540496 ], [ 128.978559956904945, 35.1694827083493 ], [ 128.978190250853089, 35.169521297804316 ], [ 128.977998145685888, 35.169537217049132 ], [ 128.976676172987851, 35.169620869987476 ], [ 128.976644756606248, 35.169120275680619 ], [ 128.976637684726654, 35.169007534407896 ], [ 128.976610404050035, 35.168572524660263 ], [ 128.976579597446602, 35.168081792817929 ], [ 128.976414316545061, 35.166980757036221 ], [ 128.976245390276915, 35.165858542034677 ], [ 128.976038727919899, 35.164716930089149 ], [ 128.97576370842026, 35.163517075477607 ], [ 128.975644974737378, 35.163082324559149 ], [ 128.975515486402941, 35.162637382764387 ], [ 128.975278436143611, 35.161839834995916 ], [ 128.975200079658805, 35.16158221685172 ], [ 128.975113644806271, 35.161298063207347 ], [ 128.974874623919277, 35.160530892282715 ], [ 128.974610142023209, 35.160409135409864 ], [ 128.974019328048939, 35.160072005528484 ], [ 128.973418857222896, 35.15972438711227 ], [ 128.9732463523452, 35.159607702453172 ], [ 128.972167837190653, 35.158241168152713 ], [ 128.9694039350411, 35.153083372769004 ], [ 128.969360433903574, 35.152919769416748 ], [ 128.969286573686503, 35.15264194640136 ], [ 128.968910307004563, 35.150009262129593 ], [ 128.968419535759665, 35.148438903923505 ], [ 128.967523831306892, 35.145572701745081 ], [ 128.966509975034057, 35.14420880399885 ], [ 128.964756719641343, 35.144150957078764 ], [ 128.962459489209323, 35.143325464079226 ], [ 128.960820167853313, 35.142543253130384 ], [ 128.960042517471152, 35.146573677504492 ], [ 128.959528736341298, 35.149236373254162 ], [ 128.960590728458442, 35.15447071699932 ], [ 128.962420924212722, 35.163489487752763 ], [ 128.962646993615323, 35.172902798501966 ], [ 128.962563816338246, 35.174097382936502 ], [ 128.962489905476531, 35.175158589704516 ], [ 128.962162799299591, 35.179855529602939 ], [ 128.962014750969956, 35.18198125339427 ], [ 128.965523978697206, 35.186458450186386 ], [ 128.966022567801076, 35.186761240011329 ], [ 128.97247674429147, 35.190680333131283 ], [ 128.978400160972257, 35.194276508283671 ], [ 128.981318024705388, 35.196047747484528 ], [ 128.982066004941771, 35.196499594674769 ], [ 128.983153914507966, 35.196389555658712 ], [ 128.984853904764719, 35.19621759400443 ], [ 128.986682700398092, 35.196032872243855 ], [ 128.988185047174653, 35.1972385175836 ], [ 128.988036817754704, 35.196411273077871 ], [ 128.987946053341005, 35.1959047485512 ] ] ] ] } },
{ "type": "Feature", "properties": { "OBJECTID": 609, "adm_nm": "부산광역시 사상구 모라1동", "adm_cd": "2115052", "adm_cd2": "2653059100", "sgg": "26530", "sido": "26", "sidonm": "부산광역시", "sggnm": "사상구" }, "geometry": { "type": "MultiPolygon", "coordinates": [ [ [ [ 129.000607139349484, 35.191662898354998 ], [ 128.999466295985457, 35.190725910845586 ], [ 128.994340330134747, 35.184997414335704 ], [ 128.993147061134323, 35.183220940416184 ], [ 128.992970797433543, 35.18269496677803 ], [ 128.992932712361636, 35.182653309352425 ], [ 128.99192405673989, 35.181769958900389 ], [ 128.99129921630859, 35.181359675592411 ], [ 128.987991724567081, 35.180769631207262 ], [ 128.981654515826506, 35.182041985725498 ], [ 128.98154116329232, 35.182064785955404 ], [ 128.98170910756221, 35.182793275315063 ], [ 128.983432656183822, 35.189978219809468 ], [ 128.983570675251855, 35.190514409746299 ], [ 128.986045938068997, 35.19298895022704 ], [ 128.986079537193291, 35.193018985305791 ], [ 128.986769441589388, 35.193351502797938 ], [ 128.987116964498284, 35.193525633349239 ], [ 128.98754566432936, 35.193740449815259 ], [ 128.987610731142638, 35.194006161600413 ], [ 128.987661103945101, 35.194291347483002 ], [ 128.987946053341005, 35.1959047485512 ], [ 128.991115626956258, 35.193822401683143 ], [ 128.991419735402474, 35.194013636831016 ], [ 128.991588803163012, 35.194104879066685 ], [ 128.993919350259631, 35.195261479659663 ], [ 128.993971056448515, 35.195239635753808 ], [ 128.994241596503372, 35.195125323250608 ], [ 128.99495594137619, 35.194792606615522 ], [ 128.995478227030617, 35.193857242802572 ], [ 128.998207318399892, 35.19230153181104 ], [ 129.000607139349484, 35.191662898354998 ] ] ] ] } },
{ "type": "Feature", "properties": { "OBJECTID": 610, "adm_nm": "부산광역시 사상구 모라3동", "adm_cd": "2115054", "adm_cd2": "2653059300", "sgg": "26530", "sido": "26", "sidonm": "부산광역시", "sggnm": "사상구" }, "geometry": { "type": "MultiPolygon", "coordinates": [ [ [ [ 129.021143823795342, 35.187751167562432 ], [ 129.021696131379429, 35.184186679988969 ], [ 129.021727415407241, 35.183562647506143 ], [ 129.021748922415952, 35.183515521508141 ], [ 129.021888895004111, 35.18328557505572 ], [ 129.02221055823685, 35.183164335366435 ], [ 129.022307762062809, 35.183148000628449 ], [ 129.022562512176023, 35.183105218915699 ], [ 129.023569205531288, 35.182996265058549 ], [ 129.023804423723902, 35.183040099717886 ], [ 129.023691567310635, 35.181589948379916 ], [ 129.023638017380819, 35.180916809124298 ], [ 129.023562030232199, 35.180741371666151 ], [ 129.023504549956868, 35.180635089160965 ], [ 129.022515127853694, 35.179111868634529 ], [ 129.021499946477633, 35.178319704998216 ], [ 129.019955613065207, 35.179305947055695 ], [ 129.019716447291756, 35.179707313333488 ], [ 129.019521451319775, 35.179856428792796 ], [ 129.017860201482989, 35.17932587505382 ], [ 129.016683110850238, 35.178586152091107 ], [ 129.016178601089052, 35.177978840790175 ], [ 129.015936431856176, 35.177702793388725 ], [ 129.011382990832885, 35.17411431954438 ], [ 129.010173238629363, 35.173606651968271 ], [ 129.009963764590367, 35.174055625882083 ], [ 129.009453994969249, 35.174606946603454 ], [ 129.009141052034579, 35.174762698949728 ], [ 129.008295355071084, 35.174900381807966 ], [ 129.002244656641608, 35.175644866522809 ], [ 128.99903962756386, 35.175766799564286 ], [ 128.998575270132221, 35.175966682882759 ], [ 128.998853394990931, 35.177362353508769 ], [ 128.998863578113401, 35.177464763424126 ], [ 128.996802244957422, 35.179368765762014 ], [ 128.996139002790244, 35.179823011489937 ], [ 128.995762802616639, 35.179975429607737 ], [ 128.995570058603846, 35.180053505124597 ], [ 128.995011486841065, 35.180171527952353 ], [ 128.994517809875049, 35.180230093781887 ], [ 128.992830839593751, 35.180318949320565 ], [ 128.99129921630859, 35.181359675592411 ], [ 128.99192405673989, 35.181769958900389 ], [ 128.992932712361636, 35.182653309352425 ], [ 128.992970797433543, 35.18269496677803 ], [ 128.993147061134323, 35.183220940416184 ], [ 128.994340330134747, 35.184997414335704 ], [ 128.999466295985457, 35.190725910845586 ], [ 129.000607139349484, 35.191662898354998 ], [ 129.00171348937323, 35.192806147374441 ], [ 129.00332303302207, 35.192723368367524 ], [ 129.005508555116677, 35.192610928560192 ], [ 129.007285095676053, 35.192519489087722 ], [ 129.007696306699444, 35.192498314295918 ], [ 129.007586788521138, 35.192238659252794 ], [ 129.007351974418128, 35.191681926461698 ], [ 129.007207121991058, 35.190451863483979 ], [ 129.00786428481436, 35.189504261340126 ], [ 129.008260028644798, 35.189007483327188 ], [ 129.009114535608063, 35.188814527044947 ], [ 129.011584401642921, 35.188922719058262 ], [ 129.015990565371169, 35.189307475638117 ], [ 129.016822753769731, 35.188899762202603 ], [ 129.017084053924179, 35.18859615901286 ], [ 129.017927394877091, 35.188265102823486 ], [ 129.019378939828272, 35.18777817432737 ], [ 129.020524416741551, 35.187588286399958 ], [ 129.020684843926887, 35.187603669162975 ], [ 129.021143823795342, 35.187751167562432 ] ] ] ] } },
{ "type": "Feature", "properties": { "OBJECTID": 611, "adm_nm": "부산광역시 사상구 덕포1동", "adm_cd": "2115055", "adm_cd2": "2653060000", "sgg": "26530", "sido": "26", "sidonm": "부산광역시", "sggnm": "사상구" }, "geometry": { "type": "MultiPolygon", "coordinates": [ [ [ [ 128.995210670013449, 35.171848480538074 ], [ 128.995238416032407, 35.170603590828527 ], [ 128.995214368804483, 35.170428285651319 ], [ 128.995153060274589, 35.170268692182752 ], [ 128.993509936059212, 35.168583332119589 ], [ 128.993331093459176, 35.16847541951303 ], [ 128.9923656062372, 35.167951016748937 ], [ 128.989796745874912, 35.167131559825819 ], [ 128.989100159711427, 35.16711385673127 ], [ 128.983485029422098, 35.167302078823234 ], [ 128.983317294044269, 35.167343338200951 ], [ 128.982646034377893, 35.167514593947992 ], [ 128.982484003879222, 35.167578387679001 ], [ 128.982022827132283, 35.167788319134452 ], [ 128.981540875482949, 35.168012559192249 ], [ 128.980929193561963, 35.168310476081793 ], [ 128.980882322375891, 35.168335313502354 ], [ 128.980384955218227, 35.168599059722467 ], [ 128.981395821255404, 35.172524568300688 ], [ 128.983078090703572, 35.172321839192378 ], [ 128.98352300601502, 35.172321637420914 ], [ 128.984235117879194, 35.172277321921797 ], [ 128.984943052875764, 35.172231248420864 ], [ 128.985617073484377, 35.172180334902578 ], [ 128.985901584659501, 35.172154732406845 ], [ 128.987960080932851, 35.171941868849295 ], [ 128.988652833155129, 35.171532543449864 ], [ 128.989699359048785, 35.170919726963959 ], [ 128.992968732154679, 35.171114451863296 ], [ 128.993648141665261, 35.171157571261482 ], [ 128.994392708953797, 35.171256951461096 ], [ 128.995210670013449, 35.171848480538074 ] ] ] ] } },
{ "type": "Feature", "properties": { "OBJECTID": 612, "adm_nm": "부산광역시 사상구 덕포2동", "adm_cd": "2115056", "adm_cd2": "2653061000", "sgg": "26530", "sido": "26", "sidonm": "부산광역시", "sggnm": "사상구" }, "geometry": { "type": "MultiPolygon", "coordinates": [ [ [ [ 128.99129921630859, 35.181359675592411 ], [ 128.992830839593751, 35.180318949320565 ], [ 128.994517809875049, 35.180230093781887 ], [ 128.995011486841065, 35.180171527952353 ], [ 128.995570058603846, 35.180053505124597 ], [ 128.995762802616639, 35.179975429607737 ], [ 128.996139002790244, 35.179823011489937 ], [ 128.996802244957422, 35.179368765762014 ], [ 128.998863578113401, 35.177464763424126 ], [ 128.998853394990931, 35.177362353508769 ], [ 128.998575270132221, 35.175966682882759 ], [ 128.995210670013449, 35.171848480538074 ], [ 128.994392708953797, 35.171256951461096 ], [ 128.993648141665261, 35.171157571261482 ], [ 128.992968732154679, 35.171114451863296 ], [ 128.989699359048785, 35.170919726963959 ], [ 128.988652833155129, 35.171532543449864 ], [ 128.987960080932851, 35.171941868849295 ], [ 128.985901584659501, 35.172154732406845 ], [ 128.985617073484377, 35.172180334902578 ], [ 128.984943052875764, 35.172231248420864 ], [ 128.984235117879194, 35.172277321921797 ], [ 128.98352300601502, 35.172321637420914 ], [ 128.983078090703572, 35.172321839192378 ], [ 128.981395821255404, 35.172524568300688 ], [ 128.980265072103407, 35.173451418768039 ], [ 128.980123139190368, 35.1755363898368 ], [ 128.98096632980139, 35.179131393477554 ], [ 128.981654515826506, 35.182041985725498 ], [ 128.987991724567081, 35.180769631207262 ], [ 128.99129921630859, 35.181359675592411 ] ] ] ] } },
{ "type": "Feature", "properties": { "OBJECTID": 613, "adm_nm": "부산광역시 사상구 괘법동", "adm_cd": "2115057", "adm_cd2": "2653062000", "sgg": "26530", "sido": "26", "sidonm": "부산광역시", "sggnm": "사상구" }, "geometry": { "type": "MultiPolygon", "coordinates": [ [ [ [ 129.010173238629363, 35.173606651968271 ], [ 129.010090038203032, 35.17035940934349 ], [ 129.009395993768265, 35.169088636672065 ], [ 129.007950149214849, 35.16666024973626 ], [ 129.00778155165429, 35.166411505463202 ], [ 129.007391903022068, 35.166200431768601 ], [ 129.006828399440423, 35.165955026139748 ], [ 129.006084766616794, 35.165248168714655 ], [ 129.006027271892094, 35.165152759883483 ], [ 129.005862220201976, 35.164465259578201 ], [ 129.005517550190319, 35.163928738194464 ], [ 129.004919887638493, 35.163088648266275 ], [ 129.004349474755088, 35.162526542355167 ], [ 129.003315099746885, 35.1615719677595 ], [ 129.00304314110889, 35.16132960412429 ], [ 129.002888269906236, 35.161285082754205 ], [ 129.002746027303715, 35.161303723111274 ], [ 129.002478377121292, 35.161415795329091 ], [ 129.002444188342537, 35.161430116907432 ], [ 129.001631525320022, 35.161770392101154 ], [ 129.000270660807473, 35.162107064924712 ], [ 129.000101383759642, 35.162071625483037 ], [ 128.99969506167551, 35.161873680044955 ], [ 128.996444798624168, 35.162127742788684 ], [ 128.996073835385658, 35.162534215102518 ], [ 128.995757072353001, 35.16288129296192 ], [ 128.99527464600547, 35.16324176119825 ], [ 128.99408499277331, 35.163187075153303 ], [ 128.994041272231442, 35.162773566335225 ], [ 128.993817954771686, 35.162168177209637 ], [ 128.993445351814216, 35.161406412741002 ], [ 128.990585495346039, 35.158933585442377 ], [ 128.99042780561399, 35.158888981672845 ], [ 128.990118542480076, 35.158830267589131 ], [ 128.98990818847335, 35.158939233344917 ], [ 128.98969503674428, 35.159334791350425 ], [ 128.989115208247512, 35.159421520249353 ], [ 128.988340179647622, 35.15953662062325 ], [ 128.988260893349604, 35.159548394385894 ], [ 128.986577982047351, 35.158669047641546 ], [ 128.986056730108345, 35.158082926772472 ], [ 128.985898295253207, 35.15755625016503 ], [ 128.985753671873454, 35.157075546870495 ], [ 128.975694538544985, 35.159172026604907 ], [ 128.975782434661198, 35.159446848404805 ], [ 128.975889427972675, 35.159874744176641 ], [ 128.976004190194686, 35.160344451476888 ], [ 128.975042253946356, 35.16050322795089 ], [ 128.974874623919277, 35.160530892282715 ], [ 128.975113644806271, 35.161298063207347 ], [ 128.975200079658805, 35.16158221685172 ], [ 128.975278436143611, 35.161839834995916 ], [ 128.975515486402941, 35.162637382764387 ], [ 128.975644974737378, 35.163082324559149 ], [ 128.97576370842026, 35.163517075477607 ], [ 128.976038727919899, 35.164716930089149 ], [ 128.976245390276915, 35.165858542034677 ], [ 128.976414316545061, 35.166980757036221 ], [ 128.976579597446602, 35.168081792817929 ], [ 128.976610404050035, 35.168572524660263 ], [ 128.976637684726654, 35.169007534407896 ], [ 128.976644756606248, 35.169120275680619 ], [ 128.976676172987851, 35.169620869987476 ], [ 128.977998145685888, 35.169537217049132 ], [ 128.978190250853089, 35.169521297804316 ], [ 128.978559956904945, 35.1694827083493 ], [ 128.978594811133519, 35.169471242540496 ], [ 128.97875548132842, 35.169418296274202 ], [ 128.980171475470598, 35.168709289505117 ], [ 128.980328800801374, 35.16862805595558 ], [ 128.980384955218227, 35.168599059722467 ], [ 128.980882322375891, 35.168335313502354 ], [ 128.980929193561963, 35.168310476081793 ], [ 128.981540875482949, 35.168012559192249 ], [ 128.982022827132283, 35.167788319134452 ], [ 128.982484003879222, 35.167578387679001 ], [ 128.982646034377893, 35.167514593947992 ], [ 128.983317294044269, 35.167343338200951 ], [ 128.983485029422098, 35.167302078823234 ], [ 128.989100159711427, 35.16711385673127 ], [ 128.989796745874912, 35.167131559825819 ], [ 128.9923656062372, 35.167951016748937 ], [ 128.993331093459176, 35.16847541951303 ], [ 128.993509936059212, 35.168583332119589 ], [ 128.995153060274589, 35.170268692182752 ], [ 128.995214368804483, 35.170428285651319 ], [ 128.995238416032407, 35.170603590828527 ], [ 128.995210670013449, 35.171848480538074 ], [ 128.998575270132221, 35.175966682882759 ], [ 128.99903962756386, 35.175766799564286 ], [ 129.002244656641608, 35.175644866522809 ], [ 129.008295355071084, 35.174900381807966 ], [ 129.009141052034579, 35.174762698949728 ], [ 129.009453994969249, 35.174606946603454 ], [ 129.009963764590367, 35.174055625882083 ], [ 129.010173238629363, 35.173606651968271 ] ] ] ] } },
{ "type": "Feature", "properties": { "OBJECTID": 614, "adm_nm": "부산광역시 사상구 주례1동", "adm_cd": "2115060", "adm_cd2": "2653065000", "sgg": "26530", "sido": "26", "sidonm": "부산광역시", "sggnm": "사상구" }, "geometry": { "type": "MultiPolygon", "coordinates": [ [ [ [ 129.006039331811962, 35.15079801405787 ], [ 128.997665089997213, 35.150015304536474 ], [ 128.991743107801454, 35.14965269293895 ], [ 128.992061456191124, 35.15096457361787 ], [ 128.992904122775172, 35.154278497441304 ], [ 128.994147871977106, 35.156033255776983 ], [ 128.995031609585169, 35.157085229712507 ], [ 128.996111594694497, 35.157416158698027 ], [ 128.996936489684401, 35.158000285725642 ], [ 128.997703480051115, 35.158566106026079 ], [ 128.999074830985563, 35.160441230197314 ], [ 128.99969506167551, 35.161873680044955 ], [ 129.000101383759642, 35.162071625483037 ], [ 129.000270660807473, 35.162107064924712 ], [ 129.001631525320022, 35.161770392101154 ], [ 129.002444188342537, 35.161430116907432 ], [ 129.002478377121292, 35.161415795329091 ], [ 129.002746027303715, 35.161303723111274 ], [ 129.002888269906236, 35.161285082754205 ], [ 129.00304314110889, 35.16132960412429 ], [ 129.003315099746885, 35.1615719677595 ], [ 129.004349474755088, 35.162526542355167 ], [ 129.004919887638493, 35.163088648266275 ], [ 129.005517550190319, 35.163928738194464 ], [ 129.005862220201976, 35.164465259578201 ], [ 129.007796095146318, 35.163757233706121 ], [ 129.007932524654109, 35.163657160182147 ], [ 129.007969706656212, 35.163506255798374 ], [ 129.006768418548944, 35.161258967877842 ], [ 129.005805277909303, 35.158374100968253 ], [ 129.005124932617974, 35.155659085947995 ], [ 129.005436606172168, 35.151777716303357 ], [ 129.005530963135726, 35.151517937716854 ], [ 129.005601499327838, 35.151346172415948 ], [ 129.005863826761157, 35.150911576955657 ], [ 129.00588235047428, 35.150881439192005 ], [ 129.006039331811962, 35.15079801405787 ] ] ] ] } },
{ "type": "Feature", "properties": { "OBJECTID": 615, "adm_nm": "부산광역시 사상구 주례2동", "adm_cd": "2115061", "adm_cd2": "2653066000", "sgg": "26530", "sido": "26", "sidonm": "부산광역시", "sggnm": "사상구" }, "geometry": { "type": "MultiPolygon", "coordinates": [ [ [ [ 129.01284353539765, 35.165674161546214 ], [ 129.0116272405497, 35.163839911267814 ], [ 129.011025149919561, 35.162724140046876 ], [ 129.010641437588191, 35.160154222405225 ], [ 129.013022150203, 35.158350111175068 ], [ 129.01377241137692, 35.15788353441053 ], [ 129.014075548598839, 35.157684441721194 ], [ 129.014134375964971, 35.157645056911164 ], [ 129.014363523548241, 35.157491593984247 ], [ 129.014578633822055, 35.157315009354264 ], [ 129.014818199355375, 35.157105893045205 ], [ 129.01488106702476, 35.157036604020924 ], [ 129.0150011042019, 35.156904298443223 ], [ 129.015220851596752, 35.156661682720653 ], [ 129.015944067610349, 35.155712026344524 ], [ 129.016306661183421, 35.154637302258536 ], [ 129.016487583558643, 35.154063801930079 ], [ 129.01663133569977, 35.153098478063526 ], [ 129.016673938018869, 35.152811182732023 ], [ 129.016194242452485, 35.148249576671134 ], [ 129.015677891518152, 35.146926358046372 ], [ 129.015780274692048, 35.143824600063688 ], [ 129.016228658714425, 35.143369740454979 ], [ 129.016254749734685, 35.143141193418366 ], [ 129.016210602447359, 35.142516962469564 ], [ 129.016149034578461, 35.142240310374774 ], [ 129.016022752343474, 35.142074026957957 ], [ 129.014555718769913, 35.140231880188125 ], [ 129.014246454162389, 35.139872232283864 ], [ 129.013097702203254, 35.138716019297391 ], [ 129.012785528773918, 35.138470827908073 ], [ 129.012292074232164, 35.138303328700111 ], [ 129.01132236660203, 35.138189122925816 ], [ 129.006575107117158, 35.139394828091426 ], [ 129.006246454872525, 35.142794390957896 ], [ 129.0063503001426, 35.144478813017763 ], [ 129.00677097159155, 35.145704573171976 ], [ 129.007912424563813, 35.1458813639927 ], [ 129.007870678732388, 35.146574377114639 ], [ 129.007820109923557, 35.147052706174193 ], [ 129.007801707864559, 35.147204666375757 ], [ 129.007736044547897, 35.147746292746611 ], [ 129.007563115834699, 35.148957416242631 ], [ 129.007317203502822, 35.149605606724712 ], [ 129.006821413240175, 35.150172322696797 ], [ 129.006608263523162, 35.150373908098913 ], [ 129.006344145142663, 35.150583122559816 ], [ 129.006127140203972, 35.150736113798452 ], [ 129.006039331811962, 35.15079801405787 ], [ 129.00588235047428, 35.150881439192005 ], [ 129.005863826761157, 35.150911576955657 ], [ 129.005601499327838, 35.151346172415948 ], [ 129.005530963135726, 35.151517937716854 ], [ 129.005436606172168, 35.151777716303357 ], [ 129.005124932617974, 35.155659085947995 ], [ 129.005805277909303, 35.158374100968253 ], [ 129.006768418548944, 35.161258967877842 ], [ 129.007969706656212, 35.163506255798374 ], [ 129.007932524654109, 35.163657160182147 ], [ 129.007796095146318, 35.163757233706121 ], [ 129.005862220201976, 35.164465259578201 ], [ 129.006027271892094, 35.165152759883483 ], [ 129.006084766616794, 35.165248168714655 ], [ 129.006828399440423, 35.165955026139748 ], [ 129.007391903022068, 35.166200431768601 ], [ 129.00778155165429, 35.166411505463202 ], [ 129.007950149214849, 35.16666024973626 ], [ 129.009395993768265, 35.169088636672065 ], [ 129.010090038203032, 35.17035940934349 ], [ 129.011226902896283, 35.169368643700444 ], [ 129.011503850342734, 35.169099682618267 ], [ 129.011702449255125, 35.168805811768891 ], [ 129.011814309062146, 35.16843772428907 ], [ 129.011844125509327, 35.167999384775058 ], [ 129.01175530970221, 35.167822899166801 ], [ 129.011652605282279, 35.167617434086104 ], [ 129.011699023953071, 35.167375199074904 ], [ 129.012489917548976, 35.16604616460296 ], [ 129.01284353539765, 35.165674161546214 ] ] ] ] } },
{ "type": "Feature", "properties": { "OBJECTID": 616, "adm_nm": "부산광역시 사상구 주례3동", "adm_cd": "2115062", "adm_cd2": "2653066100", "sgg": "26530", "sido": "26", "sidonm": "부산광역시", "sggnm": "사상구" }, "geometry": { "type": "MultiPolygon", "coordinates": [ [ [ [ 129.006575107117158, 35.139394828091426 ], [ 129.004737023437769, 35.139435132102662 ], [ 129.00451760683498, 35.139513292630802 ], [ 129.004308383792619, 35.139727242348755 ], [ 129.004207674576776, 35.139803831899201 ], [ 129.003275343636091, 35.140405244546862 ], [ 129.003112500719908, 35.140505357350143 ], [ 129.002690620773052, 35.140596586041276 ], [ 128.998368618780489, 35.140766003231889 ], [ 128.996376179764354, 35.140489184416985 ], [ 128.995297010974554, 35.140594780790707 ], [ 128.994041912764629, 35.144717351998779 ], [ 128.994081060423127, 35.14615313893583 ], [ 128.994396881666319, 35.146308332290701 ], [ 128.994739018010762, 35.146476477350873 ], [ 128.99603413836283, 35.147171730320643 ], [ 128.996246942961506, 35.147290083068832 ], [ 128.997320211707006, 35.147887014760677 ], [ 128.997457899025903, 35.147976823462329 ], [ 128.997665089997213, 35.150015304536474 ], [ 129.006039331811962, 35.15079801405787 ], [ 129.006127140203972, 35.150736113798452 ], [ 129.006344145142663, 35.150583122559816 ], [ 129.006608263523162, 35.150373908098913 ], [ 129.006821413240175, 35.150172322696797 ], [ 129.007317203502822, 35.149605606724712 ], [ 129.007563115834699, 35.148957416242631 ], [ 129.007736044547897, 35.147746292746611 ], [ 129.007801707864559, 35.147204666375757 ], [ 129.007820109923557, 35.147052706174193 ], [ 129.007870678732388, 35.146574377114639 ], [ 129.007912424563813, 35.1458813639927 ], [ 129.00677097159155, 35.145704573171976 ], [ 129.0063503001426, 35.144478813017763 ], [ 129.006246454872525, 35.142794390957896 ], [ 129.006575107117158, 35.139394828091426 ] ] ] ] } },
{ "type": "Feature", "properties": { "OBJECTID": 617, "adm_nm": "부산광역시 사상구 학장동", "adm_cd": "2115063", "adm_cd2": "2653067000", "sgg": "26530", "sido": "26", "sidonm": "부산광역시", "sggnm": "사상구" }, "geometry": { "type": "MultiPolygon", "coordinates": [ [ [ [ 128.991743107801454, 35.14965269293895 ], [ 128.997665089997213, 35.150015304536474 ], [ 128.997457899025903, 35.147976823462329 ], [ 128.997320211707006, 35.147887014760677 ], [ 128.996246942961506, 35.147290083068832 ], [ 128.99603413836283, 35.147171730320643 ], [ 128.994739018010762, 35.146476477350873 ], [ 128.994396881666319, 35.146308332290701 ], [ 128.994081060423127, 35.14615313893583 ], [ 128.994041912764629, 35.144717351998779 ], [ 128.995297010974554, 35.140594780790707 ], [ 128.996376179764354, 35.140489184416985 ], [ 128.998368618780489, 35.140766003231889 ], [ 129.002690620773052, 35.140596586041276 ], [ 129.003112500719908, 35.140505357350143 ], [ 129.003275343636091, 35.140405244546862 ], [ 129.004207674576776, 35.139803831899201 ], [ 129.004308383792619, 35.139727242348755 ], [ 129.00451760683498, 35.139513292630802 ], [ 129.002950952537589, 35.134929834073539 ], [ 129.002391347748102, 35.129008631583197 ], [ 129.002247398233408, 35.127428986550207 ], [ 129.001600750833177, 35.12650059096157 ], [ 129.001042126232306, 35.126318263830896 ], [ 128.999609024518321, 35.125850498507738 ], [ 128.998436433877799, 35.124674673858067 ], [ 128.997968560249916, 35.122548157871137 ], [ 128.994946707437947, 35.123148503061877 ], [ 128.993064261315652, 35.12317673390185 ], [ 128.992822483827638, 35.123205097711171 ], [ 128.990241076768797, 35.123586877914661 ], [ 128.989779407898652, 35.123699521958805 ], [ 128.987689081479317, 35.124927699782951 ], [ 128.987979057239784, 35.126472295379735 ], [ 128.987977089134716, 35.126551660453714 ], [ 128.987954338341353, 35.126872901807644 ], [ 128.987920024739878, 35.127161386753734 ], [ 128.987883833654251, 35.127425403986145 ], [ 128.98728023274063, 35.129029591119455 ], [ 128.987163424488756, 35.129251566780859 ], [ 128.985096735543777, 35.131490936519434 ], [ 128.985028155315547, 35.131563070049424 ], [ 128.984344780658972, 35.132184756068398 ], [ 128.984173494144358, 35.132308125932404 ], [ 128.983961310758843, 35.132383981483876 ], [ 128.982075457262567, 35.132804459953938 ], [ 128.981516506903944, 35.132795131226871 ], [ 128.978443416466291, 35.134498522567092 ], [ 128.977424334798172, 35.135466288163073 ], [ 128.977070392214813, 35.135773670162173 ], [ 128.975893212449392, 35.136344874885047 ], [ 128.975176607077543, 35.136261263948036 ], [ 128.974203267333479, 35.135383045245824 ], [ 128.973814244151356, 35.135003122264727 ], [ 128.973725914452785, 35.134916847458868 ], [ 128.973644862734318, 35.134798414256572 ], [ 128.972906664772154, 35.133473598914335 ], [ 128.972174806172291, 35.133851816821512 ], [ 128.972529686980238, 35.137798210756522 ], [ 128.972746863489277, 35.138351807993494 ], [ 128.973195805977866, 35.139465617371947 ], [ 128.973269594306146, 35.139596336203347 ], [ 128.973352951047048, 35.139744000018119 ], [ 128.973924676348446, 35.140504561591712 ], [ 128.974276238523345, 35.14097224252545 ], [ 128.974617912581607, 35.141426763624736 ], [ 128.974782958896185, 35.141735404745646 ], [ 128.97523856293634, 35.142746197025247 ], [ 128.975251522245884, 35.142781737112557 ], [ 128.975261927187745, 35.142810275656856 ], [ 128.975361908970399, 35.14308452506144 ], [ 128.975910073519344, 35.148481503826282 ], [ 128.97605466182543, 35.15017022776923 ], [ 128.976083935133545, 35.150422899030495 ], [ 128.976211283646762, 35.151521757251636 ], [ 128.976234217161817, 35.151546909773444 ], [ 128.976277761790158, 35.15155695241949 ], [ 128.976455680477358, 35.151597970765494 ], [ 128.976543282029411, 35.151593059440671 ], [ 128.977002094266595, 35.151567267248325 ], [ 128.977746303066738, 35.151484395423559 ], [ 128.981976159020462, 35.150767424615665 ], [ 128.983141151468061, 35.150569339619231 ], [ 128.984043791832306, 35.150410620734441 ], [ 128.987300559980497, 35.149837883805461 ], [ 128.989413202890034, 35.149466285246625 ], [ 128.991743107801454, 35.14965269293895 ] ] ] ] } },
{ "type": "Feature", "properties": { "OBJECTID": 618, "adm_nm": "부산광역시 사상구 엄궁동", "adm_cd": "2115064", "adm_cd2": "2653068000", "sgg": "26530", "sido": "26", "sidonm": "부산광역시", "sggnm": "사상구" }, "geometry": { "type": "MultiPolygon", "coordinates": [ [ [ [ 128.972906664772154, 35.133473598914335 ], [ 128.973644862734318, 35.134798414256572 ], [ 128.973725914452785, 35.134916847458868 ], [ 128.973814244151356, 35.135003122264727 ], [ 128.974203267333479, 35.135383045245824 ], [ 128.975176607077543, 35.136261263948036 ], [ 128.975893212449392, 35.136344874885047 ], [ 128.977070392214813, 35.135773670162173 ], [ 128.977424334798172, 35.135466288163073 ], [ 128.978443416466291, 35.134498522567092 ], [ 128.981516506903944, 35.132795131226871 ], [ 128.982075457262567, 35.132804459953938 ], [ 128.983961310758843, 35.132383981483876 ], [ 128.984173494144358, 35.132308125932404 ], [ 128.984344780658972, 35.132184756068398 ], [ 128.985028155315547, 35.131563070049424 ], [ 128.985096735543777, 35.131490936519434 ], [ 128.987163424488756, 35.129251566780859 ], [ 128.98728023274063, 35.129029591119455 ], [ 128.987883833654251, 35.127425403986145 ], [ 128.987920024739878, 35.127161386753734 ], [ 128.987954338341353, 35.126872901807644 ], [ 128.987977089134716, 35.126551660453714 ], [ 128.987979057239784, 35.126472295379735 ], [ 128.987689081479317, 35.124927699782951 ], [ 128.987581320440313, 35.124437389839748 ], [ 128.987510355843085, 35.124192646485916 ], [ 128.987356897855221, 35.123898537475277 ], [ 128.987272986006246, 35.123789403560671 ], [ 128.987149699930626, 35.123629093446198 ], [ 128.986735309027267, 35.12313275534386 ], [ 128.985526625032293, 35.122012401926177 ], [ 128.984224996472562, 35.121128866573024 ], [ 128.982337985496628, 35.119775890255433 ], [ 128.982271174891821, 35.119714247483849 ], [ 128.982148240720136, 35.119600818404152 ], [ 128.981891503244412, 35.119363908921898 ], [ 128.981777786149166, 35.119059657121277 ], [ 128.981695351345195, 35.118710915297036 ], [ 128.98159304065635, 35.118242816894174 ], [ 128.981527646382432, 35.118107061820275 ], [ 128.980392949638969, 35.117191811646315 ], [ 128.97982418517978, 35.116754071492899 ], [ 128.976303013313412, 35.116798036379528 ], [ 128.976182477671756, 35.116819708228178 ], [ 128.976120972445443, 35.116830778274178 ], [ 128.975791200042551, 35.116925658385085 ], [ 128.974951748623852, 35.117607814489915 ], [ 128.968895564347889, 35.120917048736004 ], [ 128.96781014742524, 35.121134334430401 ], [ 128.967414416721766, 35.121213550642153 ], [ 128.966332049144029, 35.121416396311666 ], [ 128.96371102885962, 35.121724271555479 ], [ 128.963679464856, 35.12166899994164 ], [ 128.963624870059391, 35.121568939614463 ], [ 128.963303212094928, 35.120645485590849 ], [ 128.963146350160542, 35.12015636125777 ], [ 128.961500245190905, 35.119911661728935 ], [ 128.96095603461589, 35.120026907393331 ], [ 128.959907975666169, 35.120277912208387 ], [ 128.958255841852292, 35.123086602851465 ], [ 128.95687902012088, 35.127306089733921 ], [ 128.960573562572165, 35.137181036501275 ], [ 128.964527430418542, 35.137253433538028 ], [ 128.966962500895818, 35.135108372435518 ], [ 128.967042426962593, 35.134739920155177 ], [ 128.967115208999672, 35.134415174856755 ], [ 128.967186535951441, 35.134119283750046 ], [ 128.967195862715812, 35.134082513505909 ], [ 128.967275783968148, 35.133767601307341 ], [ 128.967383006069326, 35.133398516172583 ], [ 128.967486937355915, 35.133085600466814 ], [ 128.96756735157831, 35.13286425168382 ], [ 128.967582130262088, 35.132834314598306 ], [ 128.967685380508982, 35.132625277615098 ], [ 128.967747327098181, 35.132499878687824 ], [ 128.967894900422493, 35.132233404956594 ], [ 128.968151450962267, 35.131894095688025 ], [ 128.968902590124202, 35.131083886071067 ], [ 128.969449990227446, 35.130728442317547 ], [ 128.9701993772116, 35.130332493438779 ], [ 128.971960111987556, 35.131832403848584 ], [ 128.971989439085178, 35.13187047927039 ], [ 128.972245706794951, 35.13227769900795 ], [ 128.972906664772154, 35.133473598914335 ] ] ] ] } },
{ "type": "Feature", "properties": { "OBJECTID": 619, "adm_nm": "부산광역시 사상구 감전동", "adm_cd": "2115065", "adm_cd2": "2653064500", "sgg": "26530", "sido": "26", "sidonm": "부산광역시", "sggnm": "사상구" }, "geometry": { "type": "MultiPolygon", "coordinates": [ [ [ [ 128.99969506167551, 35.161873680044955 ], [ 128.999074830985563, 35.160441230197314 ], [ 128.997703480051115, 35.158566106026079 ], [ 128.996936489684401, 35.158000285725642 ], [ 128.996111594694497, 35.157416158698027 ], [ 128.995031609585169, 35.157085229712507 ], [ 128.994147871977106, 35.156033255776983 ], [ 128.992904122775172, 35.154278497441304 ], [ 128.992061456191124, 35.15096457361787 ], [ 128.991743107801454, 35.14965269293895 ], [ 128.989413202890034, 35.149466285246625 ], [ 128.987300559980497, 35.149837883805461 ], [ 128.984043791832306, 35.150410620734441 ], [ 128.983141151468061, 35.150569339619231 ], [ 128.981976159020462, 35.150767424615665 ], [ 128.977746303066738, 35.151484395423559 ], [ 128.977002094266595, 35.151567267248325 ], [ 128.976543282029411, 35.151593059440671 ], [ 128.976455680477358, 35.151597970765494 ], [ 128.976277761790158, 35.15155695241949 ], [ 128.976234217161817, 35.151546909773444 ], [ 128.976211283646762, 35.151521757251636 ], [ 128.976083935133545, 35.150422899030495 ], [ 128.97605466182543, 35.15017022776923 ], [ 128.975910073519344, 35.148481503826282 ], [ 128.975361908970399, 35.14308452506144 ], [ 128.975261927187745, 35.142810275656856 ], [ 128.975251522245884, 35.142781737112557 ], [ 128.97523856293634, 35.142746197025247 ], [ 128.974782958896185, 35.141735404745646 ], [ 128.974617912581607, 35.141426763624736 ], [ 128.974276238523345, 35.14097224252545 ], [ 128.973924676348446, 35.140504561591712 ], [ 128.973352951047048, 35.139744000018119 ], [ 128.973269594306146, 35.139596336203347 ], [ 128.973195805977866, 35.139465617371947 ], [ 128.972746863489277, 35.138351807993494 ], [ 128.972529686980238, 35.137798210756522 ], [ 128.972174806172291, 35.133851816821512 ], [ 128.972906664772154, 35.133473598914335 ], [ 128.972245706794951, 35.13227769900795 ], [ 128.971989439085178, 35.13187047927039 ], [ 128.971960111987556, 35.131832403848584 ], [ 128.9701993772116, 35.130332493438779 ], [ 128.969449990227446, 35.130728442317547 ], [ 128.968902590124202, 35.131083886071067 ], [ 128.968151450962267, 35.131894095688025 ], [ 128.967894900422493, 35.132233404956594 ], [ 128.967747327098181, 35.132499878687824 ], [ 128.967685380508982, 35.132625277615098 ], [ 128.967582130262088, 35.132834314598306 ], [ 128.96756735157831, 35.13286425168382 ], [ 128.967486937355915, 35.133085600466814 ], [ 128.967383006069326, 35.133398516172583 ], [ 128.967275783968148, 35.133767601307341 ], [ 128.967195862715812, 35.134082513505909 ], [ 128.967186535951441, 35.134119283750046 ], [ 128.967115208999672, 35.134415174856755 ], [ 128.967042426962593, 35.134739920155177 ], [ 128.966962500895818, 35.135108372435518 ], [ 128.964527430418542, 35.137253433538028 ], [ 128.960573562572165, 35.137181036501275 ], [ 128.961418866820793, 35.139439998880832 ], [ 128.961211497786365, 35.140514913547683 ], [ 128.960820167853313, 35.142543253130384 ], [ 128.962459489209323, 35.143325464079226 ], [ 128.964756719641343, 35.144150957078764 ], [ 128.966509975034057, 35.14420880399885 ], [ 128.967523831306892, 35.145572701745081 ], [ 128.968419535759665, 35.148438903923505 ], [ 128.968910307004563, 35.150009262129593 ], [ 128.969286573686503, 35.15264194640136 ], [ 128.969360433903574, 35.152919769416748 ], [ 128.9694039350411, 35.153083372769004 ], [ 128.972167837190653, 35.158241168152713 ], [ 128.9732463523452, 35.159607702453172 ], [ 128.973418857222896, 35.15972438711227 ], [ 128.974019328048939, 35.160072005528484 ], [ 128.974610142023209, 35.160409135409864 ], [ 128.974874623919277, 35.160530892282715 ], [ 128.975042253946356, 35.16050322795089 ], [ 128.976004190194686, 35.160344451476888 ], [ 128.975889427972675, 35.159874744176641 ], [ 128.975782434661198, 35.159446848404805 ], [ 128.975694538544985, 35.159172026604907 ], [ 128.985753671873454, 35.157075546870495 ], [ 128.985898295253207, 35.15755625016503 ], [ 128.986056730108345, 35.158082926772472 ], [ 128.986577982047351, 35.158669047641546 ], [ 128.988260893349604, 35.159548394385894 ], [ 128.988340179647622, 35.15953662062325 ], [ 128.989115208247512, 35.159421520249353 ], [ 128.98969503674428, 35.159334791350425 ], [ 128.98990818847335, 35.158939233344917 ], [ 128.990118542480076, 35.158830267589131 ], [ 128.99042780561399, 35.158888981672845 ], [ 128.990585495346039, 35.158933585442377 ], [ 128.993445351814216, 35.161406412741002 ], [ 128.993817954771686, 35.162168177209637 ], [ 128.994041272231442, 35.162773566335225 ], [ 128.99408499277331, 35.163187075153303 ], [ 128.99527464600547, 35.16324176119825 ], [ 128.995757072353001, 35.16288129296192 ], [ 128.996073835385658, 35.162534215102518 ], [ 128.996444798624168, 35.162127742788684 ], [ 128.99969506167551, 35.161873680044955 ] ] ] ] } }
]
}
