{
"type": "FeatureCollection",
"name": "seogu",
"crs": { "type": "name", "properties": { "name": "urn:ogc:def:crs:OGC:1.3:CRS84" } },
"features": [
{ "type": "Feature", "properties": { "OBJECTID": 434, "adm_nm": "부산광역시 서구 동대신1동", "adm_cd": "2102051", "adm_cd2": "2614051000", "sgg": "26140", "sido": "26", "sidonm": "부산광역시", "sggnm": "서구" }, "geometry": { "type": "MultiPolygon", "coordinates": [ [ [ [ 129.026441345775822, 35.111093305925095 ], [ 129.025785414028945, 35.11069965618853 ], [ 129.022933304373623, 35.10897200871046 ], [ 129.022345487234702, 35.107520394618824 ], [ 129.020205095831528, 35.107625781356141 ], [ 129.017941116176388, 35.109950277361108 ], [ 129.017954386516351, 35.110090161564024 ], [ 129.021191354403499, 35.111285708433073 ], [ 129.024331825196924, 35.112401349892963 ], [ 129.024594151280695, 35.112347870682505 ], [ 129.024705719594465, 35.112315943772046 ], [ 129.024748482964668, 35.112303553109513 ], [ 129.024792373925749, 35.11229049547395 ], [ 129.024836276670385, 35.112277423248472 ], [ 129.026441345775822, 35.111093305925095 ] ] ] ] } },
{ "type": "Feature", "properties": { "OBJECTID": 435, "adm_nm": "부산광역시 서구 동대신2동", "adm_cd": "2102052", "adm_cd2": "2614052000", "sgg": "26140", "sido": "26", "sidonm": "부산광역시", "sggnm": "서구" }, "geometry": { "type": "MultiPolygon", "coordinates": [ [ [ [ 129.026133128232118, 35.116777714805856 ], [ 129.026931278882955, 35.115945906162004 ], [ 129.028178763431981, 35.115673532381251 ], [ 129.028482927075004, 35.112986806103294 ], [ 129.028473450158884, 35.112835772991964 ], [ 129.028437886070805, 35.112678910819469 ], [ 129.027793410535622, 35.111121869158644 ], [ 129.027642938272066, 35.110971205746928 ], [ 129.02704782701889, 35.11049540178221 ], [ 129.026441345775822, 35.111093305925095 ], [ 129.024836276670385, 35.112277423248472 ], [ 129.024792373925749, 35.11229049547395 ], [ 129.024748482964668, 35.112303553109513 ], [ 129.024705719594465, 35.112315943772046 ], [ 129.024594151280695, 35.112347870682505 ], [ 129.024331825196924, 35.112401349892963 ], [ 129.021191354403499, 35.111285708433073 ], [ 129.017954386516351, 35.110090161564024 ], [ 129.017941116176388, 35.109950277361108 ], [ 129.016557446609653, 35.112476513640232 ], [ 129.01721289553771, 35.112722226955512 ], [ 129.021005292787947, 35.114223862795676 ], [ 129.021241201742839, 35.115105422253883 ], [ 129.02205028333637, 35.116275452551591 ], [ 129.022669966526081, 35.116989390253337 ], [ 129.022718749779216, 35.116973613903347 ], [ 129.026133128232118, 35.116777714805856 ] ] ] ] } },
{ "type": "Feature", "properties": { "OBJECTID": 436, "adm_nm": "부산광역시 서구 동대신3동", "adm_cd": "2102053", "adm_cd2": "2614053000", "sgg": "26140", "sido": "26", "sidonm": "부산광역시", "sggnm": "서구" }, "geometry": { "type": "MultiPolygon", "coordinates": [ [ [ [ 129.02511501707022, 35.13215959431826 ], [ 129.02566114046175, 35.130769887667306 ], [ 129.025937623418173, 35.129778676957194 ], [ 129.02602801068727, 35.129123088104386 ], [ 129.025982457292002, 35.128262237984224 ], [ 129.025376441597302, 35.121960722952025 ], [ 129.024748881507463, 35.119343797125055 ], [ 129.024719416962739, 35.119264012237366 ], [ 129.0245963451828, 35.118765404482929 ], [ 129.024592857996936, 35.118706995581093 ], [ 129.024646491702754, 35.118580203462258 ], [ 129.025067011253043, 35.117914806422213 ], [ 129.025330071058619, 35.117604178457299 ], [ 129.026133128232118, 35.116777714805856 ], [ 129.022718749779216, 35.116973613903347 ], [ 129.022669966526081, 35.116989390253337 ], [ 129.02205028333637, 35.116275452551591 ], [ 129.021241201742839, 35.115105422253883 ], [ 129.021005292787947, 35.114223862795676 ], [ 129.01721289553771, 35.112722226955512 ], [ 129.016557446609653, 35.112476513640232 ], [ 129.015203016846272, 35.115002755464516 ], [ 129.016690112286739, 35.115625680607423 ], [ 129.017056166759062, 35.116206923290299 ], [ 129.016372757177976, 35.117619218570127 ], [ 129.016297653631597, 35.117725963255801 ], [ 129.017752831494505, 35.121508801637709 ], [ 129.018901555627082, 35.126400405025905 ], [ 129.018910922900261, 35.126437318838768 ], [ 129.02028839204192, 35.129593934850988 ], [ 129.020425035301145, 35.129797904382478 ], [ 129.021284843045549, 35.130967160960481 ], [ 129.022323650203816, 35.131841681467982 ], [ 129.024120304108408, 35.134022814697929 ], [ 129.02511501707022, 35.13215959431826 ] ] ] ] } },
{ "type": "Feature", "properties": { "OBJECTID": 437, "adm_nm": "부산광역시 서구 서대신1동", "adm_cd": "2102054", "adm_cd2": "2614054000", "sgg": "26140", "sido": "26", "sidonm": "부산광역시", "sggnm": "서구" }, "geometry": { "type": "MultiPolygon", "coordinates": [ [ [ [ 129.016557446609653, 35.112476513640232 ], [ 129.017941116176388, 35.109950277361108 ], [ 129.020205095831528, 35.107625781356141 ], [ 129.018000162512493, 35.107718056452178 ], [ 129.01667294073772, 35.107773575697657 ], [ 129.016521342031922, 35.107732880967241 ], [ 129.015481694668722, 35.106801143244383 ], [ 129.014084541301997, 35.105034960132059 ], [ 129.011460030309593, 35.105101090324098 ], [ 129.010513649273918, 35.105592602819321 ], [ 129.010162529415169, 35.106098233571224 ], [ 129.006822833738369, 35.10900798909141 ], [ 129.006627974147165, 35.10917431634504 ], [ 129.006282241869826, 35.109469418925663 ], [ 129.006149805981437, 35.109547224713822 ], [ 129.003711214743731, 35.110670106338958 ], [ 129.004180232551278, 35.110890852217402 ], [ 129.004544136976619, 35.110956098330583 ], [ 129.006601444106707, 35.111190570515269 ], [ 129.007407267684698, 35.111161735830606 ], [ 129.007555862608967, 35.111105251172987 ], [ 129.007634531412322, 35.111075345006881 ], [ 129.007992877714344, 35.110918620255816 ], [ 129.008582134545918, 35.110821746304765 ], [ 129.008852356152858, 35.110804958314311 ], [ 129.009057443533266, 35.110822519217692 ], [ 129.009753735352149, 35.110892530370684 ], [ 129.010672779914131, 35.11210514580177 ], [ 129.010772773185806, 35.112341738767348 ], [ 129.010796308761655, 35.112496251815898 ], [ 129.010801451701667, 35.112793842363082 ], [ 129.010802235499142, 35.112897037473303 ], [ 129.010796379723416, 35.113075706139441 ], [ 129.010884601842889, 35.113167451618416 ], [ 129.011010309971851, 35.113214882982696 ], [ 129.011122047697455, 35.113214881048087 ], [ 129.011263177824276, 35.113152092430468 ], [ 129.011380779061852, 35.113045859469139 ], [ 129.011610047006172, 35.112509850453336 ], [ 129.011707344160072, 35.112246010220218 ], [ 129.011743941691208, 35.112146766796066 ], [ 129.012039183878727, 35.111346082024369 ], [ 129.016557446609653, 35.112476513640232 ] ] ] ] } },
{ "type": "Feature", "properties": { "OBJECTID": 438, "adm_nm": "부산광역시 서구 서대신3동", "adm_cd": "2102056", "adm_cd2": "2614056000", "sgg": "26140", "sido": "26", "sidonm": "부산광역시", "sggnm": "서구" }, "geometry": { "type": "MultiPolygon", "coordinates": [ [ [ [ 129.015203016846272, 35.115002755464516 ], [ 129.016557446609653, 35.112476513640232 ], [ 129.012039183878727, 35.111346082024369 ], [ 129.011743941691208, 35.112146766796066 ], [ 129.011707344160072, 35.112246010220218 ], [ 129.011610047006172, 35.112509850453336 ], [ 129.011380779061852, 35.113045859469139 ], [ 129.011263177824276, 35.113152092430468 ], [ 129.011122047697455, 35.113214881048087 ], [ 129.011010309971851, 35.113214882982696 ], [ 129.010884601842889, 35.113167451618416 ], [ 129.010796379723416, 35.113075706139441 ], [ 129.010802235499142, 35.112897037473303 ], [ 129.010801451701667, 35.112793842363082 ], [ 129.010796308761655, 35.112496251815898 ], [ 129.010772773185806, 35.112341738767348 ], [ 129.010672779914131, 35.11210514580177 ], [ 129.009753735352149, 35.110892530370684 ], [ 129.009057443533266, 35.110822519217692 ], [ 129.008852356152858, 35.110804958314311 ], [ 129.008582134545918, 35.110821746304765 ], [ 129.007992877714344, 35.110918620255816 ], [ 129.007634531412322, 35.111075345006881 ], [ 129.007555862608967, 35.111105251172987 ], [ 129.007407267684698, 35.111161735830606 ], [ 129.006601444106707, 35.111190570515269 ], [ 129.004544136976619, 35.110956098330583 ], [ 129.004180232551278, 35.110890852217402 ], [ 129.003711214743731, 35.110670106338958 ], [ 129.003274230161253, 35.111808928700739 ], [ 129.003739830841084, 35.112709249019922 ], [ 129.003801341223522, 35.112915412441872 ], [ 129.003817374466735, 35.112977998808134 ], [ 129.003839188130286, 35.113063218075744 ], [ 129.003827351145247, 35.113162403548074 ], [ 129.003803712935706, 35.113249934126138 ], [ 129.003170367139035, 35.114026775746233 ], [ 129.003087589690836, 35.114092921092158 ], [ 129.002825029543516, 35.11418239015719 ], [ 129.0026878321749, 35.114209614426919 ], [ 129.002268232010238, 35.114259391537949 ], [ 129.001776241889473, 35.11430412976199 ], [ 129.001669802536497, 35.114298283459753 ], [ 129.001163617325034, 35.11422631698106 ], [ 129.000145582884187, 35.1183844090923 ], [ 129.002614099962102, 35.117988032512287 ], [ 129.003660496661041, 35.117775147420375 ], [ 129.003903898202765, 35.117682989349923 ], [ 129.00411607952941, 35.117602650830719 ], [ 129.006283492569651, 35.116501317023527 ], [ 129.007339665588944, 35.116340963335077 ], [ 129.007750934790522, 35.116395583380843 ], [ 129.007743987134944, 35.117474487316308 ], [ 129.008062553057641, 35.117480136650087 ], [ 129.008145378193831, 35.117480139221918 ], [ 129.012637653567424, 35.116699698935655 ], [ 129.013136436029072, 35.116243831114275 ], [ 129.013480216440001, 35.115887614611083 ], [ 129.014203772999053, 35.114655901004014 ], [ 129.015203016846272, 35.115002755464516 ] ] ] ] } },
{ "type": "Feature", "properties": { "OBJECTID": 439, "adm_nm": "부산광역시 서구 서대신4동", "adm_cd": "2102057", "adm_cd2": "2614057000", "sgg": "26140", "sido": "26", "sidonm": "부산광역시", "sggnm": "서구" }, "geometry": { "type": "MultiPolygon", "coordinates": [ [ [ [ 129.006575107117158, 35.139394828091426 ], [ 129.01132236660203, 35.138189122925816 ], [ 129.011543718298299, 35.138051321953533 ], [ 129.012125663477008, 35.13773252746067 ], [ 129.012798524942212, 35.1373987642705 ], [ 129.017088453748983, 35.136021320163501 ], [ 129.018369547454625, 35.136048317566114 ], [ 129.019169834801147, 35.136237396096547 ], [ 129.020491558648388, 35.136690346536881 ], [ 129.020812905266098, 35.136849647403551 ], [ 129.024120304108408, 35.134022814697929 ], [ 129.022323650203816, 35.131841681467982 ], [ 129.021284843045549, 35.130967160960481 ], [ 129.020425035301145, 35.129797904382478 ], [ 129.02028839204192, 35.129593934850988 ], [ 129.018910922900261, 35.126437318838768 ], [ 129.018901555627082, 35.126400405025905 ], [ 129.017752831494505, 35.121508801637709 ], [ 129.016297653631597, 35.117725963255801 ], [ 129.016372757177976, 35.117619218570127 ], [ 129.017056166759062, 35.116206923290299 ], [ 129.016690112286739, 35.115625680607423 ], [ 129.015203016846272, 35.115002755464516 ], [ 129.014203772999053, 35.114655901004014 ], [ 129.013480216440001, 35.115887614611083 ], [ 129.013136436029072, 35.116243831114275 ], [ 129.012637653567424, 35.116699698935655 ], [ 129.008145378193831, 35.117480139221918 ], [ 129.008062553057641, 35.117480136650087 ], [ 129.007743987134944, 35.117474487316308 ], [ 129.007750934790522, 35.116395583380843 ], [ 129.007339665588944, 35.116340963335077 ], [ 129.006283492569651, 35.116501317023527 ], [ 129.00411607952941, 35.117602650830719 ], [ 129.003903898202765, 35.117682989349923 ], [ 129.003660496661041, 35.117775147420375 ], [ 129.002614099962102, 35.117988032512287 ], [ 129.000145582884187, 35.1183844090923 ], [ 129.00051087661609, 35.120201283690506 ], [ 129.000322671955018, 35.120375027314999 ], [ 128.997968560249916, 35.122548157871137 ], [ 128.998436433877799, 35.124674673858067 ], [ 128.999609024518321, 35.125850498507738 ], [ 129.001042126232306, 35.126318263830896 ], [ 129.001600750833177, 35.12650059096157 ], [ 129.002247398233408, 35.127428986550207 ], [ 129.002391347748102, 35.129008631583197 ], [ 129.002950952537589, 35.134929834073539 ], [ 129.00451760683498, 35.139513292630802 ], [ 129.004737023437769, 35.139435132102662 ], [ 129.006575107117158, 35.139394828091426 ] ] ] ] } },
{ "type": "Feature", "properties": { "OBJECTID": 440, "adm_nm": "부산광역시 서구 부민동", "adm_cd": "2102059", "adm_cd2": "2614059000", "sgg": "26140", "sido": "26", "sidonm": "부산광역시", "sggnm": "서구" }, "geometry": { "type": "MultiPolygon", "coordinates": [ [ [ [ 129.020205095831528, 35.107625781356141 ], [ 129.022345487234702, 35.107520394618824 ], [ 129.021226983329512, 35.10330608027158 ], [ 129.021550155816726, 35.101912113158015 ], [ 129.01984900825542, 35.102002249731484 ], [ 129.017986484633099, 35.102085523299444 ], [ 129.017085962992525, 35.10211208443264 ], [ 129.016801481808017, 35.102010419139049 ], [ 129.016773472356903, 35.101830560825981 ], [ 129.016705289324705, 35.101813955908234 ], [ 129.016579198997164, 35.101827129318963 ], [ 129.014908354777674, 35.102022078989606 ], [ 129.014022814938642, 35.102166065562194 ], [ 129.013790300161645, 35.102205295913969 ], [ 129.013293487569143, 35.102375439462982 ], [ 129.013115922744902, 35.102465956462325 ], [ 129.013037197978633, 35.102600613575447 ], [ 129.01303720924335, 35.102674532873458 ], [ 129.013266789142904, 35.103601666848398 ], [ 129.013301900817964, 35.103705488372142 ], [ 129.013322830025544, 35.103745630525779 ], [ 129.014084541301997, 35.105034960132059 ], [ 129.015481694668722, 35.106801143244383 ], [ 129.016521342031922, 35.107732880967241 ], [ 129.01667294073772, 35.107773575697657 ], [ 129.018000162512493, 35.107718056452178 ], [ 129.020205095831528, 35.107625781356141 ] ] ] ] } },
{ "type": "Feature", "properties": { "OBJECTID": 441, "adm_nm": "부산광역시 서구 아미동", "adm_cd": "2102061", "adm_cd2": "2614061500", "sgg": "26140", "sido": "26", "sidonm": "부산광역시", "sggnm": "서구" }, "geometry": { "type": "MultiPolygon", "coordinates": [ [ [ [ 129.014084541301997, 35.105034960132059 ], [ 129.013322830025544, 35.103745630525779 ], [ 129.013301900817964, 35.103705488372142 ], [ 129.013266789142904, 35.103601666848398 ], [ 129.01303720924335, 35.102674532873458 ], [ 129.013037197978633, 35.102600613575447 ], [ 129.013115922744902, 35.102465956462325 ], [ 129.013293487569143, 35.102375439462982 ], [ 129.013790300161645, 35.102205295913969 ], [ 129.014022814938642, 35.102166065562194 ], [ 129.014908354777674, 35.102022078989606 ], [ 129.016579198997164, 35.101827129318963 ], [ 129.016705289324705, 35.101813955908234 ], [ 129.016773472356903, 35.101830560825981 ], [ 129.016801481808017, 35.102010419139049 ], [ 129.017085962992525, 35.10211208443264 ], [ 129.017986484633099, 35.102085523299444 ], [ 129.01984900825542, 35.102002249731484 ], [ 129.019606623206982, 35.098741977389473 ], [ 129.019076222009915, 35.098758604556622 ], [ 129.018411161977895, 35.09877942817004 ], [ 129.013566138713941, 35.095956376843496 ], [ 129.012841544246101, 35.095408236289302 ], [ 129.011734246061053, 35.097204594846914 ], [ 129.010502482259312, 35.098991837271129 ], [ 129.010300752983454, 35.099230492973049 ], [ 129.01025765278888, 35.099281476641259 ], [ 129.010167974887509, 35.099350869264512 ], [ 129.010135224740509, 35.099370709939201 ], [ 129.010099018303293, 35.099377794231792 ], [ 129.010026587128692, 35.099380621504828 ], [ 129.009194897043528, 35.099364187445325 ], [ 129.006748590700766, 35.099093306672643 ], [ 129.007256985571189, 35.101343277076538 ], [ 129.00732093637501, 35.101592769548986 ], [ 129.007432619248988, 35.101829096156784 ], [ 129.009656455835454, 35.104728954528419 ], [ 129.009690326553425, 35.104772548934505 ], [ 129.010513649273918, 35.105592602819321 ], [ 129.011460030309593, 35.105101090324098 ], [ 129.014084541301997, 35.105034960132059 ] ] ] ] } },
{ "type": "Feature", "properties": { "OBJECTID": 442, "adm_nm": "부산광역시 서구 초장동", "adm_cd": "2102063", "adm_cd2": "2614063000", "sgg": "26140", "sido": "26", "sidonm": "부산광역시", "sggnm": "서구" }, "geometry": { "type": "MultiPolygon", "coordinates": [ [ [ [ 129.019606623206982, 35.098741977389473 ], [ 129.020056064714737, 35.09871655441659 ], [ 129.020745300186917, 35.097901868486957 ], [ 129.021518638567272, 35.096161531382172 ], [ 129.021058026746061, 35.093171379747247 ], [ 129.02101936727604, 35.093253085595968 ], [ 129.020413023232607, 35.093082204996577 ], [ 129.020008447318645, 35.092927356007749 ], [ 129.019146024681106, 35.092495149086361 ], [ 129.018912851736985, 35.092260400550693 ], [ 129.018877289128966, 35.092213680467921 ], [ 129.018804223161794, 35.092117678730901 ], [ 129.018002866512319, 35.091564539142475 ], [ 129.017197174776612, 35.091199000227157 ], [ 129.015889104050444, 35.090716866497161 ], [ 129.015274250522054, 35.090694742838522 ], [ 129.014614910855045, 35.0906939966438 ], [ 129.014249878561799, 35.090704094462566 ], [ 129.014399690710206, 35.09138159417639 ], [ 129.014420929334477, 35.091489818434539 ], [ 129.014300486225977, 35.093185947273362 ], [ 129.014149292891744, 35.093664962776437 ], [ 129.013843532091499, 35.094170152122999 ], [ 129.012841544246101, 35.095408236289302 ], [ 129.013566138713941, 35.095956376843496 ], [ 129.018411161977895, 35.09877942817004 ], [ 129.019076222009915, 35.098758604556622 ], [ 129.019606623206982, 35.098741977389473 ] ] ] ] } },
{ "type": "Feature", "properties": { "OBJECTID": 443, "adm_nm": "부산광역시 서구 충무동", "adm_cd": "2102064", "adm_cd2": "2614064000", "sgg": "26140", "sido": "26", "sidonm": "부산광역시", "sggnm": "서구" }, "geometry": { "type": "MultiPolygon", "coordinates": [ [ [ [ 129.021550155816726, 35.101912113158015 ], [ 129.023900989008808, 35.100363289819875 ], [ 129.024232998946019, 35.100079009029578 ], [ 129.024546388724104, 35.099553259681379 ], [ 129.024743036580844, 35.099069940450818 ], [ 129.024793179478223, 35.098946148376932 ], [ 129.025139347757317, 35.098067127030951 ], [ 129.026210944028378, 35.095679023153039 ], [ 129.025255113438533, 35.093496547921298 ], [ 129.021058026746061, 35.093171379747247 ], [ 129.021518638567272, 35.096161531382172 ], [ 129.020745300186917, 35.097901868486957 ], [ 129.020056064714737, 35.09871655441659 ], [ 129.019606623206982, 35.098741977389473 ], [ 129.01984900825542, 35.102002249731484 ], [ 129.021550155816726, 35.101912113158015 ] ] ] ] } },
{ "type": "Feature", "properties": { "OBJECTID": 444, "adm_nm": "부산광역시 서구 남부민1동", "adm_cd": "2102065", "adm_cd2": "2614065000", "sgg": "26140", "sido": "26", "sidonm": "부산광역시", "sggnm": "서구" }, "geometry": { "type": "MultiPolygon", "coordinates": [ [ [ [ 129.026052135261693, 35.086845636730828 ], [ 129.024582494688559, 35.086769949754661 ], [ 129.023412107965413, 35.087492394034669 ], [ 129.022019453931335, 35.088767462203236 ], [ 129.021990218312084, 35.088976233784173 ], [ 129.022065492295525, 35.089283095316624 ], [ 129.01668776149819, 35.087401122140385 ], [ 129.01401555533775, 35.089189657004077 ], [ 129.014249878561799, 35.090704094462566 ], [ 129.014614910855045, 35.0906939966438 ], [ 129.015274250522054, 35.090694742838522 ], [ 129.015889104050444, 35.090716866497161 ], [ 129.017197174776612, 35.091199000227157 ], [ 129.018002866512319, 35.091564539142475 ], [ 129.018804223161794, 35.092117678730901 ], [ 129.018877289128966, 35.092213680467921 ], [ 129.018912851736985, 35.092260400550693 ], [ 129.019146024681106, 35.092495149086361 ], [ 129.020008447318645, 35.092927356007749 ], [ 129.020413023232607, 35.093082204996577 ], [ 129.02101936727604, 35.093253085595968 ], [ 129.021058026746061, 35.093171379747247 ], [ 129.025255113438533, 35.093496547921298 ], [ 129.025299376258744, 35.093272238414031 ], [ 129.026052135261693, 35.086845636730828 ] ] ] ] } },
{ "type": "Feature", "properties": { "OBJECTID": 445, "adm_nm": "부산광역시 서구 암남동", "adm_cd": "2102068", "adm_cd2": "2614068000", "sgg": "26140", "sido": "26", "sidonm": "부산광역시", "sggnm": "서구" }, "geometry": { "type": "MultiPolygon", "coordinates": [ [ [ [ 129.01604394795325, 35.047088396168128 ], [ 129.015805681716898, 35.046826176056555 ], [ 129.015419727567235, 35.046905699435996 ], [ 129.014888495258589, 35.047093923288173 ], [ 129.013999598764798, 35.047680007538069 ], [ 129.013715890268003, 35.047888646484708 ], [ 129.013679319510317, 35.048168201215141 ], [ 129.013752719406853, 35.048859843498761 ], [ 129.013820451303275, 35.049351162184564 ], [ 129.013911584126049, 35.04995211076924 ], [ 129.014155560063386, 35.050218456636188 ], [ 129.014394833089, 35.050350247557887 ], [ 129.014710114527134, 35.050298277320216 ], [ 129.015139047261499, 35.050132882727901 ], [ 129.015429879736274, 35.049878195458199 ], [ 129.015739388640696, 35.049348139479079 ], [ 129.015904375227507, 35.048548739549979 ], [ 129.01591580639689, 35.048278751867478 ], [ 129.015853579148825, 35.047980506216135 ], [ 129.015665946272435, 35.047754269150388 ], [ 129.015465081719128, 35.047692923765922 ], [ 129.015853523667914, 35.047614219349548 ], [ 129.015939873675393, 35.047530661897127 ], [ 129.016090687696874, 35.04735573185723 ], [ 129.01604394795325, 35.047088396168128 ] ] ], [ [ [ 129.025690209828497, 35.081197280831041 ], [ 129.025362301996807, 35.079591567213122 ], [ 129.024709524235078, 35.07642107530927 ], [ 129.024592269254555, 35.076084566216188 ], [ 129.02276006073987, 35.075108671086824 ], [ 129.022591173651506, 35.07503229294371 ], [ 129.022351788195607, 35.07496239336821 ], [ 129.022145229142296, 35.074920987303351 ], [ 129.021960601323286, 35.074987387793108 ], [ 129.021846057751134, 35.075160833705013 ], [ 129.021837425267478, 35.07533251118744 ], [ 129.021883460488283, 35.075505922485895 ], [ 129.021950530631642, 35.075620940233279 ], [ 129.02203042732782, 35.075735714886115 ], [ 129.021842365116527, 35.076390800631188 ], [ 129.021495697193359, 35.07719394306622 ], [ 129.021186499052675, 35.077508291361696 ], [ 129.021071046787455, 35.077607057424167 ], [ 129.020992492640744, 35.077674247288854 ], [ 129.020417845625389, 35.077667563142178 ], [ 129.019533068377626, 35.07753582564397 ], [ 129.018362865488285, 35.077075238190872 ], [ 129.017839834117297, 35.076750344186514 ], [ 129.017806328370114, 35.076716614586473 ], [ 129.016543286734844, 35.075445092370352 ], [ 129.016448424114884, 35.075349580444183 ], [ 129.015971686182922, 35.074552762015401 ], [ 129.016024325585704, 35.074322468118332 ], [ 129.017169816021124, 35.072138886186714 ], [ 129.017621692481214, 35.071800469649347 ], [ 129.019107786750197, 35.070601520532016 ], [ 129.020921961774235, 35.068916496141249 ], [ 129.021225683845103, 35.067443248434984 ], [ 129.022277483432759, 35.062340945643477 ], [ 129.021717007091354, 35.060796863905125 ], [ 129.019145423284328, 35.059408879813425 ], [ 129.018715652279155, 35.059129875856378 ], [ 129.015900300388694, 35.056928285842005 ], [ 129.015705667906303, 35.056093504061423 ], [ 129.015566282884407, 35.055482605268075 ], [ 129.01547463516232, 35.054789179738371 ], [ 129.016067865524491, 35.054636236744699 ], [ 129.016267555254359, 35.054335967077762 ], [ 129.016251228349347, 35.053999552974496 ], [ 129.015855674000903, 35.053086346202448 ], [ 129.0153214749445, 35.052604651022016 ], [ 129.014548203208193, 35.052329388648957 ], [ 129.00851006022566, 35.050549951921653 ], [ 129.008364676792297, 35.050810681784498 ], [ 129.010060181260116, 35.05152711555845 ], [ 129.010632107263376, 35.052449461282364 ], [ 129.009772677942522, 35.055469972061033 ], [ 129.008551932522607, 35.060675436835339 ], [ 129.008322857778609, 35.062389503638116 ], [ 129.008376378254695, 35.062803688603935 ], [ 129.009349535737897, 35.062892485434539 ], [ 129.009942632777182, 35.062946596045627 ], [ 129.011479187315103, 35.063145725374966 ], [ 129.011781676646876, 35.064078604804799 ], [ 129.0119790837457, 35.064864002485983 ], [ 129.010954229010821, 35.065486659892372 ], [ 129.009374879352634, 35.065953603185335 ], [ 129.008802698858545, 35.066705103291582 ], [ 129.006551550415423, 35.069690534754919 ], [ 129.005515010217664, 35.071101884910433 ], [ 129.005049632713934, 35.074223268464124 ], [ 129.004440896320887, 35.078444862927803 ], [ 129.006253765846594, 35.078630560827605 ], [ 129.008347538898562, 35.078241388980253 ], [ 129.008504326892108, 35.0780919315917 ], [ 129.00864026957413, 35.077962407742767 ], [ 129.009352381274738, 35.077513927112633 ], [ 129.010124261072207, 35.077141966398798 ], [ 129.010390461406729, 35.077021705383366 ], [ 129.010656675996415, 35.076950567771746 ], [ 129.010882971620674, 35.076901348724178 ], [ 129.011028336947589, 35.076880521096236 ], [ 129.011189099894352, 35.076857503389391 ], [ 129.011315514861934, 35.076863004637303 ], [ 129.011355442412594, 35.076934111338339 ], [ 129.011603248282256, 35.080659846670102 ], [ 129.011630961718936, 35.08155531126193 ], [ 129.012649757405342, 35.086257743172119 ], [ 129.013174404631997, 35.08809081487248 ], [ 129.01401555533775, 35.089189657004077 ], [ 129.01668776149819, 35.087401122140385 ], [ 129.01559313863666, 35.084437257491082 ], [ 129.015609012731147, 35.083940921681425 ], [ 129.017023460927021, 35.08276227583643 ], [ 129.018322389789802, 35.081877279407813 ], [ 129.018477459617117, 35.08193359759543 ], [ 129.018625265066191, 35.081980966893084 ], [ 129.019929267302814, 35.082187928151107 ], [ 129.020967976971036, 35.082193431469676 ], [ 129.022133629855659, 35.082181568273647 ], [ 129.024522716814204, 35.081270355567185 ], [ 129.025690209828497, 35.081197280831041 ] ] ] ] } },
{ "type": "Feature", "properties": { "OBJECTID": 446, "adm_nm": "부산광역시 서구 남부민2동", "adm_cd": "2102069", "adm_cd2": "2614066000", "sgg": "26140", "sido": "26", "sidonm": "부산광역시", "sggnm": "서구" }, "geometry": { "type": "MultiPolygon", "coordinates": [ [ [ [ 129.026052135261693, 35.086845636730828 ], [ 129.026644760022464, 35.085301132172667 ], [ 129.025690209828497, 35.081197280831041 ], [ 129.024522716814204, 35.081270355567185 ], [ 129.022133629855659, 35.082181568273647 ], [ 129.020967976971036, 35.082193431469676 ], [ 129.019929267302814, 35.082187928151107 ], [ 129.018625265066191, 35.081980966893084 ], [ 129.018477459617117, 35.08193359759543 ], [ 129.018322389789802, 35.081877279407813 ], [ 129.017023460927021, 35.08276227583643 ], [ 129.015609012731147, 35.083940921681425 ], [ 129.01559313863666, 35.084437257491082 ], [ 129.01668776149819, 35.087401122140385 ], [ 129.022065492295525, 35.089283095316624 ], [ 129.021990218312084, 35.088976233784173 ], [ 129.022019453931335, 35.088767462203236 ], [ 129.023412107965413, 35.087492394034669 ], [ 129.024582494688559, 35.086769949754661 ], [ 129.026052135261693, 35.086845636730828 ] ] ] ] } }
]
}
