{
"type": "FeatureCollection",
"name": "suyeonggu",
"crs": { "type": "name", "properties": { "name": "urn:ogc:def:crs:OGC:1.3:CRS84" } },
"features": [
{ "type": "Feature", "properties": { "OBJECTID": 598, "adm_nm": "부산광역시 수영구 남천1동", "adm_cd": "2114051", "adm_cd2": "2650066000", "sgg": "26500", "sido": "26", "sidonm": "부산광역시", "sggnm": "수영구" }, "geometry": { "type": "MultiPolygon", "coordinates": [ [ [ [ 129.113464920853914, 35.14894354284781 ], [ 129.111158916549584, 35.145831591969426 ], [ 129.110820579776657, 35.142905398760774 ], [ 129.110842900867084, 35.142365778269365 ], [ 129.110849359678554, 35.142209675620464 ], [ 129.110855716771255, 35.142183925196903 ], [ 129.111648680001167, 35.139175121027868 ], [ 129.111858530268961, 35.138986340531233 ], [ 129.112149656817394, 35.138897985958167 ], [ 129.112334468207877, 35.138900805481711 ], [ 129.112378704975299, 35.138902523963672 ], [ 129.11560909953937, 35.139545199406072 ], [ 129.115555148505877, 35.139337751703579 ], [ 129.11417371645706, 35.137339779493338 ], [ 129.113612722296864, 35.137564293204044 ], [ 129.113713323588343, 35.137660980878316 ], [ 129.114026028890322, 35.13753025037883 ], [ 129.114455761500949, 35.138131163929977 ], [ 129.114571419697171, 35.138388620384227 ], [ 129.114304124707928, 35.138590132471982 ], [ 129.112567776503511, 35.136928143416817 ], [ 129.111990662680256, 35.136375433253967 ], [ 129.113886199042781, 35.1364986743476 ], [ 129.11842056766713, 35.137056056527413 ], [ 129.11913639217974, 35.137254419620113 ], [ 129.119982865135455, 35.13765895881032 ], [ 129.120752583575609, 35.138181474408491 ], [ 129.124240047193979, 35.141721506715371 ], [ 129.130323931599889, 35.147985067951566 ], [ 129.130745858259502, 35.147713731190663 ], [ 129.126792016598131, 35.143526077459498 ], [ 129.122222062319821, 35.138941908310862 ], [ 129.120983240721927, 35.137724937457889 ], [ 129.119712887079885, 35.136936013186194 ], [ 129.118437135325394, 35.136547359106956 ], [ 129.114988074712159, 35.135940974912764 ], [ 129.111810150893831, 35.135477062726224 ], [ 129.111340711927284, 35.135676201146381 ], [ 129.107639877072586, 35.138166455303285 ], [ 129.106868054876372, 35.138737391248611 ], [ 129.106029681959285, 35.139357667551529 ], [ 129.104884431038414, 35.140208882162028 ], [ 129.103988934079126, 35.140975673374619 ], [ 129.103690843945714, 35.141272645965287 ], [ 129.103630392144908, 35.141334715490032 ], [ 129.103332586020457, 35.141640535396149 ], [ 129.102945002646464, 35.142073952615021 ], [ 129.102735593480929, 35.142308126765883 ], [ 129.102316804768662, 35.142802692226397 ], [ 129.102429854251398, 35.143220750668618 ], [ 129.102735611374897, 35.143646550554884 ], [ 129.103411698189319, 35.144359311918144 ], [ 129.103342444471252, 35.145764043385824 ], [ 129.103297042030391, 35.146009275148465 ], [ 129.102561962015159, 35.147699917322846 ], [ 129.101958927708154, 35.149473380062425 ], [ 129.101641410513594, 35.150693546686561 ], [ 129.102376781850097, 35.150540772488824 ], [ 129.103770754663628, 35.150305192510814 ], [ 129.108072894373834, 35.149895061156379 ], [ 129.109014464625119, 35.150058943978308 ], [ 129.110867148483436, 35.150432932576166 ], [ 129.111191608468886, 35.150576291551097 ], [ 129.113464920853914, 35.14894354284781 ] ] ] ] } },
{ "type": "Feature", "properties": { "OBJECTID": 599, "adm_nm": "부산광역시 수영구 남천2동", "adm_cd": "2114052", "adm_cd2": "2650067000", "sgg": "26500", "sido": "26", "sidonm": "부산광역시", "sggnm": "수영구" }, "geometry": { "type": "MultiPolygon", "coordinates": [ [ [ [ 129.115136603438913, 35.14798729734683 ], [ 129.115111138006682, 35.147101940733464 ], [ 129.115377762937271, 35.146377938410126 ], [ 129.115550953947633, 35.146189026421268 ], [ 129.11739107376269, 35.146109031560314 ], [ 129.117765806433539, 35.145981657302471 ], [ 129.117781935015699, 35.141313124038696 ], [ 129.117743896380205, 35.139844036900818 ], [ 129.11624377842827, 35.139465273192883 ], [ 129.11560909953937, 35.139545199406072 ], [ 129.112378704975299, 35.138902523963672 ], [ 129.112334468207877, 35.138900805481711 ], [ 129.112149656817394, 35.138897985958167 ], [ 129.111858530268961, 35.138986340531233 ], [ 129.111648680001167, 35.139175121027868 ], [ 129.110855716771255, 35.142183925196903 ], [ 129.110849359678554, 35.142209675620464 ], [ 129.110842900867084, 35.142365778269365 ], [ 129.110820579776657, 35.142905398760774 ], [ 129.111158916549584, 35.145831591969426 ], [ 129.113464920853914, 35.14894354284781 ], [ 129.115136603438913, 35.14798729734683 ] ] ] ] } },
{ "type": "Feature", "properties": { "OBJECTID": 600, "adm_nm": "부산광역시 수영구 수영동", "adm_cd": "2114053", "adm_cd2": "2650073000", "sgg": "26500", "sido": "26", "sidonm": "부산광역시", "sggnm": "수영구" }, "geometry": { "type": "MultiPolygon", "coordinates": [ [ [ [ 129.122499055335624, 35.1730217184355 ], [ 129.122609922458253, 35.172696804469268 ], [ 129.123171200856234, 35.171051876632454 ], [ 129.123432464782695, 35.170614474389986 ], [ 129.123562166475665, 35.170397329965844 ], [ 129.1243587401691, 35.169063750222776 ], [ 129.126583321283704, 35.166026173305688 ], [ 129.125396680330738, 35.165515466739649 ], [ 129.125201884984847, 35.165513120239552 ], [ 129.12489475565539, 35.165519395982813 ], [ 129.124315829139704, 35.165708856784448 ], [ 129.124164314260327, 35.165761562068248 ], [ 129.123261916057828, 35.166075472310069 ], [ 129.12133280573795, 35.167687350265702 ], [ 129.120197688069823, 35.168335919983434 ], [ 129.119475545416179, 35.168432646734452 ], [ 129.118848732237751, 35.168516600521812 ], [ 129.117368953821739, 35.168064928087688 ], [ 129.117260223317885, 35.16803008448575 ], [ 129.116773575931688, 35.167874136726525 ], [ 129.116618714270686, 35.167824515391857 ], [ 129.115965787664209, 35.167615299464984 ], [ 129.115687085223982, 35.167612294624568 ], [ 129.115461002712465, 35.167622549411334 ], [ 129.114799249519621, 35.167713281077312 ], [ 129.114364146066293, 35.167899306513995 ], [ 129.111649602606946, 35.169693772703184 ], [ 129.110493008104413, 35.170501491038728 ], [ 129.109567909332185, 35.171147531850728 ], [ 129.10954236528508, 35.171609261380134 ], [ 129.110284193861048, 35.173112562973088 ], [ 129.110680024960686, 35.173882312205706 ], [ 129.110933550141169, 35.174375290068816 ], [ 129.115186065492196, 35.173607992779132 ], [ 129.11698233090209, 35.173236803548065 ], [ 129.118052143694626, 35.173177718644318 ], [ 129.120447169200389, 35.173060611317695 ], [ 129.122499055335624, 35.1730217184355 ] ] ] ] } },
{ "type": "Feature", "properties": { "OBJECTID": 601, "adm_nm": "부산광역시 수영구 망미1동", "adm_cd": "2114054", "adm_cd2": "2650074000", "sgg": "26500", "sido": "26", "sidonm": "부산광역시", "sggnm": "수영구" }, "geometry": { "type": "MultiPolygon", "coordinates": [ [ [ [ 129.107181690027971, 35.178109707823509 ], [ 129.107207062552277, 35.177782011887075 ], [ 129.107214375436541, 35.177687671753617 ], [ 129.10723365450599, 35.177465171208944 ], [ 129.107240264461012, 35.17738895259086 ], [ 129.107350555906606, 35.176294692121417 ], [ 129.107362846945648, 35.176184942498047 ], [ 129.107560475536758, 35.174916883585439 ], [ 129.109238990086368, 35.171595519798672 ], [ 129.108640958547994, 35.171552725708736 ], [ 129.107276911280763, 35.171781470766078 ], [ 129.105196979024356, 35.169584871078087 ], [ 129.103601906300412, 35.166834074809231 ], [ 129.103960370629864, 35.165947034489136 ], [ 129.104034910433654, 35.165630306249092 ], [ 129.103308116047714, 35.163688299779487 ], [ 129.103085293823284, 35.163340911812988 ], [ 129.102590144467939, 35.162900638684334 ], [ 129.102080560956125, 35.162639485941931 ], [ 129.101461233886681, 35.162465195211155 ], [ 129.099454825845527, 35.162256489138692 ], [ 129.098233439068679, 35.162598077412078 ], [ 129.096932883170098, 35.16292362462444 ], [ 129.096902536827372, 35.162930577569433 ], [ 129.096579536293433, 35.163004567407256 ], [ 129.095192084451469, 35.162125995359872 ], [ 129.094823516489953, 35.161740601616678 ], [ 129.094323644413521, 35.162216740195902 ], [ 129.093941211158892, 35.162602334221319 ], [ 129.092319597641335, 35.166167235411528 ], [ 129.09320151437035, 35.166858577840628 ], [ 129.093935739209542, 35.16732921430841 ], [ 129.09473477164147, 35.168112465844892 ], [ 129.09530395885551, 35.168839380068903 ], [ 129.096249054349471, 35.170216454466953 ], [ 129.097129041730739, 35.171627350024238 ], [ 129.097112260838657, 35.171824847662258 ], [ 129.096994970392643, 35.17320467520134 ], [ 129.096985700005462, 35.173313716986698 ], [ 129.096462110256851, 35.173455091313869 ], [ 129.096675763672806, 35.175109412585897 ], [ 129.096473644917921, 35.177009046605001 ], [ 129.09648095992867, 35.17736305140442 ], [ 129.096571394488194, 35.177718317118426 ], [ 129.096670972283363, 35.177954479069584 ], [ 129.097099056007892, 35.178969664708482 ], [ 129.097422891174006, 35.179521269401562 ], [ 129.098664420431959, 35.179836842955211 ], [ 129.100387951023549, 35.180274879922067 ], [ 129.103572395145335, 35.180874581791834 ], [ 129.104345205899278, 35.180716342627214 ], [ 129.10621133057424, 35.180034300791803 ], [ 129.107084691862639, 35.179663617768966 ], [ 129.107095256365398, 35.179494473172284 ], [ 129.107154209684893, 35.178550051137385 ], [ 129.107181690027971, 35.178109707823509 ] ] ] ] } },
{ "type": "Feature", "properties": { "OBJECTID": 602, "adm_nm": "부산광역시 수영구 망미2동", "adm_cd": "2114055", "adm_cd2": "2650075000", "sgg": "26500", "sido": "26", "sidonm": "부산광역시", "sggnm": "수영구" }, "geometry": { "type": "MultiPolygon", "coordinates": [ [ [ [ 129.121057932032699, 35.174647138562634 ], [ 129.121920282438538, 35.173638563281713 ], [ 129.122499055335624, 35.1730217184355 ], [ 129.120447169200389, 35.173060611317695 ], [ 129.118052143694626, 35.173177718644318 ], [ 129.11698233090209, 35.173236803548065 ], [ 129.115186065492196, 35.173607992779132 ], [ 129.110933550141169, 35.174375290068816 ], [ 129.110680024960686, 35.173882312205706 ], [ 129.110284193861048, 35.173112562973088 ], [ 129.10954236528508, 35.171609261380134 ], [ 129.109238990086368, 35.171595519798672 ], [ 129.107560475536758, 35.174916883585439 ], [ 129.107362846945648, 35.176184942498047 ], [ 129.107350555906606, 35.176294692121417 ], [ 129.107240264461012, 35.17738895259086 ], [ 129.10723365450599, 35.177465171208944 ], [ 129.107214375436541, 35.177687671753617 ], [ 129.107207062552277, 35.177782011887075 ], [ 129.107181690027971, 35.178109707823509 ], [ 129.10782591642743, 35.177364386818873 ], [ 129.107945271601551, 35.177226324556841 ], [ 129.109571401452627, 35.176230163519904 ], [ 129.110574586455328, 35.176040262190625 ], [ 129.11110408065224, 35.1759400361438 ], [ 129.112302573842811, 35.177174984208072 ], [ 129.113564930870695, 35.179526906561144 ], [ 129.114146816452831, 35.180696856853857 ], [ 129.114176670371876, 35.180761928287247 ], [ 129.114959207596399, 35.1825968191078 ], [ 129.115156127362354, 35.18318347003634 ], [ 129.115516435100972, 35.187830487508059 ], [ 129.1184497281304, 35.181782254015971 ], [ 129.119261930981992, 35.178500453951443 ], [ 129.119258917037001, 35.176751106648815 ], [ 129.121057932032699, 35.174647138562634 ] ] ] ] } },
{ "type": "Feature", "properties": { "OBJECTID": 603, "adm_nm": "부산광역시 수영구 광안1동", "adm_cd": "2114056", "adm_cd2": "2650076000", "sgg": "26500", "sido": "26", "sidonm": "부산광역시", "sggnm": "수영구" }, "geometry": { "type": "MultiPolygon", "coordinates": [ [ [ [ 129.118761690905359, 35.164846604459584 ], [ 129.120955681475209, 35.158654699141934 ], [ 129.11353704465273, 35.159753793667825 ], [ 129.113613141295559, 35.160013151765227 ], [ 129.113700187231814, 35.160361916126483 ], [ 129.113660518914656, 35.160373637067501 ], [ 129.112725218425055, 35.160649825343789 ], [ 129.112581770615719, 35.160662019799993 ], [ 129.11206801452272, 35.160660702879923 ], [ 129.110590750527791, 35.160607839034817 ], [ 129.110411212806241, 35.159244674680885 ], [ 129.108572705469726, 35.159504091450046 ], [ 129.107993214450858, 35.159801997419919 ], [ 129.108144549345639, 35.160664598887273 ], [ 129.10694616130786, 35.160841340488858 ], [ 129.106201169384235, 35.160929327791223 ], [ 129.105207841483264, 35.161046618530385 ], [ 129.100457317708276, 35.161009411426953 ], [ 129.097525010031973, 35.16027342437247 ], [ 129.096004455593061, 35.159866665302751 ], [ 129.095538875128625, 35.160327750986916 ], [ 129.094823516489953, 35.161740601616678 ], [ 129.095192084451469, 35.162125995359872 ], [ 129.096579536293433, 35.163004567407256 ], [ 129.096902536827372, 35.162930577569433 ], [ 129.096932883170098, 35.16292362462444 ], [ 129.098233439068679, 35.162598077412078 ], [ 129.099454825845527, 35.162256489138692 ], [ 129.101461233886681, 35.162465195211155 ], [ 129.102080560956125, 35.162639485941931 ], [ 129.102590144467939, 35.162900638684334 ], [ 129.103085293823284, 35.163340911812988 ], [ 129.103308116047714, 35.163688299779487 ], [ 129.104034910433654, 35.165630306249092 ], [ 129.103960370629864, 35.165947034489136 ], [ 129.107493769748942, 35.165731666245335 ], [ 129.108267292756807, 35.165705603820157 ], [ 129.108587133269594, 35.165785714342519 ], [ 129.10889378346107, 35.166435176718537 ], [ 129.108954044313009, 35.166585803288626 ], [ 129.109181106532247, 35.166540830710076 ], [ 129.109996014800345, 35.166356866596892 ], [ 129.110067481883277, 35.166322691730564 ], [ 129.110684808873543, 35.16602681583354 ], [ 129.111123955152721, 35.165794720508416 ], [ 129.111228521134137, 35.165725495001759 ], [ 129.112027782165683, 35.166152808120685 ], [ 129.112078384427832, 35.166179398920221 ], [ 129.112601036967959, 35.16645184988937 ], [ 129.114554725050482, 35.165221555713011 ], [ 129.11584723794553, 35.16503229458089 ], [ 129.118158003468068, 35.164697084923091 ], [ 129.118761690905359, 35.164846604459584 ] ] ] ] } },
{ "type": "Feature", "properties": { "OBJECTID": 604, "adm_nm": "부산광역시 수영구 광안2동", "adm_cd": "2114057", "adm_cd2": "2650077000", "sgg": "26500", "sido": "26", "sidonm": "부산광역시", "sggnm": "수영구" }, "geometry": { "type": "MultiPolygon", "coordinates": [ [ [ [ 129.120955681475209, 35.158654699141934 ], [ 129.120176744642606, 35.15764588127842 ], [ 129.119115345742841, 35.156271188523498 ], [ 129.118107305031742, 35.154965542241357 ], [ 129.119553390022475, 35.154287259239055 ], [ 129.119617647302732, 35.154261701685556 ], [ 129.12032509747948, 35.153980419234337 ], [ 129.12011344688662, 35.153892648565616 ], [ 129.119304077519587, 35.153427716271295 ], [ 129.118126530797241, 35.152490142635827 ], [ 129.117586976126034, 35.151997118169533 ], [ 129.11590419569734, 35.149689524778523 ], [ 129.115419700144599, 35.148807963804792 ], [ 129.115261766693038, 35.148520564161849 ], [ 129.115136603438913, 35.14798729734683 ], [ 129.113464920853914, 35.14894354284781 ], [ 129.111191608468886, 35.150576291551097 ], [ 129.112400452041527, 35.154690091773425 ], [ 129.11241988333046, 35.154765427750249 ], [ 129.112729747098228, 35.155966840521984 ], [ 129.112807492725437, 35.156312008775799 ], [ 129.112983593730945, 35.157093886780729 ], [ 129.113325299196475, 35.158729628044313 ], [ 129.11353704465273, 35.159753793667825 ], [ 129.120955681475209, 35.158654699141934 ] ] ] ] } },
{ "type": "Feature", "properties": { "OBJECTID": 605, "adm_nm": "부산광역시 수영구 광안3동", "adm_cd": "2114058", "adm_cd2": "2650078000", "sgg": "26500", "sido": "26", "sidonm": "부산광역시", "sggnm": "수영구" }, "geometry": { "type": "MultiPolygon", "coordinates": [ [ [ [ 129.109238990086368, 35.171595519798672 ], [ 129.10954236528508, 35.171609261380134 ], [ 129.109567909332185, 35.171147531850728 ], [ 129.110493008104413, 35.170501491038728 ], [ 129.111649602606946, 35.169693772703184 ], [ 129.114364146066293, 35.167899306513995 ], [ 129.114799249519621, 35.167713281077312 ], [ 129.115461002712465, 35.167622549411334 ], [ 129.115687085223982, 35.167612294624568 ], [ 129.115965787664209, 35.167615299464984 ], [ 129.116618714270686, 35.167824515391857 ], [ 129.116773575931688, 35.167874136726525 ], [ 129.117260223317885, 35.16803008448575 ], [ 129.117368953821739, 35.168064928087688 ], [ 129.118848732237751, 35.168516600521812 ], [ 129.119475545416179, 35.168432646734452 ], [ 129.120197688069823, 35.168335919983434 ], [ 129.117877206618999, 35.16745427048447 ], [ 129.118292969223035, 35.166211641386433 ], [ 129.118568763087467, 35.165407710774545 ], [ 129.118761690905359, 35.164846604459584 ], [ 129.118158003468068, 35.164697084923091 ], [ 129.11584723794553, 35.16503229458089 ], [ 129.114554725050482, 35.165221555713011 ], [ 129.112601036967959, 35.16645184988937 ], [ 129.112078384427832, 35.166179398920221 ], [ 129.112027782165683, 35.166152808120685 ], [ 129.111228521134137, 35.165725495001759 ], [ 129.111123955152721, 35.165794720508416 ], [ 129.110684808873543, 35.16602681583354 ], [ 129.110067481883277, 35.166322691730564 ], [ 129.109996014800345, 35.166356866596892 ], [ 129.109181106532247, 35.166540830710076 ], [ 129.108954044313009, 35.166585803288626 ], [ 129.10889378346107, 35.166435176718537 ], [ 129.108587133269594, 35.165785714342519 ], [ 129.108267292756807, 35.165705603820157 ], [ 129.107493769748942, 35.165731666245335 ], [ 129.103960370629864, 35.165947034489136 ], [ 129.103601906300412, 35.166834074809231 ], [ 129.105196979024356, 35.169584871078087 ], [ 129.107276911280763, 35.171781470766078 ], [ 129.108640958547994, 35.171552725708736 ], [ 129.109238990086368, 35.171595519798672 ] ] ] ] } },
{ "type": "Feature", "properties": { "OBJECTID": 606, "adm_nm": "부산광역시 수영구 광안4동", "adm_cd": "2114059", "adm_cd2": "2650079000", "sgg": "26500", "sido": "26", "sidonm": "부산광역시", "sggnm": "수영구" }, "geometry": { "type": "MultiPolygon", "coordinates": [ [ [ [ 129.11353704465273, 35.159753793667825 ], [ 129.113325299196475, 35.158729628044313 ], [ 129.112983593730945, 35.157093886780729 ], [ 129.112807492725437, 35.156312008775799 ], [ 129.112729747098228, 35.155966840521984 ], [ 129.11241988333046, 35.154765427750249 ], [ 129.112400452041527, 35.154690091773425 ], [ 129.111191608468886, 35.150576291551097 ], [ 129.110867148483436, 35.150432932576166 ], [ 129.109014464625119, 35.150058943978308 ], [ 129.108072894373834, 35.149895061156379 ], [ 129.103770754663628, 35.150305192510814 ], [ 129.102376781850097, 35.150540772488824 ], [ 129.101641410513594, 35.150693546686561 ], [ 129.100154431869669, 35.152547870766838 ], [ 129.099111344204658, 35.154051929298852 ], [ 129.098234051922503, 35.155340560923136 ], [ 129.098115925626786, 35.155535180371317 ], [ 129.097969153123046, 35.155806445016175 ], [ 129.096004455593061, 35.159866665302751 ], [ 129.097525010031973, 35.16027342437247 ], [ 129.100457317708276, 35.161009411426953 ], [ 129.105207841483264, 35.161046618530385 ], [ 129.106201169384235, 35.160929327791223 ], [ 129.10694616130786, 35.160841340488858 ], [ 129.108144549345639, 35.160664598887273 ], [ 129.107993214450858, 35.159801997419919 ], [ 129.108572705469726, 35.159504091450046 ], [ 129.110411212806241, 35.159244674680885 ], [ 129.110590750527791, 35.160607839034817 ], [ 129.11206801452272, 35.160660702879923 ], [ 129.112581770615719, 35.160662019799993 ], [ 129.112725218425055, 35.160649825343789 ], [ 129.113660518914656, 35.160373637067501 ], [ 129.113700187231814, 35.160361916126483 ], [ 129.113613141295559, 35.160013151765227 ], [ 129.11353704465273, 35.159753793667825 ] ] ] ] } },
{ "type": "Feature", "properties": { "OBJECTID": 607, "adm_nm": "부산광역시 수영구 민락동", "adm_cd": "2114060", "adm_cd2": "2650080000", "sgg": "26500", "sido": "26", "sidonm": "부산광역시", "sggnm": "수영구" }, "geometry": { "type": "MultiPolygon", "coordinates": [ [ [ [ 129.126583321283704, 35.166026173305688 ], [ 129.130263153837518, 35.163769224607549 ], [ 129.13095017811176, 35.163288925534978 ], [ 129.131328372052991, 35.162965629302029 ], [ 129.132452623379351, 35.161707657975128 ], [ 129.131703410214215, 35.161379623595771 ], [ 129.131139285993385, 35.161132621272188 ], [ 129.133349068826959, 35.158590023481672 ], [ 129.134020340503412, 35.157972820472082 ], [ 129.134595309404432, 35.157444157317123 ], [ 129.135212432979898, 35.156641435866042 ], [ 129.135280240361794, 35.155662088491283 ], [ 129.134781693674711, 35.155045048659659 ], [ 129.134368259225312, 35.154707499086861 ], [ 129.127399951348195, 35.152454447098044 ], [ 129.1245258099203, 35.152334180277201 ], [ 129.124306262408936, 35.15293985100611 ], [ 129.123741658240448, 35.154497421265972 ], [ 129.122327124899101, 35.154560509783884 ], [ 129.122243059283988, 35.154549608346414 ], [ 129.121546376054795, 35.154459241574479 ], [ 129.120824537452137, 35.154229203538769 ], [ 129.12032509747948, 35.153980419234337 ], [ 129.119617647302732, 35.154261701685556 ], [ 129.119553390022475, 35.154287259239055 ], [ 129.118107305031742, 35.154965542241357 ], [ 129.119115345742841, 35.156271188523498 ], [ 129.120176744642606, 35.15764588127842 ], [ 129.120955681475209, 35.158654699141934 ], [ 129.118761690905359, 35.164846604459584 ], [ 129.118568763087467, 35.165407710774545 ], [ 129.118292969223035, 35.166211641386433 ], [ 129.117877206618999, 35.16745427048447 ], [ 129.120197688069823, 35.168335919983434 ], [ 129.12133280573795, 35.167687350265702 ], [ 129.123261916057828, 35.166075472310069 ], [ 129.124164314260327, 35.165761562068248 ], [ 129.124315829139704, 35.165708856784448 ], [ 129.12489475565539, 35.165519395982813 ], [ 129.125201884984847, 35.165513120239552 ], [ 129.125396680330738, 35.165515466739649 ], [ 129.126583321283704, 35.166026173305688 ] ] ] ] } }
]
}
