{
"type": "FeatureCollection",
"name": "yeonjegu",
"crs": { "type": "name", "properties": { "name": "urn:ogc:def:crs:OGC:1.3:CRS84" } },
"features": [
{ "type": "Feature", "properties": { "OBJECTID": 586, "adm_nm": "부산광역시 연제구 거제1동", "adm_cd": "2113051", "adm_cd2": "2647061000", "sgg": "26470", "sido": "26", "sidonm": "부산광역시", "sggnm": "연제구" }, "geometry": { "type": "MultiPolygon", "coordinates": [ [ [ [ 129.080326782607017, 35.199266905303531 ], [ 129.083102768034877, 35.196421917808934 ], [ 129.084056016609026, 35.195627830307352 ], [ 129.084718134110801, 35.195209399876113 ], [ 129.085613977620454, 35.194718801209802 ], [ 129.085876055638721, 35.194602777027583 ], [ 129.086372089257225, 35.194383233683894 ], [ 129.086510753572867, 35.19434103774681 ], [ 129.087106871737461, 35.194159686120315 ], [ 129.089548599770296, 35.193624343687389 ], [ 129.090390278736123, 35.193508291308625 ], [ 129.090732622970961, 35.19346109780124 ], [ 129.088633668638948, 35.191780593745527 ], [ 129.087130811224398, 35.191812619238981 ], [ 129.085480679317953, 35.191854933278059 ], [ 129.084909148048098, 35.191924481262362 ], [ 129.083624788411669, 35.192184061474734 ], [ 129.080191969448691, 35.191602355411959 ], [ 129.077223917291349, 35.187733105680529 ], [ 129.075401303525524, 35.188435638681433 ], [ 129.074123541251481, 35.188587493565478 ], [ 129.073873154437393, 35.189119566205989 ], [ 129.073685545891266, 35.189344913781525 ], [ 129.069920672172486, 35.191846965880089 ], [ 129.067149373862179, 35.192083687826106 ], [ 129.066475261594974, 35.194156644633665 ], [ 129.071228554105289, 35.19512139594783 ], [ 129.072956924204362, 35.196679590617826 ], [ 129.073414824133408, 35.197162963142056 ], [ 129.074262136958509, 35.198057395987036 ], [ 129.074865851474414, 35.198282860121537 ], [ 129.076262361473198, 35.198797752762744 ], [ 129.076399889092073, 35.198848449580865 ], [ 129.077914977873178, 35.199403849158422 ], [ 129.078090198681338, 35.199383779427002 ], [ 129.078155778162198, 35.199376257252034 ], [ 129.080326782607017, 35.199266905303531 ] ] ] ] } },
{ "type": "Feature", "properties": { "OBJECTID": 587, "adm_nm": "부산광역시 연제구 거제2동", "adm_cd": "2113052", "adm_cd2": "2647062000", "sgg": "26470", "sido": "26", "sidonm": "부산광역시", "sggnm": "연제구" }, "geometry": { "type": "MultiPolygon", "coordinates": [ [ [ [ 129.074123541251481, 35.188587493565478 ], [ 129.070629872974507, 35.185520994207828 ], [ 129.070497855792581, 35.185529061950746 ], [ 129.069180864424538, 35.185446012539558 ], [ 129.063866584088743, 35.184483562114671 ], [ 129.061202648053296, 35.183892703158996 ], [ 129.060333320075728, 35.184070037794442 ], [ 129.05664071246315, 35.184464863740914 ], [ 129.053967442240946, 35.184324876965327 ], [ 129.052037148064329, 35.184776762582722 ], [ 129.050965449035544, 35.185797890528434 ], [ 129.048230684617948, 35.189585587352575 ], [ 129.04697401242035, 35.191858205085268 ], [ 129.046932556847878, 35.192184170613992 ], [ 129.047064005100907, 35.192920978859291 ], [ 129.047419797760938, 35.193839811697444 ], [ 129.047687099344984, 35.194205354841635 ], [ 129.052792875403355, 35.192170964005086 ], [ 129.05305967262251, 35.192079885480041 ], [ 129.053223787581288, 35.192078177859926 ], [ 129.055767644182851, 35.192374893729742 ], [ 129.059884474041041, 35.19130314259165 ], [ 129.062745248208557, 35.191869236663472 ], [ 129.064619650611377, 35.192245595399072 ], [ 129.064203080589635, 35.19370123928072 ], [ 129.066475261594974, 35.194156644633665 ], [ 129.067149373862179, 35.192083687826106 ], [ 129.069920672172486, 35.191846965880089 ], [ 129.073685545891266, 35.189344913781525 ], [ 129.073873154437393, 35.189119566205989 ], [ 129.074123541251481, 35.188587493565478 ] ] ] ] } },
{ "type": "Feature", "properties": { "OBJECTID": 588, "adm_nm": "부산광역시 연제구 거제3동", "adm_cd": "2113053", "adm_cd2": "2647063000", "sgg": "26470", "sido": "26", "sidonm": "부산광역시", "sggnm": "연제구" }, "geometry": { "type": "MultiPolygon", "coordinates": [ [ [ [ 129.077223917291349, 35.187733105680529 ], [ 129.074771100625526, 35.184338708406401 ], [ 129.07471580328675, 35.18426216843131 ], [ 129.073635420584452, 35.182682688848452 ], [ 129.073585148051109, 35.182602307099899 ], [ 129.072384235460191, 35.180681888174959 ], [ 129.072367311135366, 35.180651521983513 ], [ 129.072295744183776, 35.18052304969347 ], [ 129.071907307620478, 35.17958722641383 ], [ 129.071942891800148, 35.177935657163928 ], [ 129.070267280990976, 35.17583335774011 ], [ 129.0677775797256, 35.176565492172358 ], [ 129.067341089297116, 35.176901079556664 ], [ 129.067790301902448, 35.17861298115303 ], [ 129.067846941314883, 35.178771835202475 ], [ 129.068251895178292, 35.179907442024763 ], [ 129.068633802898091, 35.180876817872601 ], [ 129.068812172950146, 35.181317811621675 ], [ 129.068826179882905, 35.181352431111776 ], [ 129.068955528249035, 35.181659249379123 ], [ 129.069170017817214, 35.182168010478364 ], [ 129.070441133432951, 35.185145227502439 ], [ 129.070629872974507, 35.185520994207828 ], [ 129.074123541251481, 35.188587493565478 ], [ 129.075401303525524, 35.188435638681433 ], [ 129.077223917291349, 35.187733105680529 ] ] ] ] } },
{ "type": "Feature", "properties": { "OBJECTID": 589, "adm_nm": "부산광역시 연제구 거제4동", "adm_cd": "2113054", "adm_cd2": "2647064000", "sgg": "26470", "sido": "26", "sidonm": "부산광역시", "sggnm": "연제구" }, "geometry": { "type": "MultiPolygon", "coordinates": [ [ [ [ 129.070629872974507, 35.185520994207828 ], [ 129.070441133432951, 35.185145227502439 ], [ 129.069170017817214, 35.182168010478364 ], [ 129.068955528249035, 35.181659249379123 ], [ 129.068826179882905, 35.181352431111776 ], [ 129.068812172950146, 35.181317811621675 ], [ 129.068633802898091, 35.180876817872601 ], [ 129.068251895178292, 35.179907442024763 ], [ 129.067846941314883, 35.178771835202475 ], [ 129.067790301902448, 35.17861298115303 ], [ 129.067341089297116, 35.176901079556664 ], [ 129.064734929254143, 35.177142492750221 ], [ 129.063802507061155, 35.177256785343168 ], [ 129.06377218138249, 35.177262611817959 ], [ 129.063392682690306, 35.177335548617364 ], [ 129.063060165221913, 35.177438448524853 ], [ 129.062965201893718, 35.177489836756223 ], [ 129.062922208155697, 35.17754360702321 ], [ 129.062859991256488, 35.177647473246289 ], [ 129.062801118640891, 35.178008982799007 ], [ 129.062761873911199, 35.178593943159115 ], [ 129.062727868207787, 35.178697763504687 ], [ 129.062099970919462, 35.179932948522321 ], [ 129.062025882120338, 35.180044138817891 ], [ 129.061929432524465, 35.180104071001281 ], [ 129.061656377898004, 35.180253310785858 ], [ 129.061202648053296, 35.183892703158996 ], [ 129.063866584088743, 35.184483562114671 ], [ 129.069180864424538, 35.185446012539558 ], [ 129.070497855792581, 35.185529061950746 ], [ 129.070629872974507, 35.185520994207828 ] ] ] ] } },
{ "type": "Feature", "properties": { "OBJECTID": 590, "adm_nm": "부산광역시 연제구 연산1동", "adm_cd": "2113055", "adm_cd2": "2647065000", "sgg": "26470", "sido": "26", "sidonm": "부산광역시", "sggnm": "연제구" }, "geometry": { "type": "MultiPolygon", "coordinates": [ [ [ [ 129.095426945188336, 35.192384307384678 ], [ 129.095386028487667, 35.192323957182637 ], [ 129.095070560827281, 35.191858623118506 ], [ 129.094553465273322, 35.191095839809805 ], [ 129.094053386923861, 35.189867593916887 ], [ 129.093911783148883, 35.189519765316192 ], [ 129.093371873239732, 35.188183885592501 ], [ 129.093234134381731, 35.187843067388556 ], [ 129.093261716770371, 35.185907986450744 ], [ 129.093361292081852, 35.185271528955568 ], [ 129.093446003062468, 35.184986450375398 ], [ 129.093515630069277, 35.184844814403348 ], [ 129.093659922666262, 35.183280358547535 ], [ 129.093003757118964, 35.182693621896796 ], [ 129.091738416498316, 35.183450719636106 ], [ 129.090265971417438, 35.183763526111498 ], [ 129.090242796124784, 35.183716565043269 ], [ 129.089121686468872, 35.183733687035215 ], [ 129.08724462489397, 35.183825464873429 ], [ 129.087184083563074, 35.183845664476706 ], [ 129.087199635131128, 35.184259197432944 ], [ 129.087293426861976, 35.187057012688214 ], [ 129.08642829182395, 35.187080988505109 ], [ 129.085043124815286, 35.187119389798923 ], [ 129.084101963017133, 35.187949913433286 ], [ 129.084407474307596, 35.188219561390397 ], [ 129.08461890483531, 35.188401668370986 ], [ 129.084493970070099, 35.188913938537858 ], [ 129.084260471583406, 35.189871228520985 ], [ 129.083624788411669, 35.192184061474734 ], [ 129.084909148048098, 35.191924481262362 ], [ 129.085480679317953, 35.191854933278059 ], [ 129.087130811224398, 35.191812619238981 ], [ 129.088633668638948, 35.191780593745527 ], [ 129.090732622970961, 35.19346109780124 ], [ 129.094987433491639, 35.192418452465127 ], [ 129.095426945188336, 35.192384307384678 ] ] ] ] } },
{ "type": "Feature", "properties": { "OBJECTID": 591, "adm_nm": "부산광역시 연제구 연산2동", "adm_cd": "2113056", "adm_cd2": "2647066000", "sgg": "26470", "sido": "26", "sidonm": "부산광역시", "sggnm": "연제구" }, "geometry": { "type": "MultiPolygon", "coordinates": [ [ [ [ 129.083841519882554, 35.181005676063528 ], [ 129.084433353436879, 35.179656947248468 ], [ 129.085486864018606, 35.177232869796136 ], [ 129.085878119815106, 35.176305380213734 ], [ 129.085910555928621, 35.176228487066886 ], [ 129.086531928580314, 35.174613555615004 ], [ 129.085782022194792, 35.174718828402192 ], [ 129.084610765294542, 35.174861005331714 ], [ 129.083639057691926, 35.172432740263552 ], [ 129.082716443186996, 35.169792722129671 ], [ 129.082680767184712, 35.169648728251623 ], [ 129.082939413575843, 35.1692441566044 ], [ 129.083259491900122, 35.168915912501831 ], [ 129.083541010130375, 35.168656258048074 ], [ 129.084137116378031, 35.167701660212735 ], [ 129.084642345201644, 35.166376711776785 ], [ 129.084607214361597, 35.165635832469945 ], [ 129.084221610766491, 35.164395284996225 ], [ 129.083712339289235, 35.163377127608122 ], [ 129.083313375885865, 35.162743080135037 ], [ 129.082932029225674, 35.1621370238528 ], [ 129.082033419833209, 35.159478672150357 ], [ 129.080885158438974, 35.159710822016677 ], [ 129.078519425899344, 35.162416696134976 ], [ 129.078854340694562, 35.165732857159902 ], [ 129.079294232610351, 35.166668060211933 ], [ 129.079985487505809, 35.1670633412214 ], [ 129.080810559974481, 35.167741894365136 ], [ 129.081415418111618, 35.169259172201656 ], [ 129.08199058285598, 35.171245415775978 ], [ 129.081961758180995, 35.171489090513035 ], [ 129.081956061670326, 35.171537209492158 ], [ 129.081924327483819, 35.171744974445275 ], [ 129.081683447741767, 35.171977954332874 ], [ 129.077957304201277, 35.175401887628631 ], [ 129.075537674817355, 35.177305052988125 ], [ 129.075031857277963, 35.177592758728075 ], [ 129.077768140803215, 35.181117567852866 ], [ 129.078331726157501, 35.181798784240286 ], [ 129.079158270393776, 35.18139510832566 ], [ 129.083841519882554, 35.181005676063528 ] ] ] ] } },
{ "type": "Feature", "properties": { "OBJECTID": 592, "adm_nm": "부산광역시 연제구 연산3동", "adm_cd": "2113057", "adm_cd2": "2647067000", "sgg": "26470", "sido": "26", "sidonm": "부산광역시", "sggnm": "연제구" }, "geometry": { "type": "MultiPolygon", "coordinates": [ [ [ [ 129.096462110256851, 35.173455091313869 ], [ 129.096985700005462, 35.173313716986698 ], [ 129.096994970392643, 35.17320467520134 ], [ 129.097112260838657, 35.171824847662258 ], [ 129.097129041730739, 35.171627350024238 ], [ 129.096249054349471, 35.170216454466953 ], [ 129.09530395885551, 35.168839380068903 ], [ 129.09473477164147, 35.168112465844892 ], [ 129.093935739209542, 35.16732921430841 ], [ 129.09320151437035, 35.166858577840628 ], [ 129.092319597641335, 35.166167235411528 ], [ 129.093941211158892, 35.162602334221319 ], [ 129.094323644413521, 35.162216740195902 ], [ 129.094823516489953, 35.161740601616678 ], [ 129.09436952078795, 35.161140098323166 ], [ 129.093712448437856, 35.160647318247555 ], [ 129.092766290179782, 35.16031717781803 ], [ 129.09105355869255, 35.160354666503544 ], [ 129.090310861411098, 35.160497435409923 ], [ 129.089781755885781, 35.160699390671752 ], [ 129.089393519009292, 35.160809261946916 ], [ 129.088017376330129, 35.160472854368528 ], [ 129.087703311830069, 35.160372043989014 ], [ 129.084134372539779, 35.158811139374208 ], [ 129.082930722507939, 35.15823841213367 ], [ 129.084969918572511, 35.160189430613983 ], [ 129.085794144645007, 35.160696305764837 ], [ 129.088415301364137, 35.163671512124431 ], [ 129.088636656006628, 35.163955161520434 ], [ 129.088888358791962, 35.164418615543489 ], [ 129.088876960068774, 35.164508011050749 ], [ 129.088535404992314, 35.165369865151938 ], [ 129.088327495586242, 35.165848891038976 ], [ 129.087737065500448, 35.166916956120936 ], [ 129.087518868051774, 35.167206399546963 ], [ 129.087403513977762, 35.167449876205119 ], [ 129.087037669941736, 35.169050083811001 ], [ 129.08690148068942, 35.169673235955415 ], [ 129.086875857514826, 35.169790519332153 ], [ 129.086837376828697, 35.170024658240045 ], [ 129.086988221237931, 35.170908858504013 ], [ 129.087024792132866, 35.171123217346214 ], [ 129.087106354753786, 35.171601222443684 ], [ 129.087170091405312, 35.171940298920596 ], [ 129.087244899544885, 35.172338146259769 ], [ 129.087726893591395, 35.174467733261729 ], [ 129.088592938067819, 35.17437030531007 ], [ 129.088894742597915, 35.174328662611302 ], [ 129.08936853984838, 35.174263296707252 ], [ 129.09076916028846, 35.174070069100317 ], [ 129.093000324924759, 35.173795915485677 ], [ 129.09307844609765, 35.173787143999071 ], [ 129.093890585626781, 35.173697063748605 ], [ 129.094120991810144, 35.173671516285246 ], [ 129.094453896787684, 35.173636085271568 ], [ 129.096462110256851, 35.173455091313869 ] ] ] ] } },
{ "type": "Feature", "properties": { "OBJECTID": 593, "adm_nm": "부산광역시 연제구 연산4동", "adm_cd": "2113058", "adm_cd2": "2647068000", "sgg": "26470", "sido": "26", "sidonm": "부산광역시", "sggnm": "연제구" }, "geometry": { "type": "MultiPolygon", "coordinates": [ [ [ [ 129.093003757118964, 35.182693621896796 ], [ 129.095995412105623, 35.180188160070202 ], [ 129.094024502812431, 35.179688379156779 ], [ 129.093448255871664, 35.179542254119319 ], [ 129.092729918972566, 35.179532911500665 ], [ 129.09031584037794, 35.179501526588453 ], [ 129.08833996452006, 35.179840828553161 ], [ 129.085058507637228, 35.179839084743129 ], [ 129.084433353436879, 35.179656947248468 ], [ 129.083841519882554, 35.181005676063528 ], [ 129.081373430848259, 35.187137664857858 ], [ 129.080191969448691, 35.191602355411959 ], [ 129.083624788411669, 35.192184061474734 ], [ 129.084260471583406, 35.189871228520985 ], [ 129.084493970070099, 35.188913938537858 ], [ 129.08461890483531, 35.188401668370986 ], [ 129.084407474307596, 35.188219561390397 ], [ 129.084101963017133, 35.187949913433286 ], [ 129.085043124815286, 35.187119389798923 ], [ 129.08642829182395, 35.187080988505109 ], [ 129.087293426861976, 35.187057012688214 ], [ 129.087199635131128, 35.184259197432944 ], [ 129.087184083563074, 35.183845664476706 ], [ 129.08724462489397, 35.183825464873429 ], [ 129.089121686468872, 35.183733687035215 ], [ 129.090242796124784, 35.183716565043269 ], [ 129.090265971417438, 35.183763526111498 ], [ 129.091738416498316, 35.183450719636106 ], [ 129.093003757118964, 35.182693621896796 ] ] ] ] } },
{ "type": "Feature", "properties": { "OBJECTID": 594, "adm_nm": "부산광역시 연제구 연산5동", "adm_cd": "2113059", "adm_cd2": "2647069000", "sgg": "26470", "sido": "26", "sidonm": "부산광역시", "sggnm": "연제구" }, "geometry": { "type": "MultiPolygon", "coordinates": [ [ [ [ 129.083841519882554, 35.181005676063528 ], [ 129.079158270393776, 35.18139510832566 ], [ 129.078331726157501, 35.181798784240286 ], [ 129.077768140803215, 35.181117567852866 ], [ 129.075031857277963, 35.177592758728075 ], [ 129.071907307620478, 35.17958722641383 ], [ 129.072295744183776, 35.18052304969347 ], [ 129.072367311135366, 35.180651521983513 ], [ 129.072384235460191, 35.180681888174959 ], [ 129.073585148051109, 35.182602307099899 ], [ 129.073635420584452, 35.182682688848452 ], [ 129.07471580328675, 35.18426216843131 ], [ 129.074771100625526, 35.184338708406401 ], [ 129.077223917291349, 35.187733105680529 ], [ 129.080191969448691, 35.191602355411959 ], [ 129.081373430848259, 35.187137664857858 ], [ 129.083841519882554, 35.181005676063528 ] ] ] ] } },
{ "type": "Feature", "properties": { "OBJECTID": 595, "adm_nm": "부산광역시 연제구 연산6동", "adm_cd": "2113060", "adm_cd2": "2647070000", "sgg": "26470", "sido": "26", "sidonm": "부산광역시", "sggnm": "연제구" }, "geometry": { "type": "MultiPolygon", "coordinates": [ [ [ [ 129.097422891174006, 35.179521269401562 ], [ 129.097099056007892, 35.178969664708482 ], [ 129.096670972283363, 35.177954479069584 ], [ 129.096571394488194, 35.177718317118426 ], [ 129.09648095992867, 35.17736305140442 ], [ 129.096473644917921, 35.177009046605001 ], [ 129.096675763672806, 35.175109412585897 ], [ 129.096462110256851, 35.173455091313869 ], [ 129.094453896787684, 35.173636085271568 ], [ 129.094120991810144, 35.173671516285246 ], [ 129.093890585626781, 35.173697063748605 ], [ 129.09307844609765, 35.173787143999071 ], [ 129.093000324924759, 35.173795915485677 ], [ 129.09076916028846, 35.174070069100317 ], [ 129.08936853984838, 35.174263296707252 ], [ 129.088894742597915, 35.174328662611302 ], [ 129.088592938067819, 35.17437030531007 ], [ 129.087726893591395, 35.174467733261729 ], [ 129.087244899544885, 35.172338146259769 ], [ 129.087170091405312, 35.171940298920596 ], [ 129.087106354753786, 35.171601222443684 ], [ 129.087024792132866, 35.171123217346214 ], [ 129.086988221237931, 35.170908858504013 ], [ 129.086837376828697, 35.170024658240045 ], [ 129.086875857514826, 35.169790519332153 ], [ 129.08690148068942, 35.169673235955415 ], [ 129.087037669941736, 35.169050083811001 ], [ 129.087403513977762, 35.167449876205119 ], [ 129.087518868051774, 35.167206399546963 ], [ 129.087737065500448, 35.166916956120936 ], [ 129.088327495586242, 35.165848891038976 ], [ 129.088535404992314, 35.165369865151938 ], [ 129.088876960068774, 35.164508011050749 ], [ 129.088888358791962, 35.164418615543489 ], [ 129.088636656006628, 35.163955161520434 ], [ 129.088415301364137, 35.163671512124431 ], [ 129.085794144645007, 35.160696305764837 ], [ 129.084969918572511, 35.160189430613983 ], [ 129.082930722507939, 35.15823841213367 ], [ 129.082033419833209, 35.159478672150357 ], [ 129.082932029225674, 35.1621370238528 ], [ 129.083313375885865, 35.162743080135037 ], [ 129.083712339289235, 35.163377127608122 ], [ 129.084221610766491, 35.164395284996225 ], [ 129.084607214361597, 35.165635832469945 ], [ 129.084642345201644, 35.166376711776785 ], [ 129.084137116378031, 35.167701660212735 ], [ 129.083541010130375, 35.168656258048074 ], [ 129.083259491900122, 35.168915912501831 ], [ 129.082939413575843, 35.1692441566044 ], [ 129.082680767184712, 35.169648728251623 ], [ 129.082716443186996, 35.169792722129671 ], [ 129.083639057691926, 35.172432740263552 ], [ 129.084610765294542, 35.174861005331714 ], [ 129.085782022194792, 35.174718828402192 ], [ 129.086531928580314, 35.174613555615004 ], [ 129.085910555928621, 35.176228487066886 ], [ 129.085878119815106, 35.176305380213734 ], [ 129.085486864018606, 35.177232869796136 ], [ 129.084433353436879, 35.179656947248468 ], [ 129.085058507637228, 35.179839084743129 ], [ 129.08833996452006, 35.179840828553161 ], [ 129.09031584037794, 35.179501526588453 ], [ 129.092729918972566, 35.179532911500665 ], [ 129.093448255871664, 35.179542254119319 ], [ 129.094024502812431, 35.179688379156779 ], [ 129.095995412105623, 35.180188160070202 ], [ 129.097422891174006, 35.179521269401562 ] ] ] ] } },
{ "type": "Feature", "properties": { "OBJECTID": 596, "adm_nm": "부산광역시 연제구 연산8동", "adm_cd": "2113062", "adm_cd2": "2647072000", "sgg": "26470", "sido": "26", "sidonm": "부산광역시", "sggnm": "연제구" }, "geometry": { "type": "MultiPolygon", "coordinates": [ [ [ [ 129.099414412504132, 35.191746146091532 ], [ 129.100544667054692, 35.189187650833183 ], [ 129.101205468590337, 35.187691799341458 ], [ 129.102650141790377, 35.187721326287196 ], [ 129.100946343676895, 35.185038133321967 ], [ 129.100608494827611, 35.184538895320422 ], [ 129.100330437876323, 35.184161133511395 ], [ 129.100223370168152, 35.184046451598689 ], [ 129.100021621823913, 35.183849170332437 ], [ 129.099953718109703, 35.183796931020943 ], [ 129.099883727951124, 35.183749734825078 ], [ 129.09981375883595, 35.183704224296946 ], [ 129.099714992915921, 35.183648614901891 ], [ 129.099610085829823, 35.18360145337811 ], [ 129.099482494934904, 35.183523928061057 ], [ 129.099445106541936, 35.183491668686038 ], [ 129.099422879045363, 35.183472489577916 ], [ 129.099367239292064, 35.183424446255891 ], [ 129.098030197406416, 35.181944685182998 ], [ 129.097544720671891, 35.181158568110234 ], [ 129.097296591903586, 35.180601034535698 ], [ 129.097210353975697, 35.180306705590567 ], [ 129.097200095621474, 35.180165753346323 ], [ 129.097199965256578, 35.180053807177437 ], [ 129.097240157418241, 35.179871321823846 ], [ 129.097309723019094, 35.179629053487055 ], [ 129.097422891174006, 35.179521269401562 ], [ 129.095995412105623, 35.180188160070202 ], [ 129.093003757118964, 35.182693621896796 ], [ 129.093659922666262, 35.183280358547535 ], [ 129.093515630069277, 35.184844814403348 ], [ 129.093446003062468, 35.184986450375398 ], [ 129.093361292081852, 35.185271528955568 ], [ 129.093261716770371, 35.185907986450744 ], [ 129.093234134381731, 35.187843067388556 ], [ 129.093371873239732, 35.188183885592501 ], [ 129.093911783148883, 35.189519765316192 ], [ 129.094053386923861, 35.189867593916887 ], [ 129.094553465273322, 35.191095839809805 ], [ 129.095070560827281, 35.191858623118506 ], [ 129.095386028487667, 35.192323957182637 ], [ 129.095426945188336, 35.192384307384678 ], [ 129.099414412504132, 35.191746146091532 ] ] ] ] } },
{ "type": "Feature", "properties": { "OBJECTID": 597, "adm_nm": "부산광역시 연제구 연산9동", "adm_cd": "2113063", "adm_cd2": "2647073000", "sgg": "26470", "sido": "26", "sidonm": "부산광역시", "sggnm": "연제구" }, "geometry": { "type": "MultiPolygon", "coordinates": [ [ [ [ 129.100620101094279, 35.191437835021695 ], [ 129.102370551454811, 35.190985270951636 ], [ 129.103775412239628, 35.190862536883145 ], [ 129.105262008626823, 35.190763507619955 ], [ 129.105634349379613, 35.190738712814948 ], [ 129.108175062979342, 35.190437773566565 ], [ 129.108380873549379, 35.190413391552717 ], [ 129.110516221682246, 35.189644377923358 ], [ 129.112161863853515, 35.187151530294457 ], [ 129.112202873893381, 35.187002548294714 ], [ 129.112405730548033, 35.186265727541098 ], [ 129.113910152716159, 35.184339069063313 ], [ 129.114164681093342, 35.184041032169119 ], [ 129.114478526605637, 35.183735696159339 ], [ 129.114594898608175, 35.18362249270524 ], [ 129.114980229980432, 35.183312376725219 ], [ 129.115156127362354, 35.18318347003634 ], [ 129.114959207596399, 35.1825968191078 ], [ 129.114176670371876, 35.180761928287247 ], [ 129.114146816452831, 35.180696856853857 ], [ 129.113564930870695, 35.179526906561144 ], [ 129.112302573842811, 35.177174984208072 ], [ 129.11110408065224, 35.1759400361438 ], [ 129.110574586455328, 35.176040262190625 ], [ 129.109571401452627, 35.176230163519904 ], [ 129.107945271601551, 35.177226324556841 ], [ 129.10782591642743, 35.177364386818873 ], [ 129.107181690027971, 35.178109707823509 ], [ 129.107154209684893, 35.178550051137385 ], [ 129.107095256365398, 35.179494473172284 ], [ 129.107084691862639, 35.179663617768966 ], [ 129.10621133057424, 35.180034300791803 ], [ 129.104345205899278, 35.180716342627214 ], [ 129.103572395145335, 35.180874581791834 ], [ 129.100387951023549, 35.180274879922067 ], [ 129.098664420431959, 35.179836842955211 ], [ 129.097422891174006, 35.179521269401562 ], [ 129.097309723019094, 35.179629053487055 ], [ 129.097240157418241, 35.179871321823846 ], [ 129.097199965256578, 35.180053807177437 ], [ 129.097200095621474, 35.180165753346323 ], [ 129.097210353975697, 35.180306705590567 ], [ 129.097296591903586, 35.180601034535698 ], [ 129.097544720671891, 35.181158568110234 ], [ 129.098030197406416, 35.181944685182998 ], [ 129.099367239292064, 35.183424446255891 ], [ 129.099422879045363, 35.183472489577916 ], [ 129.099445106541936, 35.183491668686038 ], [ 129.099482494934904, 35.183523928061057 ], [ 129.099610085829823, 35.18360145337811 ], [ 129.099714992915921, 35.183648614901891 ], [ 129.09981375883595, 35.183704224296946 ], [ 129.099883727951124, 35.183749734825078 ], [ 129.099953718109703, 35.183796931020943 ], [ 129.100021621823913, 35.183849170332437 ], [ 129.100223370168152, 35.184046451598689 ], [ 129.100330437876323, 35.184161133511395 ], [ 129.100608494827611, 35.184538895320422 ], [ 129.100946343676895, 35.185038133321967 ], [ 129.102650141790377, 35.187721326287196 ], [ 129.101205468590337, 35.187691799341458 ], [ 129.100544667054692, 35.189187650833183 ], [ 129.099414412504132, 35.191746146091532 ], [ 129.100620101094279, 35.191437835021695 ] ] ] ] } }
]
}
