{
"type": "FeatureCollection",
"name": "yeongdogu",
"crs": { "type": "name", "properties": { "name": "urn:ogc:def:crs:OGC:1.3:CRS84" } },
"features": [
{ "type": "Feature", "properties": { "OBJECTID": 459, "adm_nm": "부산광역시 영도구 남항동", "adm_cd": "2104053", "adm_cd2": "2620053000", "sgg": "26200", "sido": "26", "sidonm": "부산광역시", "sggnm": "영도구" }, "geometry": { "type": "MultiPolygon", "coordinates": [ [ [ [ 129.03849708055327, 35.093622678386332 ], [ 129.042839433519077, 35.092126917914257 ], [ 129.040368064789561, 35.087484308318636 ], [ 129.038629808983217, 35.084336399699524 ], [ 129.038668933593499, 35.084125560543647 ], [ 129.038936822891657, 35.084048611642316 ], [ 129.039215433252565, 35.083937676511731 ], [ 129.039787749499197, 35.083704290087759 ], [ 129.040164014644319, 35.083358939088697 ], [ 129.040225991270603, 35.083298864817515 ], [ 129.039746945940578, 35.08283378984202 ], [ 129.038540878510389, 35.081877990359324 ], [ 129.036808209095881, 35.083305280992441 ], [ 129.036636858298948, 35.083446440407918 ], [ 129.036368799048319, 35.083676232750697 ], [ 129.03610312846692, 35.08390398363332 ], [ 129.034713785973764, 35.085120713644017 ], [ 129.031374852930099, 35.092242824992972 ], [ 129.031310698829998, 35.092543545857787 ], [ 129.031312023907191, 35.09326424827286 ], [ 129.031526187941637, 35.093892695800633 ], [ 129.03155822384997, 35.093962578657568 ], [ 129.03161483031937, 35.094035396902193 ], [ 129.033130920828796, 35.094369971163722 ], [ 129.033369346841084, 35.094219478496413 ], [ 129.033429982503378, 35.094177610261433 ], [ 129.03355550796951, 35.094045205449405 ], [ 129.033571224283151, 35.093998737305959 ], [ 129.033488619159812, 35.09396924442467 ], [ 129.033354762702004, 35.093953873573987 ], [ 129.033308311579674, 35.093945783028133 ], [ 129.033159007202187, 35.09391897825914 ], [ 129.033128542659995, 35.093854876090148 ], [ 129.033122778495255, 35.09382449317242 ], [ 129.033123103049746, 35.093785988096862 ], [ 129.033124956242915, 35.093752550627748 ], [ 129.033335366902321, 35.093338423453005 ], [ 129.034726752449757, 35.092736293610422 ], [ 129.035115225709575, 35.092593053832296 ], [ 129.035556438577288, 35.092430374874191 ], [ 129.036539653399274, 35.092071087103299 ], [ 129.037040960166109, 35.091889893625648 ], [ 129.037098635860787, 35.09187216050465 ], [ 129.037408934642855, 35.092381980189948 ], [ 129.037147334614616, 35.092478172456516 ], [ 129.036708549122295, 35.092639509133512 ], [ 129.036199860228948, 35.094086942643401 ], [ 129.036057801453154, 35.094516240190394 ], [ 129.036251711526489, 35.094563204311541 ], [ 129.036669504640855, 35.094664384777793 ], [ 129.036772541686673, 35.094688827043981 ], [ 129.036924754677983, 35.094723530103948 ], [ 129.038203241900476, 35.093587703403585 ], [ 129.03849708055327, 35.093622678386332 ] ] ] ] } },
{ "type": "Feature", "properties": { "OBJECTID": 460, "adm_nm": "부산광역시 영도구 영선1동", "adm_cd": "2104054", "adm_cd2": "2620054000", "sgg": "26200", "sido": "26", "sidonm": "부산광역시", "sggnm": "영도구" }, "geometry": { "type": "MultiPolygon", "coordinates": [ [ [ [ 129.04541725638461, 35.091525680193755 ], [ 129.045529608501795, 35.089444001168765 ], [ 129.043908831440262, 35.086899242900365 ], [ 129.043485111717757, 35.086386748011215 ], [ 129.043169282178809, 35.086493461157644 ], [ 129.040368064789561, 35.087484308318636 ], [ 129.042839433519077, 35.092126917914257 ], [ 129.044040568965784, 35.09167611018092 ], [ 129.04541725638461, 35.091525680193755 ] ] ] ] } },
{ "type": "Feature", "properties": { "OBJECTID": 461, "adm_nm": "부산광역시 영도구 영선2동", "adm_cd": "2104055", "adm_cd2": "2620055000", "sgg": "26200", "sido": "26", "sidonm": "부산광역시", "sggnm": "영도구" }, "geometry": { "type": "MultiPolygon", "coordinates": [ [ [ [ 129.043169282178809, 35.086493461157644 ], [ 129.043091343364125, 35.086349853268828 ], [ 129.042795979522992, 35.085805536727868 ], [ 129.042555835171754, 35.08536297595878 ], [ 129.044270650996708, 35.081573925138052 ], [ 129.045219154245984, 35.079757317510776 ], [ 129.045920951068723, 35.080025113734393 ], [ 129.046147463978912, 35.080136128844146 ], [ 129.046340824548707, 35.080129881515937 ], [ 129.046532938379102, 35.080123653388711 ], [ 129.049374333468279, 35.0798933168481 ], [ 129.049989541193469, 35.079787929095069 ], [ 129.051000295950359, 35.079428051410325 ], [ 129.051178902804395, 35.079270327353022 ], [ 129.051395728761435, 35.078936391128991 ], [ 129.051643051639132, 35.078555505529863 ], [ 129.052171610913263, 35.078685553726181 ], [ 129.052371919199146, 35.078772528166283 ], [ 129.05276154451704, 35.078941703871749 ], [ 129.052899475583928, 35.079036215848475 ], [ 129.053609784527538, 35.079813517281501 ], [ 129.053880683599516, 35.080198021305989 ], [ 129.055264686254276, 35.082176282329712 ], [ 129.055886840696445, 35.081628980706896 ], [ 129.055851204435584, 35.080975384277892 ], [ 129.055700618886192, 35.079877559375618 ], [ 129.055309297738972, 35.078611342586761 ], [ 129.054450352664787, 35.077083105734921 ], [ 129.05241644876574, 35.07351365451516 ], [ 129.051757159476381, 35.072842507386021 ], [ 129.048694818324975, 35.074927770576686 ], [ 129.043721809968559, 35.078919623782234 ], [ 129.041771692130453, 35.080505238702315 ], [ 129.041132133799351, 35.080905437635117 ], [ 129.040854685981401, 35.081005071287308 ], [ 129.0406262434729, 35.080840428838002 ], [ 129.040392293717105, 35.080712715062909 ], [ 129.040205564893057, 35.08067900892911 ], [ 129.04001361586549, 35.080692767911394 ], [ 129.039886383794538, 35.08073177231654 ], [ 129.038774546148034, 35.081645585022216 ], [ 129.038540878510389, 35.081877990359324 ], [ 129.039746945940578, 35.08283378984202 ], [ 129.040225991270603, 35.083298864817515 ], [ 129.040164014644319, 35.083358939088697 ], [ 129.039787749499197, 35.083704290087759 ], [ 129.039215433252565, 35.083937676511731 ], [ 129.038936822891657, 35.084048611642316 ], [ 129.038668933593499, 35.084125560543647 ], [ 129.038629808983217, 35.084336399699524 ], [ 129.040368064789561, 35.087484308318636 ], [ 129.043169282178809, 35.086493461157644 ] ] ] ] } },
{ "type": "Feature", "properties": { "OBJECTID": 462, "adm_nm": "부산광역시 영도구 봉래1동", "adm_cd": "2104059", "adm_cd2": "2620059000", "sgg": "26200", "sido": "26", "sidonm": "부산광역시", "sggnm": "영도구" }, "geometry": { "type": "MultiPolygon", "coordinates": [ [ [ [ 129.046469751231712, 35.096801995466556 ], [ 129.046289362084337, 35.09300587644497 ], [ 129.04541725638461, 35.091525680193755 ], [ 129.044040568965784, 35.09167611018092 ], [ 129.042839433519077, 35.092126917914257 ], [ 129.03849708055327, 35.093622678386332 ], [ 129.039301915210388, 35.095100430956172 ], [ 129.03950425242661, 35.095225179067526 ], [ 129.03990655112608, 35.095480139381429 ], [ 129.04056678777431, 35.095844365976269 ], [ 129.044210260157712, 35.096950219257188 ], [ 129.045364952190482, 35.097186383834774 ], [ 129.046469751231712, 35.096801995466556 ] ] ] ] } },
{ "type": "Feature", "properties": { "OBJECTID": 463, "adm_nm": "부산광역시 영도구 청학1동", "adm_cd": "2104063", "adm_cd2": "2620063000", "sgg": "26200", "sido": "26", "sidonm": "부산광역시", "sggnm": "영도구" }, "geometry": { "type": "MultiPolygon", "coordinates": [ [ [ [ 129.062410835630914, 35.098796361816554 ], [ 129.062175279750818, 35.098843611165009 ], [ 129.061209616845872, 35.097580683390966 ], [ 129.061094781603401, 35.097364177007158 ], [ 129.060359255197909, 35.095394557747269 ], [ 129.059660044287881, 35.092583201999389 ], [ 129.059641859968707, 35.092535286042519 ], [ 129.05954348005605, 35.092371146618405 ], [ 129.059254014138077, 35.09198993051514 ], [ 129.058925717056468, 35.091561486855305 ], [ 129.055220019592554, 35.08743999654483 ], [ 129.053830611772185, 35.086551260841766 ], [ 129.053488610030314, 35.086993217769276 ], [ 129.054007101419842, 35.089076768550207 ], [ 129.054042241489896, 35.089212750856049 ], [ 129.054157646837183, 35.089550642037189 ], [ 129.054185234630467, 35.089620704680492 ], [ 129.054487961457738, 35.089942473066685 ], [ 129.054737538755148, 35.09010401517255 ], [ 129.055389624144993, 35.090699729552632 ], [ 129.055650883299194, 35.091159299882932 ], [ 129.055727827051783, 35.091408379543893 ], [ 129.055887381953909, 35.09202323612989 ], [ 129.056046455670327, 35.092910994517013 ], [ 129.055982108451587, 35.092989984311757 ], [ 129.055899602510124, 35.09307409389988 ], [ 129.055720384296677, 35.093239312519671 ], [ 129.055068701824666, 35.0937901560632 ], [ 129.054676573216028, 35.093951999358865 ], [ 129.05354501949293, 35.094553040268771 ], [ 129.053198867365381, 35.094756946017831 ], [ 129.052090778916437, 35.097846829292735 ], [ 129.051429028831421, 35.099183895709778 ], [ 129.051276600240129, 35.099491871382384 ], [ 129.05142568703323, 35.09976376259123 ], [ 129.053981393144682, 35.100513541442453 ], [ 129.055212199196291, 35.100873268204587 ], [ 129.05794213264312, 35.101240622155437 ], [ 129.058238926965032, 35.101072886254144 ], [ 129.05887280802412, 35.100553177415307 ], [ 129.062410835630914, 35.098796361816554 ] ] ] ] } },
{ "type": "Feature", "properties": { "OBJECTID": 464, "adm_nm": "부산광역시 영도구 청학2동", "adm_cd": "2104064", "adm_cd2": "2620064000", "sgg": "26200", "sido": "26", "sidonm": "부산광역시", "sggnm": "영도구" }, "geometry": { "type": "MultiPolygon", "coordinates": [ [ [ [ 129.062410835630914, 35.098796361816554 ], [ 129.062859066796136, 35.098608660200028 ], [ 129.06578391256653, 35.097306218032067 ], [ 129.068433926372137, 35.095988649573599 ], [ 129.07068540054027, 35.094176474262326 ], [ 129.070956689735851, 35.093947326279682 ], [ 129.073836902235684, 35.090706892485045 ], [ 129.07397313968977, 35.09050019218428 ], [ 129.071845718818707, 35.088732932366852 ], [ 129.070628366120246, 35.088043205243785 ], [ 129.070410471864619, 35.088164868081215 ], [ 129.069249849598719, 35.088027826882566 ], [ 129.067094996972088, 35.087300956117225 ], [ 129.067177856767017, 35.085596339459514 ], [ 129.06540254837401, 35.08436632964785 ], [ 129.063055000398606, 35.083349271000856 ], [ 129.05808203459847, 35.081748957620434 ], [ 129.057168132727753, 35.081466095915147 ], [ 129.055886840696445, 35.081628980706896 ], [ 129.055264686254276, 35.082176282329712 ], [ 129.053830611772185, 35.086551260841766 ], [ 129.055220019592554, 35.08743999654483 ], [ 129.058925717056468, 35.091561486855305 ], [ 129.059254014138077, 35.09198993051514 ], [ 129.05954348005605, 35.092371146618405 ], [ 129.059641859968707, 35.092535286042519 ], [ 129.059660044287881, 35.092583201999389 ], [ 129.060359255197909, 35.095394557747269 ], [ 129.061094781603401, 35.097364177007158 ], [ 129.061209616845872, 35.097580683390966 ], [ 129.062175279750818, 35.098843611165009 ], [ 129.062410835630914, 35.098796361816554 ] ] ] ] } },
{ "type": "Feature", "properties": { "OBJECTID": 465, "adm_nm": "부산광역시 영도구 동삼1동", "adm_cd": "2104065", "adm_cd2": "2620065000", "sgg": "26200", "sido": "26", "sidonm": "부산광역시", "sggnm": "영도구" }, "geometry": { "type": "MultiPolygon", "coordinates": [ [ [ [ 129.077738266949666, 35.083637237884169 ], [ 129.081740279074182, 35.077713820938776 ], [ 129.075428874069274, 35.075439003966586 ], [ 129.076101880216271, 35.07379505581801 ], [ 129.076760300579821, 35.070835728602901 ], [ 129.076497417819837, 35.069993502296128 ], [ 129.07625563957717, 35.069275036347278 ], [ 129.075478648587705, 35.06845854396412 ], [ 129.074398468496781, 35.067417593455531 ], [ 129.073702977419686, 35.066852716377227 ], [ 129.07190843701278, 35.066353581631361 ], [ 129.068613690859166, 35.064989752789927 ], [ 129.06823942899652, 35.065765973201103 ], [ 129.065185964892265, 35.068318363556713 ], [ 129.065091720599412, 35.068391021534396 ], [ 129.064619390086563, 35.068714840967175 ], [ 129.064335211409031, 35.068877577236023 ], [ 129.063719021487742, 35.069211746751456 ], [ 129.063318777780466, 35.069344866974745 ], [ 129.062669000931777, 35.069490108037236 ], [ 129.060109286489251, 35.069393468936951 ], [ 129.057707450866218, 35.069317381949347 ], [ 129.056874097003998, 35.069404533504141 ], [ 129.054256495872977, 35.070792548006274 ], [ 129.053065420131702, 35.071503526969451 ], [ 129.052014919349858, 35.072149304122867 ], [ 129.051587453595289, 35.07266973861163 ], [ 129.051757159476381, 35.072842507386021 ], [ 129.05241644876574, 35.07351365451516 ], [ 129.054450352664787, 35.077083105734921 ], [ 129.055309297738972, 35.078611342586761 ], [ 129.055700618886192, 35.079877559375618 ], [ 129.055851204435584, 35.080975384277892 ], [ 129.055886840696445, 35.081628980706896 ], [ 129.057168132727753, 35.081466095915147 ], [ 129.05870813914629, 35.078468854262127 ], [ 129.059382985048018, 35.077502140736833 ], [ 129.05973326774216, 35.077453256681366 ], [ 129.062558562713519, 35.077435258875518 ], [ 129.0624899927694, 35.077702354211802 ], [ 129.062074231693998, 35.078848411067099 ], [ 129.061757929786012, 35.079659431755594 ], [ 129.061809076307185, 35.080633466601931 ], [ 129.062398540538396, 35.080734982083833 ], [ 129.06304216621956, 35.080820375189816 ], [ 129.063246150935953, 35.080817783163496 ], [ 129.0637421170849, 35.080670585483873 ], [ 129.064871774455497, 35.080155701323896 ], [ 129.068252692818845, 35.082087882984624 ], [ 129.07241763908911, 35.084425036947188 ], [ 129.072582313349017, 35.084503133106047 ], [ 129.072930688406984, 35.084668323051623 ], [ 129.073123078491221, 35.08468401421603 ], [ 129.07342703583322, 35.08468383045026 ], [ 129.073937866962012, 35.084458860125366 ], [ 129.074790129727319, 35.084483809645583 ], [ 129.075738951093058, 35.08444208064406 ], [ 129.075948726252108, 35.08431055829967 ], [ 129.076169698901111, 35.08383627094473 ], [ 129.076358168747987, 35.083579453368841 ], [ 129.07670138154603, 35.083168454028851 ], [ 129.077738266949666, 35.083637237884169 ] ] ] ] } },
{ "type": "Feature", "properties": { "OBJECTID": 466, "adm_nm": "부산광역시 영도구 동삼2동", "adm_cd": "2104066", "adm_cd2": "2620066000", "sgg": "26200", "sido": "26", "sidonm": "부산광역시", "sggnm": "영도구" }, "geometry": { "type": "MultiPolygon", "coordinates": [ [ [ [ 129.068613690859166, 35.064989752789927 ], [ 129.07190843701278, 35.066353581631361 ], [ 129.073702977419686, 35.066852716377227 ], [ 129.074398468496781, 35.067417593455531 ], [ 129.075478648587705, 35.06845854396412 ], [ 129.07625563957717, 35.069275036347278 ], [ 129.076497417819837, 35.069993502296128 ], [ 129.076760300579821, 35.070835728602901 ], [ 129.076101880216271, 35.07379505581801 ], [ 129.075428874069274, 35.075439003966586 ], [ 129.081740279074182, 35.077713820938776 ], [ 129.084287644005229, 35.074203035802775 ], [ 129.084923864096851, 35.074491201127486 ], [ 129.083508874747764, 35.076119803554967 ], [ 129.083326672870157, 35.079518837856241 ], [ 129.088596951908897, 35.079714715585624 ], [ 129.090502244965592, 35.080377303303756 ], [ 129.094270592872618, 35.080692606539188 ], [ 129.094945630939435, 35.078965209399222 ], [ 129.094265981899099, 35.077420685080064 ], [ 129.090943951583824, 35.074211753952618 ], [ 129.087269219074471, 35.072900630809634 ], [ 129.086560925726246, 35.072731844254591 ], [ 129.085535170352131, 35.073939670489843 ], [ 129.079979595190764, 35.071384545121525 ], [ 129.080015009073605, 35.070951913822775 ], [ 129.080145461551069, 35.070606618832002 ], [ 129.081170601666145, 35.069559838610104 ], [ 129.081488800278834, 35.069300235034511 ], [ 129.08424469125157, 35.068198299624527 ], [ 129.084746202243025, 35.067404933384587 ], [ 129.085671592924541, 35.065563854228159 ], [ 129.086053924316644, 35.064927524676584 ], [ 129.086774264292444, 35.063805766628654 ], [ 129.08681581270227, 35.063745835317313 ], [ 129.087018878249268, 35.063459839729319 ], [ 129.087042794118332, 35.063435631212805 ], [ 129.087080608437873, 35.063397910404973 ], [ 129.087703253676125, 35.062936562753364 ], [ 129.087924229165793, 35.062785899097307 ], [ 129.092208224367027, 35.060970520195873 ], [ 129.093771728871047, 35.060790267700142 ], [ 129.093869599341161, 35.060770703892366 ], [ 129.096101075254268, 35.060060543941994 ], [ 129.096501638552553, 35.059719838090373 ], [ 129.096517904732877, 35.059650027373422 ], [ 129.096501036401861, 35.059564794343011 ], [ 129.095181487506096, 35.056830866364379 ], [ 129.092726140983814, 35.052181868109656 ], [ 129.092385750216948, 35.051741217493586 ], [ 129.091805701175161, 35.051249896601121 ], [ 129.091502106626081, 35.051027785749426 ], [ 129.090877028137101, 35.050717929029041 ], [ 129.08808517158414, 35.049559298411708 ], [ 129.087669090748165, 35.049432383545053 ], [ 129.08685039263483, 35.049318224210154 ], [ 129.086430413957203, 35.04926131980686 ], [ 129.086140137151602, 35.049283807611765 ], [ 129.082824179811212, 35.050390041247958 ], [ 129.082447192954987, 35.050629702166994 ], [ 129.082008709249806, 35.05101786904055 ], [ 129.081392400905003, 35.052450817943637 ], [ 129.081331249223126, 35.052836618968463 ], [ 129.081338638604166, 35.053127965370486 ], [ 129.08134759601586, 35.053481067498915 ], [ 129.081421612823107, 35.053882017716496 ], [ 129.081630506638021, 35.054006692420394 ], [ 129.080729745805513, 35.056252462618211 ], [ 129.078202880993956, 35.059387117742993 ], [ 129.077453252055392, 35.060220897249891 ], [ 129.077257659274267, 35.060388427413372 ], [ 129.077199771836092, 35.060418681210578 ], [ 129.076863201157465, 35.060594560117671 ], [ 129.076167369617963, 35.060735466440477 ], [ 129.075710428945058, 35.060772231578092 ], [ 129.075426659659342, 35.060795051513885 ], [ 129.073932774321293, 35.060421846388607 ], [ 129.073595452372075, 35.060064057135556 ], [ 129.072989749870118, 35.059253462374748 ], [ 129.072133780390885, 35.058705147585648 ], [ 129.07084353986636, 35.058480885195522 ], [ 129.070704423735776, 35.058624005917999 ], [ 129.070616086620305, 35.059082886719111 ], [ 129.070400534712036, 35.059590856209198 ], [ 129.069360066487093, 35.060781392301408 ], [ 129.068110294724676, 35.062163117832576 ], [ 129.06751872968087, 35.062478126741851 ], [ 129.067218803441023, 35.062471498374215 ], [ 129.066989044085062, 35.062416787207781 ], [ 129.066421372794366, 35.062513888889534 ], [ 129.06643764429711, 35.064225565963135 ], [ 129.068613690859166, 35.064989752789927 ] ] ] ] } },
{ "type": "Feature", "properties": { "OBJECTID": 467, "adm_nm": "부산광역시 영도구 동삼3동", "adm_cd": "2104067", "adm_cd2": "2620067000", "sgg": "26200", "sido": "26", "sidonm": "부산광역시", "sggnm": "영도구" }, "geometry": { "type": "MultiPolygon", "coordinates": [ [ [ [ 129.077738266949666, 35.083637237884169 ], [ 129.07670138154603, 35.083168454028851 ], [ 129.076358168747987, 35.083579453368841 ], [ 129.076169698901111, 35.08383627094473 ], [ 129.075948726252108, 35.08431055829967 ], [ 129.075738951093058, 35.08444208064406 ], [ 129.074790129727319, 35.084483809645583 ], [ 129.073937866962012, 35.084458860125366 ], [ 129.07342703583322, 35.08468383045026 ], [ 129.073123078491221, 35.08468401421603 ], [ 129.072930688406984, 35.084668323051623 ], [ 129.072582313349017, 35.084503133106047 ], [ 129.07241763908911, 35.084425036947188 ], [ 129.068252692818845, 35.082087882984624 ], [ 129.064871774455497, 35.080155701323896 ], [ 129.0637421170849, 35.080670585483873 ], [ 129.063246150935953, 35.080817783163496 ], [ 129.06304216621956, 35.080820375189816 ], [ 129.062398540538396, 35.080734982083833 ], [ 129.061809076307185, 35.080633466601931 ], [ 129.061757929786012, 35.079659431755594 ], [ 129.062074231693998, 35.078848411067099 ], [ 129.0624899927694, 35.077702354211802 ], [ 129.062558562713519, 35.077435258875518 ], [ 129.05973326774216, 35.077453256681366 ], [ 129.059382985048018, 35.077502140736833 ], [ 129.05870813914629, 35.078468854262127 ], [ 129.057168132727753, 35.081466095915147 ], [ 129.05808203459847, 35.081748957620434 ], [ 129.063055000398606, 35.083349271000856 ], [ 129.06540254837401, 35.08436632964785 ], [ 129.067177856767017, 35.085596339459514 ], [ 129.067094996972088, 35.087300956117225 ], [ 129.069249849598719, 35.088027826882566 ], [ 129.070410471864619, 35.088164868081215 ], [ 129.070628366120246, 35.088043205243785 ], [ 129.071845718818707, 35.088732932366852 ], [ 129.07397313968977, 35.09050019218428 ], [ 129.074878100662573, 35.08950047462163 ], [ 129.079028876382608, 35.084904689004432 ], [ 129.077738266949666, 35.083637237884169 ] ] ] ] } },
{ "type": "Feature", "properties": { "OBJECTID": 468, "adm_nm": "부산광역시 영도구 신선동", "adm_cd": "2104068", "adm_cd2": "2620058500", "sgg": "26200", "sido": "26", "sidonm": "부산광역시", "sggnm": "영도구" }, "geometry": { "type": "MultiPolygon", "coordinates": [ [ [ [ 129.053488610030314, 35.086993217769276 ], [ 129.053830611772185, 35.086551260841766 ], [ 129.055264686254276, 35.082176282329712 ], [ 129.053880683599516, 35.080198021305989 ], [ 129.053609784527538, 35.079813517281501 ], [ 129.052899475583928, 35.079036215848475 ], [ 129.05276154451704, 35.078941703871749 ], [ 129.052371919199146, 35.078772528166283 ], [ 129.052171610913263, 35.078685553726181 ], [ 129.051643051639132, 35.078555505529863 ], [ 129.051395728761435, 35.078936391128991 ], [ 129.051178902804395, 35.079270327353022 ], [ 129.051000295950359, 35.079428051410325 ], [ 129.049989541193469, 35.079787929095069 ], [ 129.049374333468279, 35.0798933168481 ], [ 129.046532938379102, 35.080123653388711 ], [ 129.046340824548707, 35.080129881515937 ], [ 129.046147463978912, 35.080136128844146 ], [ 129.045920951068723, 35.080025113734393 ], [ 129.045219154245984, 35.079757317510776 ], [ 129.044270650996708, 35.081573925138052 ], [ 129.042555835171754, 35.08536297595878 ], [ 129.042795979522992, 35.085805536727868 ], [ 129.043091343364125, 35.086349853268828 ], [ 129.043169282178809, 35.086493461157644 ], [ 129.043485111717757, 35.086386748011215 ], [ 129.043908831440262, 35.086899242900365 ], [ 129.045529608501795, 35.089444001168765 ], [ 129.04541725638461, 35.091525680193755 ], [ 129.046289362084337, 35.09300587644497 ], [ 129.046517248067516, 35.092585317416251 ], [ 129.048332983003519, 35.091238873241643 ], [ 129.052347250084694, 35.088194001718726 ], [ 129.052404098266493, 35.088144443061694 ], [ 129.052694624206481, 35.087891135739859 ], [ 129.053488610030314, 35.086993217769276 ] ] ] ] } },
{ "type": "Feature", "properties": { "OBJECTID": 469, "adm_nm": "부산광역시 영도구 봉래2동", "adm_cd": "2104069", "adm_cd2": "2620060500", "sgg": "26200", "sido": "26", "sidonm": "부산광역시", "sggnm": "영도구" }, "geometry": { "type": "MultiPolygon", "coordinates": [ [ [ [ 129.053488610030314, 35.086993217769276 ], [ 129.052694624206481, 35.087891135739859 ], [ 129.052404098266493, 35.088144443061694 ], [ 129.052347250084694, 35.088194001718726 ], [ 129.048332983003519, 35.091238873241643 ], [ 129.046517248067516, 35.092585317416251 ], [ 129.046289362084337, 35.09300587644497 ], [ 129.046469751231712, 35.096801995466556 ], [ 129.047004981201155, 35.095829584209454 ], [ 129.048123016661549, 35.095487883112853 ], [ 129.048814027616402, 35.095307284618734 ], [ 129.048901156141227, 35.095476215506579 ], [ 129.049008909524417, 35.095724455007691 ], [ 129.048049297057304, 35.096411923896675 ], [ 129.04985993603168, 35.098252959936254 ], [ 129.051432455206339, 35.098589438637624 ], [ 129.051429028831421, 35.099183895709778 ], [ 129.052090778916437, 35.097846829292735 ], [ 129.053198867365381, 35.094756946017831 ], [ 129.05354501949293, 35.094553040268771 ], [ 129.054676573216028, 35.093951999358865 ], [ 129.055068701824666, 35.0937901560632 ], [ 129.055720384296677, 35.093239312519671 ], [ 129.055899602510124, 35.09307409389988 ], [ 129.055982108451587, 35.092989984311757 ], [ 129.056046455670327, 35.092910994517013 ], [ 129.055887381953909, 35.09202323612989 ], [ 129.055727827051783, 35.091408379543893 ], [ 129.055650883299194, 35.091159299882932 ], [ 129.055389624144993, 35.090699729552632 ], [ 129.054737538755148, 35.09010401517255 ], [ 129.054487961457738, 35.089942473066685 ], [ 129.054185234630467, 35.089620704680492 ], [ 129.054157646837183, 35.089550642037189 ], [ 129.054042241489896, 35.089212750856049 ], [ 129.054007101419842, 35.089076768550207 ], [ 129.053488610030314, 35.086993217769276 ] ] ] ] } }
]
}
