{
"type": "FeatureCollection",
"name": "jeungpyeonggun",
"crs": { "type": "name", "properties": { "name": "urn:ogc:def:crs:OGC:1.3:CRS84" } },
"features": [
{ "type": "Feature", "properties": { "OBJECTID": 2012, "adm_nm": "충청북도 증평군 증평읍", "adm_cd": "3339014", "adm_cd2": "4374525000", "sgg": "43745", "sido": "43", "sidonm": "충청북도", "sggnm": "증평군" }, "geometry": { "type": "MultiPolygon", "coordinates": [ [ [ [ 127.624526106041159, 36.792698967005819 ], [ 127.625059611882719, 36.792109637522849 ], [ 127.626373025144176, 36.790559195062492 ], [ 127.626429974901413, 36.790285197262939 ], [ 127.62611614441073, 36.789921920768961 ], [ 127.625877351893777, 36.789645510337557 ], [ 127.625474907278232, 36.78927871634621 ], [ 127.625120315005177, 36.789340081814672 ], [ 127.624908501641627, 36.789398101555648 ], [ 127.624677430818167, 36.78946138948924 ], [ 127.624337441918129, 36.789498868077303 ], [ 127.624129924245267, 36.789452365000969 ], [ 127.623922415774203, 36.789405852537712 ], [ 127.621710818456791, 36.788524897461201 ], [ 127.621324428615409, 36.788312722679677 ], [ 127.621041990146239, 36.788147596137151 ], [ 127.620887055395698, 36.787279695773336 ], [ 127.620602823429394, 36.779534281879833 ], [ 127.620905271075429, 36.778679601005315 ], [ 127.620939564142589, 36.778659520925871 ], [ 127.621085562430835, 36.778586982081698 ], [ 127.621245471467219, 36.778507539800728 ], [ 127.621511351337958, 36.778458568982657 ], [ 127.621695514760006, 36.778435634687902 ], [ 127.621910371220849, 36.778408891473845 ], [ 127.622221975939141, 36.778526258542733 ], [ 127.62259381422119, 36.778774229884242 ], [ 127.622876407449411, 36.778963137411182 ], [ 127.622951564202452, 36.778989544221432 ], [ 127.623009863481272, 36.779010012364346 ], [ 127.627500997069575, 36.776439896231878 ], [ 127.629234885636563, 36.773193978969665 ], [ 127.628155138635549, 36.770212065684632 ], [ 127.626995462947193, 36.767017760687892 ], [ 127.625376612519759, 36.76437255796354 ], [ 127.62425235349437, 36.762522049459221 ], [ 127.624086881754863, 36.762177815887291 ], [ 127.623763132127436, 36.760549193768796 ], [ 127.623731819550571, 36.760335169292496 ], [ 127.624011948508439, 36.760226596530991 ], [ 127.626875828934061, 36.757748280874679 ], [ 127.627255206320427, 36.757115586333462 ], [ 127.629872270114106, 36.753412787436574 ], [ 127.630385472589552, 36.752874572816566 ], [ 127.632418867372976, 36.751971311732852 ], [ 127.632846533020711, 36.751826252087369 ], [ 127.633201052141388, 36.75177675215896 ], [ 127.633391411663112, 36.751813981895282 ], [ 127.635198936765761, 36.750159643409972 ], [ 127.635467851094177, 36.746897581050256 ], [ 127.636175328012271, 36.741229399535847 ], [ 127.636379473196953, 36.740883201466012 ], [ 127.636759777302174, 36.740584989428243 ], [ 127.638418320576051, 36.738896907965255 ], [ 127.638856758690409, 36.738275765660063 ], [ 127.639002052623297, 36.737965577282758 ], [ 127.638715134972699, 36.737241225902537 ], [ 127.638561593205822, 36.736551838476643 ], [ 127.638602138568572, 36.734302504229348 ], [ 127.638634694283425, 36.732874317554732 ], [ 127.639147132100717, 36.732324684941389 ], [ 127.639411496203991, 36.732221819274827 ], [ 127.639707619558123, 36.732106966588347 ], [ 127.641286215180727, 36.731705790363279 ], [ 127.641640823447204, 36.731680096714165 ], [ 127.649455341982758, 36.732685008818805 ], [ 127.651174538965634, 36.734936632264237 ], [ 127.65124699344706, 36.735013311350215 ], [ 127.651353555279414, 36.73512607032027 ], [ 127.652257695272496, 36.735394827199165 ], [ 127.652848877289358, 36.735367787613129 ], [ 127.653912424468217, 36.735254871163633 ], [ 127.654294897767997, 36.735026671417842 ], [ 127.655205967428046, 36.734116956634779 ], [ 127.655979537812641, 36.733184808561191 ], [ 127.656316426701878, 36.732814050142252 ], [ 127.656448469162214, 36.732694327429058 ], [ 127.656580421791531, 36.732574692129447 ], [ 127.656676945874864, 36.732501525175415 ], [ 127.656786175545719, 36.732418772167101 ], [ 127.658385106342635, 36.732194650594877 ], [ 127.658868442579376, 36.732145494025083 ], [ 127.659888407960011, 36.732127940272193 ], [ 127.66036168608936, 36.732149127534363 ], [ 127.661648573098503, 36.73222530002792 ], [ 127.662373796157311, 36.732316466906546 ], [ 127.66290293539528, 36.731956545378743 ], [ 127.663767822384557, 36.731094922943214 ], [ 127.664060928084353, 36.730795777791997 ], [ 127.664924450382571, 36.729779469540475 ], [ 127.664756329865881, 36.728928731227953 ], [ 127.66437617142185, 36.727965403640482 ], [ 127.663396094326828, 36.726387079251602 ], [ 127.663274712177326, 36.726226822317535 ], [ 127.66267709693534, 36.725251730481098 ], [ 127.662072220301624, 36.723623920525576 ], [ 127.662027522051389, 36.723501159597561 ], [ 127.661982729654667, 36.723369760758601 ], [ 127.661761274725279, 36.722565220559972 ], [ 127.661757311466218, 36.722521363334472 ], [ 127.661630105650673, 36.719455802381972 ], [ 127.661629204126342, 36.719350466933648 ], [ 127.661631916569561, 36.719247991494427 ], [ 127.661641977505923, 36.719142514047348 ], [ 127.661659286179415, 36.719045818033187 ], [ 127.662008212174698, 36.717324234323151 ], [ 127.662036263399372, 36.717201069529523 ], [ 127.66208635962623, 36.717104188155638 ], [ 127.662165125344572, 36.716957415588134 ], [ 127.662233384173859, 36.716863407678808 ], [ 127.661608239747224, 36.714348021786478 ], [ 127.65932696797266, 36.711221213644905 ], [ 127.656264204971009, 36.706819543329722 ], [ 127.656230801167268, 36.70673483661384 ], [ 127.656226371119573, 36.706647014194324 ], [ 127.656232750074295, 36.706541634659388 ], [ 127.656271125406178, 36.706342379185486 ], [ 127.656295086427306, 36.70617391396339 ], [ 127.656297674594612, 36.706042151074953 ], [ 127.656289722265726, 36.705963182265279 ], [ 127.656260088444014, 36.705898910905603 ], [ 127.656167881426484, 36.705756056100292 ], [ 127.655512384179161, 36.704985329793587 ], [ 127.655295749950383, 36.704737732528486 ], [ 127.655222508578063, 36.704679568550759 ], [ 127.655065221721273, 36.704566336714564 ], [ 127.654892485839099, 36.704454566246213 ], [ 127.654647606290567, 36.704306590886176 ], [ 127.650739297328471, 36.702009609086709 ], [ 127.650667731582089, 36.701988915884236 ], [ 127.647940732566695, 36.701247451940532 ], [ 127.647847970182923, 36.7012350671448 ], [ 127.642485604150863, 36.702640865489791 ], [ 127.642443802734945, 36.702678711269691 ], [ 127.642212803130178, 36.702900493684425 ], [ 127.642131627207448, 36.703004925159533 ], [ 127.642061295116093, 36.703118482917162 ], [ 127.641576495641687, 36.704007778988341 ], [ 127.641553273434482, 36.704068805730792 ], [ 127.641527967308178, 36.704147346333428 ], [ 127.641509353466375, 36.704251882371878 ], [ 127.641491004494114, 36.704373901532108 ], [ 127.641485433911384, 36.704485303111881 ], [ 127.641498442822865, 36.704757366369037 ], [ 127.641501773103357, 36.704889631295558 ], [ 127.641490142896657, 36.705053338936011 ], [ 127.641473789067859, 36.705171830891985 ], [ 127.641446739133045, 36.705297322977557 ], [ 127.641409337867543, 36.705416370900444 ], [ 127.641383887284277, 36.705465264425357 ], [ 127.641347348720274, 36.705498540227183 ], [ 127.638514704232051, 36.707568680542138 ], [ 127.638402974634388, 36.707644167560552 ], [ 127.638321264405263, 36.707682894835081 ], [ 127.638215630576866, 36.707726986631826 ], [ 127.63624612999125, 36.708404337872523 ], [ 127.635893691672521, 36.708511540715548 ], [ 127.635621941547328, 36.708577414822734 ], [ 127.635397659801583, 36.708630874951005 ], [ 127.635126775513285, 36.708680168605213 ], [ 127.634906629261437, 36.708707472792632 ], [ 127.634723004851864, 36.708724124751548 ], [ 127.63450260215474, 36.708720076583354 ], [ 127.634291828971371, 36.708715076894499 ], [ 127.633997671585746, 36.708683560636771 ], [ 127.626929557782191, 36.707492877265466 ], [ 127.625530153980634, 36.706867382362937 ], [ 127.625046537036027, 36.706640841918478 ], [ 127.624638199534076, 36.706423201323382 ], [ 127.624348177358229, 36.706236123317019 ], [ 127.624129602576275, 36.70608228367599 ], [ 127.624047409001804, 36.706006918486814 ], [ 127.624005240850522, 36.705954970953755 ], [ 127.623976456409821, 36.705883480554157 ], [ 127.623960473515666, 36.70571857824774 ], [ 127.623924065271282, 36.705616028721501 ], [ 127.623888082308099, 36.705564933822018 ], [ 127.623851924421132, 36.705524108834567 ], [ 127.623688330844857, 36.705416774766455 ], [ 127.623429974777537, 36.705256460993958 ], [ 127.622850153381378, 36.70492086368904 ], [ 127.622785716543191, 36.704909468654868 ], [ 127.622596185361871, 36.704970835295043 ], [ 127.620938605216807, 36.705828865958267 ], [ 127.620011319754951, 36.706543744222088 ], [ 127.618923794102088, 36.707389493674761 ], [ 127.618837735658005, 36.707431754773602 ], [ 127.618734143787108, 36.707436871304239 ], [ 127.61775855475102, 36.707450323196269 ], [ 127.617884969670996, 36.708828052133249 ], [ 127.618750455637326, 36.713624677657116 ], [ 127.618762349940468, 36.715111410659375 ], [ 127.618657335180117, 36.716412906344644 ], [ 127.617990869858701, 36.717268157200095 ], [ 127.617321541408188, 36.717767231090754 ], [ 127.616651234598052, 36.717985637318066 ], [ 127.616596749632109, 36.718003376037295 ], [ 127.615920828006168, 36.718223606449008 ], [ 127.615424490494078, 36.718706281498612 ], [ 127.61485474202604, 36.722054503312627 ], [ 127.614303072495034, 36.725263239075481 ], [ 127.61383009739788, 36.726272354840773 ], [ 127.613295700754207, 36.726817156428659 ], [ 127.61271790990709, 36.726742688908296 ], [ 127.611051825048918, 36.727726957279074 ], [ 127.611158312986731, 36.729027338380106 ], [ 127.610776004871838, 36.729577638597227 ], [ 127.609889859576242, 36.731610002593236 ], [ 127.609899773745397, 36.735547770359126 ], [ 127.609813118940409, 36.735590020804409 ], [ 127.608775205248307, 36.736233764428995 ], [ 127.608713714259324, 36.736273721135269 ], [ 127.608649395547985, 36.736337043214021 ], [ 127.608464845514007, 36.736586492214776 ], [ 127.608441022536283, 36.736633749806614 ], [ 127.608414605693454, 36.736718579942611 ], [ 127.608372679641022, 36.736982009683885 ], [ 127.60837929506377, 36.737040458489204 ], [ 127.608000092497718, 36.73981482014586 ], [ 127.605857090401798, 36.743706211333937 ], [ 127.605814371529718, 36.743771664428472 ], [ 127.605771426597215, 36.743820181575316 ], [ 127.604172293149247, 36.745566521995919 ], [ 127.604110680949645, 36.745606114880268 ], [ 127.603984003704809, 36.745671817410674 ], [ 127.603830590475127, 36.745742158719636 ], [ 127.60370932657662, 36.745786203556257 ], [ 127.603601749286739, 36.745817206345343 ], [ 127.60352865455279, 36.745834972343964 ], [ 127.603431596392582, 36.745850695637394 ], [ 127.603374860986847, 36.745855312740645 ], [ 127.603288841966304, 36.745851676935381 ], [ 127.600574580966835, 36.745695615179017 ], [ 127.600475803753469, 36.745679338537052 ], [ 127.600366268301187, 36.7456466431941 ], [ 127.600244328272325, 36.74560374081134 ], [ 127.600089765607621, 36.745539358205406 ], [ 127.600038666959293, 36.745506007600987 ], [ 127.599627404320387, 36.745146024224475 ], [ 127.599376875892631, 36.744880017238565 ], [ 127.599226934403802, 36.744717748596919 ], [ 127.599145423568089, 36.744646426417859 ], [ 127.599037522754955, 36.744578402130536 ], [ 127.598901237677822, 36.744519430575195 ], [ 127.598684438306023, 36.744429234334056 ], [ 127.598450354282505, 36.74436183964513 ], [ 127.598348692417218, 36.744333146613172 ], [ 127.598278288232819, 36.744322594339224 ], [ 127.598191383252001, 36.744319254870618 ], [ 127.596149808956469, 36.744574835840751 ], [ 127.595776625388766, 36.744677094319961 ], [ 127.592869300338606, 36.746319680903298 ], [ 127.592081147944683, 36.746861543560904 ], [ 127.591249666947007, 36.747568630588617 ], [ 127.590260366857663, 36.748576809871423 ], [ 127.590233938630192, 36.748620816772032 ], [ 127.590229505460172, 36.748671134485342 ], [ 127.590252621595752, 36.748735539482553 ], [ 127.590244115728254, 36.753406401286348 ], [ 127.588412332954164, 36.75709579008749 ], [ 127.588991171793907, 36.759647367447805 ], [ 127.58904806924177, 36.760057369896003 ], [ 127.588805069596674, 36.76227014512277 ], [ 127.588785116608449, 36.762337693396738 ], [ 127.588734466142455, 36.762412890173053 ], [ 127.588669615008186, 36.762472218863245 ], [ 127.588600904247173, 36.762525015572045 ], [ 127.584790028533945, 36.764584860213148 ], [ 127.577087960143928, 36.766781486352755 ], [ 127.576069011217541, 36.766972814740448 ], [ 127.57590809151398, 36.767024189989449 ], [ 127.575660401881976, 36.767115306905794 ], [ 127.575328597689705, 36.76725927256004 ], [ 127.575164087067492, 36.767345326233645 ], [ 127.575100267340957, 36.76738573021796 ], [ 127.575006079610631, 36.767445375534301 ], [ 127.574942543757501, 36.767509377246881 ], [ 127.573721891285089, 36.768812595299181 ], [ 127.572702746352704, 36.769841282193461 ], [ 127.572574227807465, 36.769970268372447 ], [ 127.572385193837391, 36.77015701105946 ], [ 127.57227403693966, 36.770232279907795 ], [ 127.572109729233318, 36.770328863864854 ], [ 127.57193023720977, 36.77043318153715 ], [ 127.570798626902373, 36.771046898466537 ], [ 127.570185324639084, 36.771368833325269 ], [ 127.569967484709153, 36.771438847781255 ], [ 127.569744375309071, 36.771480152867639 ], [ 127.568716873363257, 36.771758065094446 ], [ 127.567831845976656, 36.772765263643073 ], [ 127.567752566377905, 36.772860468766602 ], [ 127.567712519108653, 36.772939212172631 ], [ 127.567672597281387, 36.773033277001169 ], [ 127.567629220862216, 36.773349603001407 ], [ 127.567599221252181, 36.773586366004572 ], [ 127.56759319724037, 36.773900647817911 ], [ 127.567591879434488, 36.773969582722998 ], [ 127.567590777825814, 36.774338401084627 ], [ 127.567562121031202, 36.774583780495654 ], [ 127.567515919419861, 36.774861821346093 ], [ 127.567496098794976, 36.774928960178215 ], [ 127.566976546739397, 36.776441162202396 ], [ 127.566578506982992, 36.777386639865696 ], [ 127.566495930796307, 36.777551802315138 ], [ 127.566321300249641, 36.777891457186797 ], [ 127.564219591969433, 36.779621831455131 ], [ 127.564380100470544, 36.781278348746525 ], [ 127.562988102738487, 36.783694668016203 ], [ 127.561515322755653, 36.786494033393168 ], [ 127.560143906983242, 36.789272798763157 ], [ 127.558250779439405, 36.793383285841777 ], [ 127.557595699801993, 36.795087947176917 ], [ 127.556766511237569, 36.79673987300616 ], [ 127.556581563860362, 36.797105765650173 ], [ 127.555390854708008, 36.798975951655684 ], [ 127.555333917654096, 36.79905166766958 ], [ 127.555263110575012, 36.799134728995583 ], [ 127.555188081342649, 36.799220251456909 ], [ 127.555073275527477, 36.799242686453283 ], [ 127.554940194390966, 36.799250604341303 ], [ 127.553007086810254, 36.799293665120942 ], [ 127.552865319436378, 36.799289073910565 ], [ 127.552743807117153, 36.799285134330709 ], [ 127.552660481831126, 36.799272050307302 ], [ 127.552563268658773, 36.799256784487881 ], [ 127.552372349312833, 36.799213858511486 ], [ 127.550793047725804, 36.798805031101942 ], [ 127.550617009952575, 36.798727986895642 ], [ 127.550477316766973, 36.798655627291559 ], [ 127.550113219712586, 36.7983433873259 ], [ 127.549982237822547, 36.79821987836214 ], [ 127.549866313201107, 36.798086567527527 ], [ 127.549781103206612, 36.798016395557106 ], [ 127.549617479464061, 36.797983079655815 ], [ 127.549224165514403, 36.797984896384442 ], [ 127.549125700626661, 36.797998196869294 ], [ 127.549000473342176, 36.798015124111693 ], [ 127.548701333817036, 36.798070033130294 ], [ 127.548493173433357, 36.798156154820894 ], [ 127.543130466916608, 36.801937408332535 ], [ 127.540907770015494, 36.804251180932916 ], [ 127.540501635461368, 36.804964708409642 ], [ 127.540397658407159, 36.805130198244029 ], [ 127.540251937443301, 36.805342419128841 ], [ 127.539315801460816, 36.806523218537421 ], [ 127.539201022433147, 36.806650674130822 ], [ 127.538767231098916, 36.807020753509434 ], [ 127.538584143487824, 36.807152736302427 ], [ 127.538327599693389, 36.807306214673389 ], [ 127.53756437940136, 36.807732559756502 ], [ 127.537068177833092, 36.807932995517405 ], [ 127.54284351150713, 36.812456485858156 ], [ 127.54419450697209, 36.81340936954004 ], [ 127.544358180879243, 36.813505940011481 ], [ 127.544774999355468, 36.813707131915962 ], [ 127.544869873066631, 36.813740554261827 ], [ 127.54682807801268, 36.813312702947847 ], [ 127.547420556104626, 36.813159572328551 ], [ 127.547855755468518, 36.813052779179699 ], [ 127.549058143392429, 36.812970304033257 ], [ 127.549259046459056, 36.812967738334201 ], [ 127.549436900253113, 36.813006236686753 ], [ 127.549498394241866, 36.813028235854496 ], [ 127.549615465729985, 36.813070127120021 ], [ 127.552613308055626, 36.815239058237026 ], [ 127.555765588054797, 36.817942071906998 ], [ 127.559333113695175, 36.818799599102988 ], [ 127.561418503942818, 36.818940212682719 ], [ 127.561457268927285, 36.818894178902511 ], [ 127.561515770041026, 36.818873429258623 ], [ 127.561617675487213, 36.818848376921757 ], [ 127.561848696784423, 36.818801421096175 ], [ 127.562143140750621, 36.818741866098897 ], [ 127.563179006079395, 36.818550246396143 ], [ 127.563225667244268, 36.818547140370285 ], [ 127.563271819395837, 36.818544074261638 ], [ 127.564073232012376, 36.818598439225276 ], [ 127.564339746348537, 36.818648210642287 ], [ 127.57112792187867, 36.820249671492334 ], [ 127.572072443194315, 36.820484304436249 ], [ 127.572112776133721, 36.820504453982636 ], [ 127.572145480919019, 36.82052081565898 ], [ 127.573955325307608, 36.822163593761061 ], [ 127.575037834332775, 36.823393212592947 ], [ 127.575091215680033, 36.823457776404076 ], [ 127.575131250067841, 36.823506199697988 ], [ 127.575175152665594, 36.823571443758027 ], [ 127.575305679135937, 36.823811902996553 ], [ 127.576148135434593, 36.8254331739777 ], [ 127.576636190304583, 36.826857650508799 ], [ 127.576664252104038, 36.826934971254154 ], [ 127.576737285473683, 36.827028415499747 ], [ 127.577736983856354, 36.828149439617249 ], [ 127.578102501483102, 36.82846027445111 ], [ 127.578415775295639, 36.828719278405956 ], [ 127.578990826717032, 36.829120326315774 ], [ 127.579586061259491, 36.828244690642805 ], [ 127.581583490159943, 36.825486494921535 ], [ 127.581716918855122, 36.825337179485416 ], [ 127.582976972457104, 36.824247418416455 ], [ 127.58304546414098, 36.824203004783087 ], [ 127.583112125927215, 36.824159791343348 ], [ 127.583184229996647, 36.824130592810398 ], [ 127.583263831251045, 36.824098378076044 ], [ 127.584714998191018, 36.823589640038719 ], [ 127.58806785668466, 36.821796288594676 ], [ 127.588217735532353, 36.821743453234149 ], [ 127.588256524059176, 36.821717982269682 ], [ 127.588521365800077, 36.821487120920601 ], [ 127.58878655354907, 36.821220346860578 ], [ 127.588801549013368, 36.82118497370486 ], [ 127.588811020006204, 36.821131225505482 ], [ 127.58880311620922, 36.821083741073693 ], [ 127.588199493150711, 36.819682512665963 ], [ 127.587780976472885, 36.818475563550358 ], [ 127.588263890687315, 36.81370082104646 ], [ 127.58829712825333, 36.813606599863675 ], [ 127.5883859142305, 36.813460030442322 ], [ 127.588472347715353, 36.813377802493811 ], [ 127.588534465004273, 36.813318725235789 ], [ 127.588668094826232, 36.813200747516149 ], [ 127.589596353198601, 36.81258127840043 ], [ 127.58995328298947, 36.812393422717086 ], [ 127.590098659382051, 36.812319122487182 ], [ 127.590251995357079, 36.812240764826775 ], [ 127.590505177546106, 36.812135356299187 ], [ 127.591599042737386, 36.811799212956544 ], [ 127.592953266921384, 36.811471901685216 ], [ 127.594210751817485, 36.811323047426384 ], [ 127.594457081756843, 36.811307655026596 ], [ 127.594629456634337, 36.811320958026258 ], [ 127.594905948472373, 36.811383799220529 ], [ 127.595051018282817, 36.811447816733498 ], [ 127.595113456557058, 36.81148046047214 ], [ 127.595165913694629, 36.811507898956933 ], [ 127.596691324209615, 36.810395940392169 ], [ 127.598493577197743, 36.807286478283594 ], [ 127.59848125169195, 36.807180231996185 ], [ 127.598483046959444, 36.807041382196708 ], [ 127.598511354982762, 36.806982643179659 ], [ 127.598559313100523, 36.806932681731418 ], [ 127.598605530234806, 36.806884545384719 ], [ 127.598776970722611, 36.806736147938295 ], [ 127.599029076702081, 36.806602535753861 ], [ 127.599235602435044, 36.806527738852324 ], [ 127.599479904570387, 36.806498293706461 ], [ 127.600770963586641, 36.806431049551421 ], [ 127.602717991299926, 36.806375664249295 ], [ 127.603408630411707, 36.806406882301509 ], [ 127.603506455785904, 36.806418861602531 ], [ 127.6035957675644, 36.806429798925826 ], [ 127.603702295706356, 36.806450852814976 ], [ 127.603820491694378, 36.806474227630147 ], [ 127.60429307972943, 36.806578142395239 ], [ 127.604391106183968, 36.806605853280359 ], [ 127.605146597689043, 36.80647184471465 ], [ 127.60634510716757, 36.80597542200146 ], [ 127.607677102125606, 36.80526351011909 ], [ 127.60782029587584, 36.805184677363577 ], [ 127.607914671802504, 36.805112596594995 ], [ 127.607957081535716, 36.805021251596344 ], [ 127.608122335111815, 36.804454146670011 ], [ 127.608180985544564, 36.80423036504542 ], [ 127.608397314328215, 36.803211710738779 ], [ 127.608373111907085, 36.803059962694959 ], [ 127.608315018154585, 36.80298866767577 ], [ 127.60821314049295, 36.802888983635974 ], [ 127.607989188155884, 36.802671609587406 ], [ 127.607668946364115, 36.802323809821047 ], [ 127.607494452087622, 36.802026865725267 ], [ 127.607424429021052, 36.801641643182499 ], [ 127.607417068198131, 36.801327516338283 ], [ 127.60739061616276, 36.799828443157402 ], [ 127.607403899245838, 36.799655581832639 ], [ 127.607989025427401, 36.79881021129809 ], [ 127.608437140266261, 36.798210799921961 ], [ 127.608583175534307, 36.798121907640002 ], [ 127.608710209812145, 36.798086435819698 ], [ 127.608826761741867, 36.798053904144574 ], [ 127.610024061725625, 36.79790554336369 ], [ 127.610225996598942, 36.797936209316113 ], [ 127.610314147108966, 36.797969004319725 ], [ 127.610414920613067, 36.798006503146603 ], [ 127.610529632534195, 36.79807637526222 ], [ 127.610625896880038, 36.798135016744723 ], [ 127.611022526639573, 36.79827829692934 ], [ 127.612835017149081, 36.79841036718458 ], [ 127.613167203192432, 36.798432225118155 ], [ 127.613474892857298, 36.798361007662692 ], [ 127.613756273375742, 36.798213202880632 ], [ 127.616862419754, 36.796278887815177 ], [ 127.617061000665714, 36.796072520156741 ], [ 127.617143650133087, 36.796007160388392 ], [ 127.6172259635931, 36.795942066827841 ], [ 127.617347313026471, 36.795896404727806 ], [ 127.6174693456895, 36.795850493923759 ], [ 127.618668862606427, 36.79544369242435 ], [ 127.618753435045974, 36.795425083637106 ], [ 127.618888197783619, 36.795395436572186 ], [ 127.619878854268464, 36.795339234204647 ], [ 127.61999729836208, 36.795353422056174 ], [ 127.620098780116507, 36.795365585982019 ], [ 127.620382518792681, 36.795434788332948 ], [ 127.620637156224348, 36.795527729179739 ], [ 127.620799248591339, 36.795628933559172 ], [ 127.621005182707634, 36.795757510535687 ], [ 127.62407503405494, 36.793300672762285 ], [ 127.624526106041159, 36.792698967005819 ] ] ] ] } },
{ "type": "Feature", "properties": { "OBJECTID": 2013, "adm_nm": "충청북도 증평군 도안면", "adm_cd": "3339031", "adm_cd2": "4374531000", "sgg": "43745", "sido": "43", "sidonm": "충청북도", "sggnm": "증평군" }, "geometry": { "type": "MultiPolygon", "coordinates": [ [ [ [ 127.637840099287786, 36.847296257145132 ], [ 127.637522981205066, 36.846745325070131 ], [ 127.637467982104866, 36.845765952587783 ], [ 127.637869483571578, 36.845186047095574 ], [ 127.638194730696625, 36.844832644630898 ], [ 127.638799271962725, 36.844239090417844 ], [ 127.639108151158879, 36.843797829610722 ], [ 127.639153463236838, 36.843609195304325 ], [ 127.63926919107972, 36.842490753238138 ], [ 127.638662578659151, 36.84094913459424 ], [ 127.637997766310491, 36.839922797923272 ], [ 127.637323170952442, 36.839599838929679 ], [ 127.636819625185396, 36.839175508656922 ], [ 127.634467027340605, 36.836223944014051 ], [ 127.634197257791627, 36.835722978949121 ], [ 127.633663639134738, 36.834165255752673 ], [ 127.632231710480241, 36.830408032752167 ], [ 127.629176896493561, 36.826118909994406 ], [ 127.628971227862223, 36.822236240940015 ], [ 127.629543715075641, 36.819645873296231 ], [ 127.630886622772337, 36.815757772406805 ], [ 127.631048329954027, 36.815422470007363 ], [ 127.631147766637852, 36.815216308594813 ], [ 127.631503835260872, 36.814825067546202 ], [ 127.633389473416145, 36.814274986044346 ], [ 127.633918695776813, 36.814046108262083 ], [ 127.634213623025715, 36.813818447431679 ], [ 127.636568180640253, 36.811419525016525 ], [ 127.636726407399948, 36.809773331891847 ], [ 127.63672412343216, 36.809497021876723 ], [ 127.636503374396924, 36.80924700901231 ], [ 127.635874156783146, 36.808710283188297 ], [ 127.635045518151259, 36.808614214280389 ], [ 127.634622250869739, 36.808428079667557 ], [ 127.634385581529955, 36.808140466040832 ], [ 127.634210053610119, 36.807689231674281 ], [ 127.634128548652868, 36.807275187593859 ], [ 127.634205402459386, 36.807124066539039 ], [ 127.635670551032504, 36.804855477632792 ], [ 127.6360579035603, 36.804476603513628 ], [ 127.637258845818749, 36.804269231816598 ], [ 127.637586206670434, 36.804192121165364 ], [ 127.638910837793262, 36.803833364992428 ], [ 127.639859695518226, 36.803363550584059 ], [ 127.641875927000513, 36.801657128493694 ], [ 127.641905384791542, 36.80144345431534 ], [ 127.641952816264919, 36.7998296825984 ], [ 127.641464427213265, 36.799820415902808 ], [ 127.640689749238078, 36.799193868321211 ], [ 127.640582720262998, 36.798777958880862 ], [ 127.64053507135867, 36.798385513919278 ], [ 127.639550117468445, 36.797379310964374 ], [ 127.637640260161589, 36.795461754600979 ], [ 127.634812188295854, 36.793430044243109 ], [ 127.63445739038265, 36.793467626220959 ], [ 127.634162071315131, 36.793647299759478 ], [ 127.63303966964574, 36.793796468845564 ], [ 127.629297557533164, 36.793959089020447 ], [ 127.62756176621717, 36.793004366167139 ], [ 127.626455466042231, 36.792531118891247 ], [ 127.624526106041159, 36.792698967005819 ], [ 127.62407503405494, 36.793300672762285 ], [ 127.621005182707634, 36.795757510535687 ], [ 127.620799248591339, 36.795628933559172 ], [ 127.620637156224348, 36.795527729179739 ], [ 127.620382518792681, 36.795434788332948 ], [ 127.620098780116507, 36.795365585982019 ], [ 127.61999729836208, 36.795353422056174 ], [ 127.619878854268464, 36.795339234204647 ], [ 127.618888197783619, 36.795395436572186 ], [ 127.618753435045974, 36.795425083637106 ], [ 127.618668862606427, 36.79544369242435 ], [ 127.6174693456895, 36.795850493923759 ], [ 127.617347313026471, 36.795896404727806 ], [ 127.6172259635931, 36.795942066827841 ], [ 127.617143650133087, 36.796007160388392 ], [ 127.617061000665714, 36.796072520156741 ], [ 127.616862419754, 36.796278887815177 ], [ 127.613756273375742, 36.798213202880632 ], [ 127.613474892857298, 36.798361007662692 ], [ 127.613167203192432, 36.798432225118155 ], [ 127.612835017149081, 36.79841036718458 ], [ 127.611022526639573, 36.79827829692934 ], [ 127.610625896880038, 36.798135016744723 ], [ 127.610529632534195, 36.79807637526222 ], [ 127.610414920613067, 36.798006503146603 ], [ 127.610314147108966, 36.797969004319725 ], [ 127.610225996598942, 36.797936209316113 ], [ 127.610024061725625, 36.79790554336369 ], [ 127.608826761741867, 36.798053904144574 ], [ 127.608710209812145, 36.798086435819698 ], [ 127.608583175534307, 36.798121907640002 ], [ 127.608437140266261, 36.798210799921961 ], [ 127.607989025427401, 36.79881021129809 ], [ 127.607403899245838, 36.799655581832639 ], [ 127.60739061616276, 36.799828443157402 ], [ 127.607417068198131, 36.801327516338283 ], [ 127.607424429021052, 36.801641643182499 ], [ 127.607494452087622, 36.802026865725267 ], [ 127.607668946364115, 36.802323809821047 ], [ 127.607989188155884, 36.802671609587406 ], [ 127.60821314049295, 36.802888983635974 ], [ 127.608315018154585, 36.80298866767577 ], [ 127.608373111907085, 36.803059962694959 ], [ 127.608397314328215, 36.803211710738779 ], [ 127.608180985544564, 36.80423036504542 ], [ 127.608122335111815, 36.804454146670011 ], [ 127.607957081535716, 36.805021251596344 ], [ 127.607914671802504, 36.805112596594995 ], [ 127.60782029587584, 36.805184677363577 ], [ 127.607677102125606, 36.80526351011909 ], [ 127.60634510716757, 36.80597542200146 ], [ 127.605146597689043, 36.80647184471465 ], [ 127.604391106183968, 36.806605853280359 ], [ 127.60429307972943, 36.806578142395239 ], [ 127.603820491694378, 36.806474227630147 ], [ 127.603702295706356, 36.806450852814976 ], [ 127.6035957675644, 36.806429798925826 ], [ 127.603506455785904, 36.806418861602531 ], [ 127.603408630411707, 36.806406882301509 ], [ 127.602717991299926, 36.806375664249295 ], [ 127.600770963586641, 36.806431049551421 ], [ 127.599479904570387, 36.806498293706461 ], [ 127.599235602435044, 36.806527738852324 ], [ 127.599029076702081, 36.806602535753861 ], [ 127.598776970722611, 36.806736147938295 ], [ 127.598605530234806, 36.806884545384719 ], [ 127.598559313100523, 36.806932681731418 ], [ 127.598511354982762, 36.806982643179659 ], [ 127.598483046959444, 36.807041382196708 ], [ 127.59848125169195, 36.807180231996185 ], [ 127.598493577197743, 36.807286478283594 ], [ 127.596691324209615, 36.810395940392169 ], [ 127.595165913694629, 36.811507898956933 ], [ 127.595113456557058, 36.81148046047214 ], [ 127.595051018282817, 36.811447816733498 ], [ 127.594905948472373, 36.811383799220529 ], [ 127.594629456634337, 36.811320958026258 ], [ 127.594457081756843, 36.811307655026596 ], [ 127.594210751817485, 36.811323047426384 ], [ 127.592953266921384, 36.811471901685216 ], [ 127.591599042737386, 36.811799212956544 ], [ 127.590505177546106, 36.812135356299187 ], [ 127.590251995357079, 36.812240764826775 ], [ 127.590098659382051, 36.812319122487182 ], [ 127.58995328298947, 36.812393422717086 ], [ 127.589596353198601, 36.81258127840043 ], [ 127.588668094826232, 36.813200747516149 ], [ 127.588534465004273, 36.813318725235789 ], [ 127.588472347715353, 36.813377802493811 ], [ 127.5883859142305, 36.813460030442322 ], [ 127.58829712825333, 36.813606599863675 ], [ 127.588263890687315, 36.81370082104646 ], [ 127.587780976472885, 36.818475563550358 ], [ 127.588199493150711, 36.819682512665963 ], [ 127.58880311620922, 36.821083741073693 ], [ 127.588811020006204, 36.821131225505482 ], [ 127.588801549013368, 36.82118497370486 ], [ 127.58878655354907, 36.821220346860578 ], [ 127.588521365800077, 36.821487120920601 ], [ 127.588256524059176, 36.821717982269682 ], [ 127.588217735532353, 36.821743453234149 ], [ 127.58806785668466, 36.821796288594676 ], [ 127.584714998191018, 36.823589640038719 ], [ 127.583263831251045, 36.824098378076044 ], [ 127.583184229996647, 36.824130592810398 ], [ 127.583112125927215, 36.824159791343348 ], [ 127.58304546414098, 36.824203004783087 ], [ 127.582976972457104, 36.824247418416455 ], [ 127.581716918855122, 36.825337179485416 ], [ 127.581583490159943, 36.825486494921535 ], [ 127.579586061259491, 36.828244690642805 ], [ 127.578990826717032, 36.829120326315774 ], [ 127.578072123671475, 36.829995928323761 ], [ 127.577881058855752, 36.830119030167609 ], [ 127.577698214510463, 36.830161208709129 ], [ 127.577433311237741, 36.830146997687478 ], [ 127.577221085511667, 36.83009640285929 ], [ 127.575288700740387, 36.829445890239427 ], [ 127.574860599278267, 36.829297397471429 ], [ 127.573689768897481, 36.828824700001228 ], [ 127.572425389717665, 36.828342923307602 ], [ 127.572339620021751, 36.828319423743928 ], [ 127.57202996995477, 36.828244411193737 ], [ 127.571046408818802, 36.828132020050887 ], [ 127.570840270241476, 36.828121040551359 ], [ 127.570662682979545, 36.828112329855379 ], [ 127.570147447011848, 36.828100457893889 ], [ 127.56996052713869, 36.828115690162008 ], [ 127.56982432467629, 36.828130672405671 ], [ 127.56964697640592, 36.828155417170066 ], [ 127.569567890790665, 36.828177311468458 ], [ 127.569520568870189, 36.82820861380727 ], [ 127.569485895061447, 36.828235069651221 ], [ 127.567402831435444, 36.829915901611791 ], [ 127.567377743517667, 36.82995187721901 ], [ 127.567365331738486, 36.829990173231621 ], [ 127.567372257152982, 36.830069024376549 ], [ 127.56738252962765, 36.830115500081604 ], [ 127.567434563114517, 36.830350801670058 ], [ 127.567514626740362, 36.830675511191558 ], [ 127.567612446162869, 36.831043170026923 ], [ 127.567663853255169, 36.831136156104847 ], [ 127.567750557243272, 36.831286320225658 ], [ 127.568181699056893, 36.831932067837798 ], [ 127.56882090736471, 36.832844546188973 ], [ 127.569322225322708, 36.833542543012271 ], [ 127.569434574915064, 36.833730846424139 ], [ 127.569463678555323, 36.833807193686191 ], [ 127.569473812554406, 36.833890805237971 ], [ 127.569469436485022, 36.834158552815488 ], [ 127.569454446953657, 36.83448850426511 ], [ 127.569436689417174, 36.834658314238688 ], [ 127.56927452624204, 36.835667835584488 ], [ 127.569125960914405, 36.836371321098895 ], [ 127.56907998247064, 36.836586679599897 ], [ 127.569030282306173, 36.836725565132333 ], [ 127.570345561131802, 36.840087330562667 ], [ 127.571849012751869, 36.8429414365919 ], [ 127.572264639627107, 36.845750539963987 ], [ 127.572211115180778, 36.849099754793919 ], [ 127.572125486006215, 36.84923852702633 ], [ 127.571861394915544, 36.849889270220139 ], [ 127.571821398916342, 36.849995142678971 ], [ 127.5718192406284, 36.850048954266846 ], [ 127.571839800413855, 36.850071914792885 ], [ 127.573319230542708, 36.850870704299759 ], [ 127.573526952069557, 36.850911476390877 ], [ 127.575666222192496, 36.850969205194019 ], [ 127.57588030875165, 36.850938521675019 ], [ 127.576077734492756, 36.85087627190287 ], [ 127.576253449643403, 36.850798635996455 ], [ 127.576583115435966, 36.850737749139725 ], [ 127.576985505232827, 36.850696724961537 ], [ 127.577142711591222, 36.850687887849034 ], [ 127.577342444080855, 36.850702415896841 ], [ 127.577643788712905, 36.85078447817844 ], [ 127.57792299467657, 36.850908429080356 ], [ 127.577975138082081, 36.850949947035957 ], [ 127.578058664734996, 36.851022280792087 ], [ 127.578128308808715, 36.851092011166671 ], [ 127.57820934298104, 36.851295059833035 ], [ 127.578226685739438, 36.851418258902797 ], [ 127.578298342418208, 36.851983774827666 ], [ 127.578303747647269, 36.852128584446781 ], [ 127.578294917643149, 36.852333413075975 ], [ 127.578239421164966, 36.852537131166173 ], [ 127.578108823453903, 36.852848322588073 ], [ 127.577911999053427, 36.85327325455718 ], [ 127.577984878889794, 36.853442226055328 ], [ 127.578127303410085, 36.853896984728756 ], [ 127.578248601635252, 36.854340020031309 ], [ 127.578294615002889, 36.854857904731496 ], [ 127.578257532134103, 36.855528590990602 ], [ 127.57821502753373, 36.85604013886968 ], [ 127.578211806848998, 36.856172222684542 ], [ 127.578255919870713, 36.856436143387128 ], [ 127.578351656194741, 36.856842032343494 ], [ 127.57847995959041, 36.8570987902634 ], [ 127.578637494037935, 36.857319834313152 ], [ 127.579011580589707, 36.857765002514 ], [ 127.579350729536884, 36.85804781927488 ], [ 127.580007088628022, 36.858495003201597 ], [ 127.58049752362524, 36.858726264559472 ], [ 127.580839161309811, 36.858778790000258 ], [ 127.581059944745462, 36.858726928051603 ], [ 127.581500663979725, 36.858511436362889 ], [ 127.581739531974648, 36.858343481901407 ], [ 127.58198262864083, 36.858178063464194 ], [ 127.582513288591585, 36.857877481626204 ], [ 127.582748297193803, 36.857757819246189 ], [ 127.582914146788525, 36.857685034832251 ], [ 127.583645367608042, 36.857444414794529 ], [ 127.583931347016303, 36.857380341755771 ], [ 127.584152299720643, 36.857351339579544 ], [ 127.584474452453662, 36.857334514215687 ], [ 127.58747122879852, 36.857253753496174 ], [ 127.590014749290802, 36.857396116839894 ], [ 127.59101637769146, 36.857538439951249 ], [ 127.591206361807465, 36.857592535438378 ], [ 127.59133285863193, 36.857607141194308 ], [ 127.591480194817024, 36.857591176548141 ], [ 127.591616666029097, 36.857534632564473 ], [ 127.591845293988797, 36.857408191628814 ], [ 127.591994119194368, 36.857314329660703 ], [ 127.592207827804117, 36.857164260468991 ], [ 127.592381561809546, 36.857022031349679 ], [ 127.592569941649856, 36.85686701140925 ], [ 127.59272463657544, 36.856713856435015 ], [ 127.594171288578806, 36.855021092075475 ], [ 127.594411170648243, 36.85471850816451 ], [ 127.594523706895245, 36.854560486616556 ], [ 127.595000663755584, 36.853863896115051 ], [ 127.5952254642105, 36.853517368030907 ], [ 127.595347855161023, 36.853274628019705 ], [ 127.595470064582543, 36.853006505469409 ], [ 127.597850917418882, 36.852024264143886 ], [ 127.602973367767845, 36.851953862586562 ], [ 127.603200514948298, 36.852002998283609 ], [ 127.606431184558488, 36.853377476349515 ], [ 127.611395525240809, 36.856496069046905 ], [ 127.611690953615366, 36.856721077672127 ], [ 127.612386774879226, 36.857322116757459 ], [ 127.612629913320234, 36.857562699258992 ], [ 127.61274006323886, 36.8576387937999 ], [ 127.613534954676908, 36.858094533239466 ], [ 127.613778008557276, 36.858180146361192 ], [ 127.61563032264597, 36.858691755286976 ], [ 127.615819248986597, 36.858709512290098 ], [ 127.616071088448408, 36.858723535913377 ], [ 127.616226706759647, 36.858703447076678 ], [ 127.616277120664535, 36.85869693066946 ], [ 127.616469905953096, 36.858612473077855 ], [ 127.616648074925251, 36.858451461871525 ], [ 127.616953302692281, 36.85814843140799 ], [ 127.617354115418337, 36.857705254358933 ], [ 127.617402596351894, 36.857647094504422 ], [ 127.617419389556531, 36.857561844486284 ], [ 127.616968839036531, 36.856308947847388 ], [ 127.616803864086378, 36.855935127675437 ], [ 127.61600296700253, 36.854145868479065 ], [ 127.615934385867135, 36.854020197292741 ], [ 127.615727466598216, 36.853646575032926 ], [ 127.615409825961692, 36.85312196452 ], [ 127.61529240562281, 36.853010167915087 ], [ 127.615217574787465, 36.852979883640117 ], [ 127.615094098495177, 36.852983943557362 ], [ 127.614907724959011, 36.852991697065086 ], [ 127.61476343768949, 36.853018003270464 ], [ 127.614532756141642, 36.853022603265302 ], [ 127.614428884591419, 36.853002692582223 ], [ 127.61434229095218, 36.852955452608704 ], [ 127.612893525684839, 36.851289356989639 ], [ 127.612730094299408, 36.851059712398765 ], [ 127.611430585313101, 36.848244105362618 ], [ 127.611388058801651, 36.848141652185731 ], [ 127.611326489196102, 36.8479366399554 ], [ 127.611312688629653, 36.84783402822778 ], [ 127.611332562544405, 36.847716603632605 ], [ 127.611839988749736, 36.84531914320366 ], [ 127.611868207060198, 36.845262416243891 ], [ 127.612750027340013, 36.844065698244471 ], [ 127.612931351534172, 36.843962794147807 ], [ 127.613430637040651, 36.839209629296327 ], [ 127.613492487081658, 36.836177485471403 ], [ 127.613527131341385, 36.834964142068081 ], [ 127.613549724660032, 36.834857176688793 ], [ 127.613608519976992, 36.834714387551074 ], [ 127.613716889740161, 36.834577648503341 ], [ 127.613911167471258, 36.834432077433725 ], [ 127.614123854053318, 36.834307352844412 ], [ 127.61425371432729, 36.834252200735804 ], [ 127.614350101742133, 36.834249618219168 ], [ 127.614639455546424, 36.834262798489235 ], [ 127.615728947336564, 36.834313000462608 ], [ 127.615938489654326, 36.834347465861775 ], [ 127.616457165593914, 36.834439888550889 ], [ 127.616671430148557, 36.834512128539551 ], [ 127.616867593195863, 36.83460117667056 ], [ 127.617040934869834, 36.834718306023788 ], [ 127.617242461655636, 36.834880029074398 ], [ 127.617757420394554, 36.835403260163105 ], [ 127.617875982311205, 36.835566059481124 ], [ 127.617952744891113, 36.835714446924499 ], [ 127.618083074139804, 36.836042699591786 ], [ 127.618149461149429, 36.836197409274277 ], [ 127.618241462512103, 36.836295410080332 ], [ 127.618327985436679, 36.836362005538646 ], [ 127.618469383099978, 36.836445085487526 ], [ 127.618594885730886, 36.836498908677015 ], [ 127.620071282725206, 36.836933808185904 ], [ 127.620292808778146, 36.836982796254439 ], [ 127.621025275910142, 36.837102041795482 ], [ 127.621870910086017, 36.837187966737638 ], [ 127.622848828764674, 36.837281809968609 ], [ 127.623257835311293, 36.837296614231043 ], [ 127.623440149089589, 36.83732084222212 ], [ 127.624609358071865, 36.837574526786057 ], [ 127.624727112744623, 36.837606979626173 ], [ 127.624782199931374, 36.837639762267926 ], [ 127.624847287893871, 36.837696103238855 ], [ 127.624989603116916, 36.837857528155247 ], [ 127.625132389893622, 36.838078796286844 ], [ 127.625719166287737, 36.839436160500945 ], [ 127.625783190169756, 36.839604314594602 ], [ 127.625946059951573, 36.84012622030788 ], [ 127.625998605946734, 36.840325920628551 ], [ 127.625978633705756, 36.840519694917901 ], [ 127.625957853818903, 36.84061429069861 ], [ 127.62593677974381, 36.840671090094652 ], [ 127.625943567867012, 36.840782843125226 ], [ 127.626030936301973, 36.841412228389842 ], [ 127.626189989842942, 36.841946755476002 ], [ 127.626357552450969, 36.842322202310825 ], [ 127.626440843128321, 36.842449301641004 ], [ 127.626520081698331, 36.842560691763147 ], [ 127.626565387065654, 36.842591945154261 ], [ 127.631119956773802, 36.84512977986136 ], [ 127.635387702834038, 36.847054849430243 ], [ 127.635560599237905, 36.84712163489489 ], [ 127.635727316167461, 36.847150657560633 ], [ 127.637840099287786, 36.847296257145132 ] ] ] ] } }
]
}
