{
"type": "FeatureCollection",
"name": "jincheongun",
"crs": { "type": "name", "properties": { "name": "urn:ogc:def:crs:OGC:1.3:CRS84" } },
"features": [
{ "type": "Feature", "properties": { "OBJECTID": 1977, "adm_nm": "충청북도 진천군 진천읍", "adm_cd": "3335011", "adm_cd2": "4375025000", "sgg": "43750", "sido": "43", "sidonm": "충청북도", "sggnm": "진천군" }, "geometry": { "type": "MultiPolygon", "coordinates": [ [ [ [ 127.472352819510803, 36.883238922689827 ], [ 127.47209450854595, 36.882890135833875 ], [ 127.47198914369875, 36.882417252487919 ], [ 127.471955824177897, 36.88116211443463 ], [ 127.472250384272385, 36.880699056157511 ], [ 127.472336396235136, 36.880563842621022 ], [ 127.474118544642138, 36.878787049297117 ], [ 127.476998188172018, 36.876388498900397 ], [ 127.477194038190817, 36.874926684604688 ], [ 127.478281979118549, 36.872761615972607 ], [ 127.483687894190538, 36.868932863961817 ], [ 127.486142025265863, 36.868202649686971 ], [ 127.487191036148801, 36.868033750260295 ], [ 127.488753158665858, 36.868006757177533 ], [ 127.490571674650354, 36.868019886496327 ], [ 127.493686553060272, 36.866504812514279 ], [ 127.494324572211767, 36.866152341888082 ], [ 127.494192952990744, 36.865597266666676 ], [ 127.49406226244956, 36.865186254175036 ], [ 127.491478258479717, 36.861911033291065 ], [ 127.486188588732887, 36.855299972935939 ], [ 127.485728404209127, 36.854761013773135 ], [ 127.484564974279408, 36.853398431812437 ], [ 127.48225825096597, 36.851196293219758 ], [ 127.482253979910382, 36.850980868442612 ], [ 127.482341221168653, 36.85055626766809 ], [ 127.483190657549173, 36.849794614389353 ], [ 127.485391014699147, 36.848588501277881 ], [ 127.485116052026811, 36.847079466983054 ], [ 127.484496077810661, 36.847242798329191 ], [ 127.482893600789325, 36.847641875769021 ], [ 127.482296623661455, 36.847027390482317 ], [ 127.481489780344333, 36.846329636355868 ], [ 127.481415076579779, 36.846385228045747 ], [ 127.479822788180329, 36.847570145050398 ], [ 127.478709612236841, 36.848107404993804 ], [ 127.477883448139295, 36.848200626214776 ], [ 127.476447918696053, 36.848362609857737 ], [ 127.474922094602775, 36.848481054200846 ], [ 127.474292958517182, 36.848502294478315 ], [ 127.471857289086216, 36.848474494212482 ], [ 127.471121514699661, 36.84820580167748 ], [ 127.470206820353638, 36.847263524048884 ], [ 127.469724319546799, 36.846488103326628 ], [ 127.469568158401458, 36.845720751524119 ], [ 127.468247559042311, 36.845089101970501 ], [ 127.466694583255801, 36.844561358784702 ], [ 127.463132190689322, 36.843450169251589 ], [ 127.461921849236518, 36.843418654693245 ], [ 127.459207475667966, 36.843522782395446 ], [ 127.458625216454777, 36.843581216182116 ], [ 127.458486054048919, 36.843694128657312 ], [ 127.458510964047804, 36.843965633871299 ], [ 127.458630455690781, 36.844461532627683 ], [ 127.456963548269599, 36.845230676091582 ], [ 127.456383290392239, 36.845466097124628 ], [ 127.456027659783928, 36.845586290244967 ], [ 127.453456735805432, 36.846438673781918 ], [ 127.45300310221954, 36.846580881005501 ], [ 127.452454014265882, 36.846339460050515 ], [ 127.452159393550815, 36.84577866046304 ], [ 127.452190336754271, 36.845094867377931 ], [ 127.452278448070345, 36.844223550653766 ], [ 127.451529968365719, 36.841572021424497 ], [ 127.451515050521095, 36.841530803876857 ], [ 127.451345041002909, 36.841330989165982 ], [ 127.451012918781245, 36.8410254014915 ], [ 127.450673925749015, 36.840839373408336 ], [ 127.448921159687401, 36.839984374158234 ], [ 127.447403892238157, 36.839549912148172 ], [ 127.445513207929324, 36.83901378021924 ], [ 127.445361537237147, 36.838976896489143 ], [ 127.443918855606285, 36.839347533703481 ], [ 127.44148374931433, 36.838032753566793 ], [ 127.436213940474957, 36.834523888046029 ], [ 127.43360722583823, 36.830233604770598 ], [ 127.433499074930282, 36.829930357888287 ], [ 127.433439935615951, 36.829128786578828 ], [ 127.433626821356242, 36.828792602612538 ], [ 127.433912401237649, 36.826819401879611 ], [ 127.433783983037756, 36.823437181305103 ], [ 127.43217190481684, 36.822538657638297 ], [ 127.431265902014744, 36.822170494563444 ], [ 127.430702465526423, 36.821994884846113 ], [ 127.430140296122019, 36.822045360941019 ], [ 127.429538487978832, 36.82219287575861 ], [ 127.428998466432262, 36.822614709235509 ], [ 127.428599140263856, 36.823052181455147 ], [ 127.42779770400449, 36.823426497955253 ], [ 127.423764895500369, 36.824501987832996 ], [ 127.423456820717718, 36.824203178159365 ], [ 127.42356569173414, 36.822816705024813 ], [ 127.422503228899245, 36.820254359945139 ], [ 127.421230512216567, 36.817570978928735 ], [ 127.421340055239895, 36.812035653210224 ], [ 127.422880906103771, 36.810013388084123 ], [ 127.420877508101697, 36.80722784024649 ], [ 127.41704839190092, 36.804730935030094 ], [ 127.415258766200836, 36.803661311279413 ], [ 127.414411279926398, 36.802707935298237 ], [ 127.414061010145062, 36.802071603552598 ], [ 127.413810061883353, 36.801474771348708 ], [ 127.413015573651919, 36.801158748651112 ], [ 127.411975899868494, 36.801321729077785 ], [ 127.410096217979373, 36.801925904578475 ], [ 127.407469267908354, 36.801775511028112 ], [ 127.40165465494141, 36.800019442932907 ], [ 127.401011249680451, 36.799091490810511 ], [ 127.398721956037207, 36.799315396010051 ], [ 127.39862974010893, 36.799336894209297 ], [ 127.397775658542869, 36.799740766858001 ], [ 127.397684079450116, 36.799800353005686 ], [ 127.393229561544345, 36.804043654791961 ], [ 127.3931615133191, 36.80412490378221 ], [ 127.392022568587649, 36.805864130277911 ], [ 127.388190538313623, 36.808379532469466 ], [ 127.387961636516692, 36.808516393018515 ], [ 127.386309015469635, 36.809892665215997 ], [ 127.384875957652937, 36.811288838403101 ], [ 127.384843508800714, 36.811374865028618 ], [ 127.38480240981778, 36.811556258910116 ], [ 127.384726781281202, 36.811737997924865 ], [ 127.384598597584443, 36.811881002873648 ], [ 127.382757424090173, 36.813282082771259 ], [ 127.382519234663718, 36.813430877960855 ], [ 127.382390678177387, 36.813499358229137 ], [ 127.38209725974059, 36.813629919776133 ], [ 127.381739385528178, 36.813766990039746 ], [ 127.381679120836026, 36.813790065439726 ], [ 127.37817195394004, 36.814869861175659 ], [ 127.378093255995296, 36.814893743417031 ], [ 127.377966812895622, 36.814932097507942 ], [ 127.372405945233581, 36.816437395803028 ], [ 127.370465323634647, 36.81672609221463 ], [ 127.370307967482887, 36.816726580581111 ], [ 127.370196032003463, 36.816700277953366 ], [ 127.37002993902513, 36.816607497519719 ], [ 127.369705857733734, 36.816381952007916 ], [ 127.369497627902675, 36.816264660551816 ], [ 127.369306409240281, 36.816220126160466 ], [ 127.369176925476538, 36.816226931415436 ], [ 127.368750538555247, 36.816258238403435 ], [ 127.368523016699896, 36.816305584698902 ], [ 127.366581091408889, 36.816850616025881 ], [ 127.366519532972035, 36.81688122757901 ], [ 127.36645301217321, 36.816914316176032 ], [ 127.366374663002958, 36.816984526604777 ], [ 127.365709170210863, 36.817791865503416 ], [ 127.365396667548481, 36.818254719896863 ], [ 127.365343566248725, 36.818408140437278 ], [ 127.365281847008461, 36.818494963213645 ], [ 127.365191190120342, 36.818588510572816 ], [ 127.364999385925458, 36.818743993046368 ], [ 127.363967893763629, 36.819453460589394 ], [ 127.363806914012926, 36.819563893871255 ], [ 127.361582950364152, 36.820233189452786 ], [ 127.361388408532264, 36.820257100592187 ], [ 127.360888878867343, 36.820258480663874 ], [ 127.357957135263675, 36.822125158113629 ], [ 127.357256931835096, 36.822953029426884 ], [ 127.356996559562688, 36.823403937911451 ], [ 127.357030631835997, 36.823705824964769 ], [ 127.357363394384507, 36.824681278621007 ], [ 127.3576649753997, 36.824979164380487 ], [ 127.357709679649773, 36.825023314132181 ], [ 127.357843057186159, 36.825471545108229 ], [ 127.357095563239042, 36.827096819131107 ], [ 127.356818292603535, 36.827480301989823 ], [ 127.355838037674019, 36.8284728746005 ], [ 127.354178841419156, 36.829183976695653 ], [ 127.35177384558439, 36.829910006581414 ], [ 127.351324946409278, 36.830043370007118 ], [ 127.350921439554185, 36.83016322516864 ], [ 127.350560447716987, 36.830190679651821 ], [ 127.348506849969482, 36.829800821063067 ], [ 127.347997114990974, 36.829604387895124 ], [ 127.347288979862668, 36.829091834306695 ], [ 127.346975752003345, 36.828789254093323 ], [ 127.346749578256151, 36.82868355773897 ], [ 127.346498710623479, 36.828566326343051 ], [ 127.345972957074949, 36.828449086613361 ], [ 127.342334184785145, 36.829620760064458 ], [ 127.341137925848514, 36.830072824279071 ], [ 127.33948296624628, 36.830737314532158 ], [ 127.338020799490735, 36.83045113848808 ], [ 127.337632970991308, 36.83021903146242 ], [ 127.33598138419697, 36.829533224875703 ], [ 127.334014262673378, 36.830145728795202 ], [ 127.333510606995887, 36.830575475450395 ], [ 127.33340916917993, 36.83066202751413 ], [ 127.333138988108956, 36.831185020917601 ], [ 127.332985929313182, 36.831481317625546 ], [ 127.333912104981835, 36.833088564755165 ], [ 127.334604683836588, 36.833812371710216 ], [ 127.334873394338572, 36.835210318474026 ], [ 127.335192564349413, 36.836885213470488 ], [ 127.335089703758825, 36.837065725672957 ], [ 127.334029910636616, 36.83754822857243 ], [ 127.333522216213453, 36.837826765163094 ], [ 127.333625486735528, 36.838934864312392 ], [ 127.333858530726246, 36.839673126045959 ], [ 127.335304642492673, 36.843786002435372 ], [ 127.335700322904117, 36.844167562501696 ], [ 127.336026445621698, 36.844374218513735 ], [ 127.336260071892639, 36.844522253769796 ], [ 127.336573619532317, 36.844890828418315 ], [ 127.33672442173085, 36.845589765125908 ], [ 127.336586919673621, 36.847938910917186 ], [ 127.336540826343551, 36.848664770277708 ], [ 127.336296046708156, 36.84900853703779 ], [ 127.336117686670818, 36.849523647030587 ], [ 127.336022789135555, 36.850355214764669 ], [ 127.336214496641745, 36.852901346417163 ], [ 127.336595053714575, 36.853603716863049 ], [ 127.337075159913638, 36.853525130842328 ], [ 127.337555277455024, 36.853446552812024 ], [ 127.340267939807987, 36.853068444267429 ], [ 127.343729472920316, 36.854108030767904 ], [ 127.345089942567284, 36.854844912237439 ], [ 127.346681643742173, 36.855745740936023 ], [ 127.347156577332171, 36.856011884182138 ], [ 127.347631532163916, 36.856278027352253 ], [ 127.351733971609377, 36.85741839254343 ], [ 127.355040317913591, 36.858046528760468 ], [ 127.356192487231283, 36.858001948193433 ], [ 127.356243710196154, 36.857868476322338 ], [ 127.356572025197877, 36.857013046573762 ], [ 127.356915362020871, 36.856565933974167 ], [ 127.357284751957408, 36.856084891673056 ], [ 127.358558322528921, 36.854620032733486 ], [ 127.358901767069426, 36.854331654987625 ], [ 127.359247024570209, 36.854041758510746 ], [ 127.359911167493635, 36.85368992441208 ], [ 127.364725125026709, 36.852350201151417 ], [ 127.367637460100241, 36.852225915136223 ], [ 127.368610494096771, 36.852222912760013 ], [ 127.372602639707409, 36.851716618881859 ], [ 127.372908463577843, 36.851417291182202 ], [ 127.374931462441225, 36.851441811146714 ], [ 127.375188827816345, 36.851708516818498 ], [ 127.377144527834119, 36.853677878408121 ], [ 127.377556045828385, 36.854046984002665 ], [ 127.37907058719118, 36.854803581277274 ], [ 127.379428572027408, 36.854699553527965 ], [ 127.379753429516185, 36.854510015225976 ], [ 127.380066920585108, 36.854327104749594 ], [ 127.383423441098273, 36.854727937435193 ], [ 127.38398935818536, 36.855240580615899 ], [ 127.384226617196035, 36.855557902951361 ], [ 127.384123434650789, 36.856454259136186 ], [ 127.383947563520834, 36.857133902477791 ], [ 127.383770264384253, 36.857525474017052 ], [ 127.383263320689593, 36.858576590036463 ], [ 127.382930831079932, 36.858659959461043 ], [ 127.382624557558543, 36.858866733604707 ], [ 127.381733974131308, 36.860021959267996 ], [ 127.382638147981424, 36.861603588119053 ], [ 127.383177373894384, 36.861889957152712 ], [ 127.384409069945178, 36.86237987079182 ], [ 127.38537316301074, 36.862668241447267 ], [ 127.38617879532741, 36.862909196128633 ], [ 127.386795396937686, 36.863298180446989 ], [ 127.388260329498848, 36.86432233524031 ], [ 127.389782147394044, 36.866457502801822 ], [ 127.390069178488687, 36.867506062517656 ], [ 127.389790887454112, 36.868186045779119 ], [ 127.389871894709657, 36.869008901010012 ], [ 127.390287823734639, 36.870221669591757 ], [ 127.39116426609769, 36.87133001543058 ], [ 127.391881312904118, 36.87130708403248 ], [ 127.392732606037185, 36.872497829433968 ], [ 127.393407477718171, 36.87424473849962 ], [ 127.393489045293251, 36.874555056864331 ], [ 127.393564204475865, 36.874840996601662 ], [ 127.393393216739099, 36.876467238465139 ], [ 127.392600644955692, 36.876757937560129 ], [ 127.392252645547785, 36.878837467345782 ], [ 127.392914747956041, 36.883094970271131 ], [ 127.393228340330836, 36.884308055392609 ], [ 127.399288170886649, 36.88704539124393 ], [ 127.404595862951751, 36.887953518663153 ], [ 127.406030892504958, 36.888030956249594 ], [ 127.406235525437722, 36.887968522334923 ], [ 127.407372662359904, 36.88713843413165 ], [ 127.406910993169092, 36.884900081781034 ], [ 127.406580432077902, 36.880518065466923 ], [ 127.407318822215387, 36.879671834697049 ], [ 127.407461200630479, 36.8795508334671 ], [ 127.40879934942204, 36.87869960861245 ], [ 127.410817978788927, 36.877766646238136 ], [ 127.411560794209748, 36.877764085884294 ], [ 127.417326488919471, 36.878196782308294 ], [ 127.417942352147264, 36.878400402104873 ], [ 127.419739295279413, 36.879114326258794 ], [ 127.422996229954279, 36.879802485886792 ], [ 127.423304187781682, 36.879658249335378 ], [ 127.423737365375587, 36.879491179065361 ], [ 127.428729177746646, 36.878917728231187 ], [ 127.429349449008711, 36.879903260387941 ], [ 127.42950725677025, 36.880643482425199 ], [ 127.43006800920611, 36.881173459866815 ], [ 127.430096091123943, 36.881198059226172 ], [ 127.430305466566224, 36.88138142214688 ], [ 127.430662831297823, 36.881153792367044 ], [ 127.431173184710815, 36.88080212264282 ], [ 127.431580959552917, 36.880430222403646 ], [ 127.433619392396864, 36.878509064886238 ], [ 127.435153221807354, 36.876667407477285 ], [ 127.435730711788111, 36.875908517397008 ], [ 127.436698199233675, 36.874876071434642 ], [ 127.441015657385108, 36.872905266290743 ], [ 127.441384814516894, 36.872938418103566 ], [ 127.441424250093064, 36.872943519088395 ], [ 127.441536766511447, 36.874446699369585 ], [ 127.441594965616403, 36.875660605864894 ], [ 127.441585870899331, 36.878541562501553 ], [ 127.441748296776055, 36.880063750459868 ], [ 127.44263526197264, 36.887303962988369 ], [ 127.442844458770566, 36.888043985714695 ], [ 127.444160817519062, 36.888208296845178 ], [ 127.445932814346435, 36.88838258602091 ], [ 127.446176916830439, 36.888401968243095 ], [ 127.448601251423582, 36.886787788471416 ], [ 127.450638821479231, 36.884763445211249 ], [ 127.452628328892658, 36.88329486075493 ], [ 127.454516742152549, 36.882073581941732 ], [ 127.455806808256256, 36.883632586101349 ], [ 127.459773084250855, 36.887197929189362 ], [ 127.461523333507927, 36.888569900752046 ], [ 127.462946304643964, 36.890889712331017 ], [ 127.463290187990566, 36.891938469709139 ], [ 127.463524427693031, 36.893295105518447 ], [ 127.463835180839169, 36.893454900301457 ], [ 127.463961320849819, 36.893519761650225 ], [ 127.466079942205212, 36.892215028183927 ], [ 127.46689570123371, 36.891553391444795 ], [ 127.467987916691143, 36.890005755744085 ], [ 127.468442025344174, 36.888851607568363 ], [ 127.46905273359117, 36.888170108547214 ], [ 127.470511035792029, 36.887855697671789 ], [ 127.470815424022973, 36.887360623352983 ], [ 127.472382605755485, 36.883917901670834 ], [ 127.472352819510803, 36.883238922689827 ] ] ] ] } },
{ "type": "Feature", "properties": { "OBJECTID": 1978, "adm_nm": "충청북도 진천군 덕산읍", "adm_cd": "3335012", "adm_cd2": "4375025300", "sgg": "43750", "sido": "43", "sidonm": "충청북도", "sggnm": "진천군" }, "geometry": { "type": "MultiPolygon", "coordinates": [ [ [ [ 127.511352992376828, 36.930897666543153 ], [ 127.51171701804752, 36.930579250432501 ], [ 127.514695717419016, 36.927882998355287 ], [ 127.519861939643675, 36.923169270732053 ], [ 127.520060766455856, 36.922869770472758 ], [ 127.520340988451139, 36.922447643686532 ], [ 127.522611118730609, 36.918912031352043 ], [ 127.522926656962326, 36.917874525549188 ], [ 127.523003877621974, 36.91692407901818 ], [ 127.523198697807032, 36.915714766272849 ], [ 127.525663610152733, 36.911333555874151 ], [ 127.527142938793787, 36.910703872554379 ], [ 127.529995396034849, 36.911151705397408 ], [ 127.531682781063282, 36.911561509389593 ], [ 127.532457938429303, 36.912220014121793 ], [ 127.534644626295332, 36.912267785848996 ], [ 127.535554954738245, 36.9117456458061 ], [ 127.536000354242276, 36.911369486271624 ], [ 127.537227932840594, 36.910324532619235 ], [ 127.537567258419557, 36.909923366864732 ], [ 127.538918661154298, 36.908420648793104 ], [ 127.541515327561598, 36.905631503637231 ], [ 127.542445477205192, 36.905397021450746 ], [ 127.543262720677077, 36.905232055668662 ], [ 127.543741643446126, 36.905194576206512 ], [ 127.544735522514202, 36.904981698392277 ], [ 127.544795949354622, 36.904968754134948 ], [ 127.544968342169298, 36.904867455349951 ], [ 127.546348055699042, 36.902719577577912 ], [ 127.546061971568932, 36.901852443195011 ], [ 127.545888792876468, 36.900747542761799 ], [ 127.549597654898506, 36.898212138264057 ], [ 127.550795414968306, 36.897832466238583 ], [ 127.551672314105318, 36.897684495947225 ], [ 127.55203085595754, 36.897711633842967 ], [ 127.553055532632328, 36.898181749217187 ], [ 127.553664925721264, 36.898207700774002 ], [ 127.553733097188982, 36.898124544686652 ], [ 127.553913583913456, 36.897904350230625 ], [ 127.554996121561985, 36.896460262066817 ], [ 127.551914404602599, 36.893970610360647 ], [ 127.551640504982615, 36.893252359691303 ], [ 127.550472140807116, 36.890221350372542 ], [ 127.549320647176586, 36.889535918656314 ], [ 127.548537507035022, 36.890259052189421 ], [ 127.548525344279525, 36.891064980898427 ], [ 127.546398841574245, 36.891837452470369 ], [ 127.545485552495464, 36.891899201267073 ], [ 127.544749381674194, 36.891672307615273 ], [ 127.54095430778122, 36.88702705867388 ], [ 127.53743223490109, 36.882927298370859 ], [ 127.536806109122082, 36.880483707305913 ], [ 127.536741608032685, 36.878944199166803 ], [ 127.536396357646936, 36.87824062013113 ], [ 127.535568275325218, 36.877654329519167 ], [ 127.534597407083936, 36.877140631572445 ], [ 127.533983107199859, 36.8763806846083 ], [ 127.533868741585948, 36.875388231236386 ], [ 127.534663564377752, 36.873772924705612 ], [ 127.534182542113768, 36.873571069797862 ], [ 127.534052786250896, 36.873516628081774 ], [ 127.532046517721099, 36.873496832772872 ], [ 127.530884763634447, 36.873861761058912 ], [ 127.529547358235561, 36.874731165500791 ], [ 127.527202898755931, 36.875272322969941 ], [ 127.524592413138862, 36.875717232297475 ], [ 127.523983302776017, 36.87570552779458 ], [ 127.522500089028398, 36.875122958723885 ], [ 127.520943901733759, 36.873280364354613 ], [ 127.519569824994548, 36.872012079685909 ], [ 127.518083654163547, 36.87183394723732 ], [ 127.51543442552564, 36.872492549725756 ], [ 127.512057445237758, 36.873584381253167 ], [ 127.511414745053258, 36.873903720986974 ], [ 127.509464767128719, 36.874271856494509 ], [ 127.508085958083925, 36.874335282407564 ], [ 127.504606019197553, 36.873572964658166 ], [ 127.503333577670006, 36.87072901220094 ], [ 127.503845735747561, 36.869618764253815 ], [ 127.505665993823257, 36.868603703703315 ], [ 127.506860186145687, 36.865000968188404 ], [ 127.506625571939125, 36.864728555612821 ], [ 127.503579588071901, 36.861791374833068 ], [ 127.498577743705624, 36.863755138428459 ], [ 127.495078747249963, 36.865510990618297 ], [ 127.494324572211767, 36.866152341888082 ], [ 127.493686553060272, 36.866504812514279 ], [ 127.490571674650354, 36.868019886496327 ], [ 127.488753158665858, 36.868006757177533 ], [ 127.487191036148801, 36.868033750260295 ], [ 127.486142025265863, 36.868202649686971 ], [ 127.483687894190538, 36.868932863961817 ], [ 127.478281979118549, 36.872761615972607 ], [ 127.477194038190817, 36.874926684604688 ], [ 127.476998188172018, 36.876388498900397 ], [ 127.474118544642138, 36.878787049297117 ], [ 127.472336396235136, 36.880563842621022 ], [ 127.472250384272385, 36.880699056157511 ], [ 127.471955824177897, 36.88116211443463 ], [ 127.47198914369875, 36.882417252487919 ], [ 127.47209450854595, 36.882890135833875 ], [ 127.472352819510803, 36.883238922689827 ], [ 127.47368181802598, 36.885549684930936 ], [ 127.476646751143392, 36.890013043751253 ], [ 127.476598848997966, 36.890758547753428 ], [ 127.476061980794654, 36.89170285936931 ], [ 127.475721141481415, 36.893208873621205 ], [ 127.475309278777388, 36.897387012814086 ], [ 127.475966210140527, 36.898860917594412 ], [ 127.476601981229464, 36.899796668032984 ], [ 127.477042799769137, 36.900234722065107 ], [ 127.477406039308377, 36.90050874661695 ], [ 127.478349568111582, 36.900821122460989 ], [ 127.480189030548274, 36.901625915331493 ], [ 127.480326061098069, 36.901685867023353 ], [ 127.481376176, 36.90226069673119 ], [ 127.483648596555966, 36.903973051725856 ], [ 127.48363455115728, 36.907424659534016 ], [ 127.486771230401487, 36.907465557166255 ], [ 127.488555261536391, 36.909891025573579 ], [ 127.488609317275319, 36.910129861795568 ], [ 127.487865617501427, 36.911595368984706 ], [ 127.487139053486359, 36.913004582478855 ], [ 127.486827231118909, 36.913540206187371 ], [ 127.485382880280426, 36.914994510391736 ], [ 127.484615904083469, 36.915560122171151 ], [ 127.483553474530851, 36.916492533101263 ], [ 127.482860375160826, 36.917487487053279 ], [ 127.477399873291162, 36.925650809991481 ], [ 127.479297674065052, 36.928116627417253 ], [ 127.479527125007422, 36.928270091932703 ], [ 127.47965470961563, 36.928365945611674 ], [ 127.479974216442727, 36.928606004781095 ], [ 127.48024037267848, 36.928855803441458 ], [ 127.480411576035152, 36.929308604072787 ], [ 127.481713450113389, 36.933065234799315 ], [ 127.481350867365563, 36.933675665902726 ], [ 127.482697065516916, 36.934551243594669 ], [ 127.482774997182545, 36.93468139227042 ], [ 127.482903038617877, 36.935176021731969 ], [ 127.482899357996416, 36.93524965727746 ], [ 127.482862315762489, 36.935548820683543 ], [ 127.482837553059255, 36.936347414966853 ], [ 127.48290282723066, 36.93646420486624 ], [ 127.483293514506244, 36.936987946725985 ], [ 127.483524030918559, 36.937214527470715 ], [ 127.483641172725626, 36.937294335731877 ], [ 127.485496735554634, 36.938226988728708 ], [ 127.490499333683516, 36.938785341791309 ], [ 127.490761841267826, 36.938794349978814 ], [ 127.491278365327233, 36.938785461949358 ], [ 127.491486470439924, 36.938764511972721 ], [ 127.491600726795625, 36.938710507790425 ], [ 127.494149826925337, 36.937341603299345 ], [ 127.49502742553139, 36.936805956907754 ], [ 127.498480050677713, 36.934798616972181 ], [ 127.49980914474078, 36.934074211739315 ], [ 127.502016363941038, 36.933394356741061 ], [ 127.507063050127016, 36.931599743644504 ], [ 127.510219609149487, 36.930395750896906 ], [ 127.511352992376828, 36.930897666543153 ] ] ] ] } },
{ "type": "Feature", "properties": { "OBJECTID": 1979, "adm_nm": "충청북도 진천군 초평면", "adm_cd": "3335032", "adm_cd2": "4375032000", "sgg": "43750", "sido": "43", "sidonm": "충청북도", "sggnm": "진천군" }, "geometry": { "type": "MultiPolygon", "coordinates": [ [ [ [ 127.581794362827722, 36.876517673316918 ], [ 127.583331298342202, 36.8756359750112 ], [ 127.584552176261823, 36.874491848316389 ], [ 127.585135897412229, 36.870408837766142 ], [ 127.584970633979239, 36.869765404686298 ], [ 127.584645828554827, 36.869230137046735 ], [ 127.581684965699225, 36.866474417720731 ], [ 127.579942937920237, 36.865838673419276 ], [ 127.578686999952581, 36.865866258828042 ], [ 127.577243501253022, 36.865830296185436 ], [ 127.57627094182314, 36.864439166833741 ], [ 127.577147862483599, 36.863769215623257 ], [ 127.577650639773992, 36.863101071433334 ], [ 127.577077504495378, 36.861514720535759 ], [ 127.57607825935446, 36.860123726663353 ], [ 127.575157795820004, 36.858539042441016 ], [ 127.575152339036009, 36.857808946323402 ], [ 127.575627238262726, 36.856990610314313 ], [ 127.577911999053427, 36.85327325455718 ], [ 127.578108823453903, 36.852848322588073 ], [ 127.578239421164966, 36.852537131166173 ], [ 127.578294917643149, 36.852333413075975 ], [ 127.578303747647269, 36.852128584446781 ], [ 127.578298342418208, 36.851983774827666 ], [ 127.578226685739438, 36.851418258902797 ], [ 127.57820934298104, 36.851295059833035 ], [ 127.578128308808715, 36.851092011166671 ], [ 127.578058664734996, 36.851022280792087 ], [ 127.577975138082081, 36.850949947035957 ], [ 127.57792299467657, 36.850908429080356 ], [ 127.577643788712905, 36.85078447817844 ], [ 127.577342444080855, 36.850702415896841 ], [ 127.577142711591222, 36.850687887849034 ], [ 127.576985505232827, 36.850696724961537 ], [ 127.576583115435966, 36.850737749139725 ], [ 127.576253449643403, 36.850798635996455 ], [ 127.576077734492756, 36.85087627190287 ], [ 127.57588030875165, 36.850938521675019 ], [ 127.575666222192496, 36.850969205194019 ], [ 127.573526952069557, 36.850911476390877 ], [ 127.573319230542708, 36.850870704299759 ], [ 127.571839800413855, 36.850071914792885 ], [ 127.5718192406284, 36.850048954266846 ], [ 127.571821398916342, 36.849995142678971 ], [ 127.571861394915544, 36.849889270220139 ], [ 127.572125486006215, 36.84923852702633 ], [ 127.572211115180778, 36.849099754793919 ], [ 127.572264639627107, 36.845750539963987 ], [ 127.571849012751869, 36.8429414365919 ], [ 127.570345561131802, 36.840087330562667 ], [ 127.569030282306173, 36.836725565132333 ], [ 127.56907998247064, 36.836586679599897 ], [ 127.569125960914405, 36.836371321098895 ], [ 127.56927452624204, 36.835667835584488 ], [ 127.569436689417174, 36.834658314238688 ], [ 127.569454446953657, 36.83448850426511 ], [ 127.569469436485022, 36.834158552815488 ], [ 127.569473812554406, 36.833890805237971 ], [ 127.569463678555323, 36.833807193686191 ], [ 127.569434574915064, 36.833730846424139 ], [ 127.569322225322708, 36.833542543012271 ], [ 127.56882090736471, 36.832844546188973 ], [ 127.568181699056893, 36.831932067837798 ], [ 127.567750557243272, 36.831286320225658 ], [ 127.567663853255169, 36.831136156104847 ], [ 127.567612446162869, 36.831043170026923 ], [ 127.567514626740362, 36.830675511191558 ], [ 127.567434563114517, 36.830350801670058 ], [ 127.56738252962765, 36.830115500081604 ], [ 127.567372257152982, 36.830069024376549 ], [ 127.567365331738486, 36.829990173231621 ], [ 127.567377743517667, 36.82995187721901 ], [ 127.567402831435444, 36.829915901611791 ], [ 127.569485895061447, 36.828235069651221 ], [ 127.569520568870189, 36.82820861380727 ], [ 127.569567890790665, 36.828177311468458 ], [ 127.56964697640592, 36.828155417170066 ], [ 127.56982432467629, 36.828130672405671 ], [ 127.56996052713869, 36.828115690162008 ], [ 127.570147447011848, 36.828100457893889 ], [ 127.570662682979545, 36.828112329855379 ], [ 127.570840270241476, 36.828121040551359 ], [ 127.571046408818802, 36.828132020050887 ], [ 127.57202996995477, 36.828244411193737 ], [ 127.572339620021751, 36.828319423743928 ], [ 127.572425389717665, 36.828342923307602 ], [ 127.573689768897481, 36.828824700001228 ], [ 127.574860599278267, 36.829297397471429 ], [ 127.575288700740387, 36.829445890239427 ], [ 127.577221085511667, 36.83009640285929 ], [ 127.577433311237741, 36.830146997687478 ], [ 127.577698214510463, 36.830161208709129 ], [ 127.577881058855752, 36.830119030167609 ], [ 127.578072123671475, 36.829995928323761 ], [ 127.578990826717032, 36.829120326315774 ], [ 127.578415775295639, 36.828719278405956 ], [ 127.578102501483102, 36.82846027445111 ], [ 127.577736983856354, 36.828149439617249 ], [ 127.576737285473683, 36.827028415499747 ], [ 127.576664252104038, 36.826934971254154 ], [ 127.576636190304583, 36.826857650508799 ], [ 127.576148135434593, 36.8254331739777 ], [ 127.575305679135937, 36.823811902996553 ], [ 127.575175152665594, 36.823571443758027 ], [ 127.575131250067841, 36.823506199697988 ], [ 127.575091215680033, 36.823457776404076 ], [ 127.575037834332775, 36.823393212592947 ], [ 127.573955325307608, 36.822163593761061 ], [ 127.572145480919019, 36.82052081565898 ], [ 127.572112776133721, 36.820504453982636 ], [ 127.572072443194315, 36.820484304436249 ], [ 127.57112792187867, 36.820249671492334 ], [ 127.564339746348537, 36.818648210642287 ], [ 127.564073232012376, 36.818598439225276 ], [ 127.563271819395837, 36.818544074261638 ], [ 127.563225667244268, 36.818547140370285 ], [ 127.563179006079395, 36.818550246396143 ], [ 127.562143140750621, 36.818741866098897 ], [ 127.561848696784423, 36.818801421096175 ], [ 127.561617675487213, 36.818848376921757 ], [ 127.561515770041026, 36.818873429258623 ], [ 127.561457268927285, 36.818894178902511 ], [ 127.561418503942818, 36.818940212682719 ], [ 127.559333113695175, 36.818799599102988 ], [ 127.555765588054797, 36.817942071906998 ], [ 127.552613308055626, 36.815239058237026 ], [ 127.549615465729985, 36.813070127120021 ], [ 127.549498394241866, 36.813028235854496 ], [ 127.549436900253113, 36.813006236686753 ], [ 127.549259046459056, 36.812967738334201 ], [ 127.549058143392429, 36.812970304033257 ], [ 127.547855755468518, 36.813052779179699 ], [ 127.547420556104626, 36.813159572328551 ], [ 127.54682807801268, 36.813312702947847 ], [ 127.544869873066631, 36.813740554261827 ], [ 127.544774999355468, 36.813707131915962 ], [ 127.544358180879243, 36.813505940011481 ], [ 127.54419450697209, 36.81340936954004 ], [ 127.54284351150713, 36.812456485858156 ], [ 127.537068177833092, 36.807932995517405 ], [ 127.53756437940136, 36.807732559756502 ], [ 127.538327599693389, 36.807306214673389 ], [ 127.538584143487824, 36.807152736302427 ], [ 127.538767231098916, 36.807020753509434 ], [ 127.539201022433147, 36.806650674130822 ], [ 127.539315801460816, 36.806523218537421 ], [ 127.540251937443301, 36.805342419128841 ], [ 127.540397658407159, 36.805130198244029 ], [ 127.540501635461368, 36.804964708409642 ], [ 127.540907770015494, 36.804251180932916 ], [ 127.543130466916608, 36.801937408332535 ], [ 127.548493173433357, 36.798156154820894 ], [ 127.548701333817036, 36.798070033130294 ], [ 127.549000473342176, 36.798015124111693 ], [ 127.549125700626661, 36.797998196869294 ], [ 127.549224165514403, 36.797984896384442 ], [ 127.549617479464061, 36.797983079655815 ], [ 127.549781103206612, 36.798016395557106 ], [ 127.549866313201107, 36.798086567527527 ], [ 127.549982237822547, 36.79821987836214 ], [ 127.550113219712586, 36.7983433873259 ], [ 127.550477316766973, 36.798655627291559 ], [ 127.550617009952575, 36.798727986895642 ], [ 127.550793047725804, 36.798805031101942 ], [ 127.552372349312833, 36.799213858511486 ], [ 127.552563268658773, 36.799256784487881 ], [ 127.552660481831126, 36.799272050307302 ], [ 127.552743807117153, 36.799285134330709 ], [ 127.552865319436378, 36.799289073910565 ], [ 127.553007086810254, 36.799293665120942 ], [ 127.554940194390966, 36.799250604341303 ], [ 127.555073275527477, 36.799242686453283 ], [ 127.555188081342649, 36.799220251456909 ], [ 127.555263110575012, 36.799134728995583 ], [ 127.555333917654096, 36.79905166766958 ], [ 127.555390854708008, 36.798975951655684 ], [ 127.556581563860362, 36.797105765650173 ], [ 127.556766511237569, 36.79673987300616 ], [ 127.557595699801993, 36.795087947176917 ], [ 127.558250779439405, 36.793383285841777 ], [ 127.560143906983242, 36.789272798763157 ], [ 127.561515322755653, 36.786494033393168 ], [ 127.562988102738487, 36.783694668016203 ], [ 127.564380100470544, 36.781278348746525 ], [ 127.564219591969433, 36.779621831455131 ], [ 127.564155710473528, 36.779611250138004 ], [ 127.56360253023513, 36.779498664311895 ], [ 127.562699678313194, 36.779124443129874 ], [ 127.560360443684402, 36.778148054058711 ], [ 127.557903151254365, 36.777814003700925 ], [ 127.557635339624767, 36.777959442766985 ], [ 127.55741410585037, 36.778079592170926 ], [ 127.55583848448785, 36.778021125963335 ], [ 127.554425681935015, 36.777846659854831 ], [ 127.549750599116535, 36.776321424870176 ], [ 127.548622012000919, 36.775832935802207 ], [ 127.545994403049903, 36.774507339978051 ], [ 127.544700292340778, 36.773777414927032 ], [ 127.544281025035659, 36.773656921602452 ], [ 127.544249353199973, 36.773647824859829 ], [ 127.543227634895985, 36.773800582607556 ], [ 127.542862232436917, 36.773874444840715 ], [ 127.542144985301036, 36.774019436871576 ], [ 127.541909925250422, 36.774100719572772 ], [ 127.541614422255662, 36.77420286692324 ], [ 127.541396527989974, 36.774170498775433 ], [ 127.541184398687832, 36.774138982833207 ], [ 127.532023989361775, 36.771744668154071 ], [ 127.531407966697614, 36.771401836348574 ], [ 127.531037176508207, 36.77102499336646 ], [ 127.530733466846755, 36.770685112317295 ], [ 127.530480599848289, 36.770402124149072 ], [ 127.530192096219409, 36.770090751530581 ], [ 127.529827258015459, 36.770054753790149 ], [ 127.52939381188223, 36.77001199819572 ], [ 127.526855997573918, 36.769809304031838 ], [ 127.523357071086664, 36.769643682747201 ], [ 127.522314132831667, 36.769681167153578 ], [ 127.52178286333168, 36.769765768351384 ], [ 127.51776829070657, 36.768960452980778 ], [ 127.517346634239061, 36.768759399045194 ], [ 127.516742278559107, 36.768471209140195 ], [ 127.515839430481762, 36.76804724316036 ], [ 127.51545440249825, 36.767965911946717 ], [ 127.514999616792423, 36.767869849131209 ], [ 127.513980949570112, 36.767821381714185 ], [ 127.513096749119384, 36.767779320192098 ], [ 127.51220610040383, 36.767880926761912 ], [ 127.511298110973669, 36.767984511562943 ], [ 127.510109308025406, 36.767512640541803 ], [ 127.509247292126574, 36.767170466211013 ], [ 127.50723515187002, 36.766010644398548 ], [ 127.506249721902421, 36.765455302885442 ], [ 127.502559016834326, 36.764072118572237 ], [ 127.502169877120323, 36.763991487218853 ], [ 127.501625820090524, 36.763961148512543 ], [ 127.501343902690962, 36.763945428436415 ], [ 127.502093609339937, 36.765136203460955 ], [ 127.502706668280467, 36.766056223042725 ], [ 127.50328329352628, 36.766555801607254 ], [ 127.505347598150252, 36.767618901498949 ], [ 127.506260886479566, 36.768022062936986 ], [ 127.507190507057373, 36.768343728131008 ], [ 127.50895200699631, 36.769503026672481 ], [ 127.509480862205976, 36.770423355928671 ], [ 127.510616850963075, 36.773891790666433 ], [ 127.510603041614814, 36.774353148156969 ], [ 127.509348826244064, 36.775973032899316 ], [ 127.508325048909427, 36.776737198130782 ], [ 127.506327953363652, 36.7782516687422 ], [ 127.505710237517917, 36.778565893462996 ], [ 127.504983145958263, 36.77893573168285 ], [ 127.503417268073903, 36.779349380808654 ], [ 127.501952229255792, 36.779708297977159 ], [ 127.497928443545106, 36.780422710612932 ], [ 127.497185982307869, 36.780837888322104 ], [ 127.495901906141157, 36.782126298502476 ], [ 127.493879549848515, 36.782677877131654 ], [ 127.492099342502726, 36.782863173380598 ], [ 127.490645646614851, 36.783131385061701 ], [ 127.487471160515042, 36.783781251918619 ], [ 127.48620408097932, 36.784104844307706 ], [ 127.485633363653477, 36.784428600370248 ], [ 127.482024775626783, 36.787428342037998 ], [ 127.477325135067133, 36.790364889130863 ], [ 127.476384687829267, 36.790874607327353 ], [ 127.476335378581524, 36.791170861789922 ], [ 127.476283582768573, 36.79148215592474 ], [ 127.476644309900038, 36.79217216728965 ], [ 127.478011680461179, 36.792875038953319 ], [ 127.479420263921568, 36.793459671791034 ], [ 127.480489476845435, 36.793421633071148 ], [ 127.481305699233175, 36.793165383033362 ], [ 127.482097566529845, 36.792369510100286 ], [ 127.483225246859959, 36.791622889317793 ], [ 127.484834947894342, 36.790840571295092 ], [ 127.485756499081688, 36.790668186212329 ], [ 127.486828331638819, 36.791051703344756 ], [ 127.487693673624861, 36.791942005870077 ], [ 127.488772275171115, 36.793387991130317 ], [ 127.489207571218714, 36.795899111247927 ], [ 127.489195401322377, 36.796163833389059 ], [ 127.489149265708633, 36.796624536458339 ], [ 127.488254278555047, 36.797690698449372 ], [ 127.487442617473945, 36.798672201349142 ], [ 127.486663822362104, 36.801542424007209 ], [ 127.487066216282201, 36.802164784177137 ], [ 127.487508219480176, 36.802415951160363 ], [ 127.488620988276963, 36.802613800933067 ], [ 127.49015148014432, 36.802540050985137 ], [ 127.491466467179436, 36.802264081900013 ], [ 127.493280019334136, 36.802312661385656 ], [ 127.494643880105656, 36.802923927511884 ], [ 127.494723872337005, 36.804521943117066 ], [ 127.493587141044159, 36.806713884437997 ], [ 127.491682813050147, 36.808852893344337 ], [ 127.490363722621808, 36.809811741797986 ], [ 127.489392993652856, 36.810713040861195 ], [ 127.489196022561288, 36.812648713458493 ], [ 127.489756499973439, 36.813038992011805 ], [ 127.491226571083928, 36.813874201955279 ], [ 127.491859137640517, 36.814628699025505 ], [ 127.493309446179808, 36.81781942500632 ], [ 127.492905450645793, 36.82009243604162 ], [ 127.492109906272617, 36.821133245111398 ], [ 127.491884900087896, 36.824134598443834 ], [ 127.494401067142945, 36.830321314279736 ], [ 127.494901120218813, 36.832141932032926 ], [ 127.495332976530563, 36.83258924580408 ], [ 127.496411188213301, 36.833705975358406 ], [ 127.497532165371794, 36.834430358861404 ], [ 127.498131725117744, 36.837882750247687 ], [ 127.497987137560528, 36.838692945475152 ], [ 127.496867257837096, 36.840338667145829 ], [ 127.496786245421873, 36.840448404198128 ], [ 127.493133913077003, 36.842268727931774 ], [ 127.490242788788066, 36.844356420287852 ], [ 127.487630999011714, 36.846416830472045 ], [ 127.485116052026811, 36.847079466983054 ], [ 127.485391014699147, 36.848588501277881 ], [ 127.483190657549173, 36.849794614389353 ], [ 127.482341221168653, 36.85055626766809 ], [ 127.482253979910382, 36.850980868442612 ], [ 127.48225825096597, 36.851196293219758 ], [ 127.484564974279408, 36.853398431812437 ], [ 127.485728404209127, 36.854761013773135 ], [ 127.486188588732887, 36.855299972935939 ], [ 127.491478258479717, 36.861911033291065 ], [ 127.49406226244956, 36.865186254175036 ], [ 127.494192952990744, 36.865597266666676 ], [ 127.494324572211767, 36.866152341888082 ], [ 127.495078747249963, 36.865510990618297 ], [ 127.498577743705624, 36.863755138428459 ], [ 127.503579588071901, 36.861791374833068 ], [ 127.506625571939125, 36.864728555612821 ], [ 127.506860186145687, 36.865000968188404 ], [ 127.505665993823257, 36.868603703703315 ], [ 127.503845735747561, 36.869618764253815 ], [ 127.503333577670006, 36.87072901220094 ], [ 127.504606019197553, 36.873572964658166 ], [ 127.508085958083925, 36.874335282407564 ], [ 127.509464767128719, 36.874271856494509 ], [ 127.511414745053258, 36.873903720986974 ], [ 127.512057445237758, 36.873584381253167 ], [ 127.51543442552564, 36.872492549725756 ], [ 127.518083654163547, 36.87183394723732 ], [ 127.519569824994548, 36.872012079685909 ], [ 127.520943901733759, 36.873280364354613 ], [ 127.522500089028398, 36.875122958723885 ], [ 127.523983302776017, 36.87570552779458 ], [ 127.524592413138862, 36.875717232297475 ], [ 127.527202898755931, 36.875272322969941 ], [ 127.529547358235561, 36.874731165500791 ], [ 127.530884763634447, 36.873861761058912 ], [ 127.532046517721099, 36.873496832772872 ], [ 127.534052786250896, 36.873516628081774 ], [ 127.534182542113768, 36.873571069797862 ], [ 127.534663564377752, 36.873772924705612 ], [ 127.533868741585948, 36.875388231236386 ], [ 127.533983107199859, 36.8763806846083 ], [ 127.534597407083936, 36.877140631572445 ], [ 127.535568275325218, 36.877654329519167 ], [ 127.536396357646936, 36.87824062013113 ], [ 127.536741608032685, 36.878944199166803 ], [ 127.536806109122082, 36.880483707305913 ], [ 127.53743223490109, 36.882927298370859 ], [ 127.54095430778122, 36.88702705867388 ], [ 127.544749381674194, 36.891672307615273 ], [ 127.545485552495464, 36.891899201267073 ], [ 127.546398841574245, 36.891837452470369 ], [ 127.548525344279525, 36.891064980898427 ], [ 127.548537507035022, 36.890259052189421 ], [ 127.549320647176586, 36.889535918656314 ], [ 127.550472140807116, 36.890221350372542 ], [ 127.551640504982615, 36.893252359691303 ], [ 127.551914404602599, 36.893970610360647 ], [ 127.552686989891711, 36.892575079343487 ], [ 127.555137283063317, 36.891275231611885 ], [ 127.555638576341778, 36.890349489345553 ], [ 127.555233218472864, 36.889750075312904 ], [ 127.554961224322639, 36.88910711902075 ], [ 127.554985175716411, 36.888720468243505 ], [ 127.555347185287459, 36.887022301269859 ], [ 127.556028587525262, 36.886324769272861 ], [ 127.556063701618569, 36.886288841243775 ], [ 127.557423941651251, 36.885852973056572 ], [ 127.558550914208837, 36.886427515051508 ], [ 127.559889593917234, 36.886700408613109 ], [ 127.561167281030308, 36.885942787324936 ], [ 127.561242469653806, 36.885255249950681 ], [ 127.561184295393105, 36.884611300089929 ], [ 127.561788157475121, 36.88310522228889 ], [ 127.562184893358975, 36.882523553394499 ], [ 127.563627126411987, 36.882344947990937 ], [ 127.566837725072332, 36.882716251536273 ], [ 127.567019370281926, 36.883034301732408 ], [ 127.566721873249747, 36.883370789651885 ], [ 127.566880953613548, 36.883943845210894 ], [ 127.567412059158642, 36.884918040019372 ], [ 127.568261163104268, 36.885865420915067 ], [ 127.568666563424088, 36.885772382028506 ], [ 127.569063234704714, 36.885478126491421 ], [ 127.56927226066577, 36.885189521326396 ], [ 127.571420154311454, 36.882059439167904 ], [ 127.57185043460035, 36.880974338431166 ], [ 127.572112626409393, 36.88028589256264 ], [ 127.572109112073861, 36.879813485848736 ], [ 127.571778932763223, 36.878548072128361 ], [ 127.573190817909577, 36.877897053666679 ], [ 127.579064064305641, 36.876902307748551 ], [ 127.58066587542497, 36.876636807426721 ], [ 127.581794362827722, 36.876517673316918 ] ] ] ] } },
{ "type": "Feature", "properties": { "OBJECTID": 1980, "adm_nm": "충청북도 진천군 문백면", "adm_cd": "3335033", "adm_cd2": "4375033000", "sgg": "43750", "sido": "43", "sidonm": "충청북도", "sggnm": "진천군" }, "geometry": { "type": "MultiPolygon", "coordinates": [ [ [ [ 127.485116052026811, 36.847079466983054 ], [ 127.487630999011714, 36.846416830472045 ], [ 127.490242788788066, 36.844356420287852 ], [ 127.493133913077003, 36.842268727931774 ], [ 127.496786245421873, 36.840448404198128 ], [ 127.496867257837096, 36.840338667145829 ], [ 127.497987137560528, 36.838692945475152 ], [ 127.498131725117744, 36.837882750247687 ], [ 127.497532165371794, 36.834430358861404 ], [ 127.496411188213301, 36.833705975358406 ], [ 127.495332976530563, 36.83258924580408 ], [ 127.494901120218813, 36.832141932032926 ], [ 127.494401067142945, 36.830321314279736 ], [ 127.491884900087896, 36.824134598443834 ], [ 127.492109906272617, 36.821133245111398 ], [ 127.492905450645793, 36.82009243604162 ], [ 127.493309446179808, 36.81781942500632 ], [ 127.491859137640517, 36.814628699025505 ], [ 127.491226571083928, 36.813874201955279 ], [ 127.489756499973439, 36.813038992011805 ], [ 127.489196022561288, 36.812648713458493 ], [ 127.489392993652856, 36.810713040861195 ], [ 127.490363722621808, 36.809811741797986 ], [ 127.491682813050147, 36.808852893344337 ], [ 127.493587141044159, 36.806713884437997 ], [ 127.494723872337005, 36.804521943117066 ], [ 127.494643880105656, 36.802923927511884 ], [ 127.493280019334136, 36.802312661385656 ], [ 127.491466467179436, 36.802264081900013 ], [ 127.49015148014432, 36.802540050985137 ], [ 127.488620988276963, 36.802613800933067 ], [ 127.487508219480176, 36.802415951160363 ], [ 127.487066216282201, 36.802164784177137 ], [ 127.486663822362104, 36.801542424007209 ], [ 127.487442617473945, 36.798672201349142 ], [ 127.488254278555047, 36.797690698449372 ], [ 127.489149265708633, 36.796624536458339 ], [ 127.489195401322377, 36.796163833389059 ], [ 127.489207571218714, 36.795899111247927 ], [ 127.488772275171115, 36.793387991130317 ], [ 127.487693673624861, 36.791942005870077 ], [ 127.486828331638819, 36.791051703344756 ], [ 127.485756499081688, 36.790668186212329 ], [ 127.484834947894342, 36.790840571295092 ], [ 127.483225246859959, 36.791622889317793 ], [ 127.482097566529845, 36.792369510100286 ], [ 127.481305699233175, 36.793165383033362 ], [ 127.480489476845435, 36.793421633071148 ], [ 127.479420263921568, 36.793459671791034 ], [ 127.478011680461179, 36.792875038953319 ], [ 127.476644309900038, 36.79217216728965 ], [ 127.476283582768573, 36.79148215592474 ], [ 127.476335378581524, 36.791170861789922 ], [ 127.476384687829267, 36.790874607327353 ], [ 127.477325135067133, 36.790364889130863 ], [ 127.482024775626783, 36.787428342037998 ], [ 127.485633363653477, 36.784428600370248 ], [ 127.48620408097932, 36.784104844307706 ], [ 127.487471160515042, 36.783781251918619 ], [ 127.490645646614851, 36.783131385061701 ], [ 127.492099342502726, 36.782863173380598 ], [ 127.493879549848515, 36.782677877131654 ], [ 127.495901906141157, 36.782126298502476 ], [ 127.497185982307869, 36.780837888322104 ], [ 127.497928443545106, 36.780422710612932 ], [ 127.501952229255792, 36.779708297977159 ], [ 127.500506758726658, 36.779437922253557 ], [ 127.494848173167682, 36.777579080502186 ], [ 127.492858934166151, 36.776004559111215 ], [ 127.491459312264269, 36.773771991023416 ], [ 127.490938879176156, 36.773554348502678 ], [ 127.490784447611063, 36.77349379522051 ], [ 127.49056113780172, 36.773494713446624 ], [ 127.48893691525555, 36.774381737184754 ], [ 127.488659822065728, 36.774748130946762 ], [ 127.48825439139965, 36.775068213374624 ], [ 127.485452793750383, 36.775725848666724 ], [ 127.484812918069323, 36.77579400871317 ], [ 127.48222990324625, 36.776038609284825 ], [ 127.481961665505452, 36.775964764991656 ], [ 127.480910590519386, 36.775435170708526 ], [ 127.480804874605326, 36.775285766318973 ], [ 127.480850102203988, 36.775070183544855 ], [ 127.481241252078476, 36.774319360412093 ], [ 127.481391369788355, 36.774122074046367 ], [ 127.481192875163217, 36.774029230334527 ], [ 127.479558880953391, 36.773361492535528 ], [ 127.475237482623839, 36.771093605074419 ], [ 127.473938732905097, 36.770021742766268 ], [ 127.473326903255327, 36.769595065667801 ], [ 127.472980263689038, 36.769388698633009 ], [ 127.470410509706682, 36.76889494092439 ], [ 127.470299683908692, 36.768874812151772 ], [ 127.469254351482348, 36.769262908762897 ], [ 127.467499709089466, 36.769784897555958 ], [ 127.461809493141814, 36.770172319196199 ], [ 127.460340327726044, 36.769775271187598 ], [ 127.460210487584277, 36.769476075985352 ], [ 127.460360039379523, 36.769175811135526 ], [ 127.45915809626031, 36.766726670702489 ], [ 127.458572175718359, 36.766073352416761 ], [ 127.456490023510966, 36.764358078035926 ], [ 127.454478501396267, 36.762764262675368 ], [ 127.453393683522037, 36.762375043815979 ], [ 127.452297793721499, 36.762079493211779 ], [ 127.45206361723659, 36.761846244153496 ], [ 127.451383706726148, 36.761024659475275 ], [ 127.450103218012757, 36.759006555459635 ], [ 127.450054978063818, 36.758716403044744 ], [ 127.449578430262463, 36.75483153063432 ], [ 127.449629064717712, 36.753529531531441 ], [ 127.449866919780376, 36.752404788129056 ], [ 127.449826909164031, 36.749529741844931 ], [ 127.448292735576601, 36.748906751304467 ], [ 127.446316402383147, 36.748241096944177 ], [ 127.444886040002032, 36.748433757593553 ], [ 127.443910526694637, 36.748793261383334 ], [ 127.442471356786697, 36.749482280315299 ], [ 127.441985663718384, 36.750027290814437 ], [ 127.44185850153211, 36.750177595755723 ], [ 127.441885960137483, 36.750908005115669 ], [ 127.44194650539815, 36.751319870710205 ], [ 127.441382057283505, 36.752342788874529 ], [ 127.441080801317327, 36.752578043689077 ], [ 127.439826790727125, 36.753097786724354 ], [ 127.43944315387543, 36.753174112465992 ], [ 127.438582441010269, 36.753270918524457 ], [ 127.43260278543444, 36.751663147742661 ], [ 127.430656191698603, 36.751126979845417 ], [ 127.430270299742432, 36.750800581519627 ], [ 127.430228225448246, 36.750784342826201 ], [ 127.429885407477826, 36.750652131200745 ], [ 127.427371851978521, 36.75070796772652 ], [ 127.427139289780797, 36.750746255679402 ], [ 127.425203567529636, 36.754293344606545 ], [ 127.425182495632626, 36.754696107251661 ], [ 127.425349983744027, 36.755519685567862 ], [ 127.425525272954445, 36.75565018275865 ], [ 127.42608523401104, 36.755882328535634 ], [ 127.427180010727099, 36.756009538873109 ], [ 127.427404357861278, 36.75658939238965 ], [ 127.42734766235894, 36.756861192696746 ], [ 127.426894930791264, 36.757078212586975 ], [ 127.424559441898026, 36.757807683484771 ], [ 127.422593914158398, 36.758086250244375 ], [ 127.421718876880078, 36.757705358889169 ], [ 127.419582515066338, 36.757572933018892 ], [ 127.420527653998164, 36.758852354547123 ], [ 127.420666756858353, 36.759056830778121 ], [ 127.420738322060402, 36.75920462372585 ], [ 127.420781530519619, 36.759343979737288 ], [ 127.420803611327941, 36.759500490342582 ], [ 127.420797360444411, 36.759598845685652 ], [ 127.420755568262521, 36.759773962660674 ], [ 127.42073496107453, 36.759849081821116 ], [ 127.420626703739273, 36.760111377970041 ], [ 127.420333783116277, 36.76064632547854 ], [ 127.42021452517524, 36.760837496164974 ], [ 127.419996821625233, 36.761142889185663 ], [ 127.419875251462742, 36.761310688919977 ], [ 127.419810695104246, 36.761399769250588 ], [ 127.419562827501494, 36.761692787246062 ], [ 127.416992604922655, 36.765368655508738 ], [ 127.412523813760501, 36.771843316027329 ], [ 127.412414857415243, 36.771983193830742 ], [ 127.412158745360315, 36.772218099477989 ], [ 127.410362969396246, 36.773231578177928 ], [ 127.408324083829399, 36.773922319252463 ], [ 127.408256258816962, 36.77392255273633 ], [ 127.407168435856917, 36.773921154473264 ], [ 127.403562757214203, 36.774377064171034 ], [ 127.403426075362177, 36.774443684223655 ], [ 127.402350163116978, 36.775524271654007 ], [ 127.401862198639833, 36.776258111158782 ], [ 127.401346166332246, 36.777037504846255 ], [ 127.401324040414138, 36.777128529311156 ], [ 127.401318756343827, 36.777201306533101 ], [ 127.401364363959843, 36.777273925832077 ], [ 127.40167736790049, 36.777677614571637 ], [ 127.401856188986145, 36.777890272668444 ], [ 127.401839222153455, 36.778001205168898 ], [ 127.4016844341743, 36.778532662605272 ], [ 127.401585040909339, 36.778653700969492 ], [ 127.399728972503866, 36.780582608885226 ], [ 127.398732612387064, 36.781350340689848 ], [ 127.398103013807827, 36.781709493707282 ], [ 127.396963751506135, 36.781998005101322 ], [ 127.396842648920426, 36.781953021981614 ], [ 127.396733750808863, 36.781930697107967 ], [ 127.396594665510435, 36.781913341876709 ], [ 127.396410247457368, 36.781949522619044 ], [ 127.396281508257616, 36.78198560920044 ], [ 127.396086457494448, 36.782052689967877 ], [ 127.395775780436878, 36.782189520009311 ], [ 127.395631091445594, 36.782259700142745 ], [ 127.395530739992452, 36.782329699084457 ], [ 127.395471060016192, 36.782393986778295 ], [ 127.395433069159097, 36.782452449242058 ], [ 127.394999539925891, 36.78414441813905 ], [ 127.39498388707176, 36.78423359449085 ], [ 127.394985763412237, 36.784284355519851 ], [ 127.394998696915152, 36.784371305218578 ], [ 127.395027423609974, 36.784473286529703 ], [ 127.396605924920209, 36.789889524144819 ], [ 127.396685416709701, 36.790069138086878 ], [ 127.39693773415938, 36.790546178358746 ], [ 127.39713612886996, 36.790897558201358 ], [ 127.397257896240617, 36.791097484244055 ], [ 127.397318784642763, 36.791183171473079 ], [ 127.397436232537558, 36.791297834860991 ], [ 127.397532273732807, 36.791371309361324 ], [ 127.397641479769931, 36.791448731851034 ], [ 127.397750340773356, 36.791494971947976 ], [ 127.397869367140828, 36.791538459457897 ], [ 127.398067765895817, 36.791548419651697 ], [ 127.39809903448635, 36.791554058120532 ], [ 127.398298773012371, 36.791590086106687 ], [ 127.398999115427245, 36.791858208849 ], [ 127.399144710120908, 36.791958478060472 ], [ 127.399363434235497, 36.7921751802903 ], [ 127.399699694145724, 36.792526604723605 ], [ 127.401703165498205, 36.795268712959448 ], [ 127.401755743513135, 36.795355613392744 ], [ 127.401789621854206, 36.795411616578029 ], [ 127.40180994081102, 36.795512316247041 ], [ 127.401433068633679, 36.796590157957667 ], [ 127.401126334834942, 36.79839637130631 ], [ 127.401011249680451, 36.799091490810511 ], [ 127.40165465494141, 36.800019442932907 ], [ 127.407469267908354, 36.801775511028112 ], [ 127.410096217979373, 36.801925904578475 ], [ 127.411975899868494, 36.801321729077785 ], [ 127.413015573651919, 36.801158748651112 ], [ 127.413810061883353, 36.801474771348708 ], [ 127.414061010145062, 36.802071603552598 ], [ 127.414411279926398, 36.802707935298237 ], [ 127.415258766200836, 36.803661311279413 ], [ 127.41704839190092, 36.804730935030094 ], [ 127.420877508101697, 36.80722784024649 ], [ 127.422880906103771, 36.810013388084123 ], [ 127.421340055239895, 36.812035653210224 ], [ 127.421230512216567, 36.817570978928735 ], [ 127.422503228899245, 36.820254359945139 ], [ 127.42356569173414, 36.822816705024813 ], [ 127.423456820717718, 36.824203178159365 ], [ 127.423764895500369, 36.824501987832996 ], [ 127.42779770400449, 36.823426497955253 ], [ 127.428599140263856, 36.823052181455147 ], [ 127.428998466432262, 36.822614709235509 ], [ 127.429538487978832, 36.82219287575861 ], [ 127.430140296122019, 36.822045360941019 ], [ 127.430702465526423, 36.821994884846113 ], [ 127.431265902014744, 36.822170494563444 ], [ 127.43217190481684, 36.822538657638297 ], [ 127.433783983037756, 36.823437181305103 ], [ 127.433912401237649, 36.826819401879611 ], [ 127.433626821356242, 36.828792602612538 ], [ 127.433439935615951, 36.829128786578828 ], [ 127.433499074930282, 36.829930357888287 ], [ 127.43360722583823, 36.830233604770598 ], [ 127.436213940474957, 36.834523888046029 ], [ 127.44148374931433, 36.838032753566793 ], [ 127.443918855606285, 36.839347533703481 ], [ 127.445361537237147, 36.838976896489143 ], [ 127.445513207929324, 36.83901378021924 ], [ 127.447403892238157, 36.839549912148172 ], [ 127.448921159687401, 36.839984374158234 ], [ 127.450673925749015, 36.840839373408336 ], [ 127.451012918781245, 36.8410254014915 ], [ 127.451345041002909, 36.841330989165982 ], [ 127.451515050521095, 36.841530803876857 ], [ 127.451529968365719, 36.841572021424497 ], [ 127.452278448070345, 36.844223550653766 ], [ 127.452190336754271, 36.845094867377931 ], [ 127.452159393550815, 36.84577866046304 ], [ 127.452454014265882, 36.846339460050515 ], [ 127.45300310221954, 36.846580881005501 ], [ 127.453456735805432, 36.846438673781918 ], [ 127.456027659783928, 36.845586290244967 ], [ 127.456383290392239, 36.845466097124628 ], [ 127.456963548269599, 36.845230676091582 ], [ 127.458630455690781, 36.844461532627683 ], [ 127.458510964047804, 36.843965633871299 ], [ 127.458486054048919, 36.843694128657312 ], [ 127.458625216454777, 36.843581216182116 ], [ 127.459207475667966, 36.843522782395446 ], [ 127.461921849236518, 36.843418654693245 ], [ 127.463132190689322, 36.843450169251589 ], [ 127.466694583255801, 36.844561358784702 ], [ 127.468247559042311, 36.845089101970501 ], [ 127.469568158401458, 36.845720751524119 ], [ 127.469724319546799, 36.846488103326628 ], [ 127.470206820353638, 36.847263524048884 ], [ 127.471121514699661, 36.84820580167748 ], [ 127.471857289086216, 36.848474494212482 ], [ 127.474292958517182, 36.848502294478315 ], [ 127.474922094602775, 36.848481054200846 ], [ 127.476447918696053, 36.848362609857737 ], [ 127.477883448139295, 36.848200626214776 ], [ 127.478709612236841, 36.848107404993804 ], [ 127.479822788180329, 36.847570145050398 ], [ 127.481415076579779, 36.846385228045747 ], [ 127.481489780344333, 36.846329636355868 ], [ 127.482296623661455, 36.847027390482317 ], [ 127.482893600789325, 36.847641875769021 ], [ 127.484496077810661, 36.847242798329191 ], [ 127.485116052026811, 36.847079466983054 ] ] ] ] } },
{ "type": "Feature", "properties": { "OBJECTID": 1981, "adm_nm": "충청북도 진천군 백곡면", "adm_cd": "3335034", "adm_cd2": "4375034000", "sgg": "43750", "sido": "43", "sidonm": "충청북도", "sggnm": "진천군" }, "geometry": { "type": "MultiPolygon", "coordinates": [ [ [ [ 127.375495000237635, 36.948184347284332 ], [ 127.37601880351022, 36.94781708461835 ], [ 127.377860705884999, 36.94471757412245 ], [ 127.376996050586712, 36.943454725304768 ], [ 127.376269161337419, 36.941699255071207 ], [ 127.376350555146772, 36.940433391133958 ], [ 127.377640625856017, 36.939149654818351 ], [ 127.378061054381789, 36.939148322162943 ], [ 127.378639568623228, 36.939230861162656 ], [ 127.37926854506712, 36.938891370943786 ], [ 127.379403776185256, 36.938568800325811 ], [ 127.37952827281984, 36.938271789229915 ], [ 127.378996497177909, 36.937007880039047 ], [ 127.378571429138105, 36.936067071266557 ], [ 127.378219070006352, 36.935660394469885 ], [ 127.378041754563171, 36.93522502204884 ], [ 127.378194208146027, 36.934169881586861 ], [ 127.378469021572784, 36.933058079892447 ], [ 127.37900668881332, 36.931973594382853 ], [ 127.380486884935479, 36.930211105548992 ], [ 127.381920810064585, 36.929728402547212 ], [ 127.383411350801211, 36.930061098539717 ], [ 127.383974039828942, 36.930495229501709 ], [ 127.384467578063308, 36.931112378331719 ], [ 127.385468897356816, 36.931685691319231 ], [ 127.388199158403268, 36.93122684329694 ], [ 127.389476130128742, 36.93088517973738 ], [ 127.390018062160081, 36.93067247829935 ], [ 127.392200600623113, 36.929301289166006 ], [ 127.39270130182328, 36.928868991733658 ], [ 127.392723779339221, 36.928849572194153 ], [ 127.392668220832221, 36.928259144845946 ], [ 127.393274915182914, 36.927019671830308 ], [ 127.395605892187689, 36.923890142007636 ], [ 127.396319714031918, 36.923058106553512 ], [ 127.396859743525766, 36.922493813733034 ], [ 127.399003632103941, 36.920489831153432 ], [ 127.400804907571015, 36.919977546763448 ], [ 127.40217264460928, 36.920296371663149 ], [ 127.402557505245198, 36.920210701813602 ], [ 127.403044425713162, 36.919548128890739 ], [ 127.403106968316081, 36.918113577444835 ], [ 127.402715634175365, 36.91696180009761 ], [ 127.402288991501663, 36.915753883820891 ], [ 127.401984441356149, 36.91444711378621 ], [ 127.401876720870177, 36.913941234318244 ], [ 127.402118063728125, 36.913209184504446 ], [ 127.403958980075188, 36.910278017888345 ], [ 127.406078502352742, 36.907078687119828 ], [ 127.406623168923076, 36.906660364514948 ], [ 127.40709002926063, 36.906301806452397 ], [ 127.409103727954971, 36.903004353610754 ], [ 127.409743579303139, 36.901497496222248 ], [ 127.40995016489255, 36.900835856816059 ], [ 127.409593546963563, 36.899627733461763 ], [ 127.409376335027147, 36.898292560930351 ], [ 127.409945087491508, 36.897560843435883 ], [ 127.410680540722794, 36.896614647368089 ], [ 127.4111298193572, 36.895502200454679 ], [ 127.411284986755817, 36.89505165200903 ], [ 127.411159892958736, 36.894250163565999 ], [ 127.410139781003096, 36.893705618517302 ], [ 127.407009523195967, 36.891086698231867 ], [ 127.406797055981343, 36.890637428383236 ], [ 127.406813077435061, 36.890356133362303 ], [ 127.406943914118372, 36.8886119605272 ], [ 127.407372662359904, 36.88713843413165 ], [ 127.406235525437722, 36.887968522334923 ], [ 127.406030892504958, 36.888030956249594 ], [ 127.404595862951751, 36.887953518663153 ], [ 127.399288170886649, 36.88704539124393 ], [ 127.393228340330836, 36.884308055392609 ], [ 127.392914747956041, 36.883094970271131 ], [ 127.392252645547785, 36.878837467345782 ], [ 127.392600644955692, 36.876757937560129 ], [ 127.393393216739099, 36.876467238465139 ], [ 127.393564204475865, 36.874840996601662 ], [ 127.393489045293251, 36.874555056864331 ], [ 127.393407477718171, 36.87424473849962 ], [ 127.392732606037185, 36.872497829433968 ], [ 127.391881312904118, 36.87130708403248 ], [ 127.39116426609769, 36.87133001543058 ], [ 127.390287823734639, 36.870221669591757 ], [ 127.389871894709657, 36.869008901010012 ], [ 127.389790887454112, 36.868186045779119 ], [ 127.390069178488687, 36.867506062517656 ], [ 127.389782147394044, 36.866457502801822 ], [ 127.388260329498848, 36.86432233524031 ], [ 127.386795396937686, 36.863298180446989 ], [ 127.38617879532741, 36.862909196128633 ], [ 127.38537316301074, 36.862668241447267 ], [ 127.384409069945178, 36.86237987079182 ], [ 127.383177373894384, 36.861889957152712 ], [ 127.382638147981424, 36.861603588119053 ], [ 127.381733974131308, 36.860021959267996 ], [ 127.382624557558543, 36.858866733604707 ], [ 127.382930831079932, 36.858659959461043 ], [ 127.383263320689593, 36.858576590036463 ], [ 127.383770264384253, 36.857525474017052 ], [ 127.383947563520834, 36.857133902477791 ], [ 127.384123434650789, 36.856454259136186 ], [ 127.384226617196035, 36.855557902951361 ], [ 127.38398935818536, 36.855240580615899 ], [ 127.383423441098273, 36.854727937435193 ], [ 127.380066920585108, 36.854327104749594 ], [ 127.379753429516185, 36.854510015225976 ], [ 127.379428572027408, 36.854699553527965 ], [ 127.37907058719118, 36.854803581277274 ], [ 127.377556045828385, 36.854046984002665 ], [ 127.377144527834119, 36.853677878408121 ], [ 127.375188827816345, 36.851708516818498 ], [ 127.374931462441225, 36.851441811146714 ], [ 127.372908463577843, 36.851417291182202 ], [ 127.372602639707409, 36.851716618881859 ], [ 127.368610494096771, 36.852222912760013 ], [ 127.367637460100241, 36.852225915136223 ], [ 127.364725125026709, 36.852350201151417 ], [ 127.359911167493635, 36.85368992441208 ], [ 127.359247024570209, 36.854041758510746 ], [ 127.358901767069426, 36.854331654987625 ], [ 127.358558322528921, 36.854620032733486 ], [ 127.357284751957408, 36.856084891673056 ], [ 127.356915362020871, 36.856565933974167 ], [ 127.356572025197877, 36.857013046573762 ], [ 127.356243710196154, 36.857868476322338 ], [ 127.356192487231283, 36.858001948193433 ], [ 127.355040317913591, 36.858046528760468 ], [ 127.351733971609377, 36.85741839254343 ], [ 127.347631532163916, 36.856278027352253 ], [ 127.347156577332171, 36.856011884182138 ], [ 127.346681643742173, 36.855745740936023 ], [ 127.345089942567284, 36.854844912237439 ], [ 127.343729472920316, 36.854108030767904 ], [ 127.340267939807987, 36.853068444267429 ], [ 127.337555277455024, 36.853446552812024 ], [ 127.337075159913638, 36.853525130842328 ], [ 127.336595053714575, 36.853603716863049 ], [ 127.336677980054645, 36.853757736005676 ], [ 127.336271369634815, 36.854642962506333 ], [ 127.334635854464594, 36.856138621480852 ], [ 127.334308392631314, 36.856350661231062 ], [ 127.332504968367502, 36.857002252043763 ], [ 127.32828935203203, 36.858043148199954 ], [ 127.327846337823019, 36.858123522833772 ], [ 127.327542000714928, 36.858115942988796 ], [ 127.327370104496012, 36.858111656716659 ], [ 127.327146328448535, 36.858098075498852 ], [ 127.326745935743276, 36.858073759757353 ], [ 127.324716619524054, 36.857939410758476 ], [ 127.321769110597316, 36.857744215033208 ], [ 127.321014605333076, 36.857944156336792 ], [ 127.319228985678521, 36.85896496836672 ], [ 127.318654484983711, 36.85901928536277 ], [ 127.316125388801481, 36.858946842827301 ], [ 127.315763758312357, 36.858855445135539 ], [ 127.31545085864866, 36.858631946780406 ], [ 127.31464466768324, 36.858251419774632 ], [ 127.31298337378729, 36.857556426255528 ], [ 127.31280253480422, 36.857504129874144 ], [ 127.31244424568942, 36.857534866597447 ], [ 127.312326515438428, 36.857544967375951 ], [ 127.309147896762184, 36.859281802589067 ], [ 127.308788266063331, 36.859691787796891 ], [ 127.307348484687409, 36.859667158088676 ], [ 127.307171814210022, 36.859898954132987 ], [ 127.307020411163904, 36.860184260293849 ], [ 127.306957097617044, 36.860350616194957 ], [ 127.306008083767679, 36.862964015714653 ], [ 127.306008228739628, 36.863000754148189 ], [ 127.306008461852301, 36.863058988996485 ], [ 127.306291659020715, 36.863738895615427 ], [ 127.307947071316448, 36.866107918120726 ], [ 127.308105354645491, 36.866309327784272 ], [ 127.3082733101174, 36.866471138993717 ], [ 127.308678137816315, 36.866794570555946 ], [ 127.309703177358458, 36.867532957397884 ], [ 127.309922379959303, 36.867685144956916 ], [ 127.31046376906302, 36.868211617573309 ], [ 127.311332359313738, 36.870078060268135 ], [ 127.311347528178203, 36.870180906830974 ], [ 127.311274457163435, 36.870367086822625 ], [ 127.310785653663984, 36.871191444169355 ], [ 127.310735662400077, 36.871271149294408 ], [ 127.31035614115541, 36.872134470383017 ], [ 127.309963779244853, 36.873315516520314 ], [ 127.309689438626464, 36.877878557240336 ], [ 127.309680809141511, 36.878111203069679 ], [ 127.309700460850721, 36.878256283075501 ], [ 127.30971658435999, 36.878363512328676 ], [ 127.309740024642821, 36.878519372638479 ], [ 127.309754931327035, 36.881162860813674 ], [ 127.308077753089606, 36.885257891617201 ], [ 127.307798400365414, 36.885227648707342 ], [ 127.30630614665418, 36.88527019056307 ], [ 127.304929832284714, 36.885413043519399 ], [ 127.303850510984788, 36.885740481473327 ], [ 127.301552992034388, 36.88716107449644 ], [ 127.301360955780524, 36.8873008871888 ], [ 127.301161888583479, 36.887483305157353 ], [ 127.300538498660856, 36.888119615023577 ], [ 127.300346921160838, 36.888375545481566 ], [ 127.300126987520031, 36.888770883534974 ], [ 127.299971401254567, 36.889023028266344 ], [ 127.299906912455896, 36.889127514097758 ], [ 127.299224975572898, 36.889570434809819 ], [ 127.298955972674904, 36.889725921447784 ], [ 127.296842993234961, 36.889573374430228 ], [ 127.295955430004483, 36.889664803043061 ], [ 127.294623855096816, 36.890303629699417 ], [ 127.294413559376835, 36.890455825200164 ], [ 127.294403196916207, 36.89053506165591 ], [ 127.29439198611081, 36.89062094579586 ], [ 127.294392616323194, 36.890786015559158 ], [ 127.294348788422013, 36.890933334399932 ], [ 127.294282586819904, 36.891036103201515 ], [ 127.292478587061254, 36.891778462992747 ], [ 127.292322956027704, 36.891840040111362 ], [ 127.292240308200377, 36.891872735742758 ], [ 127.292057306919261, 36.891938903555513 ], [ 127.291880090901401, 36.892002979018606 ], [ 127.291447623088871, 36.892111106056639 ], [ 127.290612256161822, 36.892269661932353 ], [ 127.289801866995006, 36.893818800322201 ], [ 127.289755587450429, 36.894708821041171 ], [ 127.290671102534958, 36.896848528776204 ], [ 127.291098244929088, 36.897159861281864 ], [ 127.291747060011559, 36.897321891343147 ], [ 127.291854900810023, 36.897380767853441 ], [ 127.292099663636677, 36.897514397443807 ], [ 127.292317925346737, 36.89768863050687 ], [ 127.29278699392583, 36.898063074472439 ], [ 127.294087434480076, 36.899115960559705 ], [ 127.296615114901584, 36.901430139712403 ], [ 127.296986857240285, 36.901771324945919 ], [ 127.297786592531963, 36.90263205600278 ], [ 127.297917155153669, 36.902869718095417 ], [ 127.298029875663985, 36.903285857853092 ], [ 127.303459616444428, 36.913431528963841 ], [ 127.304077650789665, 36.915140516788853 ], [ 127.303947000779445, 36.915366178676081 ], [ 127.303801663555745, 36.915617203813049 ], [ 127.301481354929464, 36.919133452270813 ], [ 127.297596546323604, 36.925345854954237 ], [ 127.295921385030411, 36.928146407872489 ], [ 127.295695554582963, 36.928597609389804 ], [ 127.295645586416981, 36.928697444005373 ], [ 127.295664850630544, 36.928890730469057 ], [ 127.296573773012952, 36.929565034382229 ], [ 127.297058376494817, 36.929833892976859 ], [ 127.298488238766012, 36.929796563375675 ], [ 127.299526742410592, 36.929469342900404 ], [ 127.300378564204976, 36.929200929588625 ], [ 127.309147344150091, 36.929094126824488 ], [ 127.310579968412767, 36.929748833544636 ], [ 127.313424969138339, 36.931227086330658 ], [ 127.315027297260087, 36.93221894323014 ], [ 127.315623769035625, 36.933357584030375 ], [ 127.315875146431154, 36.933837439945698 ], [ 127.315937575029594, 36.933919777047443 ], [ 127.316488357555968, 36.934646189717157 ], [ 127.323183647694705, 36.936434691204134 ], [ 127.323786033879955, 36.936149800177162 ], [ 127.324547968273961, 36.935789446978369 ], [ 127.327029551851524, 36.935782676845577 ], [ 127.331092494315229, 36.938185040112359 ], [ 127.332177303183201, 36.939516416718028 ], [ 127.338669538780792, 36.942773401819089 ], [ 127.339238546366474, 36.943025019163443 ], [ 127.339307250298205, 36.943026781627559 ], [ 127.34133387921861, 36.94307868774694 ], [ 127.34220453376669, 36.943100972305473 ], [ 127.343047730304193, 36.94352061150741 ], [ 127.343429796426548, 36.944296119901935 ], [ 127.342987210586529, 36.945714682655492 ], [ 127.342807762306592, 36.946290105091997 ], [ 127.343509353980394, 36.947976288052985 ], [ 127.349735375184906, 36.952567164720065 ], [ 127.349949949703799, 36.952579945446914 ], [ 127.35162911120517, 36.952679791280168 ], [ 127.354067276449399, 36.952250507086461 ], [ 127.355095357100126, 36.951673447392075 ], [ 127.355976009496018, 36.951063056423941 ], [ 127.356013850878583, 36.950656466483288 ], [ 127.356056170532455, 36.950201794093289 ], [ 127.356723787444281, 36.949018015181437 ], [ 127.357894561390538, 36.94747819285805 ], [ 127.358885124559691, 36.947897279991025 ], [ 127.35918939256031, 36.948220368397109 ], [ 127.359455881376334, 36.948503340949131 ], [ 127.362046753522151, 36.949272097501208 ], [ 127.369682580081445, 36.949316193143403 ], [ 127.372522150837639, 36.949290481919967 ], [ 127.372748812684506, 36.948969218322858 ], [ 127.373107097566177, 36.948461409158107 ], [ 127.374514735527626, 36.948119332418955 ], [ 127.375495000237635, 36.948184347284332 ] ] ] ] } },
{ "type": "Feature", "properties": { "OBJECTID": 1982, "adm_nm": "충청북도 진천군 이월면", "adm_cd": "3335035", "adm_cd2": "4375035000", "sgg": "43750", "sido": "43", "sidonm": "충청북도", "sggnm": "진천군" }, "geometry": { "type": "MultiPolygon", "coordinates": [ [ [ [ 127.396598677332648, 36.963985109449155 ], [ 127.396643568966908, 36.963164311519066 ], [ 127.396592641396865, 36.958743533950027 ], [ 127.39659236519249, 36.958690274308658 ], [ 127.396593023417822, 36.958640446394909 ], [ 127.396809956274694, 36.958034467505328 ], [ 127.396858836024805, 36.95795518516659 ], [ 127.396939994108337, 36.957863457475291 ], [ 127.397133502168217, 36.957654759527031 ], [ 127.39863745868621, 36.956132883207509 ], [ 127.398961293489776, 36.955856513412897 ], [ 127.405799942834946, 36.951989987912711 ], [ 127.409032313234462, 36.952440195899477 ], [ 127.409883945893, 36.952741283124674 ], [ 127.410985842032701, 36.952792805406169 ], [ 127.411912245821782, 36.95244242923539 ], [ 127.412714816702859, 36.952115895568163 ], [ 127.412845049246783, 36.952049397501881 ], [ 127.415976303612695, 36.950077500054029 ], [ 127.417344044313793, 36.948934650938966 ], [ 127.417455873115358, 36.94876872480652 ], [ 127.417513836734727, 36.948591279387827 ], [ 127.417766397778067, 36.947201404122254 ], [ 127.417502649379358, 36.946326656157844 ], [ 127.417395021938489, 36.946046788113911 ], [ 127.417267464517991, 36.945811792926968 ], [ 127.417246610576697, 36.945714372113748 ], [ 127.417164142926595, 36.945289699647844 ], [ 127.417152995995863, 36.945077279354855 ], [ 127.417163030657591, 36.944628236599847 ], [ 127.417192063725977, 36.944455754252694 ], [ 127.417251511741611, 36.944363358180006 ], [ 127.417360423834054, 36.944222681424812 ], [ 127.417546931332211, 36.944046316822693 ], [ 127.417638548488625, 36.943963828192956 ], [ 127.417723697800483, 36.94393344340039 ], [ 127.417853240306627, 36.943932989496943 ], [ 127.420169040652851, 36.943967911574468 ], [ 127.422282972639451, 36.944060461231686 ], [ 127.422865685020156, 36.944075767344778 ], [ 127.423033848072023, 36.944054088365462 ], [ 127.423220759133514, 36.944013887431531 ], [ 127.423479505170349, 36.943907437977906 ], [ 127.42379711695736, 36.943750686898625 ], [ 127.423921396445934, 36.943671132364791 ], [ 127.424086480402167, 36.943558464634215 ], [ 127.42429740187535, 36.943412821960571 ], [ 127.424413651532205, 36.943323008680018 ], [ 127.426975713767192, 36.941126296681894 ], [ 127.429312181203642, 36.939114149784807 ], [ 127.430898175175386, 36.939315968999381 ], [ 127.431505597935072, 36.939488884006238 ], [ 127.431357394590762, 36.940153654417252 ], [ 127.431347856611339, 36.940196426402828 ], [ 127.431220593409449, 36.9405730749166 ], [ 127.430819457864786, 36.940948581477585 ], [ 127.430158172604962, 36.941272736011449 ], [ 127.429784932812666, 36.941432323497779 ], [ 127.429500182193308, 36.941583657291282 ], [ 127.429251783852891, 36.941790259324783 ], [ 127.428905672623159, 36.942107954968286 ], [ 127.428507375486731, 36.942510278003439 ], [ 127.428314960470786, 36.942729850262381 ], [ 127.42821738887065, 36.942888426958916 ], [ 127.428126863685222, 36.94314187027441 ], [ 127.427633216648715, 36.944686365083911 ], [ 127.427624086713379, 36.944820934462996 ], [ 127.427730195975087, 36.945005179974252 ], [ 127.429444550797527, 36.947493735000506 ], [ 127.429563583334144, 36.947641013468832 ], [ 127.429701292300663, 36.94761410833204 ], [ 127.437057701298627, 36.947109986205973 ], [ 127.441945990146536, 36.946782099987445 ], [ 127.445813308198723, 36.947091975789647 ], [ 127.446371722249651, 36.948349809948269 ], [ 127.448020332009833, 36.95001955442109 ], [ 127.448673077138196, 36.949216137478409 ], [ 127.448952174007275, 36.948907271148443 ], [ 127.449217048430583, 36.94870344411396 ], [ 127.449418423709659, 36.948592831006991 ], [ 127.449610515659685, 36.94848732123755 ], [ 127.450680265513441, 36.94802013551903 ], [ 127.450787255842584, 36.947999954051063 ], [ 127.450907462491941, 36.947977288143541 ], [ 127.456429500175162, 36.947285720093944 ], [ 127.459316619196287, 36.947967052063504 ], [ 127.459357730034796, 36.947988786597307 ], [ 127.459553280088087, 36.947986242755881 ], [ 127.459919420246322, 36.947975725262076 ], [ 127.460352514461974, 36.94793107213679 ], [ 127.460602288281677, 36.947873528211375 ], [ 127.461029304378229, 36.947771316568755 ], [ 127.461436773204767, 36.947631870727299 ], [ 127.462130036921081, 36.947355969485365 ], [ 127.462229732177747, 36.947299002491071 ], [ 127.46274174354005, 36.946773584948211 ], [ 127.463204190928835, 36.946280480347532 ], [ 127.463267422931565, 36.946177766947677 ], [ 127.463312314690157, 36.946060518258847 ], [ 127.464002948371544, 36.94411849782162 ], [ 127.464029212219884, 36.943935427300985 ], [ 127.46403726411188, 36.943759762989693 ], [ 127.463999808998423, 36.943598916469043 ], [ 127.463880217404181, 36.943431055125622 ], [ 127.463861400399679, 36.943336000350875 ], [ 127.463863542329705, 36.942179717101141 ], [ 127.46387208086901, 36.94208455524236 ], [ 127.463906310001292, 36.941711168101236 ], [ 127.46392380052211, 36.941586701851449 ], [ 127.463959228718736, 36.941410928599559 ], [ 127.465231669323089, 36.939696115236302 ], [ 127.465328996515964, 36.939606250882804 ], [ 127.470017554612156, 36.936456356008257 ], [ 127.470071709558809, 36.936433350172436 ], [ 127.470121894133214, 36.936412047058575 ], [ 127.470596266661957, 36.936247620588169 ], [ 127.47286126116245, 36.935815683280723 ], [ 127.473113320138154, 36.935807568035514 ], [ 127.473405156876396, 36.935843175315206 ], [ 127.473803355673169, 36.935905208933917 ], [ 127.473927294116365, 36.935934720018246 ], [ 127.47407428396744, 36.935969739375615 ], [ 127.475048718276156, 36.936208064996144 ], [ 127.475820374618095, 36.936362221552322 ], [ 127.476339373257062, 36.936427080121142 ], [ 127.476693058857677, 36.936352055440729 ], [ 127.478100497961492, 36.935928142922457 ], [ 127.478216740065747, 36.935867487516006 ], [ 127.481350867365563, 36.933675665902726 ], [ 127.481713450113389, 36.933065234799315 ], [ 127.480411576035152, 36.929308604072787 ], [ 127.48024037267848, 36.928855803441458 ], [ 127.479974216442727, 36.928606004781095 ], [ 127.47965470961563, 36.928365945611674 ], [ 127.479527125007422, 36.928270091932703 ], [ 127.479297674065052, 36.928116627417253 ], [ 127.477399873291162, 36.925650809991481 ], [ 127.482860375160826, 36.917487487053279 ], [ 127.483553474530851, 36.916492533101263 ], [ 127.484615904083469, 36.915560122171151 ], [ 127.485382880280426, 36.914994510391736 ], [ 127.486827231118909, 36.913540206187371 ], [ 127.487139053486359, 36.913004582478855 ], [ 127.487865617501427, 36.911595368984706 ], [ 127.488609317275319, 36.910129861795568 ], [ 127.488555261536391, 36.909891025573579 ], [ 127.486771230401487, 36.907465557166255 ], [ 127.48363455115728, 36.907424659534016 ], [ 127.483648596555966, 36.903973051725856 ], [ 127.481376176, 36.90226069673119 ], [ 127.480326061098069, 36.901685867023353 ], [ 127.480189030548274, 36.901625915331493 ], [ 127.478349568111582, 36.900821122460989 ], [ 127.477406039308377, 36.90050874661695 ], [ 127.477042799769137, 36.900234722065107 ], [ 127.476601981229464, 36.899796668032984 ], [ 127.475966210140527, 36.898860917594412 ], [ 127.475309278777388, 36.897387012814086 ], [ 127.475721141481415, 36.893208873621205 ], [ 127.476061980794654, 36.89170285936931 ], [ 127.476598848997966, 36.890758547753428 ], [ 127.476646751143392, 36.890013043751253 ], [ 127.47368181802598, 36.885549684930936 ], [ 127.472352819510803, 36.883238922689827 ], [ 127.472382605755485, 36.883917901670834 ], [ 127.470815424022973, 36.887360623352983 ], [ 127.470511035792029, 36.887855697671789 ], [ 127.46905273359117, 36.888170108547214 ], [ 127.468442025344174, 36.888851607568363 ], [ 127.467987916691143, 36.890005755744085 ], [ 127.46689570123371, 36.891553391444795 ], [ 127.466079942205212, 36.892215028183927 ], [ 127.463961320849819, 36.893519761650225 ], [ 127.463835180839169, 36.893454900301457 ], [ 127.463524427693031, 36.893295105518447 ], [ 127.463290187990566, 36.891938469709139 ], [ 127.462946304643964, 36.890889712331017 ], [ 127.461523333507927, 36.888569900752046 ], [ 127.459773084250855, 36.887197929189362 ], [ 127.455806808256256, 36.883632586101349 ], [ 127.454516742152549, 36.882073581941732 ], [ 127.452628328892658, 36.88329486075493 ], [ 127.450638821479231, 36.884763445211249 ], [ 127.448601251423582, 36.886787788471416 ], [ 127.446176916830439, 36.888401968243095 ], [ 127.445932814346435, 36.88838258602091 ], [ 127.444160817519062, 36.888208296845178 ], [ 127.442844458770566, 36.888043985714695 ], [ 127.44263526197264, 36.887303962988369 ], [ 127.441748296776055, 36.880063750459868 ], [ 127.441585870899331, 36.878541562501553 ], [ 127.441594965616403, 36.875660605864894 ], [ 127.441536766511447, 36.874446699369585 ], [ 127.441424250093064, 36.872943519088395 ], [ 127.441384814516894, 36.872938418103566 ], [ 127.441015657385108, 36.872905266290743 ], [ 127.436698199233675, 36.874876071434642 ], [ 127.435730711788111, 36.875908517397008 ], [ 127.435153221807354, 36.876667407477285 ], [ 127.433619392396864, 36.878509064886238 ], [ 127.431580959552917, 36.880430222403646 ], [ 127.431173184710815, 36.88080212264282 ], [ 127.430662831297823, 36.881153792367044 ], [ 127.430305466566224, 36.88138142214688 ], [ 127.430096091123943, 36.881198059226172 ], [ 127.43006800920611, 36.881173459866815 ], [ 127.42950725677025, 36.880643482425199 ], [ 127.429349449008711, 36.879903260387941 ], [ 127.428729177746646, 36.878917728231187 ], [ 127.423737365375587, 36.879491179065361 ], [ 127.423304187781682, 36.879658249335378 ], [ 127.422996229954279, 36.879802485886792 ], [ 127.419739295279413, 36.879114326258794 ], [ 127.417942352147264, 36.878400402104873 ], [ 127.417326488919471, 36.878196782308294 ], [ 127.411560794209748, 36.877764085884294 ], [ 127.410817978788927, 36.877766646238136 ], [ 127.40879934942204, 36.87869960861245 ], [ 127.407461200630479, 36.8795508334671 ], [ 127.407318822215387, 36.879671834697049 ], [ 127.406580432077902, 36.880518065466923 ], [ 127.406910993169092, 36.884900081781034 ], [ 127.407372662359904, 36.88713843413165 ], [ 127.406943914118372, 36.8886119605272 ], [ 127.406813077435061, 36.890356133362303 ], [ 127.406797055981343, 36.890637428383236 ], [ 127.407009523195967, 36.891086698231867 ], [ 127.410139781003096, 36.893705618517302 ], [ 127.411159892958736, 36.894250163565999 ], [ 127.411284986755817, 36.89505165200903 ], [ 127.4111298193572, 36.895502200454679 ], [ 127.410680540722794, 36.896614647368089 ], [ 127.409945087491508, 36.897560843435883 ], [ 127.409376335027147, 36.898292560930351 ], [ 127.409593546963563, 36.899627733461763 ], [ 127.40995016489255, 36.900835856816059 ], [ 127.409743579303139, 36.901497496222248 ], [ 127.409103727954971, 36.903004353610754 ], [ 127.40709002926063, 36.906301806452397 ], [ 127.406623168923076, 36.906660364514948 ], [ 127.406078502352742, 36.907078687119828 ], [ 127.403958980075188, 36.910278017888345 ], [ 127.402118063728125, 36.913209184504446 ], [ 127.401876720870177, 36.913941234318244 ], [ 127.401984441356149, 36.91444711378621 ], [ 127.402288991501663, 36.915753883820891 ], [ 127.402715634175365, 36.91696180009761 ], [ 127.403106968316081, 36.918113577444835 ], [ 127.403044425713162, 36.919548128890739 ], [ 127.402557505245198, 36.920210701813602 ], [ 127.40217264460928, 36.920296371663149 ], [ 127.400804907571015, 36.919977546763448 ], [ 127.399003632103941, 36.920489831153432 ], [ 127.396859743525766, 36.922493813733034 ], [ 127.396319714031918, 36.923058106553512 ], [ 127.395605892187689, 36.923890142007636 ], [ 127.393274915182914, 36.927019671830308 ], [ 127.392668220832221, 36.928259144845946 ], [ 127.392723779339221, 36.928849572194153 ], [ 127.39270130182328, 36.928868991733658 ], [ 127.392200600623113, 36.929301289166006 ], [ 127.390018062160081, 36.93067247829935 ], [ 127.389476130128742, 36.93088517973738 ], [ 127.388199158403268, 36.93122684329694 ], [ 127.385468897356816, 36.931685691319231 ], [ 127.384467578063308, 36.931112378331719 ], [ 127.383974039828942, 36.930495229501709 ], [ 127.383411350801211, 36.930061098539717 ], [ 127.381920810064585, 36.929728402547212 ], [ 127.380486884935479, 36.930211105548992 ], [ 127.37900668881332, 36.931973594382853 ], [ 127.378469021572784, 36.933058079892447 ], [ 127.378194208146027, 36.934169881586861 ], [ 127.378041754563171, 36.93522502204884 ], [ 127.378219070006352, 36.935660394469885 ], [ 127.378571429138105, 36.936067071266557 ], [ 127.378996497177909, 36.937007880039047 ], [ 127.37952827281984, 36.938271789229915 ], [ 127.379403776185256, 36.938568800325811 ], [ 127.37926854506712, 36.938891370943786 ], [ 127.378639568623228, 36.939230861162656 ], [ 127.378061054381789, 36.939148322162943 ], [ 127.377640625856017, 36.939149654818351 ], [ 127.376350555146772, 36.940433391133958 ], [ 127.376269161337419, 36.941699255071207 ], [ 127.376996050586712, 36.943454725304768 ], [ 127.377860705884999, 36.94471757412245 ], [ 127.37601880351022, 36.94781708461835 ], [ 127.375495000237635, 36.948184347284332 ], [ 127.376372361771672, 36.949464100729479 ], [ 127.376757190821976, 36.949770548416325 ], [ 127.377364881799423, 36.950254446650277 ], [ 127.378527710779011, 36.951466248384584 ], [ 127.378805808071689, 36.952393974644544 ], [ 127.379171250141894, 36.95397977320934 ], [ 127.379007236701824, 36.954207494427379 ], [ 127.378878740438452, 36.954385900894117 ], [ 127.378633310430359, 36.955804810874668 ], [ 127.379125861886166, 36.957559095817913 ], [ 127.379452718050032, 36.957907932706 ], [ 127.380056353720562, 36.958552151335645 ], [ 127.38157126417839, 36.958597968126526 ], [ 127.385381752551211, 36.959142829781158 ], [ 127.385889948196393, 36.959799600874753 ], [ 127.385673485440122, 36.960059201863842 ], [ 127.385325328583463, 36.960476747038378 ], [ 127.387460087010183, 36.963852815559477 ], [ 127.387594507621401, 36.964065377211888 ], [ 127.390157644772117, 36.964502813796145 ], [ 127.391574294814902, 36.964744558129048 ], [ 127.393550374950919, 36.964434159361936 ], [ 127.393842714646169, 36.964301798252684 ], [ 127.396598677332648, 36.963985109449155 ] ] ] ] } },
{ "type": "Feature", "properties": { "OBJECTID": 1983, "adm_nm": "충청북도 진천군 광혜원면", "adm_cd": "3335036", "adm_cd2": "4375037000", "sgg": "43750", "sido": "43", "sidonm": "충청북도", "sggnm": "진천군" }, "geometry": { "type": "MultiPolygon", "coordinates": [ [ [ [ 127.446704275435962, 37.011031564414779 ], [ 127.447862787948836, 37.010493338944251 ], [ 127.448055988334829, 37.010396709824448 ], [ 127.448451143461284, 37.010175911800573 ], [ 127.44879158360996, 37.009949851483277 ], [ 127.448920889189083, 37.009850679240927 ], [ 127.448957738785708, 37.009724443720721 ], [ 127.448675421497853, 37.008788004638639 ], [ 127.448516452113395, 37.008487079668804 ], [ 127.448296563964064, 37.007703930577598 ], [ 127.448278213176849, 37.007490189849825 ], [ 127.448564418165617, 37.005586703351163 ], [ 127.448991222066525, 37.004354283530482 ], [ 127.447459723270924, 37.000809659295165 ], [ 127.447431264759942, 37.000687216345653 ], [ 127.447448630897043, 37.00056544001805 ], [ 127.447773261615822, 36.99859591335759 ], [ 127.447803780103939, 36.99847316375358 ], [ 127.447972541555373, 36.997844127878473 ], [ 127.449981118050033, 36.994168530610345 ], [ 127.450181001287348, 36.993893135247276 ], [ 127.448958358792382, 36.992666049061114 ], [ 127.448886523300686, 36.99256787614069 ], [ 127.448779149340496, 36.992421133366683 ], [ 127.448728517891169, 36.99220742239546 ], [ 127.448120886070839, 36.988774266419611 ], [ 127.448963372296859, 36.980334135827654 ], [ 127.449494766966282, 36.976624697610099 ], [ 127.451405786458068, 36.974789527919583 ], [ 127.451589190235552, 36.975028383454536 ], [ 127.451669800794761, 36.975086020541482 ], [ 127.451838496666284, 36.975111116857285 ], [ 127.452295505979407, 36.975025703589495 ], [ 127.452376651052944, 36.974994493825925 ], [ 127.452447661648819, 36.974967179606594 ], [ 127.452911923600936, 36.974753004218087 ], [ 127.453175156222017, 36.974475221136331 ], [ 127.45328660543629, 36.974320300926045 ], [ 127.453507527604231, 36.973675755786751 ], [ 127.45423255499918, 36.971100911416166 ], [ 127.454437708755719, 36.969521688702898 ], [ 127.455323121525467, 36.968843382062516 ], [ 127.455597970583256, 36.968608086528867 ], [ 127.455879507928245, 36.968367056922794 ], [ 127.457049388476477, 36.965441841079112 ], [ 127.457202179329059, 36.964059459520186 ], [ 127.457209180535401, 36.963914272963365 ], [ 127.457200788966418, 36.963826000111297 ], [ 127.457121889922107, 36.963756917092319 ], [ 127.456937290347042, 36.963649962844777 ], [ 127.456483439522145, 36.963387035977668 ], [ 127.456223319429711, 36.963242958307845 ], [ 127.455368521140102, 36.96279821425081 ], [ 127.453743475710837, 36.962160812643837 ], [ 127.453139299905757, 36.962062167305177 ], [ 127.452205636120027, 36.961911094593312 ], [ 127.452056351273228, 36.96190217858063 ], [ 127.45186026587777, 36.961934470270279 ], [ 127.451609426032306, 36.962033271655493 ], [ 127.451390471638618, 36.962204411494959 ], [ 127.451294079778094, 36.962340432144863 ], [ 127.451197698813061, 36.962476444604711 ], [ 127.451081390950606, 36.962729300848657 ], [ 127.451016280661008, 36.963016613431954 ], [ 127.45095037053386, 36.963152568829479 ], [ 127.45088997756821, 36.963231642366082 ], [ 127.450828532255343, 36.963259490625738 ], [ 127.45077048829728, 36.963285792476647 ], [ 127.450715577932797, 36.963297239728952 ], [ 127.450662587632095, 36.963308282101849 ], [ 127.450472282748564, 36.963331079836919 ], [ 127.450227513115138, 36.963332725399312 ], [ 127.450003339819517, 36.963310974824623 ], [ 127.449735131532861, 36.96320130224948 ], [ 127.449435883019632, 36.963066835033807 ], [ 127.449151987711801, 36.962891198172699 ], [ 127.447115175513005, 36.961520208462439 ], [ 127.446613588711415, 36.961093912456249 ], [ 127.445990187630017, 36.960400970780775 ], [ 127.445731487194521, 36.960035025931894 ], [ 127.445597930285984, 36.959832696800625 ], [ 127.445307381270112, 36.958813406671247 ], [ 127.445281871208309, 36.958559215105666 ], [ 127.446833078552686, 36.951061234396704 ], [ 127.446858612328171, 36.950974728229241 ], [ 127.446932110299997, 36.95085236938008 ], [ 127.448020332009833, 36.95001955442109 ], [ 127.446371722249651, 36.948349809948269 ], [ 127.445813308198723, 36.947091975789647 ], [ 127.441945990146536, 36.946782099987445 ], [ 127.437057701298627, 36.947109986205973 ], [ 127.429701292300663, 36.94761410833204 ], [ 127.429563583334144, 36.947641013468832 ], [ 127.429444550797527, 36.947493735000506 ], [ 127.427730195975087, 36.945005179974252 ], [ 127.427624086713379, 36.944820934462996 ], [ 127.427633216648715, 36.944686365083911 ], [ 127.428126863685222, 36.94314187027441 ], [ 127.42821738887065, 36.942888426958916 ], [ 127.428314960470786, 36.942729850262381 ], [ 127.428507375486731, 36.942510278003439 ], [ 127.428905672623159, 36.942107954968286 ], [ 127.429251783852891, 36.941790259324783 ], [ 127.429500182193308, 36.941583657291282 ], [ 127.429784932812666, 36.941432323497779 ], [ 127.430158172604962, 36.941272736011449 ], [ 127.430819457864786, 36.940948581477585 ], [ 127.431220593409449, 36.9405730749166 ], [ 127.431347856611339, 36.940196426402828 ], [ 127.431357394590762, 36.940153654417252 ], [ 127.431505597935072, 36.939488884006238 ], [ 127.430898175175386, 36.939315968999381 ], [ 127.429312181203642, 36.939114149784807 ], [ 127.426975713767192, 36.941126296681894 ], [ 127.424413651532205, 36.943323008680018 ], [ 127.42429740187535, 36.943412821960571 ], [ 127.424086480402167, 36.943558464634215 ], [ 127.423921396445934, 36.943671132364791 ], [ 127.42379711695736, 36.943750686898625 ], [ 127.423479505170349, 36.943907437977906 ], [ 127.423220759133514, 36.944013887431531 ], [ 127.423033848072023, 36.944054088365462 ], [ 127.422865685020156, 36.944075767344778 ], [ 127.422282972639451, 36.944060461231686 ], [ 127.420169040652851, 36.943967911574468 ], [ 127.417853240306627, 36.943932989496943 ], [ 127.417723697800483, 36.94393344340039 ], [ 127.417638548488625, 36.943963828192956 ], [ 127.417546931332211, 36.944046316822693 ], [ 127.417360423834054, 36.944222681424812 ], [ 127.417251511741611, 36.944363358180006 ], [ 127.417192063725977, 36.944455754252694 ], [ 127.417163030657591, 36.944628236599847 ], [ 127.417152995995863, 36.945077279354855 ], [ 127.417164142926595, 36.945289699647844 ], [ 127.417246610576697, 36.945714372113748 ], [ 127.417267464517991, 36.945811792926968 ], [ 127.417395021938489, 36.946046788113911 ], [ 127.417502649379358, 36.946326656157844 ], [ 127.417766397778067, 36.947201404122254 ], [ 127.417513836734727, 36.948591279387827 ], [ 127.417455873115358, 36.94876872480652 ], [ 127.417344044313793, 36.948934650938966 ], [ 127.415976303612695, 36.950077500054029 ], [ 127.412845049246783, 36.952049397501881 ], [ 127.412714816702859, 36.952115895568163 ], [ 127.411912245821782, 36.95244242923539 ], [ 127.410985842032701, 36.952792805406169 ], [ 127.409883945893, 36.952741283124674 ], [ 127.409032313234462, 36.952440195899477 ], [ 127.405799942834946, 36.951989987912711 ], [ 127.398961293489776, 36.955856513412897 ], [ 127.39863745868621, 36.956132883207509 ], [ 127.397133502168217, 36.957654759527031 ], [ 127.396939994108337, 36.957863457475291 ], [ 127.396858836024805, 36.95795518516659 ], [ 127.396809956274694, 36.958034467505328 ], [ 127.396593023417822, 36.958640446394909 ], [ 127.39659236519249, 36.958690274308658 ], [ 127.396592641396865, 36.958743533950027 ], [ 127.396643568966908, 36.963164311519066 ], [ 127.396598677332648, 36.963985109449155 ], [ 127.396814900193377, 36.964033902718356 ], [ 127.398073135698908, 36.964317852117688 ], [ 127.401857048879933, 36.96774918631386 ], [ 127.399596658559673, 36.970035952221941 ], [ 127.39775739683158, 36.972422608624292 ], [ 127.394121356940502, 36.977296801134429 ], [ 127.393747477888979, 36.977581196948627 ], [ 127.392716985294541, 36.978365033877914 ], [ 127.389611793190724, 36.98016477306809 ], [ 127.388465111317132, 36.98056348070029 ], [ 127.387670749278954, 36.980839674735641 ], [ 127.386921181915014, 36.981100285867825 ], [ 127.386082781464438, 36.98139177710204 ], [ 127.384915694805329, 36.983657766168328 ], [ 127.384940416901188, 36.984400599658606 ], [ 127.385364568557534, 36.985057581808562 ], [ 127.386337565974728, 36.986033677688354 ], [ 127.388199092487909, 36.987868210023272 ], [ 127.390697494412649, 36.990881637713606 ], [ 127.39180430125171, 36.993309085768715 ], [ 127.391783893876536, 36.993371968995483 ], [ 127.391617874611029, 36.993883819409128 ], [ 127.392536228061303, 36.996497463305275 ], [ 127.394038048410209, 36.997944402525647 ], [ 127.394784563114229, 36.998160878301412 ], [ 127.395533974888892, 36.998378186663032 ], [ 127.396742323173243, 36.998200227321853 ], [ 127.396965780502697, 36.998170807295622 ], [ 127.397162615835853, 36.998184484306137 ], [ 127.397932434609061, 36.998303839020657 ], [ 127.39808548505215, 36.99833975600307 ], [ 127.398720751044777, 36.998537852727495 ], [ 127.401956549440399, 36.998775524264921 ], [ 127.402456821053448, 36.998659097714786 ], [ 127.406115691936236, 36.998223190478377 ], [ 127.406330296863189, 36.998211702561981 ], [ 127.407550877591575, 36.998157338821734 ], [ 127.407644769304, 36.998153436547703 ], [ 127.407810274816015, 36.998160037563629 ], [ 127.408145802023995, 36.998180393544807 ], [ 127.40829821790804, 36.998251580249139 ], [ 127.40842842536037, 36.998347962984703 ], [ 127.408484422454023, 36.998402255905553 ], [ 127.408653197753381, 36.998565907646864 ], [ 127.409559420165522, 36.999320812643688 ], [ 127.409689527498742, 36.99939925339055 ], [ 127.411970507964369, 37.000262685742371 ], [ 127.412028740446985, 37.00028042964211 ], [ 127.412176421307635, 37.000297841290887 ], [ 127.412332955983231, 37.00030087587669 ], [ 127.412601010002106, 37.00024975442026 ], [ 127.413431978659347, 37.000089103381271 ], [ 127.413539088580805, 37.000049285398816 ], [ 127.413630982103626, 36.999963616084656 ], [ 127.41371102289132, 36.999880865066679 ], [ 127.413742887503687, 36.999825215124545 ], [ 127.41376862150851, 36.999780264450699 ], [ 127.41385777249495, 36.999726171404824 ], [ 127.414067518300811, 36.999642981448368 ], [ 127.414117192322394, 36.999624783015499 ], [ 127.414205871289852, 36.999592302356575 ], [ 127.414366735680161, 36.999566629141739 ], [ 127.414514353542728, 36.999573300753198 ], [ 127.414769440675613, 36.999604680418436 ], [ 127.415087271959308, 36.999660950001669 ], [ 127.415239705158655, 36.999732121482758 ], [ 127.41623107740493, 37.000288023818712 ], [ 127.417984398245679, 37.001419694198823 ], [ 127.419018919656395, 37.002498910057184 ], [ 127.419065367722837, 37.002620505743621 ], [ 127.419084397132991, 37.002670305377045 ], [ 127.419228704554371, 37.002888520249662 ], [ 127.419451984530042, 37.003125805382837 ], [ 127.420334890982204, 37.003716655693026 ], [ 127.421806028080354, 37.004659837480865 ], [ 127.422013896700093, 37.004746674032823 ], [ 127.422202877190031, 37.004773149002631 ], [ 127.422349352900852, 37.00476296757855 ], [ 127.424770439352073, 37.003677417341969 ], [ 127.426716376797543, 37.002789065356161 ], [ 127.429734576377101, 37.001878225048486 ], [ 127.42976359678859, 37.00189216500366 ], [ 127.434463951308771, 37.005256378359356 ], [ 127.437028686934582, 37.007948730145124 ], [ 127.437054228936859, 37.007989752075517 ], [ 127.437799833296509, 37.009186978244969 ], [ 127.438380617190163, 37.009918616072149 ], [ 127.439752606353863, 37.010856261355173 ], [ 127.441111327359991, 37.011618552872612 ], [ 127.443998437668668, 37.011914772875222 ], [ 127.444674785619156, 37.011770589982603 ], [ 127.446704275435962, 37.011031564414779 ] ] ] ] } }
]
}
